{"type":"FeatureCollection","opis":"Izvedeno skriptom scripts/gup-grad/elementi-planova.py s listova planova na ISPU-u.","features":[{"type":"Feature","geometry":{"type":"MultiPoint","coordinates":[[16.501331,43.527512],[16.501395,43.527509],[16.501468,43.527507],[16.50152,43.527507],[16.501579,43.527509],[16.501633,43.527509],[16.501691,43.527511],[16.501751,43.527508],[16.501807,43.527511],[16.501866,43.527512],[16.501929,43.527514]]},"properties":{"ispu":"DPU5","odredba":"drvored"}},{"type":"Feature","geometry":{"type":"MultiPoint","coordinates":[[16.502151,43.527529],[16.502224,43.527534],[16.502279,43.527535],[16.502279,43.527579],[16.502282,43.527623],[16.502282,43.527669],[16.502285,43.527717],[16.502278,43.527759]]},"properties":{"ispu":"DPU5","odredba":"stabla-gradevina-2"}}]}