{"type": "FeatureCollection", "features": [{"type": "Feature", "geometry": {"type": "LineString", "coordinates": [[16.4987091, 43.5274987], [16.4986736, 43.5275291]]}, "properties": {"tema": "bujica", "opis": "Bujični kanal", "cad_sloj": "RUBEN-BUJICA_NOVO", "list": "2c_Kanalizacijska mreža_ID_DPU_DRACEVAC", "plan": "DPU radne zone Dračevac", "izvor": "DPU radne zone Dračevac (split.hr), vektorizirano iz PDF-a"}}, {"type": "Feature", "geometry": {"type": "LineString", "coordinates": [[16.4986746, 43.527499], [16.4987097, 43.5275276]]}, "properties": {"tema": "bujica", "opis": "Bujični kanal", "cad_sloj": "RUBEN-BUJICA_NOVO", "list": "2c_Kanalizacijska mreža_ID_DPU_DRACEVAC", "plan": "DPU radne zone Dračevac", "izvor": "DPU radne zone Dračevac (split.hr), vektorizirano iz PDF-a"}}, {"type": "Feature", "geometry": {"type": "LineString", "coordinates": [[16.4992223, 43.5276212], [16.4991862, 43.5276517]]}, "properties": {"tema": "bujica", "opis": "Bujični kanal", "cad_sloj": "RUBEN-BUJICA_NOVO", "list": "2c_Kanalizacijska mreža_ID_DPU_DRACEVAC", "plan": "DPU radne zone Dračevac", "izvor": "DPU radne zone Dračevac (split.hr), vektorizirano iz PDF-a"}}, {"type": "Feature", "geometry": {"type": "LineString", "coordinates": [[16.4991873, 43.5276216], [16.4992228, 43.5276502]]}, "properties": {"tema": "bujica", "opis": "Bujični kanal", "cad_sloj": "RUBEN-BUJICA_NOVO", "list": "2c_Kanalizacijska mreža_ID_DPU_DRACEVAC", "plan": "DPU radne zone Dračevac", "izvor": "DPU radne zone Dračevac (split.hr), vektorizirano iz PDF-a"}}, {"type": "Feature", "geometry": {"type": "LineString", "coordinates": [[16.4997423, 43.5276502], [16.4997067, 43.5276802]]}, "properties": {"tema": "bujica", "opis": "Bujični kanal", "cad_sloj": "RUBEN-BUJICA_NOVO", "list": "2c_Kanalizacijska mreža_ID_DPU_DRACEVAC", "plan": "DPU radne zone Dračevac", "izvor": "DPU radne zone Dračevac (split.hr), vektorizirano iz PDF-a"}}, {"type": "Feature", "geometry": {"type": "LineString", "coordinates": [[16.4997078, 43.5276502], [16.4997428, 43.5276791]]}, "properties": {"tema": "bujica", "opis": "Bujični kanal", "cad_sloj": "RUBEN-BUJICA_NOVO", "list": "2c_Kanalizacijska mreža_ID_DPU_DRACEVAC", "plan": "DPU radne zone Dračevac", "izvor": "DPU radne zone Dračevac (split.hr), vektorizirano iz PDF-a"}}, {"type": "Feature", "geometry": {"type": "LineString", "coordinates": [[16.4973595, 43.5274804], [16.4973234, 43.5275108]]}, "properties": {"tema": "bujica", "opis": "Bujični kanal", "cad_sloj": "RUBEN-BUJICA_NOVO", "list": "2c_Kanalizacijska mreža_ID_DPU_DRACEVAC", "plan": "DPU radne zone Dračevac", "izvor": "DPU radne zone Dračevac (split.hr), vektorizirano iz PDF-a"}}, {"type": "Feature", "geometry": {"type": "LineString", "coordinates": [[16.4973245, 43.5274808], [16.49736, 43.5275093]]}, "properties": {"tema": "bujica", "opis": "Bujični kanal", "cad_sloj": "RUBEN-BUJICA_NOVO", "list": "2c_Kanalizacijska mreža_ID_DPU_DRACEVAC", "plan": "DPU radne zone Dračevac", "izvor": "DPU radne zone Dračevac (split.hr), vektorizirano iz PDF-a"}}, {"type": "Feature", "geometry": {"type": "LineString", "coordinates": [[16.4969818, 43.5275599], [16.4969787, 43.5275508]]}, "properties": {"tema": "bujica", "opis": "Bujični kanal", "cad_sloj": "RUBEN-BUJICA_NOVO", "list": "2c_Kanalizacijska mreža_ID_DPU_DRACEVAC", "plan": "DPU radne zone Dračevac", "izvor": "DPU radne zone Dračevac (split.hr), vektorizirano iz PDF-a"}}, {"type": "Feature", "geometry": {"type": "Polygon", "coordinates": [[[16.4969808, 43.5275679], [16.496986, 43.5275645], [16.4970184, 43.5275679], [16.4969808, 43.5275679]]]}, "properties": {"tema": "bujica", "opis": "Bujični kanal", "cad_sloj": "RUBEN-BUJICA_NOVO", "list": "2c_Kanalizacijska mreža_ID_DPU_DRACEVAC", "plan": "DPU radne zone Dračevac", "izvor": "DPU radne zone Dračevac (split.hr), vektorizirano iz PDF-a"}}, {"type": "Feature", "geometry": {"type": "Polygon", "coordinates": [[[16.496986, 43.5275645], [16.4970184, 43.5275679], [16.4970137, 43.5275645], [16.496986, 43.5275645]]]}, "properties": {"tema": "bujica", "opis": "Bujični kanal", "cad_sloj": "RUBEN-BUJICA_NOVO", "list": "2c_Kanalizacijska mreža_ID_DPU_DRACEVAC", "plan": "DPU radne zone Dračevac", "izvor": "DPU radne zone Dračevac (split.hr), vektorizirano iz PDF-a"}}, {"type": "Feature", "geometry": {"type": "Polygon", "coordinates": [[[16.4970184, 43.5275679], [16.4970137, 43.5275645], [16.4970184, 43.5275462], [16.4970184, 43.5275679]]]}, "properties": {"tema": "bujica", "opis": "Bujični kanal", "cad_sloj": "RUBEN-BUJICA_NOVO", "list": "2c_Kanalizacijska mreža_ID_DPU_DRACEVAC", "plan": "DPU radne zone Dračevac", "izvor": "DPU radne zone Dračevac (split.hr), vektorizirano iz PDF-a"}}, {"type": "Feature", "geometry": {"type": "Polygon", "coordinates": [[[16.4970137, 43.5275645], [16.4970184, 43.5275462], [16.4970137, 43.52755], [16.4970137, 43.5275645]]]}, "properties": {"tema": "bujica", "opis": "Bujični kanal", "cad_sloj": "RUBEN-BUJICA_NOVO", "list": "2c_Kanalizacijska mreža_ID_DPU_DRACEVAC", "plan": "DPU radne zone Dračevac", "izvor": "DPU radne zone Dračevac (split.hr), vektorizirano iz PDF-a"}}, {"type": "Feature", "geometry": {"type": "Polygon", "coordinates": [[[16.4970184, 43.5275462], [16.4970137, 43.52755], [16.4969808, 43.5275462], [16.4970184, 43.5275462]]]}, "properties": {"tema": "bujica", "opis": "Bujični kanal", "cad_sloj": "RUBEN-BUJICA_NOVO", "list": "2c_Kanalizacijska mreža_ID_DPU_DRACEVAC", "plan": "DPU radne zone Dračevac", "izvor": "DPU radne zone Dračevac (split.hr), vektorizirano iz PDF-a"}}, {"type": "Feature", "geometry": {"type": "Polygon", "coordinates": [[[16.4970137, 43.52755], [16.4969808, 43.5275462], [16.496986, 43.52755], [16.4970137, 43.52755]]]}, "properties": {"tema": "bujica", "opis": "Bujični kanal", "cad_sloj": "RUBEN-BUJICA_NOVO", "list": "2c_Kanalizacijska mreža_ID_DPU_DRACEVAC", "plan": "DPU radne zone Dračevac", "izvor": "DPU radne zone Dračevac (split.hr), vektorizirano iz PDF-a"}}, {"type": "Feature", "geometry": {"type": "Polygon", "coordinates": [[[16.4969808, 43.5275462], [16.496986, 43.52755], [16.4969808, 43.5275679], [16.4969808, 43.5275462]]]}, "properties": {"tema": "bujica", "opis": "Bujični kanal", "cad_sloj": "RUBEN-BUJICA_NOVO", "list": "2c_Kanalizacijska mreža_ID_DPU_DRACEVAC", "plan": "DPU radne zone Dračevac", "izvor": "DPU radne zone Dračevac (split.hr), vektorizirano iz PDF-a"}}, {"type": "Feature", "geometry": {"type": "Polygon", "coordinates": [[[16.496986, 43.52755], [16.4969808, 43.5275679], [16.496986, 43.5275645], [16.496986, 43.52755]]]}, "properties": {"tema": "bujica", "opis": "Bujični kanal", "cad_sloj": "RUBEN-BUJICA_NOVO", "list": "2c_Kanalizacijska mreža_ID_DPU_DRACEVAC", "plan": "DPU radne zone Dračevac", "izvor": "DPU radne zone Dračevac (split.hr), vektorizirano iz PDF-a"}}, {"type": "Feature", "geometry": {"type": "Polygon", "coordinates": [[[16.5007655, 43.5275082], [16.5007681, 43.5275112], [16.5003423, 43.5276806], [16.5007655, 43.5275082]]]}, "properties": {"tema": "bujica", "opis": "Bujični kanal", "cad_sloj": "RUBEN-BUJICA_NOVO", "list": "2c_Kanalizacijska mreža_ID_DPU_DRACEVAC", "plan": "DPU radne zone Dračevac", "izvor": "DPU radne zone Dračevac (split.hr), vektorizirano iz PDF-a"}}, {"type": "Feature", "geometry": {"type": "Polygon", "coordinates": [[[16.5007681, 43.5275112], [16.5003423, 43.5276806], [16.5003444, 43.527684], [16.5007681, 43.5275112]]]}, "properties": {"tema": "bujica", "opis": "Bujični kanal", "cad_sloj": "RUBEN-BUJICA_NOVO", "list": "2c_Kanalizacijska mreža_ID_DPU_DRACEVAC", "plan": "DPU radne zone Dračevac", "izvor": "DPU radne zone Dračevac (split.hr), vektorizirano iz PDF-a"}}, {"type": "Feature", "geometry": {"type": "Polygon", "coordinates": [[[16.5003423, 43.5276806], [16.5003444, 43.527684], [16.500314, 43.5276886], [16.5003423, 43.5276806]]]}, "properties": {"tema": "bujica", "opis": "Bujični kanal", "cad_sloj": "RUBEN-BUJICA_NOVO", "list": "2c_Kanalizacijska mreža_ID_DPU_DRACEVAC", "plan": "DPU radne zone Dračevac", "izvor": "DPU radne zone Dračevac (split.hr), vektorizirano iz PDF-a"}}, {"type": "Feature", "geometry": {"type": "Polygon", "coordinates": [[[16.5003444, 43.527684], [16.500314, 43.5276886], [16.5003151, 43.5276924], [16.5003444, 43.527684]]]}, "properties": {"tema": "bujica", "opis": "Bujični kanal", "cad_sloj": "RUBEN-BUJICA_NOVO", "list": "2c_Kanalizacijska mreža_ID_DPU_DRACEVAC", "plan": "DPU radne zone Dračevac", "izvor": "DPU radne zone Dračevac (split.hr), vektorizirano iz PDF-a"}}, {"type": "Feature", "geometry": {"type": "Polygon", "coordinates": [[[16.500314, 43.5276886], [16.5003151, 43.5276924], [16.5002617, 43.5276928], [16.500314, 43.5276886]]]}, "properties": {"tema": "bujica", "opis": "Bujični kanal", "cad_sloj": "RUBEN-BUJICA_NOVO", "list": "2c_Kanalizacijska mreža_ID_DPU_DRACEVAC", "plan": "DPU radne zone Dračevac", "izvor": "DPU radne zone Dračevac (split.hr), vektorizirano iz PDF-a"}}, {"type": "Feature", "geometry": {"type": "Polygon", "coordinates": [[[16.5003151, 43.5276924], [16.5002617, 43.5276928], [16.5002617, 43.5276962], [16.5003151, 43.5276924]]]}, "properties": {"tema": "bujica", "opis": "Bujični kanal", "cad_sloj": "RUBEN-BUJICA_NOVO", "list": "2c_Kanalizacijska mreža_ID_DPU_DRACEVAC", "plan": "DPU radne zone Dračevac", "izvor": "DPU radne zone Dračevac (split.hr), vektorizirano iz PDF-a"}}, {"type": "Feature", "geometry": {"type": "Polygon", "coordinates": [[[16.5002617, 43.5276928], [16.5002617, 43.5276962], [16.4999578, 43.5276772], [16.5002617, 43.5276928]]]}, "properties": {"tema": "bujica", "opis": "Bujični kanal", "cad_sloj": "RUBEN-BUJICA_NOVO", "list": "2c_Kanalizacijska mreža_ID_DPU_DRACEVAC", "plan": "DPU radne zone Dračevac", "izvor": "DPU radne zone Dračevac (split.hr), vektorizirano iz PDF-a"}}, {"type": "Feature", "geometry": {"type": "Polygon", "coordinates": [[[16.5002617, 43.5276962], [16.4999578, 43.5276772], [16.4999573, 43.527681], [16.5002617, 43.5276962]]]}, "properties": {"tema": "bujica", "opis": "Bujični kanal", "cad_sloj": "RUBEN-BUJICA_NOVO", "list": "2c_Kanalizacijska mreža_ID_DPU_DRACEVAC", "plan": "DPU radne zone Dračevac", "izvor": "DPU radne zone Dračevac (split.hr), vektorizirano iz PDF-a"}}, {"type": "Feature", "geometry": {"type": "Polygon", "coordinates": [[[16.4999578, 43.5276772], [16.4999573, 43.527681], [16.4998145, 43.5276749], [16.4999578, 43.5276772]]]}, "properties": {"tema": "bujica", "opis": "Bujični kanal", "cad_sloj": "RUBEN-BUJICA_NOVO", "list": "2c_Kanalizacijska mreža_ID_DPU_DRACEVAC", "plan": "DPU radne zone Dračevac", "izvor": "DPU radne zone Dračevac (split.hr), vektorizirano iz PDF-a"}}, {"type": "Feature", "geometry": {"type": "Polygon", "coordinates": [[[16.4999573, 43.527681], [16.4998145, 43.5276749], [16.4998145, 43.5276787], [16.4999573, 43.527681]]]}, "properties": {"tema": "bujica", "opis": "Bujični kanal", "cad_sloj": "RUBEN-BUJICA_NOVO", "list": "2c_Kanalizacijska mreža_ID_DPU_DRACEVAC", "plan": "DPU radne zone Dračevac", "izvor": "DPU radne zone Dračevac (split.hr), vektorizirano iz PDF-a"}}, {"type": "Feature", "geometry": {"type": "Polygon", "coordinates": [[[16.4998145, 43.5276749], [16.4998145, 43.5276787], [16.4992919, 43.5276612], [16.4998145, 43.5276749]]]}, "properties": {"tema": "bujica", "opis": "Bujični kanal", "cad_sloj": "RUBEN-BUJICA_NOVO", "list": "2c_Kanalizacijska mreža_ID_DPU_DRACEVAC", "plan": "DPU radne zone Dračevac", "izvor": "DPU radne zone Dračevac (split.hr), vektorizirano iz PDF-a"}}, {"type": "Feature", "geometry": {"type": "Polygon", "coordinates": [[[16.4998145, 43.5276787], [16.4992919, 43.5276612], [16.4992914, 43.527665], [16.4998145, 43.5276787]]]}, "properties": {"tema": "bujica", "opis": "Bujični kanal", "cad_sloj": "RUBEN-BUJICA_NOVO", "list": "2c_Kanalizacijska mreža_ID_DPU_DRACEVAC", "plan": "DPU radne zone Dračevac", "izvor": "DPU radne zone Dračevac (split.hr), vektorizirano iz PDF-a"}}, {"type": "Feature", "geometry": {"type": "Polygon", "coordinates": [[[16.4992919, 43.5276612], [16.4992914, 43.527665], [16.4992652, 43.5276589], [16.4992919, 43.5276612]]]}, "properties": {"tema": "bujica", "opis": "Bujični kanal", "cad_sloj": "RUBEN-BUJICA_NOVO", "list": "2c_Kanalizacijska mreža_ID_DPU_DRACEVAC", "plan": "DPU radne zone Dračevac", "izvor": "DPU radne zone Dračevac (split.hr), vektorizirano iz PDF-a"}}, {"type": "Feature", "geometry": {"type": "Polygon", "coordinates": [[[16.4992914, 43.527665], [16.4992652, 43.5276589], [16.4992647, 43.5276623], [16.4992914, 43.527665]]]}, "properties": {"tema": "bujica", "opis": "Bujični kanal", "cad_sloj": "RUBEN-BUJICA_NOVO", "list": "2c_Kanalizacijska mreža_ID_DPU_DRACEVAC", "plan": "DPU radne zone Dračevac", "izvor": "DPU radne zone Dračevac (split.hr), vektorizirano iz PDF-a"}}, {"type": "Feature", "geometry": {"type": "Polygon", "coordinates": [[[16.4992652, 43.5276589], [16.4992647, 43.5276623], [16.4992432, 43.5276543], [16.4992652, 43.5276589]]]}, "properties": {"tema": "bujica", "opis": "Bujični kanal", "cad_sloj": "RUBEN-BUJICA_NOVO", "list": "2c_Kanalizacijska mreža_ID_DPU_DRACEVAC", "plan": "DPU radne zone Dračevac", "izvor": "DPU radne zone Dračevac (split.hr), vektorizirano iz PDF-a"}}, {"type": "Feature", "geometry": {"type": "Polygon", "coordinates": [[[16.4992647, 43.5276623], [16.4992432, 43.5276543], [16.4992422, 43.5276578], [16.4992647, 43.5276623]]]}, "properties": {"tema": "bujica", "opis": "Bujični kanal", "cad_sloj": "RUBEN-BUJICA_NOVO", "list": "2c_Kanalizacijska mreža_ID_DPU_DRACEVAC", "plan": "DPU radne zone Dračevac", "izvor": "DPU radne zone Dračevac (split.hr), vektorizirano iz PDF-a"}}, {"type": "Feature", "geometry": {"type": "Polygon", "coordinates": [[[16.4992432, 43.5276543], [16.4992422, 43.5276578], [16.4992228, 43.5276486], [16.4992432, 43.5276543]]]}, "properties": {"tema": "bujica", "opis": "Bujični kanal", "cad_sloj": "RUBEN-BUJICA_NOVO", "list": "2c_Kanalizacijska mreža_ID_DPU_DRACEVAC", "plan": "DPU radne zone Dračevac", "izvor": "DPU radne zone Dračevac (split.hr), vektorizirano iz PDF-a"}}, {"type": "Feature", "geometry": {"type": "Polygon", "coordinates": [[[16.4992422, 43.5276578], [16.4992228, 43.5276486], [16.4992213, 43.5276517], [16.4992422, 43.5276578]]]}, "properties": {"tema": "bujica", "opis": "Bujični kanal", "cad_sloj": "RUBEN-BUJICA_NOVO", "list": "2c_Kanalizacijska mreža_ID_DPU_DRACEVAC", "plan": "DPU radne zone Dračevac", "izvor": "DPU radne zone Dračevac (split.hr), vektorizirano iz PDF-a"}}, {"type": "Feature", "geometry": {"type": "Polygon", "coordinates": [[[16.4992228, 43.5276486], [16.4992213, 43.5276517], [16.4988111, 43.5275325], [16.4992228, 43.5276486]]]}, "properties": {"tema": "bujica", "opis": "Bujični kanal", "cad_sloj": "RUBEN-BUJICA_NOVO", "list": "2c_Kanalizacijska mreža_ID_DPU_DRACEVAC", "plan": "DPU radne zone Dračevac", "izvor": "DPU radne zone Dračevac (split.hr), vektorizirano iz PDF-a"}}, {"type": "Feature", "geometry": {"type": "Polygon", "coordinates": [[[16.4992213, 43.5276517], [16.4988111, 43.5275325], [16.4988096, 43.527536], [16.4992213, 43.5276517]]]}, "properties": {"tema": "bujica", "opis": "Bujični kanal", "cad_sloj": "RUBEN-BUJICA_NOVO", "list": "2c_Kanalizacijska mreža_ID_DPU_DRACEVAC", "plan": "DPU radne zone Dračevac", "izvor": "DPU radne zone Dračevac (split.hr), vektorizirano iz PDF-a"}}, {"type": "Feature", "geometry": {"type": "Polygon", "coordinates": [[[16.4988111, 43.5275325], [16.4988096, 43.527536], [16.4987677, 43.5275238], [16.4988111, 43.5275325]]]}, "properties": {"tema": "bujica", "opis": "Bujični kanal", "cad_sloj": "RUBEN-BUJICA_NOVO", "list": "2c_Kanalizacijska mreža_ID_DPU_DRACEVAC", "plan": "DPU radne zone Dračevac", "izvor": "DPU radne zone Dračevac (split.hr), vektorizirano iz PDF-a"}}, {"type": "Feature", "geometry": {"type": "Polygon", "coordinates": [[[16.4988096, 43.527536], [16.4987677, 43.5275238], [16.4987667, 43.5275272], [16.4988096, 43.527536]]]}, "properties": {"tema": "bujica", "opis": "Bujični kanal", "cad_sloj": "RUBEN-BUJICA_NOVO", "list": "2c_Kanalizacijska mreža_ID_DPU_DRACEVAC", "plan": "DPU radne zone Dračevac", "izvor": "DPU radne zone Dračevac (split.hr), vektorizirano iz PDF-a"}}, {"type": "Feature", "geometry": {"type": "Polygon", "coordinates": [[[16.4987677, 43.5275238], [16.4987667, 43.5275272], [16.4984021, 43.5274838], [16.4987677, 43.5275238]]]}, "properties": {"tema": "bujica", "opis": "Bujični kanal", "cad_sloj": "RUBEN-BUJICA_NOVO", "list": "2c_Kanalizacijska mreža_ID_DPU_DRACEVAC", "plan": "DPU radne zone Dračevac", "izvor": "DPU radne zone Dračevac (split.hr), vektorizirano iz PDF-a"}}, {"type": "Feature", "geometry": {"type": "Polygon", "coordinates": [[[16.4987667, 43.5275272], [16.4984021, 43.5274838], [16.4984015, 43.5274872], [16.4987667, 43.5275272]]]}, "properties": {"tema": "bujica", "opis": "Bujični kanal", "cad_sloj": "RUBEN-BUJICA_NOVO", "list": "2c_Kanalizacijska mreža_ID_DPU_DRACEVAC", "plan": "DPU radne zone Dračevac", "izvor": "DPU radne zone Dračevac (split.hr), vektorizirano iz PDF-a"}}, {"type": "Feature", "geometry": {"type": "Polygon", "coordinates": [[[16.4984021, 43.5274838], [16.4984015, 43.5274872], [16.4975096, 43.5274823], [16.4984021, 43.5274838]]]}, "properties": {"tema": "bujica", "opis": "Bujični kanal", "cad_sloj": "RUBEN-BUJICA_NOVO", "list": "2c_Kanalizacijska mreža_ID_DPU_DRACEVAC", "plan": "DPU radne zone Dračevac", "izvor": "DPU radne zone Dračevac (split.hr), vektorizirano iz PDF-a"}}, {"type": "Feature", "geometry": {"type": "Polygon", "coordinates": [[[16.4984015, 43.5274872], [16.4975096, 43.5274823], [16.4975096, 43.5274861], [16.4984015, 43.5274872]]]}, "properties": {"tema": "bujica", "opis": "Bujični kanal", "cad_sloj": "RUBEN-BUJICA_NOVO", "list": "2c_Kanalizacijska mreža_ID_DPU_DRACEVAC", "plan": "DPU radne zone Dračevac", "izvor": "DPU radne zone Dračevac (split.hr), vektorizirano iz PDF-a"}}, {"type": "Feature", "geometry": {"type": "Polygon", "coordinates": [[[16.4975096, 43.5274823], [16.4975096, 43.5274861], [16.4974772, 43.5274834], [16.4975096, 43.5274823]]]}, "properties": {"tema": "bujica", "opis": "Bujični kanal", "cad_sloj": "RUBEN-BUJICA_NOVO", "list": "2c_Kanalizacijska mreža_ID_DPU_DRACEVAC", "plan": "DPU radne zone Dračevac", "izvor": "DPU radne zone Dračevac (split.hr), vektorizirano iz PDF-a"}}, {"type": "Feature", "geometry": {"type": "Polygon", "coordinates": [[[16.4975096, 43.5274861], [16.4974772, 43.5274834], [16.4974772, 43.5274872], [16.4975096, 43.5274861]]]}, "properties": {"tema": "bujica", "opis": "Bujični kanal", "cad_sloj": "RUBEN-BUJICA_NOVO", "list": "2c_Kanalizacijska mreža_ID_DPU_DRACEVAC", "plan": "DPU radne zone Dračevac", "izvor": "DPU radne zone Dračevac (split.hr), vektorizirano iz PDF-a"}}, {"type": "Feature", "geometry": {"type": "Polygon", "coordinates": [[[16.4974772, 43.5274834], [16.4974772, 43.5274872], [16.497449, 43.5274857], [16.4974772, 43.5274834]]]}, "properties": {"tema": "bujica", "opis": "Bujični kanal", "cad_sloj": "RUBEN-BUJICA_NOVO", "list": "2c_Kanalizacijska mreža_ID_DPU_DRACEVAC", "plan": "DPU radne zone Dračevac", "izvor": "DPU radne zone Dračevac (split.hr), vektorizirano iz PDF-a"}}, {"type": "Feature", "geometry": {"type": "Polygon", "coordinates": [[[16.4974772, 43.5274872], [16.497449, 43.5274857], [16.4974495, 43.5274895], [16.4974772, 43.5274872]]]}, "properties": {"tema": "bujica", "opis": "Bujični kanal", "cad_sloj": "RUBEN-BUJICA_NOVO", "list": "2c_Kanalizacijska mreža_ID_DPU_DRACEVAC", "plan": "DPU radne zone Dračevac", "izvor": "DPU radne zone Dračevac (split.hr), vektorizirano iz PDF-a"}}, {"type": "Feature", "geometry": {"type": "Polygon", "coordinates": [[[16.497449, 43.5274857], [16.4974495, 43.5274895], [16.4970153, 43.5275519], [16.497449, 43.5274857]]]}, "properties": {"tema": "bujica", "opis": "Bujični kanal", "cad_sloj": "RUBEN-BUJICA_NOVO", "list": "2c_Kanalizacijska mreža_ID_DPU_DRACEVAC", "plan": "DPU radne zone Dračevac", "izvor": "DPU radne zone Dračevac (split.hr), vektorizirano iz PDF-a"}}, {"type": "Feature", "geometry": {"type": "Polygon", "coordinates": [[[16.4974495, 43.5274895], [16.4970153, 43.5275519], [16.4970163, 43.5275557], [16.4974495, 43.5274895]]]}, "properties": {"tema": "bujica", "opis": "Bujični kanal", "cad_sloj": "RUBEN-BUJICA_NOVO", "list": "2c_Kanalizacijska mreža_ID_DPU_DRACEVAC", "plan": "DPU radne zone Dračevac", "izvor": "DPU radne zone Dračevac (split.hr), vektorizirano iz PDF-a"}}, {"type": "Feature", "geometry": {"type": "Polygon", "coordinates": [[[16.5007592, 43.5275006], [16.5007618, 43.5275036], [16.5003371, 43.5276726], [16.5007592, 43.5275006]]]}, "properties": {"tema": "bujica", "opis": "Bujični kanal", "cad_sloj": "RUBEN-BUJICA_NOVO", "list": "2c_Kanalizacijska mreža_ID_DPU_DRACEVAC", "plan": "DPU radne zone Dračevac", "izvor": "DPU radne zone Dračevac (split.hr), vektorizirano iz PDF-a"}}, {"type": "Feature", "geometry": {"type": "Polygon", "coordinates": [[[16.5007618, 43.5275036], [16.5003371, 43.5276726], [16.5003392, 43.5276757], [16.5007618, 43.5275036]]]}, "properties": {"tema": "bujica", "opis": "Bujični kanal", "cad_sloj": "RUBEN-BUJICA_NOVO", "list": "2c_Kanalizacijska mreža_ID_DPU_DRACEVAC", "plan": "DPU radne zone Dračevac", "izvor": "DPU radne zone Dračevac (split.hr), vektorizirano iz PDF-a"}}, {"type": "Feature", "geometry": {"type": "Polygon", "coordinates": [[[16.5003371, 43.5276726], [16.5003392, 43.5276757], [16.5003109, 43.5276798], [16.5003371, 43.5276726]]]}, "properties": {"tema": "bujica", "opis": "Bujični kanal", "cad_sloj": "RUBEN-BUJICA_NOVO", "list": "2c_Kanalizacijska mreža_ID_DPU_DRACEVAC", "plan": "DPU radne zone Dračevac", "izvor": "DPU radne zone Dračevac (split.hr), vektorizirano iz PDF-a"}}, {"type": "Feature", "geometry": {"type": "Polygon", "coordinates": [[[16.5003392, 43.5276757], [16.5003109, 43.5276798], [16.500312, 43.5276833], [16.5003392, 43.5276757]]]}, "properties": {"tema": "bujica", "opis": "Bujični kanal", "cad_sloj": "RUBEN-BUJICA_NOVO", "list": "2c_Kanalizacijska mreža_ID_DPU_DRACEVAC", "plan": "DPU radne zone Dračevac", "izvor": "DPU radne zone Dračevac (split.hr), vektorizirano iz PDF-a"}}, {"type": "Feature", "geometry": {"type": "Polygon", "coordinates": [[[16.5003109, 43.5276798], [16.500312, 43.5276833], [16.5002617, 43.5276837], [16.5003109, 43.5276798]]]}, "properties": {"tema": "bujica", "opis": "Bujični kanal", "cad_sloj": "RUBEN-BUJICA_NOVO", "list": "2c_Kanalizacijska mreža_ID_DPU_DRACEVAC", "plan": "DPU radne zone Dračevac", "izvor": "DPU radne zone Dračevac (split.hr), vektorizirano iz PDF-a"}}, {"type": "Feature", "geometry": {"type": "Polygon", "coordinates": [[[16.500312, 43.5276833], [16.5002617, 43.5276837], [16.5002617, 43.5276871], [16.500312, 43.5276833]]]}, "properties": {"tema": "bujica", "opis": "Bujični kanal", "cad_sloj": "RUBEN-BUJICA_NOVO", "list": "2c_Kanalizacijska mreža_ID_DPU_DRACEVAC", "plan": "DPU radne zone Dračevac", "izvor": "DPU radne zone Dračevac (split.hr), vektorizirano iz PDF-a"}}, {"type": "Feature", "geometry": {"type": "Polygon", "coordinates": [[[16.5002617, 43.5276837], [16.5002617, 43.5276871], [16.4999583, 43.5276684], [16.5002617, 43.5276837]]]}, "properties": {"tema": "bujica", "opis": "Bujični kanal", "cad_sloj": "RUBEN-BUJICA_NOVO", "list": "2c_Kanalizacijska mreža_ID_DPU_DRACEVAC", "plan": "DPU radne zone Dračevac", "izvor": "DPU radne zone Dračevac (split.hr), vektorizirano iz PDF-a"}}, {"type": "Feature", "geometry": {"type": "Polygon", "coordinates": [[[16.5002617, 43.5276871], [16.4999583, 43.5276684], [16.4999578, 43.5276719], [16.5002617, 43.5276871]]]}, "properties": {"tema": "bujica", "opis": "Bujični kanal", "cad_sloj": "RUBEN-BUJICA_NOVO", "list": "2c_Kanalizacijska mreža_ID_DPU_DRACEVAC", "plan": "DPU radne zone Dračevac", "izvor": "DPU radne zone Dračevac (split.hr), vektorizirano iz PDF-a"}}, {"type": "Feature", "geometry": {"type": "Polygon", "coordinates": [[[16.4999583, 43.5276684], [16.4999578, 43.5276719], [16.499815, 43.5276661], [16.4999583, 43.5276684]]]}, "properties": {"tema": "bujica", "opis": "Bujični kanal", "cad_sloj": "RUBEN-BUJICA_NOVO", "list": "2c_Kanalizacijska mreža_ID_DPU_DRACEVAC", "plan": "DPU radne zone Dračevac", "izvor": "DPU radne zone Dračevac (split.hr), vektorizirano iz PDF-a"}}, {"type": "Feature", "geometry": {"type": "Polygon", "coordinates": [[[16.4999578, 43.5276719], [16.499815, 43.5276661], [16.499815, 43.5276696], [16.4999578, 43.5276719]]]}, "properties": {"tema": "bujica", "opis": "Bujični kanal", "cad_sloj": "RUBEN-BUJICA_NOVO", "list": "2c_Kanalizacijska mreža_ID_DPU_DRACEVAC", "plan": "DPU radne zone Dračevac", "izvor": "DPU radne zone Dračevac (split.hr), vektorizirano iz PDF-a"}}, {"type": "Feature", "geometry": {"type": "Polygon", "coordinates": [[[16.499815, 43.5276661], [16.499815, 43.5276696], [16.4992929, 43.5276524], [16.499815, 43.5276661]]]}, "properties": {"tema": "bujica", "opis": "Bujični kanal", "cad_sloj": "RUBEN-BUJICA_NOVO", "list": "2c_Kanalizacijska mreža_ID_DPU_DRACEVAC", "plan": "DPU radne zone Dračevac", "izvor": "DPU radne zone Dračevac (split.hr), vektorizirano iz PDF-a"}}, {"type": "Feature", "geometry": {"type": "Polygon", "coordinates": [[[16.499815, 43.5276696], [16.4992929, 43.5276524], [16.4992924, 43.5276559], [16.499815, 43.5276696]]]}, "properties": {"tema": "bujica", "opis": "Bujični kanal", "cad_sloj": "RUBEN-BUJICA_NOVO", "list": "2c_Kanalizacijska mreža_ID_DPU_DRACEVAC", "plan": "DPU radne zone Dračevac", "izvor": "DPU radne zone Dračevac (split.hr), vektorizirano iz PDF-a"}}, {"type": "Feature", "geometry": {"type": "Polygon", "coordinates": [[[16.4992929, 43.5276524], [16.4992924, 43.5276559], [16.4992678, 43.5276498], [16.4992929, 43.5276524]]]}, "properties": {"tema": "bujica", "opis": "Bujični kanal", "cad_sloj": "RUBEN-BUJICA_NOVO", "list": "2c_Kanalizacijska mreža_ID_DPU_DRACEVAC", "plan": "DPU radne zone Dračevac", "izvor": "DPU radne zone Dračevac (split.hr), vektorizirano iz PDF-a"}}, {"type": "Feature", "geometry": {"type": "Polygon", "coordinates": [[[16.4992924, 43.5276559], [16.4992678, 43.5276498], [16.4992668, 43.5276536], [16.4992924, 43.5276559]]]}, "properties": {"tema": "bujica", "opis": "Bujični kanal", "cad_sloj": "RUBEN-BUJICA_NOVO", "list": "2c_Kanalizacijska mreža_ID_DPU_DRACEVAC", "plan": "DPU radne zone Dračevac", "izvor": "DPU radne zone Dračevac (split.hr), vektorizirano iz PDF-a"}}, {"type": "Feature", "geometry": {"type": "Polygon", "coordinates": [[[16.4992678, 43.5276498], [16.4992668, 43.5276536], [16.4992474, 43.527646], [16.4992678, 43.5276498]]]}, "properties": {"tema": "bujica", "opis": "Bujični kanal", "cad_sloj": "RUBEN-BUJICA_NOVO", "list": "2c_Kanalizacijska mreža_ID_DPU_DRACEVAC", "plan": "DPU radne zone Dračevac", "izvor": "DPU radne zone Dračevac (split.hr), vektorizirano iz PDF-a"}}, {"type": "Feature", "geometry": {"type": "Polygon", "coordinates": [[[16.4992668, 43.5276536], [16.4992474, 43.527646], [16.4992458, 43.5276494], [16.4992668, 43.5276536]]]}, "properties": {"tema": "bujica", "opis": "Bujični kanal", "cad_sloj": "RUBEN-BUJICA_NOVO", "list": "2c_Kanalizacijska mreža_ID_DPU_DRACEVAC", "plan": "DPU radne zone Dračevac", "izvor": "DPU radne zone Dračevac (split.hr), vektorizirano iz PDF-a"}}, {"type": "Feature", "geometry": {"type": "Polygon", "coordinates": [[[16.4992474, 43.527646], [16.4992458, 43.5276494], [16.4992275, 43.5276403], [16.4992474, 43.527646]]]}, "properties": {"tema": "bujica", "opis": "Bujični kanal", "cad_sloj": "RUBEN-BUJICA_NOVO", "list": "2c_Kanalizacijska mreža_ID_DPU_DRACEVAC", "plan": "DPU radne zone Dračevac", "izvor": "DPU radne zone Dračevac (split.hr), vektorizirano iz PDF-a"}}, {"type": "Feature", "geometry": {"type": "Polygon", "coordinates": [[[16.4992458, 43.5276494], [16.4992275, 43.5276403], [16.4992254, 43.5276433], [16.4992458, 43.5276494]]]}, "properties": {"tema": "bujica", "opis": "Bujični kanal", "cad_sloj": "RUBEN-BUJICA_NOVO", "list": "2c_Kanalizacijska mreža_ID_DPU_DRACEVAC", "plan": "DPU radne zone Dračevac", "izvor": "DPU radne zone Dračevac (split.hr), vektorizirano iz PDF-a"}}, {"type": "Feature", "geometry": {"type": "Polygon", "coordinates": [[[16.4992275, 43.5276403], [16.4992254, 43.5276433], [16.4988148, 43.5275242], [16.4992275, 43.5276403]]]}, "properties": {"tema": "bujica", "opis": "Bujični kanal", "cad_sloj": "RUBEN-BUJICA_NOVO", "list": "2c_Kanalizacijska mreža_ID_DPU_DRACEVAC", "plan": "DPU radne zone Dračevac", "izvor": "DPU radne zone Dračevac (split.hr), vektorizirano iz PDF-a"}}, {"type": "Feature", "geometry": {"type": "Polygon", "coordinates": [[[16.4992254, 43.5276433], [16.4988148, 43.5275242], [16.4988132, 43.5275276], [16.4992254, 43.5276433]]]}, "properties": {"tema": "bujica", "opis": "Bujični kanal", "cad_sloj": "RUBEN-BUJICA_NOVO", "list": "2c_Kanalizacijska mreža_ID_DPU_DRACEVAC", "plan": "DPU radne zone Dračevac", "izvor": "DPU radne zone Dračevac (split.hr), vektorizirano iz PDF-a"}}, {"type": "Feature", "geometry": {"type": "Polygon", "coordinates": [[[16.4988148, 43.5275242], [16.4988132, 43.5275276], [16.4987703, 43.527515], [16.4988148, 43.5275242]]]}, "properties": {"tema": "bujica", "opis": "Bujični kanal", "cad_sloj": "RUBEN-BUJICA_NOVO", "list": "2c_Kanalizacijska mreža_ID_DPU_DRACEVAC", "plan": "DPU radne zone Dračevac", "izvor": "DPU radne zone Dračevac (split.hr), vektorizirano iz PDF-a"}}, {"type": "Feature", "geometry": {"type": "Polygon", "coordinates": [[[16.4988132, 43.5275276], [16.4987703, 43.527515], [16.4987693, 43.5275185], [16.4988132, 43.5275276]]]}, "properties": {"tema": "bujica", "opis": "Bujični kanal", "cad_sloj": "RUBEN-BUJICA_NOVO", "list": "2c_Kanalizacijska mreža_ID_DPU_DRACEVAC", "plan": "DPU radne zone Dračevac", "izvor": "DPU radne zone Dračevac (split.hr), vektorizirano iz PDF-a"}}, {"type": "Feature", "geometry": {"type": "Polygon", "coordinates": [[[16.4987703, 43.527515], [16.4987693, 43.5275185], [16.4984031, 43.5274747], [16.4987703, 43.527515]]]}, "properties": {"tema": "bujica", "opis": "Bujični kanal", "cad_sloj": "RUBEN-BUJICA_NOVO", "list": "2c_Kanalizacijska mreža_ID_DPU_DRACEVAC", "plan": "DPU radne zone Dračevac", "izvor": "DPU radne zone Dračevac (split.hr), vektorizirano iz PDF-a"}}, {"type": "Feature", "geometry": {"type": "Polygon", "coordinates": [[[16.4987693, 43.5275185], [16.4984031, 43.5274747], [16.4984026, 43.5274785], [16.4987693, 43.5275185]]]}, "properties": {"tema": "bujica", "opis": "Bujični kanal", "cad_sloj": "RUBEN-BUJICA_NOVO", "list": "2c_Kanalizacijska mreža_ID_DPU_DRACEVAC", "plan": "DPU radne zone Dračevac", "izvor": "DPU radne zone Dračevac (split.hr), vektorizirano iz PDF-a"}}, {"type": "Feature", "geometry": {"type": "Polygon", "coordinates": [[[16.4984031, 43.5274747], [16.4984026, 43.5274785], [16.4975091, 43.5274735], [16.4984031, 43.5274747]]]}, "properties": {"tema": "bujica", "opis": "Bujični kanal", "cad_sloj": "RUBEN-BUJICA_NOVO", "list": "2c_Kanalizacijska mreža_ID_DPU_DRACEVAC", "plan": "DPU radne zone Dračevac", "izvor": "DPU radne zone Dračevac (split.hr), vektorizirano iz PDF-a"}}, {"type": "Feature", "geometry": {"type": "Polygon", "coordinates": [[[16.4984026, 43.5274785], [16.4975091, 43.5274735], [16.4975096, 43.527477], [16.4984026, 43.5274785]]]}, "properties": {"tema": "bujica", "opis": "Bujični kanal", "cad_sloj": "RUBEN-BUJICA_NOVO", "list": "2c_Kanalizacijska mreža_ID_DPU_DRACEVAC", "plan": "DPU radne zone Dračevac", "izvor": "DPU radne zone Dračevac (split.hr), vektorizirano iz PDF-a"}}, {"type": "Feature", "geometry": {"type": "Polygon", "coordinates": [[[16.4975091, 43.5274735], [16.4975096, 43.527477], [16.4974762, 43.5274747], [16.4975091, 43.5274735]]]}, "properties": {"tema": "bujica", "opis": "Bujični kanal", "cad_sloj": "RUBEN-BUJICA_NOVO", "list": "2c_Kanalizacijska mreža_ID_DPU_DRACEVAC", "plan": "DPU radne zone Dračevac", "izvor": "DPU radne zone Dračevac (split.hr), vektorizirano iz PDF-a"}}, {"type": "Feature", "geometry": {"type": "Polygon", "coordinates": [[[16.4975096, 43.527477], [16.4974762, 43.5274747], [16.4974767, 43.5274781], [16.4975096, 43.527477]]]}, "properties": {"tema": "bujica", "opis": "Bujični kanal", "cad_sloj": "RUBEN-BUJICA_NOVO", "list": "2c_Kanalizacijska mreža_ID_DPU_DRACEVAC", "plan": "DPU radne zone Dračevac", "izvor": "DPU radne zone Dračevac (split.hr), vektorizirano iz PDF-a"}}, {"type": "Feature", "geometry": {"type": "Polygon", "coordinates": [[[16.4974762, 43.5274747], [16.4974767, 43.5274781], [16.4974469, 43.5274769], [16.4974762, 43.5274747]]]}, "properties": {"tema": "bujica", "opis": "Bujični kanal", "cad_sloj": "RUBEN-BUJICA_NOVO", "list": "2c_Kanalizacijska mreža_ID_DPU_DRACEVAC", "plan": "DPU radne zone Dračevac", "izvor": "DPU radne zone Dračevac (split.hr), vektorizirano iz PDF-a"}}, {"type": "Feature", "geometry": {"type": "Polygon", "coordinates": [[[16.4974767, 43.5274781], [16.4974469, 43.5274769], [16.4974479, 43.5274804], [16.4974767, 43.5274781]]]}, "properties": {"tema": "bujica", "opis": "Bujični kanal", "cad_sloj": "RUBEN-BUJICA_NOVO", "list": "2c_Kanalizacijska mreža_ID_DPU_DRACEVAC", "plan": "DPU radne zone Dračevac", "izvor": "DPU radne zone Dračevac (split.hr), vektorizirano iz PDF-a"}}, {"type": "Feature", "geometry": {"type": "Polygon", "coordinates": [[[16.4974469, 43.5274769], [16.4974479, 43.5274804], [16.4970127, 43.5275432], [16.4974469, 43.5274769]]]}, "properties": {"tema": "bujica", "opis": "Bujični kanal", "cad_sloj": "RUBEN-BUJICA_NOVO", "list": "2c_Kanalizacijska mreža_ID_DPU_DRACEVAC", "plan": "DPU radne zone Dračevac", "izvor": "DPU radne zone Dračevac (split.hr), vektorizirano iz PDF-a"}}, {"type": "Feature", "geometry": {"type": "Polygon", "coordinates": [[[16.4974479, 43.5274804], [16.4970127, 43.5275432], [16.4970137, 43.527547], [16.4974479, 43.5274804]]]}, "properties": {"tema": "bujica", "opis": "Bujični kanal", "cad_sloj": "RUBEN-BUJICA_NOVO", "list": "2c_Kanalizacijska mreža_ID_DPU_DRACEVAC", "plan": "DPU radne zone Dračevac", "izvor": "DPU radne zone Dračevac (split.hr), vektorizirano iz PDF-a"}}, {"type": "Feature", "geometry": {"type": "Polygon", "coordinates": [[[16.4973265, 43.5275127], [16.4973229, 43.5275101], [16.4973621, 43.5274823], [16.4973265, 43.5275127]]]}, "properties": {"tema": "bujica", "opis": "Bujični kanal", "cad_sloj": "RUBEN-BUJICA_NOVO", "list": "2c_Kanalizacijska mreža_ID_DPU_DRACEVAC", "plan": "DPU radne zone Dračevac", "izvor": "DPU radne zone Dračevac (split.hr), vektorizirano iz PDF-a"}}, {"type": "Feature", "geometry": {"type": "Polygon", "coordinates": [[[16.4973229, 43.5275101], [16.4973621, 43.5274823], [16.4973585, 43.52748], [16.4973229, 43.5275101]]]}, "properties": {"tema": "bujica", "opis": "Bujični kanal", "cad_sloj": "RUBEN-BUJICA_NOVO", "list": "2c_Kanalizacijska mreža_ID_DPU_DRACEVAC", "plan": "DPU radne zone Dračevac", "izvor": "DPU radne zone Dračevac (split.hr), vektorizirano iz PDF-a"}}, {"type": "Feature", "geometry": {"type": "Polygon", "coordinates": [[[16.4973626, 43.5275089], [16.497359, 43.5275112], [16.4973271, 43.5274804], [16.4973626, 43.5275089]]]}, "properties": {"tema": "bujica", "opis": "Bujični kanal", "cad_sloj": "RUBEN-BUJICA_NOVO", "list": "2c_Kanalizacijska mreža_ID_DPU_DRACEVAC", "plan": "DPU radne zone Dračevac", "izvor": "DPU radne zone Dračevac (split.hr), vektorizirano iz PDF-a"}}, {"type": "Feature", "geometry": {"type": "Polygon", "coordinates": [[[16.497359, 43.5275112], [16.4973271, 43.5274804], [16.4973234, 43.5274827], [16.497359, 43.5275112]]]}, "properties": {"tema": "bujica", "opis": "Bujični kanal", "cad_sloj": "RUBEN-BUJICA_NOVO", "list": "2c_Kanalizacijska mreža_ID_DPU_DRACEVAC", "plan": "DPU radne zone Dračevac", "izvor": "DPU radne zone Dračevac (split.hr), vektorizirano iz PDF-a"}}, {"type": "Feature", "geometry": {"type": "Polygon", "coordinates": [[[16.4986746, 43.5275306], [16.4986709, 43.5275284], [16.4987107, 43.5275002], [16.4986746, 43.5275306]]]}, "properties": {"tema": "bujica", "opis": "Bujični kanal", "cad_sloj": "RUBEN-BUJICA_NOVO", "list": "2c_Kanalizacijska mreža_ID_DPU_DRACEVAC", "plan": "DPU radne zone Dračevac", "izvor": "DPU radne zone Dračevac (split.hr), vektorizirano iz PDF-a"}}, {"type": "Feature", "geometry": {"type": "Polygon", "coordinates": [[[16.4986709, 43.5275284], [16.4987107, 43.5275002], [16.498707, 43.5274979], [16.4986709, 43.5275284]]]}, "properties": {"tema": "bujica", "opis": "Bujični kanal", "cad_sloj": "RUBEN-BUJICA_NOVO", "list": "2c_Kanalizacijska mreža_ID_DPU_DRACEVAC", "plan": "DPU radne zone Dračevac", "izvor": "DPU radne zone Dračevac (split.hr), vektorizirano iz PDF-a"}}, {"type": "Feature", "geometry": {"type": "Polygon", "coordinates": [[[16.4987112, 43.5275268], [16.498707, 43.5275295], [16.4986757, 43.5274983], [16.4987112, 43.5275268]]]}, "properties": {"tema": "bujica", "opis": "Bujični kanal", "cad_sloj": "RUBEN-BUJICA_NOVO", "list": "2c_Kanalizacijska mreža_ID_DPU_DRACEVAC", "plan": "DPU radne zone Dračevac", "izvor": "DPU radne zone Dračevac (split.hr), vektorizirano iz PDF-a"}}, {"type": "Feature", "geometry": {"type": "Polygon", "coordinates": [[[16.498707, 43.5275295], [16.4986757, 43.5274983], [16.498672, 43.5275006], [16.498707, 43.5275295]]]}, "properties": {"tema": "bujica", "opis": "Bujični kanal", "cad_sloj": "RUBEN-BUJICA_NOVO", "list": "2c_Kanalizacijska mreža_ID_DPU_DRACEVAC", "plan": "DPU radne zone Dračevac", "izvor": "DPU radne zone Dračevac (split.hr), vektorizirano iz PDF-a"}}, {"type": "Feature", "geometry": {"type": "Polygon", "coordinates": [[[16.4991857, 43.5276559], [16.499182, 43.5276536], [16.4992213, 43.5276254], [16.4991857, 43.5276559]]]}, "properties": {"tema": "bujica", "opis": "Bujični kanal", "cad_sloj": "RUBEN-BUJICA_NOVO", "list": "2c_Kanalizacijska mreža_ID_DPU_DRACEVAC", "plan": "DPU radne zone Dračevac", "izvor": "DPU radne zone Dračevac (split.hr), vektorizirano iz PDF-a"}}, {"type": "Feature", "geometry": {"type": "Polygon", "coordinates": [[[16.499182, 43.5276536], [16.4992213, 43.5276254], [16.4992176, 43.5276231], [16.499182, 43.5276536]]]}, "properties": {"tema": "bujica", "opis": "Bujični kanal", "cad_sloj": "RUBEN-BUJICA_NOVO", "list": "2c_Kanalizacijska mreža_ID_DPU_DRACEVAC", "plan": "DPU radne zone Dračevac", "izvor": "DPU radne zone Dračevac (split.hr), vektorizirano iz PDF-a"}}, {"type": "Feature", "geometry": {"type": "Polygon", "coordinates": [[[16.4992218, 43.5276521], [16.4992181, 43.5276547], [16.4991867, 43.5276235], [16.4992218, 43.5276521]]]}, "properties": {"tema": "bujica", "opis": "Bujični kanal", "cad_sloj": "RUBEN-BUJICA_NOVO", "list": "2c_Kanalizacijska mreža_ID_DPU_DRACEVAC", "plan": "DPU radne zone Dračevac", "izvor": "DPU radne zone Dračevac (split.hr), vektorizirano iz PDF-a"}}, {"type": "Feature", "geometry": {"type": "Polygon", "coordinates": [[[16.4992181, 43.5276547], [16.4991867, 43.5276235], [16.4991831, 43.5276258], [16.4992181, 43.5276547]]]}, "properties": {"tema": "bujica", "opis": "Bujični kanal", "cad_sloj": "RUBEN-BUJICA_NOVO", "list": "2c_Kanalizacijska mreža_ID_DPU_DRACEVAC", "plan": "DPU radne zone Dračevac", "izvor": "DPU radne zone Dračevac (split.hr), vektorizirano iz PDF-a"}}, {"type": "Feature", "geometry": {"type": "Polygon", "coordinates": [[[16.4997109, 43.5276837], [16.4997067, 43.5276814], [16.4997465, 43.5276536], [16.4997109, 43.5276837]]]}, "properties": {"tema": "bujica", "opis": "Bujični kanal", "cad_sloj": "RUBEN-BUJICA_NOVO", "list": "2c_Kanalizacijska mreža_ID_DPU_DRACEVAC", "plan": "DPU radne zone Dračevac", "izvor": "DPU radne zone Dračevac (split.hr), vektorizirano iz PDF-a"}}, {"type": "Feature", "geometry": {"type": "Polygon", "coordinates": [[[16.4997067, 43.5276814], [16.4997465, 43.5276536], [16.4997428, 43.5276509], [16.4997067, 43.5276814]]]}, "properties": {"tema": "bujica", "opis": "Bujični kanal", "cad_sloj": "RUBEN-BUJICA_NOVO", "list": "2c_Kanalizacijska mreža_ID_DPU_DRACEVAC", "plan": "DPU radne zone Dračevac", "izvor": "DPU radne zone Dračevac (split.hr), vektorizirano iz PDF-a"}}, {"type": "Feature", "geometry": {"type": "Polygon", "coordinates": [[[16.499747, 43.5276799], [16.4997433, 43.5276825], [16.4997114, 43.5276513], [16.499747, 43.5276799]]]}, "properties": {"tema": "bujica", "opis": "Bujični kanal", "cad_sloj": "RUBEN-BUJICA_NOVO", "list": "2c_Kanalizacijska mreža_ID_DPU_DRACEVAC", "plan": "DPU radne zone Dračevac", "izvor": "DPU radne zone Dračevac (split.hr), vektorizirano iz PDF-a"}}, {"type": "Feature", "geometry": {"type": "Polygon", "coordinates": [[[16.4997433, 43.5276825], [16.4997114, 43.5276513], [16.4997078, 43.5276536], [16.4997433, 43.5276825]]]}, "properties": {"tema": "bujica", "opis": "Bujični kanal", "cad_sloj": "RUBEN-BUJICA_NOVO", "list": "2c_Kanalizacijska mreža_ID_DPU_DRACEVAC", "plan": "DPU radne zone Dračevac", "izvor": "DPU radne zone Dračevac (split.hr), vektorizirano iz PDF-a"}}, {"type": "Feature", "geometry": {"type": "Polygon", "coordinates": [[[16.5005018, 43.5276193], [16.5004982, 43.527617], [16.5005374, 43.5275889], [16.5005018, 43.5276193]]]}, "properties": {"tema": "bujica", "opis": "Bujični kanal", "cad_sloj": "RUBEN-BUJICA_NOVO", "list": "2c_Kanalizacijska mreža_ID_DPU_DRACEVAC", "plan": "DPU radne zone Dračevac", "izvor": "DPU radne zone Dračevac (split.hr), vektorizirano iz PDF-a"}}, {"type": "Feature", "geometry": {"type": "Polygon", "coordinates": [[[16.5004982, 43.527617], [16.5005374, 43.5275889], [16.5005338, 43.5275866], [16.5004982, 43.527617]]]}, "properties": {"tema": "bujica", "opis": "Bujični kanal", "cad_sloj": "RUBEN-BUJICA_NOVO", "list": "2c_Kanalizacijska mreža_ID_DPU_DRACEVAC", "plan": "DPU radne zone Dračevac", "izvor": "DPU radne zone Dračevac (split.hr), vektorizirano iz PDF-a"}}, {"type": "Feature", "geometry": {"type": "Polygon", "coordinates": [[[16.5005379, 43.5276155], [16.5005343, 43.5276182], [16.5005029, 43.527587], [16.5005379, 43.5276155]]]}, "properties": {"tema": "bujica", "opis": "Bujični kanal", "cad_sloj": "RUBEN-BUJICA_NOVO", "list": "2c_Kanalizacijska mreža_ID_DPU_DRACEVAC", "plan": "DPU radne zone Dračevac", "izvor": "DPU radne zone Dračevac (split.hr), vektorizirano iz PDF-a"}}, {"type": "Feature", "geometry": {"type": "Polygon", "coordinates": [[[16.5005343, 43.5276182], [16.5005029, 43.527587], [16.5004992, 43.5275893], [16.5005343, 43.5276182]]]}, "properties": {"tema": "bujica", "opis": "Bujični kanal", "cad_sloj": "RUBEN-BUJICA_NOVO", "list": "2c_Kanalizacijska mreža_ID_DPU_DRACEVAC", "plan": "DPU radne zone Dračevac", "izvor": "DPU radne zone Dračevac (split.hr), vektorizirano iz PDF-a"}}, {"type": "Feature", "geometry": {"type": "Polygon", "coordinates": [[[16.4961433, 43.5276863], [16.4961422, 43.5276828], [16.4961642, 43.5276836], [16.4961433, 43.5276863]]]}, "properties": {"tema": "bujica", "opis": "Bujični kanal", "cad_sloj": "RUBEN-BUJICA_NOVO", "list": "2c_Kanalizacijska mreža_ID_DPU_DRACEVAC", "plan": "DPU radne zone Dračevac", "izvor": "DPU radne zone Dračevac (split.hr), vektorizirano iz PDF-a"}}, {"type": "Feature", "geometry": {"type": "Polygon", "coordinates": [[[16.4961422, 43.5276828], [16.4961642, 43.5276836], [16.4961584, 43.5276805], [16.4961422, 43.5276828]]]}, "properties": {"tema": "bujica", "opis": "Bujični kanal", "cad_sloj": "RUBEN-BUJICA_NOVO", "list": "2c_Kanalizacijska mreža_ID_DPU_DRACEVAC", "plan": "DPU radne zone Dračevac", "izvor": "DPU radne zone Dračevac (split.hr), vektorizirano iz PDF-a"}}, {"type": "Feature", "geometry": {"type": "Polygon", "coordinates": [[[16.4961642, 43.5276836], [16.4961584, 43.5276805], [16.49616, 43.5276665], [16.4961642, 43.5276836]]]}, "properties": {"tema": "bujica", "opis": "Bujični kanal", "cad_sloj": "RUBEN-BUJICA_NOVO", "list": "2c_Kanalizacijska mreža_ID_DPU_DRACEVAC", "plan": "DPU radne zone Dračevac", "izvor": "DPU radne zone Dračevac (split.hr), vektorizirano iz PDF-a"}}, {"type": "Feature", "geometry": {"type": "Polygon", "coordinates": [[[16.4961584, 43.5276805], [16.49616, 43.5276665], [16.4961558, 43.527671], [16.4961584, 43.5276805]]]}, "properties": {"tema": "bujica", "opis": "Bujični kanal", "cad_sloj": "RUBEN-BUJICA_NOVO", "list": "2c_Kanalizacijska mreža_ID_DPU_DRACEVAC", "plan": "DPU radne zone Dračevac", "izvor": "DPU radne zone Dračevac (split.hr), vektorizirano iz PDF-a"}}, {"type": "Feature", "geometry": {"type": "Polygon", "coordinates": [[[16.49616, 43.5276665], [16.4961558, 43.527671], [16.496138, 43.5276695], [16.49616, 43.5276665]]]}, "properties": {"tema": "bujica", "opis": "Bujični kanal", "cad_sloj": "RUBEN-BUJICA_NOVO", "list": "2c_Kanalizacijska mreža_ID_DPU_DRACEVAC", "plan": "DPU radne zone Dračevac", "izvor": "DPU radne zone Dračevac (split.hr), vektorizirano iz PDF-a"}}, {"type": "Feature", "geometry": {"type": "Polygon", "coordinates": [[[16.4961558, 43.527671], [16.496138, 43.5276695], [16.4961438, 43.5276726], [16.4961558, 43.527671]]]}, "properties": {"tema": "bujica", "opis": "Bujični kanal", "cad_sloj": "RUBEN-BUJICA_NOVO", "list": "2c_Kanalizacijska mreža_ID_DPU_DRACEVAC", "plan": "DPU radne zone Dračevac", "izvor": "DPU radne zone Dračevac (split.hr), vektorizirano iz PDF-a"}}, {"type": "Feature", "geometry": {"type": "Polygon", "coordinates": [[[16.496138, 43.5276695], [16.4961438, 43.5276726], [16.4961422, 43.5276844], [16.496138, 43.5276695]]]}, "properties": {"tema": "bujica", "opis": "Bujični kanal", "cad_sloj": "RUBEN-BUJICA_NOVO", "list": "2c_Kanalizacijska mreža_ID_DPU_DRACEVAC", "plan": "DPU radne zone Dračevac", "izvor": "DPU radne zone Dračevac (split.hr), vektorizirano iz PDF-a"}}, {"type": "Feature", "geometry": {"type": "Polygon", "coordinates": [[[16.4961438, 43.5276726], [16.4961422, 43.5276844], [16.4961469, 43.5276836], [16.4961438, 43.5276726]]]}, "properties": {"tema": "bujica", "opis": "Bujični kanal", "cad_sloj": "RUBEN-BUJICA_NOVO", "list": "2c_Kanalizacijska mreža_ID_DPU_DRACEVAC", "plan": "DPU radne zone Dračevac", "izvor": "DPU radne zone Dračevac (split.hr), vektorizirano iz PDF-a"}}, {"type": "Feature", "geometry": {"type": "Polygon", "coordinates": [[[16.4961741, 43.5277243], [16.4961689, 43.5277251], [16.4961637, 43.5276817], [16.4961741, 43.5277243]]]}, "properties": {"tema": "bujica", "opis": "Bujični kanal", "cad_sloj": "RUBEN-BUJICA_NOVO", "list": "2c_Kanalizacijska mreža_ID_DPU_DRACEVAC", "plan": "DPU radne zone Dračevac", "izvor": "DPU radne zone Dračevac (split.hr), vektorizirano iz PDF-a"}}, {"type": "Feature", "geometry": {"type": "Polygon", "coordinates": [[[16.4961689, 43.5277251], [16.4961637, 43.5276817], [16.4961584, 43.5276825], [16.4961689, 43.5277251]]]}, "properties": {"tema": "bujica", "opis": "Bujični kanal", "cad_sloj": "RUBEN-BUJICA_NOVO", "list": "2c_Kanalizacijska mreža_ID_DPU_DRACEVAC", "plan": "DPU radne zone Dračevac", "izvor": "DPU radne zone Dračevac (split.hr), vektorizirano iz PDF-a"}}, {"type": "Feature", "geometry": {"type": "Polygon", "coordinates": [[[16.4961427, 43.527684], [16.4961474, 43.5276832], [16.4961537, 43.5277251], [16.4961427, 43.527684]]]}, "properties": {"tema": "bujica", "opis": "Bujični kanal", "cad_sloj": "RUBEN-BUJICA_NOVO", "list": "2c_Kanalizacijska mreža_ID_DPU_DRACEVAC", "plan": "DPU radne zone Dračevac", "izvor": "DPU radne zone Dračevac (split.hr), vektorizirano iz PDF-a"}}, {"type": "Feature", "geometry": {"type": "Polygon", "coordinates": [[[16.4961474, 43.5276832], [16.4961537, 43.5277251], [16.4961589, 43.5277243], [16.4961474, 43.5276832]]]}, "properties": {"tema": "bujica", "opis": "Bujični kanal", "cad_sloj": "RUBEN-BUJICA_NOVO", "list": "2c_Kanalizacijska mreža_ID_DPU_DRACEVAC", "plan": "DPU radne zone Dračevac", "izvor": "DPU radne zone Dračevac (split.hr), vektorizirano iz PDF-a"}}, {"type": "Feature", "geometry": {"type": "Polygon", "coordinates": [[[16.4961532, 43.5276707], [16.4961527, 43.5276691], [16.4961893, 43.5276657], [16.4961532, 43.5276707]]]}, "properties": {"tema": "bujica", "opis": "Bujični kanal", "cad_sloj": "RUBEN-BUJICA_NOVO", "list": "2c_Kanalizacijska mreža_ID_DPU_DRACEVAC", "plan": "DPU radne zone Dračevac", "izvor": "DPU radne zone Dračevac (split.hr), vektorizirano iz PDF-a"}}, {"type": "Feature", "geometry": {"type": "Polygon", "coordinates": [[[16.4961527, 43.5276691], [16.4961893, 43.5276657], [16.4961888, 43.5276638], [16.4961527, 43.5276691]]]}, "properties": {"tema": "bujica", "opis": "Bujični kanal", "cad_sloj": "RUBEN-BUJICA_NOVO", "list": "2c_Kanalizacijska mreža_ID_DPU_DRACEVAC", "plan": "DPU radne zone Dračevac", "izvor": "DPU radne zone Dračevac (split.hr), vektorizirano iz PDF-a"}}, {"type": "Feature", "geometry": {"type": "Polygon", "coordinates": [[[16.4962045, 43.5276634], [16.4962039, 43.5276615], [16.4962353, 43.5276589], [16.4962045, 43.5276634]]]}, "properties": {"tema": "bujica", "opis": "Bujični kanal", "cad_sloj": "RUBEN-BUJICA_NOVO", "list": "2c_Kanalizacijska mreža_ID_DPU_DRACEVAC", "plan": "DPU radne zone Dračevac", "izvor": "DPU radne zone Dračevac (split.hr), vektorizirano iz PDF-a"}}, {"type": "Feature", "geometry": {"type": "Polygon", "coordinates": [[[16.4962039, 43.5276615], [16.4962353, 43.5276589], [16.4962348, 43.527657], [16.4962039, 43.5276615]]]}, "properties": {"tema": "bujica", "opis": "Bujični kanal", "cad_sloj": "RUBEN-BUJICA_NOVO", "list": "2c_Kanalizacijska mreža_ID_DPU_DRACEVAC", "plan": "DPU radne zone Dračevac", "izvor": "DPU radne zone Dračevac (split.hr), vektorizirano iz PDF-a"}}, {"type": "Feature", "geometry": {"type": "Polygon", "coordinates": [[[16.4962505, 43.5276566], [16.49625, 43.5276547], [16.4962814, 43.527652], [16.4962505, 43.5276566]]]}, "properties": {"tema": "bujica", "opis": "Bujični kanal", "cad_sloj": "RUBEN-BUJICA_NOVO", "list": "2c_Kanalizacijska mreža_ID_DPU_DRACEVAC", "plan": "DPU radne zone Dračevac", "izvor": "DPU radne zone Dračevac (split.hr), vektorizirano iz PDF-a"}}, {"type": "Feature", "geometry": {"type": "Polygon", "coordinates": [[[16.49625, 43.5276547], [16.4962814, 43.527652], [16.4962808, 43.5276505], [16.49625, 43.5276547]]]}, "properties": {"tema": "bujica", "opis": "Bujični kanal", "cad_sloj": "RUBEN-BUJICA_NOVO", "list": "2c_Kanalizacijska mreža_ID_DPU_DRACEVAC", "plan": "DPU radne zone Dračevac", "izvor": "DPU radne zone Dračevac (split.hr), vektorizirano iz PDF-a"}}, {"type": "Feature", "geometry": {"type": "Polygon", "coordinates": [[[16.4962971, 43.5276497], [16.4962965, 43.5276482], [16.4963274, 43.5276455], [16.4962971, 43.5276497]]]}, "properties": {"tema": "bujica", "opis": "Bujični kanal", "cad_sloj": "RUBEN-BUJICA_NOVO", "list": "2c_Kanalizacijska mreža_ID_DPU_DRACEVAC", "plan": "DPU radne zone Dračevac", "izvor": "DPU radne zone Dračevac (split.hr), vektorizirano iz PDF-a"}}, {"type": "Feature", "geometry": {"type": "Polygon", "coordinates": [[[16.4962965, 43.5276482], [16.4963274, 43.5276455], [16.4963269, 43.5276436], [16.4962965, 43.5276482]]]}, "properties": {"tema": "bujica", "opis": "Bujični kanal", "cad_sloj": "RUBEN-BUJICA_NOVO", "list": "2c_Kanalizacijska mreža_ID_DPU_DRACEVAC", "plan": "DPU radne zone Dračevac", "izvor": "DPU radne zone Dračevac (split.hr), vektorizirano iz PDF-a"}}, {"type": "Feature", "geometry": {"type": "Polygon", "coordinates": [[[16.4963431, 43.5276433], [16.4963426, 43.5276413], [16.496374, 43.5276387], [16.4963431, 43.5276433]]]}, "properties": {"tema": "bujica", "opis": "Bujični kanal", "cad_sloj": "RUBEN-BUJICA_NOVO", "list": "2c_Kanalizacijska mreža_ID_DPU_DRACEVAC", "plan": "DPU radne zone Dračevac", "izvor": "DPU radne zone Dračevac (split.hr), vektorizirano iz PDF-a"}}, {"type": "Feature", "geometry": {"type": "Polygon", "coordinates": [[[16.4963426, 43.5276413], [16.496374, 43.5276387], [16.4963734, 43.5276372], [16.4963426, 43.5276413]]]}, "properties": {"tema": "bujica", "opis": "Bujični kanal", "cad_sloj": "RUBEN-BUJICA_NOVO", "list": "2c_Kanalizacijska mreža_ID_DPU_DRACEVAC", "plan": "DPU radne zone Dračevac", "izvor": "DPU radne zone Dračevac (split.hr), vektorizirano iz PDF-a"}}, {"type": "Feature", "geometry": {"type": "Polygon", "coordinates": [[[16.4963891, 43.5276364], [16.4963886, 43.5276349], [16.49642, 43.5276322], [16.4963891, 43.5276364]]]}, "properties": {"tema": "bujica", "opis": "Bujični kanal", "cad_sloj": "RUBEN-BUJICA_NOVO", "list": "2c_Kanalizacijska mreža_ID_DPU_DRACEVAC", "plan": "DPU radne zone Dračevac", "izvor": "DPU radne zone Dračevac (split.hr), vektorizirano iz PDF-a"}}, {"type": "Feature", "geometry": {"type": "Polygon", "coordinates": [[[16.4963886, 43.5276349], [16.49642, 43.5276322], [16.4964195, 43.5276303], [16.4963886, 43.5276349]]]}, "properties": {"tema": "bujica", "opis": "Bujični kanal", "cad_sloj": "RUBEN-BUJICA_NOVO", "list": "2c_Kanalizacijska mreža_ID_DPU_DRACEVAC", "plan": "DPU radne zone Dračevac", "izvor": "DPU radne zone Dračevac (split.hr), vektorizirano iz PDF-a"}}, {"type": "Feature", "geometry": {"type": "Polygon", "coordinates": [[[16.4964352, 43.5276299], [16.4964346, 43.527628], [16.496466, 43.5276254], [16.4964352, 43.5276299]]]}, "properties": {"tema": "bujica", "opis": "Bujični kanal", "cad_sloj": "RUBEN-BUJICA_NOVO", "list": "2c_Kanalizacijska mreža_ID_DPU_DRACEVAC", "plan": "DPU radne zone Dračevac", "izvor": "DPU radne zone Dračevac (split.hr), vektorizirano iz PDF-a"}}, {"type": "Feature", "geometry": {"type": "Polygon", "coordinates": [[[16.4964346, 43.527628], [16.496466, 43.5276254], [16.4964655, 43.5276235], [16.4964346, 43.527628]]]}, "properties": {"tema": "bujica", "opis": "Bujični kanal", "cad_sloj": "RUBEN-BUJICA_NOVO", "list": "2c_Kanalizacijska mreža_ID_DPU_DRACEVAC", "plan": "DPU radne zone Dračevac", "izvor": "DPU radne zone Dračevac (split.hr), vektorizirano iz PDF-a"}}, {"type": "Feature", "geometry": {"type": "Polygon", "coordinates": [[[16.4964812, 43.5276231], [16.4964807, 43.5276216], [16.4965121, 43.5276185], [16.4964812, 43.5276231]]]}, "properties": {"tema": "bujica", "opis": "Bujični kanal", "cad_sloj": "RUBEN-BUJICA_NOVO", "list": "2c_Kanalizacijska mreža_ID_DPU_DRACEVAC", "plan": "DPU radne zone Dračevac", "izvor": "DPU radne zone Dračevac (split.hr), vektorizirano iz PDF-a"}}, {"type": "Feature", "geometry": {"type": "Polygon", "coordinates": [[[16.4964807, 43.5276216], [16.4965121, 43.5276185], [16.4965115, 43.527617], [16.4964807, 43.5276216]]]}, "properties": {"tema": "bujica", "opis": "Bujični kanal", "cad_sloj": "RUBEN-BUJICA_NOVO", "list": "2c_Kanalizacijska mreža_ID_DPU_DRACEVAC", "plan": "DPU radne zone Dračevac", "izvor": "DPU radne zone Dračevac (split.hr), vektorizirano iz PDF-a"}}, {"type": "Feature", "geometry": {"type": "Polygon", "coordinates": [[[16.4965272, 43.5276166], [16.4965272, 43.5276147], [16.4965581, 43.527612], [16.4965272, 43.5276166]]]}, "properties": {"tema": "bujica", "opis": "Bujični kanal", "cad_sloj": "RUBEN-BUJICA_NOVO", "list": "2c_Kanalizacijska mreža_ID_DPU_DRACEVAC", "plan": "DPU radne zone Dračevac", "izvor": "DPU radne zone Dračevac (split.hr), vektorizirano iz PDF-a"}}, {"type": "Feature", "geometry": {"type": "Polygon", "coordinates": [[[16.4965272, 43.5276147], [16.4965581, 43.527612], [16.4965576, 43.5276101], [16.4965272, 43.5276147]]]}, "properties": {"tema": "bujica", "opis": "Bujični kanal", "cad_sloj": "RUBEN-BUJICA_NOVO", "list": "2c_Kanalizacijska mreža_ID_DPU_DRACEVAC", "plan": "DPU radne zone Dračevac", "izvor": "DPU radne zone Dračevac (split.hr), vektorizirano iz PDF-a"}}, {"type": "Feature", "geometry": {"type": "Polygon", "coordinates": [[[16.4965738, 43.5276098], [16.4965733, 43.5276079], [16.4966041, 43.5276052], [16.4965738, 43.5276098]]]}, "properties": {"tema": "bujica", "opis": "Bujični kanal", "cad_sloj": "RUBEN-BUJICA_NOVO", "list": "2c_Kanalizacijska mreža_ID_DPU_DRACEVAC", "plan": "DPU radne zone Dračevac", "izvor": "DPU radne zone Dračevac (split.hr), vektorizirano iz PDF-a"}}, {"type": "Feature", "geometry": {"type": "Polygon", "coordinates": [[[16.4965733, 43.5276079], [16.4966041, 43.5276052], [16.4966036, 43.5276037], [16.4965733, 43.5276079]]]}, "properties": {"tema": "bujica", "opis": "Bujični kanal", "cad_sloj": "RUBEN-BUJICA_NOVO", "list": "2c_Kanalizacijska mreža_ID_DPU_DRACEVAC", "plan": "DPU radne zone Dračevac", "izvor": "DPU radne zone Dračevac (split.hr), vektorizirano iz PDF-a"}}, {"type": "Feature", "geometry": {"type": "Polygon", "coordinates": [[[16.4966198, 43.5276029], [16.4966193, 43.5276014], [16.4966507, 43.5275987], [16.4966198, 43.5276029]]]}, "properties": {"tema": "bujica", "opis": "Bujični kanal", "cad_sloj": "RUBEN-BUJICA_NOVO", "list": "2c_Kanalizacijska mreža_ID_DPU_DRACEVAC", "plan": "DPU radne zone Dračevac", "izvor": "DPU radne zone Dračevac (split.hr), vektorizirano iz PDF-a"}}, {"type": "Feature", "geometry": {"type": "Polygon", "coordinates": [[[16.4966193, 43.5276014], [16.4966507, 43.5275987], [16.4966502, 43.5275968], [16.4966193, 43.5276014]]]}, "properties": {"tema": "bujica", "opis": "Bujični kanal", "cad_sloj": "RUBEN-BUJICA_NOVO", "list": "2c_Kanalizacijska mreža_ID_DPU_DRACEVAC", "plan": "DPU radne zone Dračevac", "izvor": "DPU radne zone Dračevac (split.hr), vektorizirano iz PDF-a"}}, {"type": "Feature", "geometry": {"type": "Polygon", "coordinates": [[[16.4966659, 43.5275964], [16.4966653, 43.5275945], [16.4966967, 43.5275919], [16.4966659, 43.5275964]]]}, "properties": {"tema": "bujica", "opis": "Bujični kanal", "cad_sloj": "RUBEN-BUJICA_NOVO", "list": "2c_Kanalizacijska mreža_ID_DPU_DRACEVAC", "plan": "DPU radne zone Dračevac", "izvor": "DPU radne zone Dračevac (split.hr), vektorizirano iz PDF-a"}}, {"type": "Feature", "geometry": {"type": "Polygon", "coordinates": [[[16.4966653, 43.5275945], [16.4966967, 43.5275919], [16.4966962, 43.52759], [16.4966653, 43.5275945]]]}, "properties": {"tema": "bujica", "opis": "Bujični kanal", "cad_sloj": "RUBEN-BUJICA_NOVO", "list": "2c_Kanalizacijska mreža_ID_DPU_DRACEVAC", "plan": "DPU radne zone Dračevac", "izvor": "DPU radne zone Dračevac (split.hr), vektorizirano iz PDF-a"}}, {"type": "Feature", "geometry": {"type": "Polygon", "coordinates": [[[16.4967119, 43.5275896], [16.4967114, 43.5275881], [16.4967428, 43.527585], [16.4967119, 43.5275896]]]}, "properties": {"tema": "bujica", "opis": "Bujični kanal", "cad_sloj": "RUBEN-BUJICA_NOVO", "list": "2c_Kanalizacijska mreža_ID_DPU_DRACEVAC", "plan": "DPU radne zone Dračevac", "izvor": "DPU radne zone Dračevac (split.hr), vektorizirano iz PDF-a"}}, {"type": "Feature", "geometry": {"type": "Polygon", "coordinates": [[[16.4967114, 43.5275881], [16.4967428, 43.527585], [16.4967422, 43.5275835], [16.4967114, 43.5275881]]]}, "properties": {"tema": "bujica", "opis": "Bujični kanal", "cad_sloj": "RUBEN-BUJICA_NOVO", "list": "2c_Kanalizacijska mreža_ID_DPU_DRACEVAC", "plan": "DPU radne zone Dračevac", "izvor": "DPU radne zone Dračevac (split.hr), vektorizirano iz PDF-a"}}, {"type": "Feature", "geometry": {"type": "Polygon", "coordinates": [[[16.4967579, 43.5275831], [16.4967574, 43.5275812], [16.4967888, 43.5275786], [16.4967579, 43.5275831]]]}, "properties": {"tema": "bujica", "opis": "Bujični kanal", "cad_sloj": "RUBEN-BUJICA_NOVO", "list": "2c_Kanalizacijska mreža_ID_DPU_DRACEVAC", "plan": "DPU radne zone Dračevac", "izvor": "DPU radne zone Dračevac (split.hr), vektorizirano iz PDF-a"}}, {"type": "Feature", "geometry": {"type": "Polygon", "coordinates": [[[16.4967574, 43.5275812], [16.4967888, 43.5275786], [16.4967883, 43.5275767], [16.4967574, 43.5275812]]]}, "properties": {"tema": "bujica", "opis": "Bujični kanal", "cad_sloj": "RUBEN-BUJICA_NOVO", "list": "2c_Kanalizacijska mreža_ID_DPU_DRACEVAC", "plan": "DPU radne zone Dračevac", "izvor": "DPU radne zone Dračevac (split.hr), vektorizirano iz PDF-a"}}, {"type": "Feature", "geometry": {"type": "Polygon", "coordinates": [[[16.4968045, 43.5275763], [16.496804, 43.5275744], [16.4968348, 43.5275717], [16.4968045, 43.5275763]]]}, "properties": {"tema": "bujica", "opis": "Bujični kanal", "cad_sloj": "RUBEN-BUJICA_NOVO", "list": "2c_Kanalizacijska mreža_ID_DPU_DRACEVAC", "plan": "DPU radne zone Dračevac", "izvor": "DPU radne zone Dračevac (split.hr), vektorizirano iz PDF-a"}}, {"type": "Feature", "geometry": {"type": "Polygon", "coordinates": [[[16.496804, 43.5275744], [16.4968348, 43.5275717], [16.4968343, 43.5275702], [16.496804, 43.5275744]]]}, "properties": {"tema": "bujica", "opis": "Bujični kanal", "cad_sloj": "RUBEN-BUJICA_NOVO", "list": "2c_Kanalizacijska mreža_ID_DPU_DRACEVAC", "plan": "DPU radne zone Dračevac", "izvor": "DPU radne zone Dračevac (split.hr), vektorizirano iz PDF-a"}}, {"type": "Feature", "geometry": {"type": "Polygon", "coordinates": [[[16.4968505, 43.5275694], [16.49685, 43.5275679], [16.4968809, 43.5275652], [16.4968505, 43.5275694]]]}, "properties": {"tema": "bujica", "opis": "Bujični kanal", "cad_sloj": "RUBEN-BUJICA_NOVO", "list": "2c_Kanalizacijska mreža_ID_DPU_DRACEVAC", "plan": "DPU radne zone Dračevac", "izvor": "DPU radne zone Dračevac (split.hr), vektorizirano iz PDF-a"}}, {"type": "Feature", "geometry": {"type": "Polygon", "coordinates": [[[16.49685, 43.5275679], [16.4968809, 43.5275652], [16.4968809, 43.5275633], [16.49685, 43.5275679]]]}, "properties": {"tema": "bujica", "opis": "Bujični kanal", "cad_sloj": "RUBEN-BUJICA_NOVO", "list": "2c_Kanalizacijska mreža_ID_DPU_DRACEVAC", "plan": "DPU radne zone Dračevac", "izvor": "DPU radne zone Dračevac (split.hr), vektorizirano iz PDF-a"}}, {"type": "Feature", "geometry": {"type": "Polygon", "coordinates": [[[16.4968965, 43.527563], [16.496896, 43.5275611], [16.4969274, 43.5275584], [16.4968965, 43.527563]]]}, "properties": {"tema": "bujica", "opis": "Bujični kanal", "cad_sloj": "RUBEN-BUJICA_NOVO", "list": "2c_Kanalizacijska mreža_ID_DPU_DRACEVAC", "plan": "DPU radne zone Dračevac", "izvor": "DPU radne zone Dračevac (split.hr), vektorizirano iz PDF-a"}}, {"type": "Feature", "geometry": {"type": "Polygon", "coordinates": [[[16.496896, 43.5275611], [16.4969274, 43.5275584], [16.4969269, 43.5275569], [16.496896, 43.5275611]]]}, "properties": {"tema": "bujica", "opis": "Bujični kanal", "cad_sloj": "RUBEN-BUJICA_NOVO", "list": "2c_Kanalizacijska mreža_ID_DPU_DRACEVAC", "plan": "DPU radne zone Dračevac", "izvor": "DPU radne zone Dračevac (split.hr), vektorizirano iz PDF-a"}}, {"type": "Feature", "geometry": {"type": "Polygon", "coordinates": [[[16.4969426, 43.5275561], [16.4969421, 43.5275546], [16.4969787, 43.5275508], [16.4969426, 43.5275561]]]}, "properties": {"tema": "bujica", "opis": "Bujični kanal", "cad_sloj": "RUBEN-BUJICA_NOVO", "list": "2c_Kanalizacijska mreža_ID_DPU_DRACEVAC", "plan": "DPU radne zone Dračevac", "izvor": "DPU radne zone Dračevac (split.hr), vektorizirano iz PDF-a"}}, {"type": "Feature", "geometry": {"type": "Polygon", "coordinates": [[[16.4969421, 43.5275546], [16.4969787, 43.5275508], [16.4969782, 43.5275493], [16.4969421, 43.5275546]]]}, "properties": {"tema": "bujica", "opis": "Bujični kanal", "cad_sloj": "RUBEN-BUJICA_NOVO", "list": "2c_Kanalizacijska mreža_ID_DPU_DRACEVAC", "plan": "DPU radne zone Dračevac", "izvor": "DPU radne zone Dračevac (split.hr), vektorizirano iz PDF-a"}}, {"type": "Feature", "geometry": {"type": "Polygon", "coordinates": [[[16.496161, 43.5276828], [16.4961605, 43.5276809], [16.496195, 43.5276779], [16.496161, 43.5276828]]]}, "properties": {"tema": "bujica", "opis": "Bujični kanal", "cad_sloj": "RUBEN-BUJICA_NOVO", "list": "2c_Kanalizacijska mreža_ID_DPU_DRACEVAC", "plan": "DPU radne zone Dračevac", "izvor": "DPU radne zone Dračevac (split.hr), vektorizirano iz PDF-a"}}, {"type": "Feature", "geometry": {"type": "Polygon", "coordinates": [[[16.4961605, 43.5276809], [16.496195, 43.5276779], [16.4961945, 43.527676], [16.4961605, 43.5276809]]]}, "properties": {"tema": "bujica", "opis": "Bujični kanal", "cad_sloj": "RUBEN-BUJICA_NOVO", "list": "2c_Kanalizacijska mreža_ID_DPU_DRACEVAC", "plan": "DPU radne zone Dračevac", "izvor": "DPU radne zone Dračevac (split.hr), vektorizirano iz PDF-a"}}, {"type": "Feature", "geometry": {"type": "Polygon", "coordinates": [[[16.4962107, 43.5276756], [16.4962102, 43.5276737], [16.4962411, 43.5276707], [16.4962107, 43.5276756]]]}, "properties": {"tema": "bujica", "opis": "Bujični kanal", "cad_sloj": "RUBEN-BUJICA_NOVO", "list": "2c_Kanalizacijska mreža_ID_DPU_DRACEVAC", "plan": "DPU radne zone Dračevac", "izvor": "DPU radne zone Dračevac (split.hr), vektorizirano iz PDF-a"}}, {"type": "Feature", "geometry": {"type": "Polygon", "coordinates": [[[16.4962102, 43.5276737], [16.4962411, 43.5276707], [16.4962406, 43.5276691], [16.4962102, 43.5276737]]]}, "properties": {"tema": "bujica", "opis": "Bujični kanal", "cad_sloj": "RUBEN-BUJICA_NOVO", "list": "2c_Kanalizacijska mreža_ID_DPU_DRACEVAC", "plan": "DPU radne zone Dračevac", "izvor": "DPU radne zone Dračevac (split.hr), vektorizirano iz PDF-a"}}, {"type": "Feature", "geometry": {"type": "Polygon", "coordinates": [[[16.4962568, 43.5276684], [16.4962563, 43.5276668], [16.4962871, 43.5276638], [16.4962568, 43.5276684]]]}, "properties": {"tema": "bujica", "opis": "Bujični kanal", "cad_sloj": "RUBEN-BUJICA_NOVO", "list": "2c_Kanalizacijska mreža_ID_DPU_DRACEVAC", "plan": "DPU radne zone Dračevac", "izvor": "DPU radne zone Dračevac (split.hr), vektorizirano iz PDF-a"}}, {"type": "Feature", "geometry": {"type": "Polygon", "coordinates": [[[16.4962563, 43.5276668], [16.4962871, 43.5276638], [16.4962866, 43.5276623], [16.4962563, 43.5276668]]]}, "properties": {"tema": "bujica", "opis": "Bujični kanal", "cad_sloj": "RUBEN-BUJICA_NOVO", "list": "2c_Kanalizacijska mreža_ID_DPU_DRACEVAC", "plan": "DPU radne zone Dračevac", "izvor": "DPU radne zone Dračevac (split.hr), vektorizirano iz PDF-a"}}, {"type": "Feature", "geometry": {"type": "Polygon", "coordinates": [[[16.4963028, 43.5276615], [16.4963023, 43.52766], [16.4963331, 43.527657], [16.4963028, 43.5276615]]]}, "properties": {"tema": "bujica", "opis": "Bujični kanal", "cad_sloj": "RUBEN-BUJICA_NOVO", "list": "2c_Kanalizacijska mreža_ID_DPU_DRACEVAC", "plan": "DPU radne zone Dračevac", "izvor": "DPU radne zone Dračevac (split.hr), vektorizirano iz PDF-a"}}, {"type": "Feature", "geometry": {"type": "Polygon", "coordinates": [[[16.4963023, 43.52766], [16.4963331, 43.527657], [16.4963331, 43.5276554], [16.4963023, 43.52766]]]}, "properties": {"tema": "bujica", "opis": "Bujični kanal", "cad_sloj": "RUBEN-BUJICA_NOVO", "list": "2c_Kanalizacijska mreža_ID_DPU_DRACEVAC", "plan": "DPU radne zone Dračevac", "izvor": "DPU radne zone Dračevac (split.hr), vektorizirano iz PDF-a"}}, {"type": "Feature", "geometry": {"type": "Polygon", "coordinates": [[[16.4963488, 43.5276547], [16.4963483, 43.5276531], [16.4963797, 43.5276501], [16.4963488, 43.5276547]]]}, "properties": {"tema": "bujica", "opis": "Bujični kanal", "cad_sloj": "RUBEN-BUJICA_NOVO", "list": "2c_Kanalizacijska mreža_ID_DPU_DRACEVAC", "plan": "DPU radne zone Dračevac", "izvor": "DPU radne zone Dračevac (split.hr), vektorizirano iz PDF-a"}}, {"type": "Feature", "geometry": {"type": "Polygon", "coordinates": [[[16.4963483, 43.5276531], [16.4963797, 43.5276501], [16.4963792, 43.5276482], [16.4963483, 43.5276531]]]}, "properties": {"tema": "bujica", "opis": "Bujični kanal", "cad_sloj": "RUBEN-BUJICA_NOVO", "list": "2c_Kanalizacijska mreža_ID_DPU_DRACEVAC", "plan": "DPU radne zone Dračevac", "izvor": "DPU radne zone Dračevac (split.hr), vektorizirano iz PDF-a"}}, {"type": "Feature", "geometry": {"type": "Polygon", "coordinates": [[[16.4963949, 43.5276478], [16.4963944, 43.5276459], [16.4964257, 43.5276433], [16.4963949, 43.5276478]]]}, "properties": {"tema": "bujica", "opis": "Bujični kanal", "cad_sloj": "RUBEN-BUJICA_NOVO", "list": "2c_Kanalizacijska mreža_ID_DPU_DRACEVAC", "plan": "DPU radne zone Dračevac", "izvor": "DPU radne zone Dračevac (split.hr), vektorizirano iz PDF-a"}}, {"type": "Feature", "geometry": {"type": "Polygon", "coordinates": [[[16.4963944, 43.5276459], [16.4964257, 43.5276433], [16.4964252, 43.5276414], [16.4963944, 43.5276459]]]}, "properties": {"tema": "bujica", "opis": "Bujični kanal", "cad_sloj": "RUBEN-BUJICA_NOVO", "list": "2c_Kanalizacijska mreža_ID_DPU_DRACEVAC", "plan": "DPU radne zone Dračevac", "izvor": "DPU radne zone Dračevac (split.hr), vektorizirano iz PDF-a"}}, {"type": "Feature", "geometry": {"type": "Polygon", "coordinates": [[[16.4964409, 43.527641], [16.4964404, 43.5276391], [16.4964718, 43.5276364], [16.4964409, 43.527641]]]}, "properties": {"tema": "bujica", "opis": "Bujični kanal", "cad_sloj": "RUBEN-BUJICA_NOVO", "list": "2c_Kanalizacijska mreža_ID_DPU_DRACEVAC", "plan": "DPU radne zone Dračevac", "izvor": "DPU radne zone Dračevac (split.hr), vektorizirano iz PDF-a"}}, {"type": "Feature", "geometry": {"type": "Polygon", "coordinates": [[[16.4964404, 43.5276391], [16.4964718, 43.5276364], [16.4964713, 43.5276345], [16.4964404, 43.5276391]]]}, "properties": {"tema": "bujica", "opis": "Bujični kanal", "cad_sloj": "RUBEN-BUJICA_NOVO", "list": "2c_Kanalizacijska mreža_ID_DPU_DRACEVAC", "plan": "DPU radne zone Dračevac", "izvor": "DPU radne zone Dračevac (split.hr), vektorizirano iz PDF-a"}}, {"type": "Feature", "geometry": {"type": "Polygon", "coordinates": [[[16.4964869, 43.5276341], [16.4964864, 43.5276322], [16.4965178, 43.5276296], [16.4964869, 43.5276341]]]}, "properties": {"tema": "bujica", "opis": "Bujični kanal", "cad_sloj": "RUBEN-BUJICA_NOVO", "list": "2c_Kanalizacijska mreža_ID_DPU_DRACEVAC", "plan": "DPU radne zone Dračevac", "izvor": "DPU radne zone Dračevac (split.hr), vektorizirano iz PDF-a"}}, {"type": "Feature", "geometry": {"type": "Polygon", "coordinates": [[[16.4964864, 43.5276322], [16.4965178, 43.5276296], [16.4965173, 43.5276277], [16.4964864, 43.5276322]]]}, "properties": {"tema": "bujica", "opis": "Bujični kanal", "cad_sloj": "RUBEN-BUJICA_NOVO", "list": "2c_Kanalizacijska mreža_ID_DPU_DRACEVAC", "plan": "DPU radne zone Dračevac", "izvor": "DPU radne zone Dračevac (split.hr), vektorizirano iz PDF-a"}}, {"type": "Feature", "geometry": {"type": "Polygon", "coordinates": [[[16.496533, 43.5276273], [16.4965325, 43.5276254], [16.4965638, 43.5276223], [16.496533, 43.5276273]]]}, "properties": {"tema": "bujica", "opis": "Bujični kanal", "cad_sloj": "RUBEN-BUJICA_NOVO", "list": "2c_Kanalizacijska mreža_ID_DPU_DRACEVAC", "plan": "DPU radne zone Dračevac", "izvor": "DPU radne zone Dračevac (split.hr), vektorizirano iz PDF-a"}}, {"type": "Feature", "geometry": {"type": "Polygon", "coordinates": [[[16.4965325, 43.5276254], [16.4965638, 43.5276223], [16.4965633, 43.5276208], [16.4965325, 43.5276254]]]}, "properties": {"tema": "bujica", "opis": "Bujični kanal", "cad_sloj": "RUBEN-BUJICA_NOVO", "list": "2c_Kanalizacijska mreža_ID_DPU_DRACEVAC", "plan": "DPU radne zone Dračevac", "izvor": "DPU radne zone Dračevac (split.hr), vektorizirano iz PDF-a"}}, {"type": "Feature", "geometry": {"type": "Polygon", "coordinates": [[[16.496579, 43.52762], [16.4965785, 43.5276185], [16.4966099, 43.5276155], [16.496579, 43.52762]]]}, "properties": {"tema": "bujica", "opis": "Bujični kanal", "cad_sloj": "RUBEN-BUJICA_NOVO", "list": "2c_Kanalizacijska mreža_ID_DPU_DRACEVAC", "plan": "DPU radne zone Dračevac", "izvor": "DPU radne zone Dračevac (split.hr), vektorizirano iz PDF-a"}}, {"type": "Feature", "geometry": {"type": "Polygon", "coordinates": [[[16.4965785, 43.5276185], [16.4966099, 43.5276155], [16.4966094, 43.527614], [16.4965785, 43.5276185]]]}, "properties": {"tema": "bujica", "opis": "Bujični kanal", "cad_sloj": "RUBEN-BUJICA_NOVO", "list": "2c_Kanalizacijska mreža_ID_DPU_DRACEVAC", "plan": "DPU radne zone Dračevac", "izvor": "DPU radne zone Dračevac (split.hr), vektorizirano iz PDF-a"}}, {"type": "Feature", "geometry": {"type": "Polygon", "coordinates": [[[16.496625, 43.5276132], [16.4966245, 43.5276117], [16.4966559, 43.5276086], [16.496625, 43.5276132]]]}, "properties": {"tema": "bujica", "opis": "Bujični kanal", "cad_sloj": "RUBEN-BUJICA_NOVO", "list": "2c_Kanalizacijska mreža_ID_DPU_DRACEVAC", "plan": "DPU radne zone Dračevac", "izvor": "DPU radne zone Dračevac (split.hr), vektorizirano iz PDF-a"}}, {"type": "Feature", "geometry": {"type": "Polygon", "coordinates": [[[16.4966245, 43.5276117], [16.4966559, 43.5276086], [16.4966554, 43.5276071], [16.4966245, 43.5276117]]]}, "properties": {"tema": "bujica", "opis": "Bujični kanal", "cad_sloj": "RUBEN-BUJICA_NOVO", "list": "2c_Kanalizacijska mreža_ID_DPU_DRACEVAC", "plan": "DPU radne zone Dračevac", "izvor": "DPU radne zone Dračevac (split.hr), vektorizirano iz PDF-a"}}, {"type": "Feature", "geometry": {"type": "Polygon", "coordinates": [[[16.4966711, 43.5276063], [16.4966706, 43.5276048], [16.4967019, 43.5276018], [16.4966711, 43.5276063]]]}, "properties": {"tema": "bujica", "opis": "Bujični kanal", "cad_sloj": "RUBEN-BUJICA_NOVO", "list": "2c_Kanalizacijska mreža_ID_DPU_DRACEVAC", "plan": "DPU radne zone Dračevac", "izvor": "DPU radne zone Dračevac (split.hr), vektorizirano iz PDF-a"}}, {"type": "Feature", "geometry": {"type": "Polygon", "coordinates": [[[16.4966706, 43.5276048], [16.4967019, 43.5276018], [16.4967014, 43.5275999], [16.4966706, 43.5276048]]]}, "properties": {"tema": "bujica", "opis": "Bujični kanal", "cad_sloj": "RUBEN-BUJICA_NOVO", "list": "2c_Kanalizacijska mreža_ID_DPU_DRACEVAC", "plan": "DPU radne zone Dračevac", "izvor": "DPU radne zone Dračevac (split.hr), vektorizirano iz PDF-a"}}, {"type": "Feature", "geometry": {"type": "Polygon", "coordinates": [[[16.4967171, 43.5275995], [16.4967166, 43.5275976], [16.496748, 43.5275949], [16.4967171, 43.5275995]]]}, "properties": {"tema": "bujica", "opis": "Bujični kanal", "cad_sloj": "RUBEN-BUJICA_NOVO", "list": "2c_Kanalizacijska mreža_ID_DPU_DRACEVAC", "plan": "DPU radne zone Dračevac", "izvor": "DPU radne zone Dračevac (split.hr), vektorizirano iz PDF-a"}}, {"type": "Feature", "geometry": {"type": "Polygon", "coordinates": [[[16.4967166, 43.5275976], [16.496748, 43.5275949], [16.4967475, 43.527593], [16.4967166, 43.5275976]]]}, "properties": {"tema": "bujica", "opis": "Bujični kanal", "cad_sloj": "RUBEN-BUJICA_NOVO", "list": "2c_Kanalizacijska mreža_ID_DPU_DRACEVAC", "plan": "DPU radne zone Dračevac", "izvor": "DPU radne zone Dračevac (split.hr), vektorizirano iz PDF-a"}}, {"type": "Feature", "geometry": {"type": "Polygon", "coordinates": [[[16.4967632, 43.5275926], [16.4967626, 43.5275907], [16.496794, 43.5275881], [16.4967632, 43.5275926]]]}, "properties": {"tema": "bujica", "opis": "Bujični kanal", "cad_sloj": "RUBEN-BUJICA_NOVO", "list": "2c_Kanalizacijska mreža_ID_DPU_DRACEVAC", "plan": "DPU radne zone Dračevac", "izvor": "DPU radne zone Dračevac (split.hr), vektorizirano iz PDF-a"}}, {"type": "Feature", "geometry": {"type": "Polygon", "coordinates": [[[16.4967626, 43.5275907], [16.496794, 43.5275881], [16.4967935, 43.5275862], [16.4967626, 43.5275907]]]}, "properties": {"tema": "bujica", "opis": "Bujični kanal", "cad_sloj": "RUBEN-BUJICA_NOVO", "list": "2c_Kanalizacijska mreža_ID_DPU_DRACEVAC", "plan": "DPU radne zone Dračevac", "izvor": "DPU radne zone Dračevac (split.hr), vektorizirano iz PDF-a"}}, {"type": "Feature", "geometry": {"type": "Polygon", "coordinates": [[[16.4968092, 43.5275858], [16.4968092, 43.5275839], [16.49684, 43.5275812], [16.4968092, 43.5275858]]]}, "properties": {"tema": "bujica", "opis": "Bujični kanal", "cad_sloj": "RUBEN-BUJICA_NOVO", "list": "2c_Kanalizacijska mreža_ID_DPU_DRACEVAC", "plan": "DPU radne zone Dračevac", "izvor": "DPU radne zone Dračevac (split.hr), vektorizirano iz PDF-a"}}, {"type": "Feature", "geometry": {"type": "Polygon", "coordinates": [[[16.4968092, 43.5275839], [16.49684, 43.5275812], [16.4968395, 43.5275793], [16.4968092, 43.5275839]]]}, "properties": {"tema": "bujica", "opis": "Bujični kanal", "cad_sloj": "RUBEN-BUJICA_NOVO", "list": "2c_Kanalizacijska mreža_ID_DPU_DRACEVAC", "plan": "DPU radne zone Dračevac", "izvor": "DPU radne zone Dračevac (split.hr), vektorizirano iz PDF-a"}}, {"type": "Feature", "geometry": {"type": "Polygon", "coordinates": [[[16.4968557, 43.5275789], [16.4968552, 43.527577], [16.4968861, 43.527574], [16.4968557, 43.5275789]]]}, "properties": {"tema": "bujica", "opis": "Bujični kanal", "cad_sloj": "RUBEN-BUJICA_NOVO", "list": "2c_Kanalizacijska mreža_ID_DPU_DRACEVAC", "plan": "DPU radne zone Dračevac", "izvor": "DPU radne zone Dračevac (split.hr), vektorizirano iz PDF-a"}}, {"type": "Feature", "geometry": {"type": "Polygon", "coordinates": [[[16.4968552, 43.527577], [16.4968861, 43.527574], [16.4968856, 43.5275725], [16.4968552, 43.527577]]]}, "properties": {"tema": "bujica", "opis": "Bujični kanal", "cad_sloj": "RUBEN-BUJICA_NOVO", "list": "2c_Kanalizacijska mreža_ID_DPU_DRACEVAC", "plan": "DPU radne zone Dračevac", "izvor": "DPU radne zone Dračevac (split.hr), vektorizirano iz PDF-a"}}, {"type": "Feature", "geometry": {"type": "Polygon", "coordinates": [[[16.4969018, 43.5275717], [16.4969013, 43.5275702], [16.4969321, 43.5275671], [16.4969018, 43.5275717]]]}, "properties": {"tema": "bujica", "opis": "Bujični kanal", "cad_sloj": "RUBEN-BUJICA_NOVO", "list": "2c_Kanalizacijska mreža_ID_DPU_DRACEVAC", "plan": "DPU radne zone Dračevac", "izvor": "DPU radne zone Dračevac (split.hr), vektorizirano iz PDF-a"}}, {"type": "Feature", "geometry": {"type": "Polygon", "coordinates": [[[16.4969013, 43.5275702], [16.4969321, 43.5275671], [16.4969316, 43.5275656], [16.4969013, 43.5275702]]]}, "properties": {"tema": "bujica", "opis": "Bujični kanal", "cad_sloj": "RUBEN-BUJICA_NOVO", "list": "2c_Kanalizacijska mreža_ID_DPU_DRACEVAC", "plan": "DPU radne zone Dračevac", "izvor": "DPU radne zone Dračevac (split.hr), vektorizirano iz PDF-a"}}, {"type": "Feature", "geometry": {"type": "Polygon", "coordinates": [[[16.4969478, 43.5275649], [16.4969473, 43.5275633], [16.4969818, 43.5275599], [16.4969478, 43.5275649]]]}, "properties": {"tema": "bujica", "opis": "Bujični kanal", "cad_sloj": "RUBEN-BUJICA_NOVO", "list": "2c_Kanalizacijska mreža_ID_DPU_DRACEVAC", "plan": "DPU radne zone Dračevac", "izvor": "DPU radne zone Dračevac (split.hr), vektorizirano iz PDF-a"}}, {"type": "Feature", "geometry": {"type": "Polygon", "coordinates": [[[16.4969473, 43.5275633], [16.4969818, 43.5275599], [16.4969813, 43.527558], [16.4969473, 43.5275633]]]}, "properties": {"tema": "bujica", "opis": "Bujični kanal", "cad_sloj": "RUBEN-BUJICA_NOVO", "list": "2c_Kanalizacijska mreža_ID_DPU_DRACEVAC", "plan": "DPU radne zone Dračevac", "izvor": "DPU radne zone Dračevac (split.hr), vektorizirano iz PDF-a"}}, {"type": "Feature", "geometry": {"type": "Polygon", "coordinates": [[[16.4967569, 43.5276052], [16.4967527, 43.5276033], [16.4967836, 43.5275706], [16.4967569, 43.5276052]]]}, "properties": {"tema": "bujica", "opis": "Bujični kanal", "cad_sloj": "RUBEN-BUJICA_NOVO", "list": "2c_Kanalizacijska mreža_ID_DPU_DRACEVAC", "plan": "DPU radne zone Dračevac", "izvor": "DPU radne zone Dračevac (split.hr), vektorizirano iz PDF-a"}}, {"type": "Feature", "geometry": {"type": "Polygon", "coordinates": [[[16.4967527, 43.5276033], [16.4967836, 43.5275706], [16.4967794, 43.5275687], [16.4967527, 43.5276033]]]}, "properties": {"tema": "bujica", "opis": "Bujični kanal", "cad_sloj": "RUBEN-BUJICA_NOVO", "list": "2c_Kanalizacijska mreža_ID_DPU_DRACEVAC", "plan": "DPU radne zone Dračevac", "izvor": "DPU radne zone Dračevac (split.hr), vektorizirano iz PDF-a"}}, {"type": "Feature", "geometry": {"type": "Polygon", "coordinates": [[[16.4967914, 43.5275964], [16.4967883, 43.5275995], [16.496749, 43.5275732], [16.4967914, 43.5275964]]]}, "properties": {"tema": "bujica", "opis": "Bujični kanal", "cad_sloj": "RUBEN-BUJICA_NOVO", "list": "2c_Kanalizacijska mreža_ID_DPU_DRACEVAC", "plan": "DPU radne zone Dračevac", "izvor": "DPU radne zone Dračevac (split.hr), vektorizirano iz PDF-a"}}, {"type": "Feature", "geometry": {"type": "Polygon", "coordinates": [[[16.4967883, 43.5275995], [16.496749, 43.5275732], [16.4967459, 43.5275763], [16.4967883, 43.5275995]]]}, "properties": {"tema": "bujica", "opis": "Bujični kanal", "cad_sloj": "RUBEN-BUJICA_NOVO", "list": "2c_Kanalizacijska mreža_ID_DPU_DRACEVAC", "plan": "DPU radne zone Dračevac", "izvor": "DPU radne zone Dračevac (split.hr), vektorizirano iz PDF-a"}}, {"type": "Feature", "geometry": {"type": "Polygon", "coordinates": [[[16.4963923, 43.5276585], [16.4963881, 43.5276566], [16.4964195, 43.5276238], [16.4963923, 43.5276585]]]}, "properties": {"tema": "bujica", "opis": "Bujični kanal", "cad_sloj": "RUBEN-BUJICA_NOVO", "list": "2c_Kanalizacijska mreža_ID_DPU_DRACEVAC", "plan": "DPU radne zone Dračevac", "izvor": "DPU radne zone Dračevac (split.hr), vektorizirano iz PDF-a"}}, {"type": "Feature", "geometry": {"type": "Polygon", "coordinates": [[[16.4963881, 43.5276566], [16.4964195, 43.5276238], [16.4964153, 43.5276219], [16.4963881, 43.5276566]]]}, "properties": {"tema": "bujica", "opis": "Bujični kanal", "cad_sloj": "RUBEN-BUJICA_NOVO", "list": "2c_Kanalizacijska mreža_ID_DPU_DRACEVAC", "plan": "DPU radne zone Dračevac", "izvor": "DPU radne zone Dračevac (split.hr), vektorizirano iz PDF-a"}}, {"type": "Feature", "geometry": {"type": "Polygon", "coordinates": [[[16.4964268, 43.5276497], [16.4964242, 43.5276528], [16.4963849, 43.5276265], [16.4964268, 43.5276497]]]}, "properties": {"tema": "bujica", "opis": "Bujični kanal", "cad_sloj": "RUBEN-BUJICA_NOVO", "list": "2c_Kanalizacijska mreža_ID_DPU_DRACEVAC", "plan": "DPU radne zone Dračevac", "izvor": "DPU radne zone Dračevac (split.hr), vektorizirano iz PDF-a"}}, {"type": "Feature", "geometry": {"type": "Polygon", "coordinates": [[[16.4964242, 43.5276528], [16.4963849, 43.5276265], [16.4963818, 43.5276296], [16.4964242, 43.5276528]]]}, "properties": {"tema": "bujica", "opis": "Bujični kanal", "cad_sloj": "RUBEN-BUJICA_NOVO", "list": "2c_Kanalizacijska mreža_ID_DPU_DRACEVAC", "plan": "DPU radne zone Dračevac", "izvor": "DPU radne zone Dračevac (split.hr), vektorizirano iz PDF-a"}}]}