{"type": "FeatureCollection", "features": [{"type": "Feature", "geometry": {"type": "LineString", "coordinates": [[16.4838367, 43.5292477], [16.483938, 43.5293215]]}, "properties": {"tema": "granica-obalni-pojas", "opis": "Granica zaštićenog obalnog pojasa", "cad_sloj": "boja #259500", "list": "1. Koristenje i namjena", "plan": "UPU Bilice sjever", "izvor": "UPU Bilice sjever (split.hr), vektorizirano iz PDF-a"}}, {"type": "Feature", "geometry": {"type": "LineString", "coordinates": [[16.4817823, 43.5275612], [16.484192, 43.5293152]]}, "properties": {"tema": "granica-obalni-pojas", "opis": "Granica zaštićenog obalnog pojasa", "cad_sloj": "boja #259500", "list": "1. Koristenje i namjena", "plan": "UPU Bilice sjever", "izvor": "UPU Bilice sjever (split.hr), vektorizirano iz PDF-a"}}, {"type": "Feature", "geometry": {"type": "LineString", "coordinates": [[16.4819086, 43.5274623], [16.4844322, 43.529299]]}, "properties": {"tema": "granica-obalni-pojas", "opis": "Granica zaštićenog obalnog pojasa", "cad_sloj": "boja #259500", "list": "1. Koristenje i namjena", "plan": "UPU Bilice sjever", "izvor": "UPU Bilice sjever (split.hr), vektorizirano iz PDF-a"}}, {"type": "Feature", "geometry": {"type": "LineString", "coordinates": [[16.4819126, 43.5272741], [16.4846634, 43.5292766]]}, "properties": {"tema": "granica-obalni-pojas", "opis": "Granica zaštićenog obalnog pojasa", "cad_sloj": "boja #259500", "list": "1. Koristenje i namjena", "plan": "UPU Bilice sjever", "izvor": "UPU Bilice sjever (split.hr), vektorizirano iz PDF-a"}}, {"type": "Feature", "geometry": {"type": "LineString", "coordinates": [[16.4820396, 43.5271756], [16.4849062, 43.5292621]]}, "properties": {"tema": "granica-obalni-pojas", "opis": "Granica zaštićenog obalnog pojasa", "cad_sloj": "boja #259500", "list": "1. Koristenje i namjena", "plan": "UPU Bilice sjever", "izvor": "UPU Bilice sjever (split.hr), vektorizirano iz PDF-a"}}, {"type": "Feature", "geometry": {"type": "LineString", "coordinates": [[16.4821669, 43.5270773], [16.4851314, 43.5292351]]}, "properties": {"tema": "granica-obalni-pojas", "opis": "Granica zaštićenog obalnog pojasa", "cad_sloj": "boja #259500", "list": "1. Koristenje i namjena", "plan": "UPU Bilice sjever", "izvor": "UPU Bilice sjever (split.hr), vektorizirano iz PDF-a"}}, {"type": "Feature", "geometry": {"type": "LineString", "coordinates": [[16.482296, 43.5269803], [16.4853519, 43.5292047]]}, "properties": {"tema": "granica-obalni-pojas", "opis": "Granica zaštićenog obalnog pojasa", "cad_sloj": "boja #259500", "list": "1. Koristenje i namjena", "plan": "UPU Bilice sjever", "izvor": "UPU Bilice sjever (split.hr), vektorizirano iz PDF-a"}}, {"type": "Feature", "geometry": {"type": "LineString", "coordinates": [[16.4824272, 43.5268847], [16.4855726, 43.5291742]]}, "properties": {"tema": "granica-obalni-pojas", "opis": "Granica zaštićenog obalnog pojasa", "cad_sloj": "boja #259500", "list": "1. Koristenje i namjena", "plan": "UPU Bilice sjever", "izvor": "UPU Bilice sjever (split.hr), vektorizirano iz PDF-a"}}, {"type": "Feature", "geometry": {"type": "LineString", "coordinates": [[16.4825582, 43.5267893], [16.4858002, 43.5291489]]}, "properties": {"tema": "granica-obalni-pojas", "opis": "Granica zaštićenog obalnog pojasa", "cad_sloj": "boja #259500", "list": "1. Koristenje i namjena", "plan": "UPU Bilice sjever", "izvor": "UPU Bilice sjever (split.hr), vektorizirano iz PDF-a"}}, {"type": "Feature", "geometry": {"type": "LineString", "coordinates": [[16.4826894, 43.5266936], [16.4860783, 43.5291604]]}, "properties": {"tema": "granica-obalni-pojas", "opis": "Granica zaštićenog obalnog pojasa", "cad_sloj": "boja #259500", "list": "1. Koristenje i namjena", "plan": "UPU Bilice sjever", "izvor": "UPU Bilice sjever (split.hr), vektorizirano iz PDF-a"}}, {"type": "Feature", "geometry": {"type": "LineString", "coordinates": [[16.4828115, 43.5265915], [16.4863488, 43.5291663]]}, "properties": {"tema": "granica-obalni-pojas", "opis": "Granica zaštićenog obalnog pojasa", "cad_sloj": "boja #259500", "list": "1. Koristenje i namjena", "plan": "UPU Bilice sjever", "izvor": "UPU Bilice sjever (split.hr), vektorizirano iz PDF-a"}}, {"type": "Feature", "geometry": {"type": "LineString", "coordinates": [[16.4829526, 43.5265033], [16.4866164, 43.5291701]]}, "properties": {"tema": "granica-obalni-pojas", "opis": "Granica zaštićenog obalnog pojasa", "cad_sloj": "boja #259500", "list": "1. Koristenje i namjena", "plan": "UPU Bilice sjever", "izvor": "UPU Bilice sjever (split.hr), vektorizirano iz PDF-a"}}, {"type": "Feature", "geometry": {"type": "LineString", "coordinates": [[16.483092, 43.5264138], [16.4868843, 43.529174]]}, "properties": {"tema": "granica-obalni-pojas", "opis": "Granica zaštićenog obalnog pojasa", "cad_sloj": "boja #259500", "list": "1. Koristenje i namjena", "plan": "UPU Bilice sjever", "izvor": "UPU Bilice sjever (split.hr), vektorizirano iz PDF-a"}}, {"type": "Feature", "geometry": {"type": "LineString", "coordinates": [[16.4832315, 43.5263243], [16.487152, 43.5291778]]}, "properties": {"tema": "granica-obalni-pojas", "opis": "Granica zaštićenog obalnog pojasa", "cad_sloj": "boja #259500", "list": "1. Koristenje i namjena", "plan": "UPU Bilice sjever", "izvor": "UPU Bilice sjever (split.hr), vektorizirano iz PDF-a"}}, {"type": "Feature", "geometry": {"type": "LineString", "coordinates": [[16.4833725, 43.5262359], [16.4874196, 43.5291817]]}, "properties": {"tema": "granica-obalni-pojas", "opis": "Granica zaštićenog obalnog pojasa", "cad_sloj": "boja #259500", "list": "1. Koristenje i namjena", "plan": "UPU Bilice sjever", "izvor": "UPU Bilice sjever (split.hr), vektorizirano iz PDF-a"}}, {"type": "Feature", "geometry": {"type": "LineString", "coordinates": [[16.4835136, 43.5261477], [16.4876875, 43.5291857]]}, "properties": {"tema": "granica-obalni-pojas", "opis": "Granica zaštićenog obalnog pojasa", "cad_sloj": "boja #259500", "list": "1. Koristenje i namjena", "plan": "UPU Bilice sjever", "izvor": "UPU Bilice sjever (split.hr), vektorizirano iz PDF-a"}}, {"type": "Feature", "geometry": {"type": "LineString", "coordinates": [[16.4836561, 43.5260604], [16.4879554, 43.5291897]]}, "properties": {"tema": "granica-obalni-pojas", "opis": "Granica zaštićenog obalnog pojasa", "cad_sloj": "boja #259500", "list": "1. Koristenje i namjena", "plan": "UPU Bilice sjever", "izvor": "UPU Bilice sjever (split.hr), vektorizirano iz PDF-a"}}, {"type": "Feature", "geometry": {"type": "LineString", "coordinates": [[16.4838237, 43.5259915], [16.4882225, 43.529193]]}, "properties": {"tema": "granica-obalni-pojas", "opis": "Granica zaštićenog obalnog pojasa", "cad_sloj": "boja #259500", "list": "1. Koristenje i namjena", "plan": "UPU Bilice sjever", "izvor": "UPU Bilice sjever (split.hr), vektorizirano iz PDF-a"}}, {"type": "Feature", "geometry": {"type": "LineString", "coordinates": [[16.4839518, 43.5258938], [16.4884888, 43.5291959]]}, "properties": {"tema": "granica-obalni-pojas", "opis": "Granica zaštićenog obalnog pojasa", "cad_sloj": "boja #259500", "list": "1. Koristenje i namjena", "plan": "UPU Bilice sjever", "izvor": "UPU Bilice sjever (split.hr), vektorizirano iz PDF-a"}}, {"type": "Feature", "geometry": {"type": "LineString", "coordinates": [[16.4839594, 43.5257082], [16.4887541, 43.529198]]}, "properties": {"tema": "granica-obalni-pojas", "opis": "Granica zaštićenog obalnog pojasa", "cad_sloj": "boja #259500", "list": "1. Koristenje i namjena", "plan": "UPU Bilice sjever", "izvor": "UPU Bilice sjever (split.hr), vektorizirano iz PDF-a"}}, {"type": "Feature", "geometry": {"type": "LineString", "coordinates": [[16.484187, 43.5256829], [16.4890193, 43.5292001]]}, "properties": {"tema": "granica-obalni-pojas", "opis": "Granica zaštićenog obalnog pojasa", "cad_sloj": "boja #259500", "list": "1. Koristenje i namjena", "plan": "UPU Bilice sjever", "izvor": "UPU Bilice sjever (split.hr), vektorizirano iz PDF-a"}}, {"type": "Feature", "geometry": {"type": "LineString", "coordinates": [[16.4844148, 43.5256578], [16.4888686, 43.5288994]]}, "properties": {"tema": "granica-obalni-pojas", "opis": "Granica zaštićenog obalnog pojasa", "cad_sloj": "boja #259500", "list": "1. Koristenje i namjena", "plan": "UPU Bilice sjever", "izvor": "UPU Bilice sjever (split.hr), vektorizirano iz PDF-a"}}, {"type": "Feature", "geometry": {"type": "LineString", "coordinates": [[16.4846423, 43.5256324], [16.4886699, 43.5285637]]}, "properties": {"tema": "granica-obalni-pojas", "opis": "Granica zaštićenog obalnog pojasa", "cad_sloj": "boja #259500", "list": "1. Koristenje i namjena", "plan": "UPU Bilice sjever", "izvor": "UPU Bilice sjever (split.hr), vektorizirano iz PDF-a"}}, {"type": "Feature", "geometry": {"type": "LineString", "coordinates": [[16.4848699, 43.5256071], [16.488423, 43.5281933]]}, "properties": {"tema": "granica-obalni-pojas", "opis": "Granica zaštićenog obalnog pojasa", "cad_sloj": "boja #259500", "list": "1. Koristenje i namjena", "plan": "UPU Bilice sjever", "izvor": "UPU Bilice sjever (split.hr), vektorizirano iz PDF-a"}}, {"type": "Feature", "geometry": {"type": "LineString", "coordinates": [[16.4850972, 43.5255814], [16.4880748, 43.5277489]]}, "properties": {"tema": "granica-obalni-pojas", "opis": "Granica zaštićenog obalnog pojasa", "cad_sloj": "boja #259500", "list": "1. Koristenje i namjena", "plan": "UPU Bilice sjever", "izvor": "UPU Bilice sjever (split.hr), vektorizirano iz PDF-a"}}, {"type": "Feature", "geometry": {"type": "LineString", "coordinates": [[16.4853164, 43.52555], [16.487613, 43.5272217]]}, "properties": {"tema": "granica-obalni-pojas", "opis": "Granica zaštićenog obalnog pojasa", "cad_sloj": "boja #259500", "list": "1. Koristenje i namjena", "plan": "UPU Bilice sjever", "izvor": "UPU Bilice sjever (split.hr), vektorizirano iz PDF-a"}}, {"type": "Feature", "geometry": {"type": "LineString", "coordinates": [[16.4855424, 43.5255236], [16.4866624, 43.5263388]]}, "properties": {"tema": "granica-obalni-pojas", "opis": "Granica zaštićenog obalnog pojasa", "cad_sloj": "boja #259500", "list": "1. Koristenje i namjena", "plan": "UPU Bilice sjever", "izvor": "UPU Bilice sjever (split.hr), vektorizirano iz PDF-a"}}, {"type": "Feature", "geometry": {"type": "LineString", "coordinates": [[16.4891314, 43.5293777], [16.4891358, 43.5294436], [16.4891081, 43.5293834]]}, "properties": {"tema": "granica-obalni-pojas", "opis": "Granica zaštićenog obalnog pojasa", "cad_sloj": "boja #259500", "list": "1. Koristenje i namjena", "plan": "UPU Bilice sjever", "izvor": "UPU Bilice sjever (split.hr), vektorizirano iz PDF-a"}}, {"type": "Feature", "geometry": {"type": "LineString", "coordinates": [[16.4891358, 43.5294436], [16.489162, 43.5294436], [16.4891314, 43.5293777]]}, "properties": {"tema": "granica-obalni-pojas", "opis": "Granica zaštićenog obalnog pojasa", "cad_sloj": "boja #259500", "list": "1. Koristenje i namjena", "plan": "UPU Bilice sjever", "izvor": "UPU Bilice sjever (split.hr), vektorizirano iz PDF-a"}}, {"type": "Feature", "geometry": {"type": "LineString", "coordinates": [[16.4891139, 43.5293398], [16.4890905, 43.5293455], [16.4890788, 43.5292639]]}, "properties": {"tema": "granica-obalni-pojas", "opis": "Granica zaštićenog obalnog pojasa", "cad_sloj": "boja #259500", "list": "1. Koristenje i namjena", "plan": "UPU Bilice sjever", "izvor": "UPU Bilice sjever (split.hr), vektorizirano iz PDF-a"}}, {"type": "Feature", "geometry": {"type": "LineString", "coordinates": [[16.4890905, 43.5293455], [16.4890788, 43.5292639], [16.4890555, 43.5292697]]}, "properties": {"tema": "granica-obalni-pojas", "opis": "Granica zaštićenog obalnog pojasa", "cad_sloj": "boja #259500", "list": "1. Koristenje i namjena", "plan": "UPU Bilice sjever", "izvor": "UPU Bilice sjever (split.hr), vektorizirano iz PDF-a"}}, {"type": "Feature", "geometry": {"type": "LineString", "coordinates": [[16.4890605, 43.5292256], [16.4890374, 43.5292323], [16.4890199, 43.5291513]]}, "properties": {"tema": "granica-obalni-pojas", "opis": "Granica zaštićenog obalnog pojasa", "cad_sloj": "boja #259500", "list": "1. Koristenje i namjena", "plan": "UPU Bilice sjever", "izvor": "UPU Bilice sjever (split.hr), vektorizirano iz PDF-a"}}, {"type": "Feature", "geometry": {"type": "LineString", "coordinates": [[16.4890374, 43.5292323], [16.4890199, 43.5291513], [16.4889968, 43.529158]]}, "properties": {"tema": "granica-obalni-pojas", "opis": "Granica zaštićenog obalnog pojasa", "cad_sloj": "boja #259500", "list": "1. Koristenje i namjena", "plan": "UPU Bilice sjever", "izvor": "UPU Bilice sjever (split.hr), vektorizirano iz PDF-a"}}, {"type": "Feature", "geometry": {"type": "LineString", "coordinates": [[16.4889995, 43.5291142], [16.4889764, 43.5291208], [16.4889589, 43.5290399]]}, "properties": {"tema": "granica-obalni-pojas", "opis": "Granica zaštićenog obalnog pojasa", "cad_sloj": "boja #259500", "list": "1. Koristenje i namjena", "plan": "UPU Bilice sjever", "izvor": "UPU Bilice sjever (split.hr), vektorizirano iz PDF-a"}}, {"type": "Feature", "geometry": {"type": "LineString", "coordinates": [[16.4889764, 43.5291208], [16.4889589, 43.5290399], [16.4889358, 43.5290465]]}, "properties": {"tema": "granica-obalni-pojas", "opis": "Granica zaštićenog obalnog pojasa", "cad_sloj": "boja #259500", "list": "1. Koristenje i namjena", "plan": "UPU Bilice sjever", "izvor": "UPU Bilice sjever (split.hr), vektorizirano iz PDF-a"}}, {"type": "Feature", "geometry": {"type": "LineString", "coordinates": [[16.4889385, 43.5290027], [16.4889154, 43.5290094], [16.4888976, 43.5289282]]}, "properties": {"tema": "granica-obalni-pojas", "opis": "Granica zaštićenog obalnog pojasa", "cad_sloj": "boja #259500", "list": "1. Koristenje i namjena", "plan": "UPU Bilice sjever", "izvor": "UPU Bilice sjever (split.hr), vektorizirano iz PDF-a"}}, {"type": "Feature", "geometry": {"type": "LineString", "coordinates": [[16.4889154, 43.5290094], [16.4888976, 43.5289282], [16.4888748, 43.5289349]]}, "properties": {"tema": "granica-obalni-pojas", "opis": "Granica zaštićenog obalnog pojasa", "cad_sloj": "boja #259500", "list": "1. Koristenje i namjena", "plan": "UPU Bilice sjever", "izvor": "UPU Bilice sjever (split.hr), vektorizirano iz PDF-a"}}, {"type": "Feature", "geometry": {"type": "LineString", "coordinates": [[16.4888775, 43.5288911], [16.4888544, 43.5288977], [16.4888366, 43.5288167]]}, "properties": {"tema": "granica-obalni-pojas", "opis": "Granica zaštićenog obalnog pojasa", "cad_sloj": "boja #259500", "list": "1. Koristenje i namjena", "plan": "UPU Bilice sjever", "izvor": "UPU Bilice sjever (split.hr), vektorizirano iz PDF-a"}}, {"type": "Feature", "geometry": {"type": "LineString", "coordinates": [[16.4888544, 43.5288977], [16.4888366, 43.5288167], [16.4888136, 43.5288234]]}, "properties": {"tema": "granica-obalni-pojas", "opis": "Granica zaštićenog obalnog pojasa", "cad_sloj": "boja #259500", "list": "1. Koristenje i namjena", "plan": "UPU Bilice sjever", "izvor": "UPU Bilice sjever (split.hr), vektorizirano iz PDF-a"}}, {"type": "Feature", "geometry": {"type": "LineString", "coordinates": [[16.4888162, 43.5287796], [16.4887934, 43.5287863], [16.4887756, 43.5287053]]}, "properties": {"tema": "granica-obalni-pojas", "opis": "Granica zaštićenog obalnog pojasa", "cad_sloj": "boja #259500", "list": "1. Koristenje i namjena", "plan": "UPU Bilice sjever", "izvor": "UPU Bilice sjever (split.hr), vektorizirano iz PDF-a"}}, {"type": "Feature", "geometry": {"type": "LineString", "coordinates": [[16.4887934, 43.5287863], [16.4887756, 43.5287053], [16.4887526, 43.5287119]]}, "properties": {"tema": "granica-obalni-pojas", "opis": "Granica zaštićenog obalnog pojasa", "cad_sloj": "boja #259500", "list": "1. Koristenje i namjena", "plan": "UPU Bilice sjever", "izvor": "UPU Bilice sjever (split.hr), vektorizirano iz PDF-a"}}, {"type": "Feature", "geometry": {"type": "LineString", "coordinates": [[16.4887531, 43.5286681], [16.4887306, 43.5286759], [16.488705, 43.5285961]]}, "properties": {"tema": "granica-obalni-pojas", "opis": "Granica zaštićenog obalnog pojasa", "cad_sloj": "boja #259500", "list": "1. Koristenje i namjena", "plan": "UPU Bilice sjever", "izvor": "UPU Bilice sjever (split.hr), vektorizirano iz PDF-a"}}, {"type": "Feature", "geometry": {"type": "LineString", "coordinates": [[16.4887306, 43.5286759], [16.488705, 43.5285961], [16.4886827, 43.5286039]]}, "properties": {"tema": "granica-obalni-pojas", "opis": "Granica zaštićenog obalnog pojasa", "cad_sloj": "boja #259500", "list": "1. Koristenje i namjena", "plan": "UPU Bilice sjever", "izvor": "UPU Bilice sjever (split.hr), vektorizirano iz PDF-a"}}, {"type": "Feature", "geometry": {"type": "LineString", "coordinates": [[16.4886811, 43.5285601], [16.4886589, 43.5285679], [16.4886332, 43.5284881]]}, "properties": {"tema": "granica-obalni-pojas", "opis": "Granica zaštićenog obalnog pojasa", "cad_sloj": "boja #259500", "list": "1. Koristenje i namjena", "plan": "UPU Bilice sjever", "izvor": "UPU Bilice sjever (split.hr), vektorizirano iz PDF-a"}}, {"type": "Feature", "geometry": {"type": "LineString", "coordinates": [[16.4886589, 43.5285679], [16.4886332, 43.5284881], [16.488611, 43.5284959]]}, "properties": {"tema": "granica-obalni-pojas", "opis": "Granica zaštićenog obalnog pojasa", "cad_sloj": "boja #259500", "list": "1. Koristenje i namjena", "plan": "UPU Bilice sjever", "izvor": "UPU Bilice sjever (split.hr), vektorizirano iz PDF-a"}}, {"type": "Feature", "geometry": {"type": "LineString", "coordinates": [[16.4886091, 43.528452], [16.4885869, 43.5284599], [16.4885612, 43.52838]]}, "properties": {"tema": "granica-obalni-pojas", "opis": "Granica zaštićenog obalnog pojasa", "cad_sloj": "boja #259500", "list": "1. Koristenje i namjena", "plan": "UPU Bilice sjever", "izvor": "UPU Bilice sjever (split.hr), vektorizirano iz PDF-a"}}, {"type": "Feature", "geometry": {"type": "LineString", "coordinates": [[16.4885869, 43.5284599], [16.4885612, 43.52838], [16.488539, 43.5283878]]}, "properties": {"tema": "granica-obalni-pojas", "opis": "Granica zaštićenog obalnog pojasa", "cad_sloj": "boja #259500", "list": "1. Koristenje i namjena", "plan": "UPU Bilice sjever", "izvor": "UPU Bilice sjever (split.hr), vektorizirano iz PDF-a"}}, {"type": "Feature", "geometry": {"type": "LineString", "coordinates": [[16.4885371, 43.528344], [16.4885149, 43.5283518], [16.4884892, 43.528272]]}, "properties": {"tema": "granica-obalni-pojas", "opis": "Granica zaštićenog obalnog pojasa", "cad_sloj": "boja #259500", "list": "1. Koristenje i namjena", "plan": "UPU Bilice sjever", "izvor": "UPU Bilice sjever (split.hr), vektorizirano iz PDF-a"}}, {"type": "Feature", "geometry": {"type": "LineString", "coordinates": [[16.4885149, 43.5283518], [16.4884892, 43.528272], [16.488467, 43.5282798]]}, "properties": {"tema": "granica-obalni-pojas", "opis": "Granica zaštićenog obalnog pojasa", "cad_sloj": "boja #259500", "list": "1. Koristenje i namjena", "plan": "UPU Bilice sjever", "izvor": "UPU Bilice sjever (split.hr), vektorizirano iz PDF-a"}}, {"type": "Feature", "geometry": {"type": "LineString", "coordinates": [[16.4884654, 43.528236], [16.4884432, 43.5282438], [16.4884175, 43.5281639]]}, "properties": {"tema": "granica-obalni-pojas", "opis": "Granica zaštićenog obalnog pojasa", "cad_sloj": "boja #259500", "list": "1. Koristenje i namjena", "plan": "UPU Bilice sjever", "izvor": "UPU Bilice sjever (split.hr), vektorizirano iz PDF-a"}}, {"type": "Feature", "geometry": {"type": "LineString", "coordinates": [[16.4884432, 43.5282438], [16.4884175, 43.5281639], [16.488395, 43.5281717]]}, "properties": {"tema": "granica-obalni-pojas", "opis": "Granica zaštićenog obalnog pojasa", "cad_sloj": "boja #259500", "list": "1. Koristenje i namjena", "plan": "UPU Bilice sjever", "izvor": "UPU Bilice sjever (split.hr), vektorizirano iz PDF-a"}}, {"type": "Feature", "geometry": {"type": "LineString", "coordinates": [[16.48839, 43.5281285], [16.4883685, 43.5281376], [16.488335, 43.5280593]]}, "properties": {"tema": "granica-obalni-pojas", "opis": "Granica zaštićenog obalnog pojasa", "cad_sloj": "boja #259500", "list": "1. Koristenje i namjena", "plan": "UPU Bilice sjever", "izvor": "UPU Bilice sjever (split.hr), vektorizirano iz PDF-a"}}, {"type": "Feature", "geometry": {"type": "LineString", "coordinates": [[16.4883685, 43.5281376], [16.488335, 43.5280593], [16.4883136, 43.5280683]]}, "properties": {"tema": "granica-obalni-pojas", "opis": "Granica zaštićenog obalnog pojasa", "cad_sloj": "boja #259500", "list": "1. Koristenje i namjena", "plan": "UPU Bilice sjever", "izvor": "UPU Bilice sjever (split.hr), vektorizirano iz PDF-a"}}, {"type": "Feature", "geometry": {"type": "LineString", "coordinates": [[16.4883075, 43.5280246], [16.4882861, 43.5280336], [16.4882526, 43.5279553]]}, "properties": {"tema": "granica-obalni-pojas", "opis": "Granica zaštićenog obalnog pojasa", "cad_sloj": "boja #259500", "list": "1. Koristenje i namjena", "plan": "UPU Bilice sjever", "izvor": "UPU Bilice sjever (split.hr), vektorizirano iz PDF-a"}}, {"type": "Feature", "geometry": {"type": "LineString", "coordinates": [[16.4882861, 43.5280336], [16.4882526, 43.5279553], [16.4882311, 43.5279642]]}, "properties": {"tema": "granica-obalni-pojas", "opis": "Granica zaštićenog obalnog pojasa", "cad_sloj": "boja #259500", "list": "1. Koristenje i namjena", "plan": "UPU Bilice sjever", "izvor": "UPU Bilice sjever (split.hr), vektorizirano iz PDF-a"}}, {"type": "Feature", "geometry": {"type": "LineString", "coordinates": [[16.4882251, 43.5279206], [16.4882039, 43.5279296], [16.4881704, 43.5278512]]}, "properties": {"tema": "granica-obalni-pojas", "opis": "Granica zaštićenog obalnog pojasa", "cad_sloj": "boja #259500", "list": "1. Koristenje i namjena", "plan": "UPU Bilice sjever", "izvor": "UPU Bilice sjever (split.hr), vektorizirano iz PDF-a"}}, {"type": "Feature", "geometry": {"type": "LineString", "coordinates": [[16.4882039, 43.5279296], [16.4881704, 43.5278512], [16.4881489, 43.5278602]]}, "properties": {"tema": "granica-obalni-pojas", "opis": "Granica zaštićenog obalnog pojasa", "cad_sloj": "boja #259500", "list": "1. Koristenje i namjena", "plan": "UPU Bilice sjever", "izvor": "UPU Bilice sjever (split.hr), vektorizirano iz PDF-a"}}, {"type": "Feature", "geometry": {"type": "LineString", "coordinates": [[16.4881429, 43.5278166], [16.4881214, 43.5278255], [16.4880879, 43.5277472]]}, "properties": {"tema": "granica-obalni-pojas", "opis": "Granica zaštićenog obalnog pojasa", "cad_sloj": "boja #259500", "list": "1. Koristenje i namjena", "plan": "UPU Bilice sjever", "izvor": "UPU Bilice sjever (split.hr), vektorizirano iz PDF-a"}}, {"type": "Feature", "geometry": {"type": "LineString", "coordinates": [[16.4881214, 43.5278255], [16.4880879, 43.5277472], [16.4880664, 43.5277562]]}, "properties": {"tema": "granica-obalni-pojas", "opis": "Granica zaštićenog obalnog pojasa", "cad_sloj": "boja #259500", "list": "1. Koristenje i namjena", "plan": "UPU Bilice sjever", "izvor": "UPU Bilice sjever (split.hr), vektorizirano iz PDF-a"}}, {"type": "Feature", "geometry": {"type": "LineString", "coordinates": [[16.4880604, 43.5277125], [16.4880389, 43.5277215], [16.4880078, 43.527646]]}, "properties": {"tema": "granica-obalni-pojas", "opis": "Granica zaštićenog obalnog pojasa", "cad_sloj": "boja #259500", "list": "1. Koristenje i namjena", "plan": "UPU Bilice sjever", "izvor": "UPU Bilice sjever (split.hr), vektorizirano iz PDF-a"}}, {"type": "Feature", "geometry": {"type": "LineString", "coordinates": [[16.4880389, 43.5277215], [16.4880078, 43.527646], [16.4879863, 43.527655]]}, "properties": {"tema": "granica-obalni-pojas", "opis": "Granica zaštićenog obalnog pojasa", "cad_sloj": "boja #259500", "list": "1. Koristenje i namjena", "plan": "UPU Bilice sjever", "izvor": "UPU Bilice sjever (split.hr), vektorizirano iz PDF-a"}}, {"type": "Feature", "geometry": {"type": "LineString", "coordinates": [[16.4880073, 43.5276456], [16.4879866, 43.5276554], [16.4880049, 43.527643]]}, "properties": {"tema": "granica-obalni-pojas", "opis": "Granica zaštićenog obalnog pojasa", "cad_sloj": "boja #259500", "list": "1. Koristenje i namjena", "plan": "UPU Bilice sjever", "izvor": "UPU Bilice sjever (split.hr), vektorizirano iz PDF-a"}}, {"type": "Feature", "geometry": {"type": "LineString", "coordinates": [[16.4879866, 43.5276554], [16.4880049, 43.527643], [16.4879842, 43.5276527]]}, "properties": {"tema": "granica-obalni-pojas", "opis": "Granica zaštićenog obalnog pojasa", "cad_sloj": "boja #259500", "list": "1. Koristenje i namjena", "plan": "UPU Bilice sjever", "izvor": "UPU Bilice sjever (split.hr), vektorizirano iz PDF-a"}}, {"type": "Feature", "geometry": {"type": "LineString", "coordinates": [[16.4879751, 43.5276094], [16.4879541, 43.5276192], [16.4879149, 43.5275424]]}, "properties": {"tema": "granica-obalni-pojas", "opis": "Granica zaštićenog obalnog pojasa", "cad_sloj": "boja #259500", "list": "1. Koristenje i namjena", "plan": "UPU Bilice sjever", "izvor": "UPU Bilice sjever (split.hr), vektorizirano iz PDF-a"}}, {"type": "Feature", "geometry": {"type": "LineString", "coordinates": [[16.4879541, 43.5276192], [16.4879149, 43.5275424], [16.4878942, 43.5275521]]}, "properties": {"tema": "granica-obalni-pojas", "opis": "Granica zaštićenog obalnog pojasa", "cad_sloj": "boja #259500", "list": "1. Koristenje i namjena", "plan": "UPU Bilice sjever", "izvor": "UPU Bilice sjever (split.hr), vektorizirano iz PDF-a"}}, {"type": "Feature", "geometry": {"type": "LineString", "coordinates": [[16.487885, 43.5275088], [16.4878641, 43.5275187], [16.4878248, 43.5274418]]}, "properties": {"tema": "granica-obalni-pojas", "opis": "Granica zaštićenog obalnog pojasa", "cad_sloj": "boja #259500", "list": "1. Koristenje i namjena", "plan": "UPU Bilice sjever", "izvor": "UPU Bilice sjever (split.hr), vektorizirano iz PDF-a"}}, {"type": "Feature", "geometry": {"type": "LineString", "coordinates": [[16.4878641, 43.5275187], [16.4878248, 43.5274418], [16.4878041, 43.5274517]]}, "properties": {"tema": "granica-obalni-pojas", "opis": "Granica zaštićenog obalnog pojasa", "cad_sloj": "boja #259500", "list": "1. Koristenje i namjena", "plan": "UPU Bilice sjever", "izvor": "UPU Bilice sjever (split.hr), vektorizirano iz PDF-a"}}, {"type": "Feature", "geometry": {"type": "LineString", "coordinates": [[16.4877949, 43.5274082], [16.487774, 43.5274181], [16.4877347, 43.5273411]]}, "properties": {"tema": "granica-obalni-pojas", "opis": "Granica zaštićenog obalnog pojasa", "cad_sloj": "boja #259500", "list": "1. Koristenje i namjena", "plan": "UPU Bilice sjever", "izvor": "UPU Bilice sjever (split.hr), vektorizirano iz PDF-a"}}, {"type": "Feature", "geometry": {"type": "LineString", "coordinates": [[16.487774, 43.5274181], [16.4877347, 43.5273411], [16.487714, 43.527351]]}, "properties": {"tema": "granica-obalni-pojas", "opis": "Granica zaštićenog obalnog pojasa", "cad_sloj": "boja #259500", "list": "1. Koristenje i namjena", "plan": "UPU Bilice sjever", "izvor": "UPU Bilice sjever (split.hr), vektorizirano iz PDF-a"}}, {"type": "Feature", "geometry": {"type": "LineString", "coordinates": [[16.4877049, 43.5273076], [16.4876839, 43.5273175], [16.4876447, 43.5272407]]}, "properties": {"tema": "granica-obalni-pojas", "opis": "Granica zaštićenog obalnog pojasa", "cad_sloj": "boja #259500", "list": "1. Koristenje i namjena", "plan": "UPU Bilice sjever", "izvor": "UPU Bilice sjever (split.hr), vektorizirano iz PDF-a"}}, {"type": "Feature", "geometry": {"type": "LineString", "coordinates": [[16.4876839, 43.5273175], [16.4876447, 43.5272407], [16.487624, 43.5272504]]}, "properties": {"tema": "granica-obalni-pojas", "opis": "Granica zaštićenog obalnog pojasa", "cad_sloj": "boja #259500", "list": "1. Koristenje i namjena", "plan": "UPU Bilice sjever", "izvor": "UPU Bilice sjever (split.hr), vektorizirano iz PDF-a"}}, {"type": "Feature", "geometry": {"type": "LineString", "coordinates": [[16.4876148, 43.5272072], [16.4875939, 43.5272169], [16.4875643, 43.5271508]]}, "properties": {"tema": "granica-obalni-pojas", "opis": "Granica zaštićenog obalnog pojasa", "cad_sloj": "boja #259500", "list": "1. Koristenje i namjena", "plan": "UPU Bilice sjever", "izvor": "UPU Bilice sjever (split.hr), vektorizirano iz PDF-a"}}, {"type": "Feature", "geometry": {"type": "LineString", "coordinates": [[16.4875939, 43.5272169], [16.4875643, 43.5271508], [16.4875436, 43.5271605]]}, "properties": {"tema": "granica-obalni-pojas", "opis": "Granica zaštićenog obalnog pojasa", "cad_sloj": "boja #259500", "list": "1. Koristenje i namjena", "plan": "UPU Bilice sjever", "izvor": "UPU Bilice sjever (split.hr), vektorizirano iz PDF-a"}}, {"type": "Feature", "geometry": {"type": "LineString", "coordinates": [[16.4875638, 43.5271502], [16.4875439, 43.5271611], [16.487553, 43.5271401]]}, "properties": {"tema": "granica-obalni-pojas", "opis": "Granica zaštićenog obalnog pojasa", "cad_sloj": "boja #259500", "list": "1. Koristenje i namjena", "plan": "UPU Bilice sjever", "izvor": "UPU Bilice sjever (split.hr), vektorizirano iz PDF-a"}}, {"type": "Feature", "geometry": {"type": "LineString", "coordinates": [[16.4875439, 43.5271611], [16.487553, 43.5271401], [16.4875334, 43.527151]]}, "properties": {"tema": "granica-obalni-pojas", "opis": "Granica zaštićenog obalnog pojasa", "cad_sloj": "boja #259500", "list": "1. Koristenje i namjena", "plan": "UPU Bilice sjever", "izvor": "UPU Bilice sjever (split.hr), vektorizirano iz PDF-a"}}, {"type": "Feature", "geometry": {"type": "LineString", "coordinates": [[16.4875201, 43.5271081], [16.4875002, 43.527119], [16.4874536, 43.5270443]]}, "properties": {"tema": "granica-obalni-pojas", "opis": "Granica zaštićenog obalnog pojasa", "cad_sloj": "boja #259500", "list": "1. Koristenje i namjena", "plan": "UPU Bilice sjever", "izvor": "UPU Bilice sjever (split.hr), vektorizirano iz PDF-a"}}, {"type": "Feature", "geometry": {"type": "LineString", "coordinates": [[16.4875002, 43.527119], [16.4874536, 43.5270443], [16.4874339, 43.5270551]]}, "properties": {"tema": "granica-obalni-pojas", "opis": "Granica zaštićenog obalnog pojasa", "cad_sloj": "boja #259500", "list": "1. Koristenje i namjena", "plan": "UPU Bilice sjever", "izvor": "UPU Bilice sjever (split.hr), vektorizirano iz PDF-a"}}, {"type": "Feature", "geometry": {"type": "LineString", "coordinates": [[16.4874206, 43.5270124], [16.4874007, 43.5270233], [16.4873541, 43.5269486]]}, "properties": {"tema": "granica-obalni-pojas", "opis": "Granica zaštićenog obalnog pojasa", "cad_sloj": "boja #259500", "list": "1. Koristenje i namjena", "plan": "UPU Bilice sjever", "izvor": "UPU Bilice sjever (split.hr), vektorizirano iz PDF-a"}}, {"type": "Feature", "geometry": {"type": "LineString", "coordinates": [[16.4874007, 43.5270233], [16.4873541, 43.5269486], [16.4873344, 43.5269595]]}, "properties": {"tema": "granica-obalni-pojas", "opis": "Granica zaštićenog obalnog pojasa", "cad_sloj": "boja #259500", "list": "1. Koristenje i namjena", "plan": "UPU Bilice sjever", "izvor": "UPU Bilice sjever (split.hr), vektorizirano iz PDF-a"}}, {"type": "Feature", "geometry": {"type": "LineString", "coordinates": [[16.4873208, 43.5269168], [16.4873012, 43.5269276], [16.4872546, 43.5268529]]}, "properties": {"tema": "granica-obalni-pojas", "opis": "Granica zaštićenog obalnog pojasa", "cad_sloj": "boja #259500", "list": "1. Koristenje i namjena", "plan": "UPU Bilice sjever", "izvor": "UPU Bilice sjever (split.hr), vektorizirano iz PDF-a"}}, {"type": "Feature", "geometry": {"type": "LineString", "coordinates": [[16.4873012, 43.5269276], [16.4872546, 43.5268529], [16.4872349, 43.5268638]]}, "properties": {"tema": "granica-obalni-pojas", "opis": "Granica zaštićenog obalnog pojasa", "cad_sloj": "boja #259500", "list": "1. Koristenje i namjena", "plan": "UPU Bilice sjever", "izvor": "UPU Bilice sjever (split.hr), vektorizirano iz PDF-a"}}, {"type": "Feature", "geometry": {"type": "LineString", "coordinates": [[16.4872213, 43.5268209], [16.4872017, 43.5268318], [16.4871551, 43.5267571]]}, "properties": {"tema": "granica-obalni-pojas", "opis": "Granica zaštićenog obalnog pojasa", "cad_sloj": "boja #259500", "list": "1. Koristenje i namjena", "plan": "UPU Bilice sjever", "izvor": "UPU Bilice sjever (split.hr), vektorizirano iz PDF-a"}}, {"type": "Feature", "geometry": {"type": "LineString", "coordinates": [[16.4872017, 43.5268318], [16.4871551, 43.5267571], [16.4871352, 43.526768]]}, "properties": {"tema": "granica-obalni-pojas", "opis": "Granica zaštićenog obalnog pojasa", "cad_sloj": "boja #259500", "list": "1. Koristenje i namjena", "plan": "UPU Bilice sjever", "izvor": "UPU Bilice sjever (split.hr), vektorizirano iz PDF-a"}}, {"type": "Feature", "geometry": {"type": "LineString", "coordinates": [[16.4871218, 43.5267253], [16.4871022, 43.5267361], [16.4870779, 43.5266828]]}, "properties": {"tema": "granica-obalni-pojas", "opis": "Granica zaštićenog obalnog pojasa", "cad_sloj": "boja #259500", "list": "1. Koristenje i namjena", "plan": "UPU Bilice sjever", "izvor": "UPU Bilice sjever (split.hr), vektorizirano iz PDF-a"}}, {"type": "Feature", "geometry": {"type": "LineString", "coordinates": [[16.4871022, 43.5267361], [16.4870779, 43.5266828], [16.487058, 43.5266936]]}, "properties": {"tema": "granica-obalni-pojas", "opis": "Granica zaštićenog obalnog pojasa", "cad_sloj": "boja #259500", "list": "1. Koristenje i namjena", "plan": "UPU Bilice sjever", "izvor": "UPU Bilice sjever (split.hr), vektorizirano iz PDF-a"}}, {"type": "Feature", "geometry": {"type": "LineString", "coordinates": [[16.4870773, 43.5266826], [16.4870585, 43.526694], [16.4870538, 43.5266618]]}, "properties": {"tema": "granica-obalni-pojas", "opis": "Granica zaštićenog obalnog pojasa", "cad_sloj": "boja #259500", "list": "1. Koristenje i namjena", "plan": "UPU Bilice sjever", "izvor": "UPU Bilice sjever (split.hr), vektorizirano iz PDF-a"}}, {"type": "Feature", "geometry": {"type": "LineString", "coordinates": [[16.4870585, 43.526694], [16.4870538, 43.5266618], [16.4870349, 43.5266732]]}, "properties": {"tema": "granica-obalni-pojas", "opis": "Granica zaštićenog obalnog pojasa", "cad_sloj": "boja #259500", "list": "1. Koristenje i namjena", "plan": "UPU Bilice sjever", "izvor": "UPU Bilice sjever (split.hr), vektorizirano iz PDF-a"}}, {"type": "Feature", "geometry": {"type": "LineString", "coordinates": [[16.4870187, 43.5266309], [16.4869998, 43.5266426], [16.4869488, 43.5265694]]}, "properties": {"tema": "granica-obalni-pojas", "opis": "Granica zaštićenog obalnog pojasa", "cad_sloj": "boja #259500", "list": "1. Koristenje i namjena", "plan": "UPU Bilice sjever", "izvor": "UPU Bilice sjever (split.hr), vektorizirano iz PDF-a"}}, {"type": "Feature", "geometry": {"type": "LineString", "coordinates": [[16.4869998, 43.5266426], [16.4869488, 43.5265694], [16.4869297, 43.5265808]]}, "properties": {"tema": "granica-obalni-pojas", "opis": "Granica zaštićenog obalnog pojasa", "cad_sloj": "boja #259500", "list": "1. Koristenje i namjena", "plan": "UPU Bilice sjever", "izvor": "UPU Bilice sjever (split.hr), vektorizirano iz PDF-a"}}, {"type": "Feature", "geometry": {"type": "LineString", "coordinates": [[16.486914, 43.5265385], [16.4868949, 43.5265498], [16.4868572, 43.5264871]]}, "properties": {"tema": "granica-obalni-pojas", "opis": "Granica zaštićenog obalnog pojasa", "cad_sloj": "boja #259500", "list": "1. Koristenje i namjena", "plan": "UPU Bilice sjever", "izvor": "UPU Bilice sjever (split.hr), vektorizirano iz PDF-a"}}, {"type": "Feature", "geometry": {"type": "LineString", "coordinates": [[16.4868949, 43.5265498], [16.4868572, 43.5264871], [16.4868378, 43.5264983]]}, "properties": {"tema": "granica-obalni-pojas", "opis": "Granica zaštićenog obalnog pojasa", "cad_sloj": "boja #259500", "list": "1. Koristenje i namjena", "plan": "UPU Bilice sjever", "izvor": "UPU Bilice sjever (split.hr), vektorizirano iz PDF-a"}}, {"type": "Feature", "geometry": {"type": "LineString", "coordinates": [[16.4868566, 43.5264867], [16.486838, 43.5264985], [16.4868441, 43.5264762]]}, "properties": {"tema": "granica-obalni-pojas", "opis": "Granica zaštićenog obalnog pojasa", "cad_sloj": "boja #259500", "list": "1. Koristenje i namjena", "plan": "UPU Bilice sjever", "izvor": "UPU Bilice sjever (split.hr), vektorizirano iz PDF-a"}}, {"type": "Feature", "geometry": {"type": "LineString", "coordinates": [[16.486838, 43.5264985], [16.4868441, 43.5264762], [16.4868255, 43.526488]]}, "properties": {"tema": "granica-obalni-pojas", "opis": "Granica zaštićenog obalnog pojasa", "cad_sloj": "boja #259500", "list": "1. Koristenje i namjena", "plan": "UPU Bilice sjever", "izvor": "UPU Bilice sjever (split.hr), vektorizirano iz PDF-a"}}, {"type": "Feature", "geometry": {"type": "LineString", "coordinates": [[16.4868079, 43.5264461], [16.4867893, 43.5264579], [16.4867354, 43.5263859]]}, "properties": {"tema": "granica-obalni-pojas", "opis": "Granica zaštićenog obalnog pojasa", "cad_sloj": "boja #259500", "list": "1. Koristenje i namjena", "plan": "UPU Bilice sjever", "izvor": "UPU Bilice sjever (split.hr), vektorizirano iz PDF-a"}}, {"type": "Feature", "geometry": {"type": "LineString", "coordinates": [[16.4867893, 43.5264579], [16.4867354, 43.5263859], [16.4867168, 43.5263977]]}, "properties": {"tema": "granica-obalni-pojas", "opis": "Granica zaštićenog obalnog pojasa", "cad_sloj": "boja #259500", "list": "1. Koristenje i namjena", "plan": "UPU Bilice sjever", "izvor": "UPU Bilice sjever (split.hr), vektorizirano iz PDF-a"}}, {"type": "Feature", "geometry": {"type": "LineString", "coordinates": [[16.4866993, 43.5263558], [16.4866807, 43.5263676], [16.4866268, 43.5262956]]}, "properties": {"tema": "granica-obalni-pojas", "opis": "Granica zaštićenog obalnog pojasa", "cad_sloj": "boja #259500", "list": "1. Koristenje i namjena", "plan": "UPU Bilice sjever", "izvor": "UPU Bilice sjever (split.hr), vektorizirano iz PDF-a"}}, {"type": "Feature", "geometry": {"type": "LineString", "coordinates": [[16.4866807, 43.5263676], [16.4866268, 43.5262956], [16.4866082, 43.5263074]]}, "properties": {"tema": "granica-obalni-pojas", "opis": "Granica zaštićenog obalnog pojasa", "cad_sloj": "boja #259500", "list": "1. Koristenje i namjena", "plan": "UPU Bilice sjever", "izvor": "UPU Bilice sjever (split.hr), vektorizirano iz PDF-a"}}, {"type": "Feature", "geometry": {"type": "LineString", "coordinates": [[16.4865906, 43.5262655], [16.486572, 43.5262773], [16.4865181, 43.5262052]]}, "properties": {"tema": "granica-obalni-pojas", "opis": "Granica zaštićenog obalnog pojasa", "cad_sloj": "boja #259500", "list": "1. Koristenje i namjena", "plan": "UPU Bilice sjever", "izvor": "UPU Bilice sjever (split.hr), vektorizirano iz PDF-a"}}, {"type": "Feature", "geometry": {"type": "LineString", "coordinates": [[16.486572, 43.5262773], [16.4865181, 43.5262052], [16.4864995, 43.526217]]}, "properties": {"tema": "granica-obalni-pojas", "opis": "Granica zaštićenog obalnog pojasa", "cad_sloj": "boja #259500", "list": "1. Koristenje i namjena", "plan": "UPU Bilice sjever", "izvor": "UPU Bilice sjever (split.hr), vektorizirano iz PDF-a"}}, {"type": "Feature", "geometry": {"type": "LineString", "coordinates": [[16.486482, 43.5261751], [16.4864634, 43.5261869], [16.4864665, 43.5261624]]}, "properties": {"tema": "granica-obalni-pojas", "opis": "Granica zaštićenog obalnog pojasa", "cad_sloj": "boja #259500", "list": "1. Koristenje i namjena", "plan": "UPU Bilice sjever", "izvor": "UPU Bilice sjever (split.hr), vektorizirano iz PDF-a"}}, {"type": "Feature", "geometry": {"type": "LineString", "coordinates": [[16.4864634, 43.5261869], [16.4864665, 43.5261624], [16.486448, 43.5261742]]}, "properties": {"tema": "granica-obalni-pojas", "opis": "Granica zaštićenog obalnog pojasa", "cad_sloj": "boja #259500", "list": "1. Koristenje i namjena", "plan": "UPU Bilice sjever", "izvor": "UPU Bilice sjever (split.hr), vektorizirano iz PDF-a"}}, {"type": "Feature", "geometry": {"type": "LineString", "coordinates": [[16.486466, 43.526162], [16.4864485, 43.5261746], [16.4864053, 43.5261172]]}, "properties": {"tema": "granica-obalni-pojas", "opis": "Granica zaštićenog obalnog pojasa", "cad_sloj": "boja #259500", "list": "1. Koristenje i namjena", "plan": "UPU Bilice sjever", "izvor": "UPU Bilice sjever (split.hr), vektorizirano iz PDF-a"}}, {"type": "Feature", "geometry": {"type": "LineString", "coordinates": [[16.4864485, 43.5261746], [16.4864053, 43.5261172], [16.4863877, 43.5261298]]}, "properties": {"tema": "granica-obalni-pojas", "opis": "Granica zaštićenog obalnog pojasa", "cad_sloj": "boja #259500", "list": "1. Koristenje i namjena", "plan": "UPU Bilice sjever", "izvor": "UPU Bilice sjever (split.hr), vektorizirano iz PDF-a"}}, {"type": "Feature", "geometry": {"type": "LineString", "coordinates": [[16.4863665, 43.5260886], [16.486349, 43.5261012], [16.4862893, 43.5260316]]}, "properties": {"tema": "granica-obalni-pojas", "opis": "Granica zaštićenog obalnog pojasa", "cad_sloj": "boja #259500", "list": "1. Koristenje i namjena", "plan": "UPU Bilice sjever", "izvor": "UPU Bilice sjever (split.hr), vektorizirano iz PDF-a"}}, {"type": "Feature", "geometry": {"type": "LineString", "coordinates": [[16.486349, 43.5261012], [16.4862893, 43.5260316], [16.4862718, 43.5260442]]}, "properties": {"tema": "granica-obalni-pojas", "opis": "Granica zaštićenog obalnog pojasa", "cad_sloj": "boja #259500", "list": "1. Koristenje i namjena", "plan": "UPU Bilice sjever", "izvor": "UPU Bilice sjever (split.hr), vektorizirano iz PDF-a"}}, {"type": "Feature", "geometry": {"type": "LineString", "coordinates": [[16.4862508, 43.5260032], [16.4862333, 43.5260158], [16.4861736, 43.5259463]]}, "properties": {"tema": "granica-obalni-pojas", "opis": "Granica zaštićenog obalnog pojasa", "cad_sloj": "boja #259500", "list": "1. Koristenje i namjena", "plan": "UPU Bilice sjever", "izvor": "UPU Bilice sjever (split.hr), vektorizirano iz PDF-a"}}, {"type": "Feature", "geometry": {"type": "LineString", "coordinates": [[16.4862333, 43.5260158], [16.4861736, 43.5259463], [16.486156, 43.5259588]]}, "properties": {"tema": "granica-obalni-pojas", "opis": "Granica zaštićenog obalnog pojasa", "cad_sloj": "boja #259500", "list": "1. Koristenje i namjena", "plan": "UPU Bilice sjever", "izvor": "UPU Bilice sjever (split.hr), vektorizirano iz PDF-a"}}, {"type": "Feature", "geometry": {"type": "LineString", "coordinates": [[16.4861351, 43.5259177], [16.4861173, 43.5259304], [16.4860579, 43.5258607]]}, "properties": {"tema": "granica-obalni-pojas", "opis": "Granica zaštićenog obalnog pojasa", "cad_sloj": "boja #259500", "list": "1. Koristenje i namjena", "plan": "UPU Bilice sjever", "izvor": "UPU Bilice sjever (split.hr), vektorizirano iz PDF-a"}}, {"type": "Feature", "geometry": {"type": "LineString", "coordinates": [[16.4861173, 43.5259304], [16.4860579, 43.5258607], [16.4860401, 43.5258735]]}, "properties": {"tema": "granica-obalni-pojas", "opis": "Granica zaštićenog obalnog pojasa", "cad_sloj": "boja #259500", "list": "1. Koristenje i namjena", "plan": "UPU Bilice sjever", "izvor": "UPU Bilice sjever (split.hr), vektorizirano iz PDF-a"}}, {"type": "Feature", "geometry": {"type": "LineString", "coordinates": [[16.4860191, 43.5258323], [16.4860016, 43.5258449], [16.4859419, 43.5257753]]}, "properties": {"tema": "granica-obalni-pojas", "opis": "Granica zaštićenog obalnog pojasa", "cad_sloj": "boja #259500", "list": "1. Koristenje i namjena", "plan": "UPU Bilice sjever", "izvor": "UPU Bilice sjever (split.hr), vektorizirano iz PDF-a"}}, {"type": "Feature", "geometry": {"type": "LineString", "coordinates": [[16.4860016, 43.5258449], [16.4859419, 43.5257753], [16.4859243, 43.5257879]]}, "properties": {"tema": "granica-obalni-pojas", "opis": "Granica zaštićenog obalnog pojasa", "cad_sloj": "boja #259500", "list": "1. Koristenje i namjena", "plan": "UPU Bilice sjever", "izvor": "UPU Bilice sjever (split.hr), vektorizirano iz PDF-a"}}, {"type": "Feature", "geometry": {"type": "LineString", "coordinates": [[16.4859034, 43.5257467], [16.4858856, 43.5257595], [16.4859008, 43.525745]]}, "properties": {"tema": "granica-obalni-pojas", "opis": "Granica zaštićenog obalnog pojasa", "cad_sloj": "boja #259500", "list": "1. Koristenje i namjena", "plan": "UPU Bilice sjever", "izvor": "UPU Bilice sjever (split.hr), vektorizirano iz PDF-a"}}, {"type": "Feature", "geometry": {"type": "LineString", "coordinates": [[16.4858856, 43.5257595], [16.4859008, 43.525745], [16.4858832, 43.5257576]]}, "properties": {"tema": "granica-obalni-pojas", "opis": "Granica zaštićenog obalnog pojasa", "cad_sloj": "boja #259500", "list": "1. Koristenje i namjena", "plan": "UPU Bilice sjever", "izvor": "UPU Bilice sjever (split.hr), vektorizirano iz PDF-a"}}, {"type": "Feature", "geometry": {"type": "LineString", "coordinates": [[16.4859003, 43.5257446], [16.4858838, 43.525758], [16.4858209, 43.525693]]}, "properties": {"tema": "granica-obalni-pojas", "opis": "Granica zaštićenog obalnog pojasa", "cad_sloj": "boja #259500", "list": "1. Koristenje i namjena", "plan": "UPU Bilice sjever", "izvor": "UPU Bilice sjever (split.hr), vektorizirano iz PDF-a"}}, {"type": "Feature", "geometry": {"type": "LineString", "coordinates": [[16.4858838, 43.525758], [16.4858209, 43.525693], [16.4858044, 43.5257063]]}, "properties": {"tema": "granica-obalni-pojas", "opis": "Granica zaštićenog obalnog pojasa", "cad_sloj": "boja #259500", "list": "1. Koristenje i namjena", "plan": "UPU Bilice sjever", "izvor": "UPU Bilice sjever (split.hr), vektorizirano iz PDF-a"}}, {"type": "Feature", "geometry": {"type": "LineString", "coordinates": [[16.4857801, 43.5256663], [16.4857636, 43.5256797], [16.4856981, 43.525613]]}, "properties": {"tema": "granica-obalni-pojas", "opis": "Granica zaštićenog obalnog pojasa", "cad_sloj": "boja #259500", "list": "1. Koristenje i namjena", "plan": "UPU Bilice sjever", "izvor": "UPU Bilice sjever (split.hr), vektorizirano iz PDF-a"}}, {"type": "Feature", "geometry": {"type": "LineString", "coordinates": [[16.4857636, 43.5256797], [16.4856981, 43.525613], [16.4856816, 43.5256263]]}, "properties": {"tema": "granica-obalni-pojas", "opis": "Granica zaštićenog obalnog pojasa", "cad_sloj": "boja #259500", "list": "1. Koristenje i namjena", "plan": "UPU Bilice sjever", "izvor": "UPU Bilice sjever (split.hr), vektorizirano iz PDF-a"}}, {"type": "Feature", "geometry": {"type": "LineString", "coordinates": [[16.485657, 43.5255861], [16.4856405, 43.5255996], [16.4855751, 43.5255327]]}, "properties": {"tema": "granica-obalni-pojas", "opis": "Granica zaštićenog obalnog pojasa", "cad_sloj": "boja #259500", "list": "1. Koristenje i namjena", "plan": "UPU Bilice sjever", "izvor": "UPU Bilice sjever (split.hr), vektorizirano iz PDF-a"}}, {"type": "Feature", "geometry": {"type": "LineString", "coordinates": [[16.4856405, 43.5255996], [16.4855751, 43.5255327], [16.4855586, 43.5255463]]}, "properties": {"tema": "granica-obalni-pojas", "opis": "Granica zaštićenog obalnog pojasa", "cad_sloj": "boja #259500", "list": "1. Koristenje i namjena", "plan": "UPU Bilice sjever", "izvor": "UPU Bilice sjever (split.hr), vektorizirano iz PDF-a"}}, {"type": "Feature", "geometry": {"type": "LineString", "coordinates": [[16.4855342, 43.5255061], [16.4855177, 43.5255196], [16.4854523, 43.5254527]]}, "properties": {"tema": "granica-obalni-pojas", "opis": "Granica zaštićenog obalnog pojasa", "cad_sloj": "boja #259500", "list": "1. Koristenje i namjena", "plan": "UPU Bilice sjever", "izvor": "UPU Bilice sjever (split.hr), vektorizirano iz PDF-a"}}, {"type": "Feature", "geometry": {"type": "LineString", "coordinates": [[16.4855177, 43.5255196], [16.4854523, 43.5254527], [16.4854358, 43.5254662]]}, "properties": {"tema": "granica-obalni-pojas", "opis": "Granica zaštićenog obalnog pojasa", "cad_sloj": "boja #259500", "list": "1. Koristenje i namjena", "plan": "UPU Bilice sjever", "izvor": "UPU Bilice sjever (split.hr), vektorizirano iz PDF-a"}}, {"type": "Feature", "geometry": {"type": "LineString", "coordinates": [[16.4854112, 43.525426], [16.4853947, 43.5254395], [16.4853292, 43.5253727]]}, "properties": {"tema": "granica-obalni-pojas", "opis": "Granica zaštićenog obalnog pojasa", "cad_sloj": "boja #259500", "list": "1. Koristenje i namjena", "plan": "UPU Bilice sjever", "izvor": "UPU Bilice sjever (split.hr), vektorizirano iz PDF-a"}}, {"type": "Feature", "geometry": {"type": "LineString", "coordinates": [[16.4853947, 43.5254395], [16.4853292, 43.5253727], [16.4853127, 43.5253862]]}, "properties": {"tema": "granica-obalni-pojas", "opis": "Granica zaštićenog obalnog pojasa", "cad_sloj": "boja #259500", "list": "1. Koristenje i namjena", "plan": "UPU Bilice sjever", "izvor": "UPU Bilice sjever (split.hr), vektorizirano iz PDF-a"}}, {"type": "Feature", "geometry": {"type": "LineString", "coordinates": [[16.4852868, 43.525346], [16.4852722, 43.5253604], [16.485213, 43.525306]]}, "properties": {"tema": "granica-obalni-pojas", "opis": "Granica zaštićenog obalnog pojasa", "cad_sloj": "boja #259500", "list": "1. Koristenje i namjena", "plan": "UPU Bilice sjever", "izvor": "UPU Bilice sjever (split.hr), vektorizirano iz PDF-a"}}, {"type": "Feature", "geometry": {"type": "LineString", "coordinates": [[16.4852722, 43.5253604], [16.485213, 43.525306], [16.4851983, 43.5253202]]}, "properties": {"tema": "granica-obalni-pojas", "opis": "Granica zaštićenog obalnog pojasa", "cad_sloj": "boja #259500", "list": "1. Koristenje i namjena", "plan": "UPU Bilice sjever", "izvor": "UPU Bilice sjever (split.hr), vektorizirano iz PDF-a"}}, {"type": "Feature", "geometry": {"type": "LineString", "coordinates": [[16.4852174, 43.5253103], [16.4851939, 43.5253159], [16.4852119, 43.5252979]]}, "properties": {"tema": "granica-obalni-pojas", "opis": "Granica zaštićenog obalnog pojasa", "cad_sloj": "boja #259500", "list": "1. Koristenje i namjena", "plan": "UPU Bilice sjever", "izvor": "UPU Bilice sjever (split.hr), vektorizirano iz PDF-a"}}, {"type": "Feature", "geometry": {"type": "LineString", "coordinates": [[16.4851939, 43.5253159], [16.4852119, 43.5252979], [16.4851884, 43.5253035]]}, "properties": {"tema": "granica-obalni-pojas", "opis": "Granica zaštićenog obalnog pojasa", "cad_sloj": "boja #259500", "list": "1. Koristenje i namjena", "plan": "UPU Bilice sjever", "izvor": "UPU Bilice sjever (split.hr), vektorizirano iz PDF-a"}}, {"type": "Feature", "geometry": {"type": "LineString", "coordinates": [[16.4851949, 43.5252598], [16.4851714, 43.5252656], [16.4851612, 43.5251838]]}, "properties": {"tema": "granica-obalni-pojas", "opis": "Granica zaštićenog obalnog pojasa", "cad_sloj": "boja #259500", "list": "1. Koristenje i namjena", "plan": "UPU Bilice sjever", "izvor": "UPU Bilice sjever (split.hr), vektorizirano iz PDF-a"}}, {"type": "Feature", "geometry": {"type": "LineString", "coordinates": [[16.4851714, 43.5252656], [16.4851612, 43.5251838], [16.4851376, 43.5251893]]}, "properties": {"tema": "granica-obalni-pojas", "opis": "Granica zaštićenog obalnog pojasa", "cad_sloj": "boja #259500", "list": "1. Koristenje i namjena", "plan": "UPU Bilice sjever", "izvor": "UPU Bilice sjever (split.hr), vektorizirano iz PDF-a"}}, {"type": "Feature", "geometry": {"type": "LineString", "coordinates": [[16.4851442, 43.5251457], [16.4851206, 43.5251512], [16.4851135, 43.5250773]]}, "properties": {"tema": "granica-obalni-pojas", "opis": "Granica zaštićenog obalnog pojasa", "cad_sloj": "boja #259500", "list": "1. Koristenje i namjena", "plan": "UPU Bilice sjever", "izvor": "UPU Bilice sjever (split.hr), vektorizirano iz PDF-a"}}, {"type": "Feature", "geometry": {"type": "LineString", "coordinates": [[16.4851206, 43.5251512], [16.4851135, 43.5250773], [16.4850902, 43.5250828]]}, "properties": {"tema": "granica-obalni-pojas", "opis": "Granica zaštićenog obalnog pojasa", "cad_sloj": "boja #259500", "list": "1. Koristenje i namjena", "plan": "UPU Bilice sjever", "izvor": "UPU Bilice sjever (split.hr), vektorizirano iz PDF-a"}}, {"type": "Feature", "geometry": {"type": "LineString", "coordinates": [[16.4851135, 43.5250769], [16.4850902, 43.5250834], [16.4851094, 43.5250695]]}, "properties": {"tema": "granica-obalni-pojas", "opis": "Granica zaštićenog obalnog pojasa", "cad_sloj": "boja #259500", "list": "1. Koristenje i namjena", "plan": "UPU Bilice sjever", "izvor": "UPU Bilice sjever (split.hr), vektorizirano iz PDF-a"}}, {"type": "Feature", "geometry": {"type": "LineString", "coordinates": [[16.4850902, 43.5250834], [16.4851094, 43.5250695], [16.4850863, 43.525076]]}, "properties": {"tema": "granica-obalni-pojas", "opis": "Granica zaštićenog obalnog pojasa", "cad_sloj": "boja #259500", "list": "1. Koristenje i namjena", "plan": "UPU Bilice sjever", "izvor": "UPU Bilice sjever (split.hr), vektorizirano iz PDF-a"}}, {"type": "Feature", "geometry": {"type": "LineString", "coordinates": [[16.4851094, 43.5250695], [16.4850863, 43.525076]]}, "properties": {"tema": "granica-obalni-pojas", "opis": "Granica zaštićenog obalnog pojasa", "cad_sloj": "boja #259500", "list": "1. Koristenje i namjena", "plan": "UPU Bilice sjever", "izvor": "UPU Bilice sjever (split.hr), vektorizirano iz PDF-a"}}]}