{"type":"FeatureCollection", "features": [
{"type":"Feature","geometry":{"type":"Polygon","coordinates":[[[16.476647,43.517057],[16.476647,43.516958],[16.476808,43.516832],[16.47687,43.516832],[16.476907,43.516742],[16.477092,43.516607],[16.47708,43.516445],[16.476993,43.516445],[16.476808,43.516382],[16.476796,43.516166],[16.477253,43.516166],[16.47729,43.516193],[16.47729,43.516688],[16.477278,43.51676],[16.477278,43.516994],[16.477228,43.517039],[16.476857,43.517048],[16.476696,43.517039],[16.476647,43.517057]]]},"properties":{"od_godine":2008,"do_godine":2015,"promjena":"D5 → M1","iz_kod":"D5","iz_namjena":"Javna i društvena namjena — školska","u_kod":"M1","u_namjena":"Mješovita namjena — pretežito stambena","boja":"#e0a000","povrsina_m2":3132,"stavka":null,"stavka_tekst":null}},
{"type":"Feature","geometry":{"type":"Polygon","coordinates":[[[16.500631,43.52715],[16.500532,43.526943],[16.500458,43.52688],[16.500421,43.526808],[16.500421,43.5267],[16.500272,43.526376],[16.500198,43.526322],[16.500198,43.526205],[16.500124,43.526034],[16.499988,43.525827],[16.499963,43.525701],[16.499876,43.525512],[16.499864,43.52544],[16.499814,43.525404],[16.499703,43.525116],[16.499703,43.525017],[16.499839,43.524999],[16.499864,43.525143],[16.499913,43.525296],[16.499988,43.525395],[16.500136,43.525746],[16.500161,43.525881],[16.500235,43.525944],[16.500247,43.526016],[16.500334,43.526178],[16.500334,43.526286],[16.500408,43.526349],[16.500482,43.526475],[16.500482,43.52652],[16.500557,43.526664],[16.500557,43.526772],[16.500619,43.526871],[16.50073,43.526988],[16.50073,43.527141],[16.500631,43.52715]]]},"properties":{"od_godine":2008,"do_godine":2015,"promjena":"K → K5","iz_kod":"K","iz_namjena":"Poslovna namjena","u_kod":"K5","u_namjena":"Poslovna namjena i stanovanje","boja":"#e0a000","povrsina_m2":2871,"stavka":null,"stavka_tekst":null}},
{"type":"Feature","geometry":{"type":"Polygon","coordinates":[[[16.494223,43.527753],[16.494074,43.527663],[16.494062,43.527591],[16.493963,43.527591],[16.49379,43.527429],[16.493715,43.527402],[16.493517,43.527258],[16.493443,43.527177],[16.493196,43.527033],[16.493084,43.526916],[16.492948,43.526853],[16.492849,43.526763],[16.492812,43.526655],[16.492676,43.526502],[16.492614,43.526349],[16.492466,43.52616],[16.49259,43.526151],[16.492652,43.526196],[16.492738,43.52634],[16.492812,43.526403],[16.492812,43.526484],[16.492924,43.52661],[16.493035,43.52679],[16.493295,43.52697],[16.49332,43.527006],[16.493468,43.527087],[16.493802,43.527357],[16.493864,43.527366],[16.493938,43.527438],[16.494148,43.527573],[16.494284,43.52769],[16.494223,43.527753]]]},"properties":{"od_godine":2008,"do_godine":2015,"promjena":"Z5 → K5","iz_kod":"Z5","iz_namjena":"Zaštitno i pejsažno zelenilo","u_kod":"K5","u_namjena":"Poslovna namjena i stanovanje","boja":"#e0a000","povrsina_m2":2135,"stavka":null,"stavka_tekst":null}}
]}