{"type":"FeatureCollection", "features": [
{"type":"Feature","geometry":{"type":"Polygon","coordinates":[[[16.50517,43.515601],[16.50517,43.515646],[16.504812,43.515637],[16.504725,43.515619],[16.504589,43.51579],[16.504502,43.515844],[16.504366,43.51588],[16.504205,43.515889],[16.504205,43.515934],[16.504008,43.515934],[16.503921,43.515916],[16.503933,43.515844],[16.504045,43.515718],[16.50423,43.515547],[16.504329,43.515412],[16.504329,43.515034],[16.504366,43.514962],[16.504366,43.514881],[16.50475,43.51471],[16.504811,43.514719],[16.504811,43.514791],[16.504886,43.51489],[16.50496,43.514944],[16.505244,43.514998],[16.505294,43.515034],[16.505294,43.515178],[16.505653,43.515277],[16.50569,43.515331],[16.50564,43.515322],[16.50538,43.51525],[16.505319,43.515259],[16.505244,43.515313],[16.505207,43.51534],[16.505207,43.515358],[16.50517,43.515466],[16.505145,43.515592],[16.50517,43.515601]]]},"properties":{"od_godine":2015,"do_godine":2024,"promjena":"M1 → Z5","iz_kod":"M1","iz_namjena":"Mješovita namjena — pretežito stambena","u_kod":"Z5","u_namjena":"Zaštitno i pejsažno zelenilo","boja":"#80e000","povrsina_m2":7599,"stavka":"1.7","stavka_tekst":"Ucrtane postojeće zelene površine i zelene površine iz planova užeg područja (prenamjena, većinom iz mješovite)"}},
{"type":"Feature","geometry":{"type":"Polygon","coordinates":[[[16.478193,43.516049],[16.478144,43.516031],[16.477934,43.51604],[16.477872,43.516022],[16.477686,43.516022],[16.477624,43.515941],[16.477476,43.515932],[16.47713,43.515932],[16.477043,43.515869],[16.476845,43.515869],[16.476734,43.515941],[16.476722,43.515986],[16.476536,43.515977],[16.476511,43.515905],[16.476412,43.515905],[16.476313,43.515725],[16.476289,43.515581],[16.476425,43.515509],[16.476598,43.515455],[16.476648,43.515374],[16.476833,43.515392],[16.476833,43.515455],[16.47708,43.515554],[16.477526,43.515698],[16.477662,43.515725],[16.477934,43.515815],[16.478169,43.515869],[16.478169,43.515815],[16.478268,43.515815],[16.478416,43.515905],[16.478416,43.516013],[16.478354,43.516049],[16.478193,43.516049]]]},"properties":{"od_godine":2015,"do_godine":2024,"promjena":"M1 → Z3","iz_kod":"M1","iz_namjena":"Mješovita namjena — pretežito stambena","u_kod":"Z3","u_namjena":"Javne zelene površine — uređeno zelenilo","boja":"#40c040","povrsina_m2":5769,"stavka":"1.7","stavka_tekst":"Ucrtane postojeće zelene površine i zelene površine iz planova užeg područja (prenamjena, većinom iz mješovite)"}},
{"type":"Feature","geometry":{"type":"Polygon","coordinates":[[[16.473344,43.51819],[16.473331,43.518172],[16.472936,43.518181],[16.472849,43.518154],[16.472602,43.518163],[16.472268,43.518154],[16.472206,43.518073],[16.472206,43.517344],[16.472194,43.517281],[16.47233,43.517281],[16.472553,43.517461],[16.472812,43.517632],[16.473233,43.517938],[16.473319,43.518019],[16.47348,43.518118],[16.473468,43.51819],[16.473344,43.51819]]]},"properties":{"od_godine":2015,"do_godine":2024,"promjena":"M1 → Z3","iz_kod":"M1","iz_namjena":"Mješovita namjena — pretežito stambena","u_kod":"Z3","u_namjena":"Javne zelene površine — uređeno zelenilo","boja":"#40c040","povrsina_m2":5568,"stavka":"1.7","stavka_tekst":"Ucrtane postojeće zelene površine i zelene površine iz planova užeg područja (prenamjena, većinom iz mješovite)"}},
{"type":"Feature","geometry":{"type":"Polygon","coordinates":[[[16.47802,43.518119],[16.47802,43.51811],[16.477203,43.51811],[16.47698,43.518101],[16.476906,43.518074],[16.47682,43.518092],[16.476647,43.518083],[16.476659,43.518002],[16.476993,43.517759],[16.47724,43.517597],[16.477315,43.517525],[16.477414,43.517525],[16.477463,43.517588],[16.477537,43.517615],[16.478007,43.517624],[16.478069,43.517678],[16.478069,43.517984],[16.47802,43.518119]]]},"properties":{"od_godine":2015,"do_godine":2024,"promjena":"M1 → Z3","iz_kod":"M1","iz_namjena":"Mješovita namjena — pretežito stambena","u_kod":"Z3","u_namjena":"Javne zelene površine — uređeno zelenilo","boja":"#40c040","povrsina_m2":5113,"stavka":"1.7","stavka_tekst":"Ucrtane postojeće zelene površine i zelene površine iz planova užeg područja (prenamjena, većinom iz mješovite)"}},
{"type":"Feature","geometry":{"type":"Polygon","coordinates":[[[16.500445,43.517707],[16.500284,43.517563],[16.50021,43.517527],[16.500025,43.51732],[16.499913,43.517122],[16.499777,43.516969],[16.499777,43.516906],[16.499889,43.516852],[16.500012,43.516852],[16.500136,43.516888],[16.500198,43.516843],[16.500284,43.516843],[16.500408,43.516969],[16.500594,43.517131],[16.500866,43.51732],[16.500866,43.517392],[16.500779,43.517446],[16.500779,43.517545],[16.500606,43.517653],[16.500581,43.517707],[16.500445,43.517707]]]},"properties":{"od_godine":2015,"do_godine":2024,"promjena":"M1 → D4","iz_kod":"M1","iz_namjena":"Mješovita namjena — pretežito stambena","u_kod":"D4","u_namjena":"Javna i društvena namjena — predškolska","boja":"#f46040","povrsina_m2":4563,"stavka":"1.11","stavka_tekst":"Označene postojeće (prenamjena, većinom iz M1 i M2, ma Mejašima iz IS4) i nove planirane zone javne i društvene namjene"}},
{"type":"Feature","geometry":{"type":"Polygon","coordinates":[[[16.516772,43.513853],[16.51671,43.513817],[16.51666,43.513727],[16.51666,43.513664],[16.516747,43.513601],[16.516834,43.513601],[16.516871,43.513655],[16.516957,43.513655],[16.517143,43.513718],[16.517353,43.513682],[16.517464,43.513583],[16.517415,43.513484],[16.517415,43.513412],[16.517477,43.513385],[16.517477,43.513295],[16.517427,43.513205],[16.517291,43.513106],[16.517328,43.513043],[16.517427,43.51298],[16.517526,43.51298],[16.517637,43.513151],[16.517786,43.513178],[16.517885,43.513232],[16.517922,43.513313],[16.518021,43.513403],[16.51812,43.513403],[16.518194,43.513484],[16.518194,43.513565],[16.518108,43.513655],[16.517996,43.513682],[16.517934,43.513754],[16.51786,43.513772],[16.517625,43.513772],[16.51744,43.513799],[16.517291,43.513781],[16.517192,43.513835],[16.51697,43.513808],[16.516846,43.513853],[16.516772,43.513853]]]},"properties":{"od_godine":2015,"do_godine":2024,"promjena":"M1 → Z1","iz_kod":"M1","iz_namjena":"Mješovita namjena — pretežito stambena","u_kod":"Z1","u_namjena":"Javne zelene površine — javni park","boja":"#40c040","povrsina_m2":4515,"stavka":"1.7","stavka_tekst":"Ucrtane postojeće zelene površine i zelene površine iz planova užeg područja (prenamjena, većinom iz mješovite)"}},
{"type":"Feature","geometry":{"type":"Polygon","coordinates":[[[16.47,43.525616],[16.469988,43.525526],[16.470297,43.525499],[16.470322,43.525481],[16.470607,43.525418],[16.470693,43.525418],[16.470817,43.525346],[16.471015,43.525328],[16.471337,43.525283],[16.471547,43.525265],[16.47172,43.525265],[16.471856,43.525238],[16.472017,43.525238],[16.472203,43.525202],[16.472561,43.525112],[16.472648,43.525112],[16.473168,43.525013],[16.473267,43.525014],[16.473724,43.524924],[16.473898,43.524897],[16.474133,43.524834],[16.474207,43.524771],[16.474269,43.524573],[16.474318,43.524366],[16.474405,43.524366],[16.474393,43.524447],[16.474306,43.524753],[16.474306,43.524807],[16.474194,43.524924],[16.474095,43.52496],[16.473502,43.525068],[16.473378,43.525077],[16.473155,43.525131],[16.473069,43.52513],[16.471906,43.525346],[16.47177,43.525346],[16.47151,43.525391],[16.47104,43.525454],[16.470965,43.525454],[16.470805,43.525499],[16.470532,43.525553],[16.470471,43.525553],[16.470186,43.525607],[16.47,43.525616]]]},"properties":{"od_godine":2015,"do_godine":2024,"promjena":"I → M1","iz_kod":"I","iz_namjena":"Gospodarska namjena","u_kod":"M1","u_namjena":"Mješovita namjena — pretežito stambena","boja":"#e0a000","povrsina_m2":4493,"stavka":null,"stavka_tekst":null}},
{"type":"Feature","geometry":{"type":"Polygon","coordinates":[[[16.47636,43.524339],[16.476248,43.52433],[16.476248,43.524258],[16.47636,43.52424],[16.476632,43.52424],[16.476817,43.524195],[16.477052,43.524186],[16.477164,43.52415],[16.477362,43.524141],[16.477411,43.524123],[16.477609,43.524123],[16.477819,43.524105],[16.477931,43.52406],[16.478166,43.52406],[16.478512,43.523988],[16.479069,43.523854],[16.479428,43.523737],[16.479576,43.523701],[16.479675,43.523638],[16.479923,43.523512],[16.480034,43.523467],[16.48038,43.523368],[16.480554,43.523296],[16.480764,43.523233],[16.480801,43.523197],[16.480739,43.523044],[16.480715,43.5229],[16.480789,43.522891],[16.480764,43.522909],[16.480764,43.522981],[16.480801,43.523044],[16.480875,43.52326],[16.480863,43.523287],[16.480838,43.523305],[16.480529,43.523404],[16.480133,43.523548],[16.479898,43.523647],[16.479885,43.523656],[16.479836,43.523683],[16.479824,43.523692],[16.479774,43.523719],[16.479762,43.523728],[16.479551,43.5238],[16.479106,43.523935],[16.479069,43.523944],[16.479019,43.523953],[16.478945,43.523971],[16.478896,43.523998],[16.478821,43.524006],[16.478821,43.524015],[16.478784,43.524015],[16.478784,43.524024],[16.478673,43.524042],[16.478673,43.524051],[16.478611,43.524051],[16.478327,43.524132],[16.478178,43.52415],[16.478092,43.524159],[16.478005,43.524159],[16.47772,43.524195],[16.477659,43.524213],[16.477547,43.524213],[16.477498,43.524231],[16.477423,43.524231],[16.477423,43.52424],[16.477312,43.52424],[16.476892,43.524303],[16.476805,43.524303],[16.476718,43.524312],[16.476718,43.524321],[16.476619,43.524321],[16.476619,43.52433],[16.476496,43.52433],[16.47636,43.524339]]]},"properties":{"od_godine":2015,"do_godine":2024,"promjena":"I → M1","iz_kod":"I","iz_namjena":"Gospodarska namjena","u_kod":"M1","u_namjena":"Mješovita namjena — pretežito stambena","boja":"#e0a000","povrsina_m2":4232,"stavka":null,"stavka_tekst":null}},
{"type":"Feature","geometry":{"type":"Polygon","coordinates":[[[16.47536,43.51793],[16.474964,43.517588],[16.474903,43.517507],[16.474828,43.51748],[16.474705,43.517372],[16.474705,43.517308],[16.47567,43.517336],[16.47567,43.517642],[16.475917,43.517462],[16.475954,43.517462],[16.476065,43.517363],[16.476127,43.517345],[16.476449,43.517129],[16.476548,43.517093],[16.476573,43.517147],[16.476486,43.517219],[16.476399,43.517228],[16.476338,43.517318],[16.476214,43.51739],[16.476164,43.517444],[16.476016,43.517534],[16.475954,43.517552],[16.475756,43.517723],[16.475694,43.517732],[16.475645,43.517795],[16.475484,43.517876],[16.475471,43.51793],[16.47536,43.51793]]]},"properties":{"od_godine":2015,"do_godine":2024,"promjena":"M1 → Z1","iz_kod":"M1","iz_namjena":"Mješovita namjena — pretežito stambena","u_kod":"Z1","u_namjena":"Javne zelene površine — javni park","boja":"#40c040","povrsina_m2":4231,"stavka":"1.7","stavka_tekst":"Ucrtane postojeće zelene površine i zelene površine iz planova užeg područja (prenamjena, većinom iz mješovite)"}},
{"type":"Feature","geometry":{"type":"Polygon","coordinates":[[[16.50569,43.515331],[16.505801,43.515385],[16.505752,43.515592],[16.505578,43.515745],[16.505554,43.515889],[16.505479,43.516105],[16.505405,43.516132],[16.505393,43.516213],[16.50543,43.516303],[16.505047,43.516339],[16.505047,43.516249],[16.505108,43.516015],[16.505108,43.51588],[16.50517,43.515826],[16.505207,43.515682],[16.50517,43.515601],[16.505145,43.515592],[16.50517,43.515466],[16.505207,43.515358],[16.505207,43.51534],[16.505244,43.515313],[16.505319,43.515259],[16.50538,43.51525],[16.50564,43.515322],[16.50569,43.515331]]]},"properties":{"od_godine":2015,"do_godine":2024,"promjena":"M1 → Z3","iz_kod":"M1","iz_namjena":"Mješovita namjena — pretežito stambena","u_kod":"Z3","u_namjena":"Javne zelene površine — uređeno zelenilo","boja":"#40c040","povrsina_m2":4158,"stavka":"1.7","stavka_tekst":"Ucrtane postojeće zelene površine i zelene površine iz planova užeg područja (prenamjena, većinom iz mješovite)"}},
{"type":"Feature","geometry":{"type":"Polygon","coordinates":[[[16.474665,43.523619],[16.474591,43.52361],[16.474566,43.523484],[16.474665,43.523421],[16.474653,43.523286],[16.474603,43.522997],[16.474653,43.522961],[16.474752,43.522952],[16.475036,43.522962],[16.475247,43.52298],[16.475432,43.523016],[16.475593,43.523142],[16.475593,43.523214],[16.475309,43.523241],[16.475308,43.523376],[16.475333,43.523538],[16.475222,43.523583],[16.474913,43.523592],[16.4749,43.523619],[16.474665,43.523619]]]},"properties":{"od_godine":2015,"do_godine":2024,"promjena":"M1 → Z1","iz_kod":"M1","iz_namjena":"Mješovita namjena — pretežito stambena","u_kod":"Z1","u_namjena":"Javne zelene površine — javni park","boja":"#40c040","povrsina_m2":4151,"stavka":"1.7","stavka_tekst":"Ucrtane postojeće zelene površine i zelene površine iz planova užeg područja (prenamjena, većinom iz mješovite)"}},
{"type":"Feature","geometry":{"type":"Polygon","coordinates":[[[16.47165,43.517398],[16.47165,43.517191],[16.471674,43.517128],[16.471489,43.517137],[16.471415,43.517101],[16.471279,43.517119],[16.471068,43.517101],[16.470883,43.517137],[16.470623,43.517127],[16.470611,43.516839],[16.470648,43.516812],[16.470957,43.516813],[16.471081,43.516858],[16.471365,43.516867],[16.471551,43.516768],[16.47165,43.516768],[16.471959,43.516975],[16.471971,43.51702],[16.47207,43.517083],[16.472033,43.517182],[16.471736,43.517398],[16.47165,43.517398]]]},"properties":{"od_godine":2015,"do_godine":2024,"promjena":"M1 → Z3","iz_kod":"M1","iz_namjena":"Mješovita namjena — pretežito stambena","u_kod":"Z3","u_namjena":"Javne zelene površine — uređeno zelenilo","boja":"#40c040","povrsina_m2":4026,"stavka":"1.7","stavka_tekst":"Ucrtane postojeće zelene površine i zelene površine iz planova užeg područja (prenamjena, većinom iz mješovite)"}},
{"type":"Feature","geometry":{"type":"Polygon","coordinates":[[[16.478973,43.514618],[16.478713,43.5146],[16.478639,43.514609],[16.478342,43.514582],[16.478367,43.514447],[16.478417,43.514402],[16.478689,43.514402],[16.478788,43.514492],[16.478948,43.514492],[16.479072,43.514429],[16.479295,43.514429],[16.479344,43.514402],[16.479357,43.514276],[16.479394,43.514249],[16.479963,43.514249],[16.480086,43.514267],[16.480074,43.514411],[16.480185,43.514501],[16.480148,43.514609],[16.479678,43.514582],[16.479357,43.514609],[16.478973,43.514618]]]},"properties":{"od_godine":2015,"do_godine":2024,"promjena":"M1 → Z1","iz_kod":"M1","iz_namjena":"Mješovita namjena — pretežito stambena","u_kod":"Z1","u_namjena":"Javne zelene površine — javni park","boja":"#40c040","povrsina_m2":3706,"stavka":"1.7","stavka_tekst":"Ucrtane postojeće zelene površine i zelene površine iz planova užeg područja (prenamjena, većinom iz mješovite)"}},
{"type":"Feature","geometry":{"type":"Polygon","coordinates":[[[16.493667,43.516105],[16.493482,43.516024],[16.493482,43.515907],[16.493432,43.515907],[16.493407,43.515817],[16.493308,43.515619],[16.493234,43.515502],[16.493234,43.515412],[16.493271,43.515376],[16.493976,43.515502],[16.494013,43.515538],[16.494026,43.515709],[16.494001,43.516033],[16.49384,43.516051],[16.493778,43.516105],[16.493667,43.516105]]]},"properties":{"od_godine":2015,"do_godine":2024,"promjena":"M/K5 → R1","iz_kod":"M/K5","iz_namjena":"Mješovita namjena M ili poslovna namjena i stanovanje K5","u_kod":"R1","u_namjena":"Športsko rekreacijska namjena — športski centar","boja":"#006000","povrsina_m2":3608,"stavka":null,"stavka_tekst":null}},
{"type":"Feature","geometry":{"type":"Polygon","coordinates":[[[16.488706,43.519768],[16.488607,43.519651],[16.488607,43.519606],[16.488509,43.519426],[16.488373,43.519273],[16.488249,43.519075],[16.488249,43.519003],[16.488323,43.518958],[16.488434,43.518958],[16.488521,43.51903],[16.488744,43.51912],[16.488818,43.519174],[16.488892,43.519273],[16.488892,43.519327],[16.488966,43.519453],[16.489065,43.519543],[16.489139,43.51966],[16.489115,43.51975],[16.488892,43.519768],[16.488706,43.519768]]]},"properties":{"od_godine":2015,"do_godine":2024,"promjena":"M1 → Z3","iz_kod":"M1","iz_namjena":"Mješovita namjena — pretežito stambena","u_kod":"Z3","u_namjena":"Javne zelene površine — uređeno zelenilo","boja":"#40c040","povrsina_m2":3125,"stavka":"1.7","stavka_tekst":"Ucrtane postojeće zelene površine i zelene površine iz planova užeg područja (prenamjena, većinom iz mješovite)"}},
{"type":"Feature","geometry":{"type":"Polygon","coordinates":[[[16.497774,43.515565],[16.497749,43.515547],[16.497749,43.515376],[16.497774,43.51516],[16.497823,43.51507],[16.497934,43.51507],[16.49812,43.515169],[16.498367,43.515142],[16.498466,43.515106],[16.498714,43.515052],[16.498813,43.515061],[16.49885,43.515196],[16.498899,43.515268],[16.498491,43.515394],[16.498392,43.515394],[16.498268,43.515448],[16.497947,43.515538],[16.497897,43.515565],[16.497774,43.515565]]]},"properties":{"od_godine":2015,"do_godine":2024,"promjena":"M1 → D3","iz_kod":"M1","iz_namjena":"Mješovita namjena — pretežito stambena","u_kod":"D3","u_namjena":"Javna i društvena namjena — zdravstvena","boja":"#f46040","povrsina_m2":3117,"stavka":"1.11","stavka_tekst":"Označene postojeće (prenamjena, većinom iz M1 i M2, ma Mejašima iz IS4) i nove planirane zone javne i društvene namjene"}},
{"type":"Feature","geometry":{"type":"Polygon","coordinates":[[[16.476968,43.517147],[16.476944,43.517111],[16.476486,43.517084],[16.476536,43.51703],[16.476635,43.517003],[16.476647,43.516958],[16.476808,43.516832],[16.47687,43.516832],[16.476907,43.516742],[16.477092,43.516607],[16.47708,43.516445],[16.476993,43.516445],[16.476808,43.516382],[16.476808,43.516229],[16.477055,43.516202],[16.477241,43.516265],[16.477253,43.516355],[16.477253,43.516661],[16.477241,43.516697],[16.477241,43.517012],[16.477166,43.517066],[16.477142,43.517138],[16.476968,43.517147]]]},"properties":{"od_godine":2015,"do_godine":2024,"promjena":"M1 → D4","iz_kod":"M1","iz_namjena":"Mješovita namjena — pretežito stambena","u_kod":"D4","u_namjena":"Javna i društvena namjena — predškolska","boja":"#f46040","povrsina_m2":2977,"stavka":null,"stavka_tekst":null}},
{"type":"Feature","geometry":{"type":"Polygon","coordinates":[[[16.480789,43.522891],[16.481011,43.522891],[16.481011,43.522963],[16.481061,43.52299],[16.481135,43.523179],[16.481147,43.523341],[16.481061,43.523404],[16.480801,43.523467],[16.480677,43.52353],[16.480516,43.523548],[16.480331,43.523602],[16.48012,43.523692],[16.479712,43.523818],[16.479638,43.523863],[16.479378,43.523935],[16.479279,43.523935],[16.479193,43.52398],[16.479118,43.523971],[16.479007,43.524016],[16.478896,43.524025],[16.478896,43.523998],[16.478945,43.523971],[16.479019,43.523953],[16.479069,43.523944],[16.479106,43.523935],[16.479551,43.5238],[16.479762,43.523728],[16.479774,43.523719],[16.479824,43.523692],[16.479836,43.523683],[16.479885,43.523656],[16.479898,43.523647],[16.480133,43.523548],[16.480529,43.523404],[16.480838,43.523305],[16.480863,43.523287],[16.480875,43.52326],[16.480801,43.523044],[16.480764,43.522981],[16.480764,43.522909],[16.480789,43.522891]]]},"properties":{"od_godine":2015,"do_godine":2024,"promjena":"I → Z5","iz_kod":"I","iz_namjena":"Gospodarska namjena","u_kod":"Z5","u_namjena":"Zaštitno i pejsažno zelenilo Z5/Z6","boja":"#80e000","povrsina_m2":2975,"stavka":"1.7","stavka_tekst":"Ucrtane postojeće zelene površine i zelene površine iz planova užeg područja (prenamjena, većinom iz mješovite)"}},
{"type":"Feature","geometry":{"type":"Polygon","coordinates":[[[16.518157,43.512899],[16.518021,43.512764],[16.518021,43.512692],[16.518107,43.512647],[16.51812,43.512593],[16.518045,43.512539],[16.517946,43.512404],[16.517946,43.512332],[16.518181,43.512314],[16.518355,43.512539],[16.518491,43.51253],[16.51859,43.51244],[16.518738,43.512458],[16.518862,43.512539],[16.518973,43.512539],[16.518973,43.512602],[16.518837,43.512746],[16.51859,43.512827],[16.518491,43.512827],[16.51828,43.512881],[16.518157,43.512899]]]},"properties":{"od_godine":2015,"do_godine":2024,"promjena":"M1 → D8","iz_kod":"M1","iz_namjena":"Mješovita namjena — pretežito stambena","u_kod":"D8","u_namjena":"Javna i društvena namjena — vjerska","boja":"#f46040","povrsina_m2":2917,"stavka":"1.11","stavka_tekst":"Označene postojeće (prenamjena, većinom iz M1 i M2, ma Mejašima iz IS4) i nove planirane zone javne i društvene namjene"}},
{"type":"Feature","geometry":{"type":"Polygon","coordinates":[[[16.493395,43.519219],[16.493197,43.519183],[16.493197,43.51912],[16.492962,43.519111],[16.492962,43.519147],[16.492764,43.519156],[16.492652,43.51912],[16.49243,43.51912],[16.492281,43.519102],[16.492281,43.519039],[16.492603,43.518976],[16.492875,43.518904],[16.493085,43.518886],[16.49311,43.518859],[16.493333,43.518805],[16.493642,43.51876],[16.493667,43.518832],[16.493667,43.518976],[16.493704,43.519102],[16.493605,43.519183],[16.493395,43.519219]]]},"properties":{"od_godine":2015,"do_godine":2024,"promjena":"Z5 → Z1","iz_kod":"Z5","iz_namjena":"Zaštitno i pejsažno zelenilo Z5/Z6","u_kod":"Z1","u_namjena":"Javne zelene površine — javni park","boja":"#40c040","povrsina_m2":2840,"stavka":null,"stavka_tekst":null}},
{"type":"Feature","geometry":{"type":"Polygon","coordinates":[[[16.506692,43.516888],[16.506593,43.516771],[16.506481,43.516717],[16.506494,43.516645],[16.50663,43.516591],[16.506729,43.51651],[16.506852,43.516483],[16.507162,43.516285],[16.507162,43.516249],[16.50731,43.51615],[16.507409,43.51615],[16.507409,43.516222],[16.507174,43.516609],[16.507088,43.516627],[16.506951,43.516699],[16.50684,43.516843],[16.506692,43.516888]]]},"properties":{"od_godine":2015,"do_godine":2024,"promjena":"M1 → Z3","iz_kod":"M1","iz_namjena":"Mješovita namjena — pretežito stambena","u_kod":"Z3","u_namjena":"Javne zelene površine — uređeno zelenilo","boja":"#40c040","povrsina_m2":2218,"stavka":"1.7","stavka_tekst":"Ucrtane postojeće zelene površine i zelene površine iz planova užeg područja (prenamjena, većinom iz mješovite)"}},
{"type":"Feature","geometry":{"type":"Polygon","coordinates":[[[16.478896,43.523998],[16.478896,43.524025],[16.478685,43.52415],[16.478512,43.524195],[16.478388,43.524195],[16.47803,43.524267],[16.477819,43.524285],[16.477621,43.524339],[16.477498,43.524339],[16.477423,43.524375],[16.477164,43.524438],[16.477003,43.524438],[16.47678,43.524402],[16.476483,43.524375],[16.47636,43.524339],[16.476496,43.52433],[16.476619,43.52433],[16.476619,43.524321],[16.476718,43.524321],[16.476718,43.524312],[16.476805,43.524303],[16.476892,43.524303],[16.477312,43.52424],[16.477423,43.52424],[16.477423,43.524231],[16.477498,43.524231],[16.477547,43.524213],[16.477659,43.524213],[16.47772,43.524195],[16.478005,43.524159],[16.478092,43.524159],[16.478178,43.52415],[16.478327,43.524132],[16.478611,43.524051],[16.478673,43.524051],[16.478673,43.524042],[16.478784,43.524024],[16.478784,43.524015],[16.478821,43.524015],[16.478821,43.524006],[16.478896,43.523998]]]},"properties":{"od_godine":2015,"do_godine":2024,"promjena":"I → Z5","iz_kod":"I","iz_namjena":"Gospodarska namjena","u_kod":"Z5","u_namjena":"Zaštitno i pejsažno zelenilo Z5/Z6","boja":"#80e000","povrsina_m2":2155,"stavka":null,"stavka_tekst":null}},
{"type":"Feature","geometry":{"type":"Polygon","coordinates":[[[16.482858,43.510388],[16.482648,43.51037],[16.482487,43.510334],[16.482363,43.510325],[16.482314,43.510235],[16.482475,43.510136],[16.482574,43.5101],[16.482697,43.510001],[16.483155,43.510001],[16.483155,43.510109],[16.483106,43.510199],[16.483106,43.510289],[16.483031,43.51037],[16.482858,43.510388]]]},"properties":{"od_godine":2015,"do_godine":2024,"promjena":"M1 → Z3","iz_kod":"M1","iz_namjena":"Mješovita namjena — pretežito stambena","u_kod":"Z3","u_namjena":"Javne zelene površine — uređeno zelenilo","boja":"#40c040","povrsina_m2":2073,"stavka":null,"stavka_tekst":null}},
{"type":"Feature","geometry":{"type":"Polygon","coordinates":[[[16.475583,43.516733],[16.475324,43.516643],[16.475138,43.516597],[16.475138,43.516417],[16.4752,43.516372],[16.475336,43.516363],[16.475781,43.516364],[16.47588,43.516391],[16.47588,43.516625],[16.475893,43.516733],[16.475583,43.516733]]]},"properties":{"od_godine":2015,"do_godine":2024,"promjena":"Z1 → D4","iz_kod":"Z1","iz_namjena":"Javne zelene površine — javni park","u_kod":"D4","u_namjena":"Javna i društvena namjena — predškolska","boja":"#f46040","povrsina_m2":2047,"stavka":null,"stavka_tekst":null}}
]}