{"type": "FeatureCollection", "features": [{"type": "Feature", "geometry": {"type": "Polygon", "coordinates": [[[16.4952469, 43.5249088], [16.4952458, 43.5249023], [16.495726, 43.5248613], [16.4952469, 43.5249088]]]}, "properties": {"tema": "oborinska-postojeca", "opis": "Oznaka postojeće oborinske odvodnje", "cad_sloj": "D06201-OBORINSKA", "list": "2c_Kanalizacijska mreža_ID_DPU_DRACEVAC", "plan": "DPU radne zone Dračevac", "izvor": "DPU radne zone Dračevac (split.hr), vektorizirano iz PDF-a"}}, {"type": "Feature", "geometry": {"type": "Polygon", "coordinates": [[[16.4952458, 43.5249023], [16.495726, 43.5248613], [16.495725, 43.5248548], [16.4952458, 43.5249023]]]}, "properties": {"tema": "oborinska-postojeca", "opis": "Oznaka postojeće oborinske odvodnje", "cad_sloj": "D06201-OBORINSKA", "list": "2c_Kanalizacijska mreža_ID_DPU_DRACEVAC", "plan": "DPU radne zone Dračevac", "izvor": "DPU radne zone Dračevac (split.hr), vektorizirano iz PDF-a"}}, {"type": "Feature", "geometry": {"type": "Polygon", "coordinates": [[[16.4972801, 43.5254634], [16.4972827, 43.5254654], [16.497244, 43.5254897], [16.4972801, 43.5254634]]]}, "properties": {"tema": "oborinska-postojeca", "opis": "Oznaka postojeće oborinske odvodnje", "cad_sloj": "D06201-OBORINSKA", "list": "2c_Kanalizacijska mreža_ID_DPU_DRACEVAC", "plan": "DPU radne zone Dračevac", "izvor": "DPU radne zone Dračevac (split.hr), vektorizirano iz PDF-a"}}, {"type": "Feature", "geometry": {"type": "Polygon", "coordinates": [[[16.4972827, 43.5254654], [16.497244, 43.5254897], [16.4972461, 43.5254916], [16.4972827, 43.5254654]]]}, "properties": {"tema": "oborinska-postojeca", "opis": "Oznaka postojeće oborinske odvodnje", "cad_sloj": "D06201-OBORINSKA", "list": "2c_Kanalizacijska mreža_ID_DPU_DRACEVAC", "plan": "DPU radne zone Dračevac", "izvor": "DPU radne zone Dračevac (split.hr), vektorizirano iz PDF-a"}}, {"type": "Feature", "geometry": {"type": "Polygon", "coordinates": [[[16.4972445, 43.525465], [16.4972471, 43.5254631], [16.497279, 43.525492], [16.4972445, 43.525465]]]}, "properties": {"tema": "oborinska-postojeca", "opis": "Oznaka postojeće oborinske odvodnje", "cad_sloj": "D06201-OBORINSKA", "list": "2c_Kanalizacijska mreža_ID_DPU_DRACEVAC", "plan": "DPU radne zone Dračevac", "izvor": "DPU radne zone Dračevac (split.hr), vektorizirano iz PDF-a"}}, {"type": "Feature", "geometry": {"type": "Polygon", "coordinates": [[[16.4972471, 43.5254631], [16.497279, 43.525492], [16.4972817, 43.5254901], [16.4972471, 43.5254631]]]}, "properties": {"tema": "oborinska-postojeca", "opis": "Oznaka postojeće oborinske odvodnje", "cad_sloj": "D06201-OBORINSKA", "list": "2c_Kanalizacijska mreža_ID_DPU_DRACEVAC", "plan": "DPU radne zone Dračevac", "izvor": "DPU radne zone Dračevac (split.hr), vektorizirano iz PDF-a"}}, {"type": "Feature", "geometry": {"type": "Polygon", "coordinates": [[[16.4961361, 43.5250337], [16.4961387, 43.5250352], [16.4961042, 43.5250626], [16.4961361, 43.5250337]]]}, "properties": {"tema": "oborinska-postojeca", "opis": "Oznaka postojeće oborinske odvodnje", "cad_sloj": "D06201-OBORINSKA", "list": "2c_Kanalizacijska mreža_ID_DPU_DRACEVAC", "plan": "DPU radne zone Dračevac", "izvor": "DPU radne zone Dračevac (split.hr), vektorizirano iz PDF-a"}}, {"type": "Feature", "geometry": {"type": "Polygon", "coordinates": [[[16.4961387, 43.5250352], [16.4961042, 43.5250626], [16.4961073, 43.5250645], [16.4961387, 43.5250352]]]}, "properties": {"tema": "oborinska-postojeca", "opis": "Oznaka postojeće oborinske odvodnje", "cad_sloj": "D06201-OBORINSKA", "list": "2c_Kanalizacijska mreža_ID_DPU_DRACEVAC", "plan": "DPU radne zone Dračevac", "izvor": "DPU radne zone Dračevac (split.hr), vektorizirano iz PDF-a"}}, {"type": "Feature", "geometry": {"type": "Polygon", "coordinates": [[[16.4961011, 43.5250379], [16.4961031, 43.525036], [16.4961398, 43.5250619], [16.4961011, 43.5250379]]]}, "properties": {"tema": "oborinska-postojeca", "opis": "Oznaka postojeće oborinske odvodnje", "cad_sloj": "D06201-OBORINSKA", "list": "2c_Kanalizacijska mreža_ID_DPU_DRACEVAC", "plan": "DPU radne zone Dračevac", "izvor": "DPU radne zone Dračevac (split.hr), vektorizirano iz PDF-a"}}, {"type": "Feature", "geometry": {"type": "Polygon", "coordinates": [[[16.4961031, 43.525036], [16.4961398, 43.5250619], [16.4961424, 43.52506], [16.4961031, 43.525036]]]}, "properties": {"tema": "oborinska-postojeca", "opis": "Oznaka postojeće oborinske odvodnje", "cad_sloj": "D06201-OBORINSKA", "list": "2c_Kanalizacijska mreža_ID_DPU_DRACEVAC", "plan": "DPU radne zone Dračevac", "izvor": "DPU radne zone Dračevac (split.hr), vektorizirano iz PDF-a"}}, {"type": "Feature", "geometry": {"type": "Polygon", "coordinates": [[[16.4970562, 43.5249705], [16.4970588, 43.5249683], [16.4970965, 43.5249934], [16.4970562, 43.5249705]]]}, "properties": {"tema": "oborinska-postojeca", "opis": "Oznaka postojeće oborinske odvodnje", "cad_sloj": "D06201-OBORINSKA", "list": "2c_Kanalizacijska mreža_ID_DPU_DRACEVAC", "plan": "DPU radne zone Dračevac", "izvor": "DPU radne zone Dračevac (split.hr), vektorizirano iz PDF-a"}}, {"type": "Feature", "geometry": {"type": "Polygon", "coordinates": [[[16.4970588, 43.5249683], [16.4970965, 43.5249934], [16.4970986, 43.5249911], [16.4970588, 43.5249683]]]}, "properties": {"tema": "oborinska-postojeca", "opis": "Oznaka postojeće oborinske odvodnje", "cad_sloj": "D06201-OBORINSKA", "list": "2c_Kanalizacijska mreža_ID_DPU_DRACEVAC", "plan": "DPU radne zone Dračevac", "izvor": "DPU radne zone Dračevac (split.hr), vektorizirano iz PDF-a"}}, {"type": "Feature", "geometry": {"type": "Polygon", "coordinates": [[[16.4970625, 43.524996], [16.4970599, 43.5249941], [16.4970955, 43.5249675], [16.4970625, 43.524996]]]}, "properties": {"tema": "oborinska-postojeca", "opis": "Oznaka postojeće oborinske odvodnje", "cad_sloj": "D06201-OBORINSKA", "list": "2c_Kanalizacijska mreža_ID_DPU_DRACEVAC", "plan": "DPU radne zone Dračevac", "izvor": "DPU radne zone Dračevac (split.hr), vektorizirano iz PDF-a"}}, {"type": "Feature", "geometry": {"type": "Polygon", "coordinates": [[[16.4970599, 43.5249941], [16.4970955, 43.5249675], [16.4970923, 43.5249656], [16.4970599, 43.5249941]]]}, "properties": {"tema": "oborinska-postojeca", "opis": "Oznaka postojeće oborinske odvodnje", "cad_sloj": "D06201-OBORINSKA", "list": "2c_Kanalizacijska mreža_ID_DPU_DRACEVAC", "plan": "DPU radne zone Dračevac", "izvor": "DPU radne zone Dračevac (split.hr), vektorizirano iz PDF-a"}}]}