{"type":"FeatureCollection","features":[{"type":"Feature","geometry":{"type":"Polygon","coordinates":[[[16.495378,43.52777],[16.495411,43.527714],[16.495412,43.527712],[16.495406,43.527621999999994],[16.495406,43.527566],[16.495402,43.527559000000004],[16.495409,43.527473],[16.495411,43.52739999999999],[16.495413,43.52732599999999],[16.495413,43.527314999999994],[16.495414,43.527293],[16.495417,43.527246999999996],[16.495427,43.527066999999995],[16.495432,43.52696600000001],[16.495435,43.526914],[16.495439,43.526824999999995],[16.495443,43.526741],[16.495445000000004,43.526717999999995],[16.49545,43.52661999999999],[16.495456,43.52652400000001],[16.495462,43.526402000000004],[16.495466,43.52630099999999],[16.495471,43.526203],[16.495472,43.526195],[16.495479,43.526046],[16.495487,43.525878999999996],[16.495494,43.525746999999996],[16.495501,43.52565500000001],[16.495506,43.525571],[16.495512,43.525474],[16.495513,43.525443],[16.495517,43.52537399999999],[16.495522,43.52527899999999],[16.495527,43.525177000000006],[16.495532,43.525072],[16.495727,43.525007],[16.495726000000005,43.525003],[16.495715,43.52489099999999],[16.495614,43.524915],[16.49558,43.52479600000001],[16.495864,43.52473400000001],[16.496185,43.52465900000001],[16.497184,43.524329],[16.499145,43.523681999999994],[16.499226,43.52385300000001],[16.499255,43.52392799999999],[16.49927,43.523967],[16.499391,43.524272],[16.499527,43.524613000000016],[16.499667,43.524953999999994],[16.499689,43.525009],[16.49974,43.525134],[16.499814,43.52531200000001],[16.500146,43.52614199999999],[16.500242,43.526329],[16.500289,43.526422],[16.500376,43.526596],[16.500426,43.526694],[16.500441,43.526726000000004],[16.500454,43.526754],[16.500472000000002,43.52678600000001],[16.500472000000002,43.526787],[16.500563,43.526971999999994],[16.500625,43.52709299999999],[16.500645000000002,43.527123],[16.500673,43.527184],[16.500683,43.527206],[16.500692,43.52722600000001],[16.500708,43.527258999999994],[16.500712,43.527267],[16.50084,43.527314],[16.500967,43.527361],[16.501119,43.52737400000001],[16.501105,43.52749299999999],[16.501144,43.52751799999999],[16.501195,43.52754699999999],[16.501153,43.527608],[16.501142,43.527609],[16.501096,43.527612],[16.501128,43.527692],[16.50119,43.52787399999999],[16.501242,43.527878999999984],[16.501444,43.527898],[16.501461,43.5279],[16.501419,43.528059],[16.501395,43.52805599999999],[16.501153,43.528023],[16.50091,43.527992000000005],[16.500666,43.52796299999999],[16.500423,43.527936],[16.500028,43.52789700000001],[16.499633,43.527865],[16.499237,43.52783899999999],[16.498841,43.527818],[16.498444,43.527804999999994],[16.498046000000002,43.52779699999999],[16.497648,43.527795],[16.497251,43.5278],[16.496854000000003,43.527811],[16.496457,43.527828],[16.496228,43.527840999999995],[16.496,43.52785800000001],[16.495773,43.52787899999999],[16.495599,43.527899999999995],[16.495426,43.527924999999996],[16.495383,43.527781999999995],[16.495378,43.52777]]]},"properties":{"role":"dpu-boundary","label":"Obuhvat DPU-a"}},{"type":"Feature","geometry":{"type":"LineString","coordinates":[[16.495436,43.526393],[16.495632990883337,43.526393789600085]]},"properties":{"role":"route","id":"bilice-connection","label":"Spoj s postojećom Ulicom Bilice II","kind":"new","length_m":15.9,"width_m":7,"one_way_inbound":false}},{"type":"Feature","geometry":{"type":"LineString","coordinates":[[16.495632990883337,43.526393789600085],[16.495645384677406,43.526078735558656]]},"properties":{"role":"route","id":"4b","label":"Kratka dionica 4B / OS 4","kind":"new","length_m":35.0,"width_m":7,"one_way_inbound":false}},{"type":"Feature","geometry":{"type":"LineString","coordinates":[[16.495645384677406,43.526078735558656],[16.497267999073088,43.52609453856908]]},"properties":{"role":"route","id":"4e","label":"Zapadni dio 4E / OS 2","kind":"new","length_m":131.2,"width_m":10.5,"one_way_inbound":false}},{"type":"Feature","geometry":{"type":"LineString","coordinates":[[16.497267999073088,43.52609453856908],[16.497268,43.52607399999999],[16.498105,43.52607],[16.49881,43.526073999999994],[16.498977,43.526074],[16.499374,43.52608099999999],[16.499816,43.526098999999995],[16.499986,43.52609599999999],[16.500033,43.52616499999999],[16.500147000000002,43.526377],[16.500347,43.526771999999994],[16.50035,43.526826],[16.500326,43.52691999999999]]},"properties":{"role":"route","id":"existing-59","label":"Postojeći Dračevac · istočni nastavak","kind":"existing","length_m":319.3,"width_m":6,"one_way_inbound":false}},{"type":"Feature","geometry":{"type":"LineString","coordinates":[[16.500326,43.52691999999999],[16.500363,43.526993],[16.500474,43.527173000000005],[16.500586,43.527252],[16.500786,43.527372],[16.500932,43.52742]]},"properties":{"role":"route","id":"existing-70","label":"Postojeći Dračevac · spoj na odvojak","kind":"existing","length_m":77.1,"width_m":6,"one_way_inbound":false}},{"type":"Feature","geometry":{"type":"LineString","coordinates":[[16.500932,43.52742],[16.5009778,43.5274193],[16.5009124,43.52751889999998],[16.5008303,43.527597099999994],[16.5007029,43.527652],[16.5004842,43.5277069],[16.5002956,43.52773750000001],[16.5000439,43.52776389999999],[16.4997497,43.5277771],[16.4988074,43.5277855]]},"properties":{"role":"route","id":"existing-slip","label":"Postojeći jednosmjerni odvojak D1 prema Dračevcu","kind":"existing","length_m":193.7,"width_m":6,"one_way_inbound":true}},{"type":"Feature","geometry":{"type":"Polygon","coordinates":[[[16.49564700016093,43.52599097824174],[16.495645384677406,43.526078735558656],[16.495469169168096,43.52607506528664],[16.495458605342417,43.526343581309696],[16.495436374896382,43.52634349218623],[16.495436,43.526393],[16.495435625103003,43.52644250781336],[16.49563261614744,43.52644329741407],[16.495632990883337,43.526393789600085],[16.49573810244567,43.52639597876713],[16.49574585114969,43.52619899602991],[16.497265806860977,43.52621379854127],[16.497267999073088,43.52609453856908],[16.49726961220478,43.526006781229434],[16.49564700016093,43.52599097824174]]]},"properties":{"role":"new-stage-full-profile","label":"Probir cijelog radnog profila nove etape"}},{"type":"Feature","geometry":{"type":"Polygon","coordinates":[[[16.497276612976496,43.52609453877458],[16.497268240555524,43.52610067070795],[16.497268243562473,43.52610100409179],[16.49810497719534,43.52609700536575],[16.498809710772502,43.52610100385331],[16.49880999996275,43.52610100467335],[16.49897655036902,43.52610100467368],[16.499372513128655,43.52610798638501],[16.49981392619099,43.52612596248139],[16.49981689979727,43.52612599673536],[16.499963251746816,43.526123414069055],[16.499999028051384,43.52617593675713],[16.500112302988384,43.526386588614464],[16.5003101528742,43.526777342608185],[16.50031274796962,43.52682405483992],[16.500289510618163,43.526915067580376],[16.500326,43.52691999999999],[16.500291178800016,43.526929343952126],[16.500328178763734,43.52700234396328],[16.50032913866465,43.52700405504906],[16.500440138584235,43.52718405508161],[16.500441728630058,43.52718633739778],[16.500443608419943,43.52718849996605],[16.500445761076485,43.52719052337011],[16.500448167272367,43.52719238944307],[16.500560167274525,43.527271389468076],[16.50056238790387,43.52727283462372],[16.500762387925903,43.52739283466459],[16.5007650079082,43.52739426999465],[16.50076779180522,43.52739553143175],[16.500770717879178,43.52739660912607],[16.500916717926415,43.52744460914537],[16.500932,43.52742],[16.50093217721264,43.52742613860123],[16.500880570657156,43.5275047319818],[16.500805183520576,43.5275765379697],[16.500687231366935,43.527627366635784],[16.500474076804114,43.52768087456703],[16.500288903771562,43.52771091854682],[16.500040103857224,43.52773701436621],[16.49974832961776,43.52775010552782],[16.49880694553657,43.52775849735926],[16.49880785446384,43.52781250264061],[16.499750154884122,43.527804102636914],[16.499751984216005,43.52780405347191],[16.50004618434651,43.52779085346609],[16.500049195321566,43.527790628391614],[16.500300895430392,43.52776422838007],[16.500303677591944,43.5277638573312],[16.50049227766998,43.52773325731801],[16.50049630438533,43.52773242810085],[16.50071500446658,43.52767752807796],[16.500718488415814,43.527676507228946],[16.500721812726553,43.52767523540549],[16.5008492127583,43.52762033538464],[16.500852184795065,43.52761891032243],[16.500854955550473,43.52761728466397],[16.500857499541027,43.527615473360946],[16.50085979336887,43.5276134930725],[16.500941893353005,43.52753529305154],[16.500944059634435,43.527532992461424],[16.500945888279126,43.52753054158121],[16.5010112882366,43.52743094156226],[16.50101268065222,43.5274285263822],[16.50101374497054,43.52742602441626],[16.501014471180323,43.52742345919861],[16.501014852450677,43.527420854858434],[16.501014885195318,43.52741823589289],[16.501014569106278,43.52741562693668],[16.501013907156825,43.52741305253037],[16.501012905573486,43.52741053688957],[16.501011573777465,43.527408103677054],[16.50100992429605,43.52740577578031],[16.501007972644736,43.52740357509616],[16.50100573718133,43.52740152232485],[16.50100323893323,43.527399636775286],[16.50100050139966,43.527397936183476],[16.500997550330613,43.527396436545644],[16.50099441348465,43.52739515196776],[16.500991120367807,43.52739409453293],[16.500987701956017,43.52739327418767],[16.50098419040379,43.52739269864837],[16.500980618741718,43.527392373328695],[16.500977020565813,43.52739230128871],[16.50093962316539,43.52739287286606],[16.500805793016283,43.527348873913795],[16.50061076228531,43.52723185549677],[16.50050494600561,43.5271572172557],[16.500397381532874,43.526982788526475],[16.50036435453641,43.526917627235974],[16.500386489333078,43.52683093240039],[16.50038701846004,43.52682793295179],[16.500387083370526,43.52682490926378],[16.5003840833375,43.526770909264734],[16.500383726305877,43.52676810879334],[16.50038297090767,43.52676535052955],[16.500381825336657,43.526762664391974],[16.50018182514026,43.52636766445224],[16.50018156193985,43.52636716021055],[16.50006756183734,43.526155160244635],[16.500066252992564,43.52615300776433],[16.500019252963973,43.52608400777787],[16.500017547973464,43.52608177645952],[16.50001556101528,43.52607967226764],[16.50001330984838,43.52607771400892],[16.500010814593125,43.52607591918577],[16.50000809755148,43.526074303839884],[16.500005183007676,43.526072882408776],[16.500002097011162,43.526071667596824],[16.499998867143777,43.52607067026171],[16.499995522273228,43.526069899317356],[16.4999920922951,43.526069361654265],[16.49998860786564,43.526069062077916],[16.499985100127763,43.52606900326585],[16.49981658794911,43.52607197701129],[16.49937607400341,43.52605403752639],[16.499374898990197,43.526054003250216],[16.49897789916714,43.52604700325332],[16.498976999962753,43.52604699532652],[16.498810144634746,43.526046995326624],[16.498105289541705,43.52604299614832],[16.498104756064386,43.52604299590983],[16.497267756437747,43.52604699590807],[16.4972641351766,43.52604714214949],[16.49726055082411,43.52604754488074],[16.497257037610453,43.52604820025577],[16.497253629086448,43.52604910201585],[16.497250357803146,43.52605024154921],[16.497247255000968,43.52605160797349],[16.49724435031136,43.52605318823946],[16.497241671473816,43.526054967255725],[16.497239244070983,43.52605692803288],[16.497237091284333,43.52605905184571],[16.49723523367279,43.526061318412005],[16.49723368897639,43.52606370608629],[16.49723247194687,43.526066192066494],[16.49723159420678,43.5260687526118],[16.4972310641385,43.526071363269196],[16.49723088680417,43.52607399910718],[16.49723088586467,43.52609453767628],[16.497276612976496,43.52609453877458]]]},"properties":{"role":"existing-width-screen","label":"Postojeće ceste · probir radne širine 6 m"}},{"type":"Feature","geometry":{"type":"LineString","coordinates":[[16.495436,43.526393],[16.495343,43.526368000000005],[16.495138,43.52630899999999],[16.494778,43.52622600000001],[16.494627,43.526192],[16.494564399366052,43.52616534538987]]},"properties":{"role":"widening-reference","label":"Prvih 75 m postojeće osi"}},{"type":"Feature","geometry":{"type":"LineString","coordinates":[[16.495436,43.526393],[16.495424395488854,43.52638988051302],[16.495412790978897,43.52638676102488],[16.49540118647014,43.526383641535524],[16.49538958196258,43.52638052204501],[16.495377977456215,43.5263774025533],[16.495366372951047,43.52637428306043],[16.495354768447072,43.526371163566374],[16.495343163944295,43.52636804407114],[16.495331658606403,43.52636473590423],[16.4953201546908,43.52636142503249],[16.495309788335792,43.526356021521444],[16.495299421982637,43.52635061800944],[16.49528791807148,43.52634730713445],[16.495276414161577,43.5263439962583],[16.495264910252935,43.52634068538101],[16.49525340634555,43.52633737450255],[16.495241902439417,43.526334063622926],[16.495230398534556,43.52633075274215],[16.495218894630945,43.52632744186021],[16.495207390728588,43.52632413097711],[16.49519474926488,43.52632291272989],[16.49518324536471,43.52631960184436],[16.495171741465796,43.526316290957666],[16.495160237568147,43.52631298006981],[16.49514873367175,43.52630966918081],[16.49513704692058,43.52630642025052],[16.4951251851607,43.52630368483535],[16.495113391903992,43.52630096585438],[16.495101598648343,43.52629824687221],[16.495089805393754,43.526295527888784],[16.49507801214023,43.52629280890418],[16.49506621888776,43.526290089918334],[16.49505442563635,43.526287370931286],[16.495041698189134,43.52628679721595],[16.49502897074216,43.52628622349923],[16.49501624329542,43.526285649781045],[16.49500351584893,43.52628507606148],[16.494989854203975,43.526286647612984],[16.494976192558312,43.52628821916288],[16.494963465111656,43.52628764543884],[16.49495073766522,43.52628707171338],[16.494938944419612,43.52628435271441],[16.494927151175037,43.52628163371423],[16.49491629213275,43.52627676944091],[16.49490449889067,43.526274050438396],[16.49489270564965,43.52627133143464],[16.49488091240969,43.526268612429696],[16.494869119170794,43.52626589342352],[16.494858260135988,43.52626102914469],[16.494846466899585,43.52625831013618],[16.494834673664222,43.52625559112642],[16.49482288042995,43.52625287211548],[16.494811087196727,43.52625015310332],[16.494799293964558,43.52624743408993],[16.49478843493868,43.52624256980444],[16.49477758983441,43.526237708722],[16.494765866321675,43.526235046295746],[16.494754048141992,43.52623238525627],[16.494743144249544,43.52622757440603],[16.49473224035882,43.52622276355472],[16.494721336469848,43.52621795270239],[16.4947104325826,43.52621314184901],[16.49469861440963,43.52621048080379],[16.4946867962377,43.52620781975737],[16.49467497806681,43.5262051587097],[16.49466315989696,43.52620249766082],[16.494651341728144,43.5261998366107],[16.494639523560373,43.526197175559375],[16.49462746327849,43.52619445185956],[16.4946162239814,43.52619001907413],[16.494605546651144,43.52618547279569],[16.494594869322498,43.52618092651624],[16.49458419199545,43.5261763802358],[16.49457351467001,43.52617183395436],[16.494562837346173,43.52616728767191]]},"properties":{"role":"widening-axis","label":"Obuhvat prvih 75 m · radna os 75,8 m","width_m":5}},{"type":"Feature","geometry":{"type":"Polygon","coordinates":[[[16.495435113515484,43.52636877114979],[16.495423509008994,43.5263656516627],[16.49540029999969,43.52635941268499],[16.495388695496793,43.52635629319437],[16.495365486494666,43.5263500542096],[16.49535420752589,43.5263470222238],[16.495343029544568,43.52634380818293],[16.495335070768007,43.526341517616295],[16.495327799548676,43.52633772745958],[16.495317433197055,43.52633232394919],[16.495314226306128,43.52633085975108],[16.4953107975743,43.52632969162814],[16.4952992936665,43.5263263807543],[16.495287789759963,43.52632306987927],[16.49527628585466,43.52631975900311],[16.495264781950628,43.52631644812578],[16.495253278047898,43.5263131372473],[16.495241774146344,43.52630982636764],[16.495230270246086,43.52630651548684],[16.49521876634713,43.52630320460487],[16.495215167156402,43.52630235005838],[16.49521145143691,43.52630182189639],[16.495202584401344,43.52630096738779],[16.495194620990702,43.526298675474514],[16.495183117095163,43.52629536458895],[16.495171613200874,43.526292053702235],[16.495160109307808,43.52628874281435],[16.495159771888222,43.52628864736094],[16.495148085140517,43.52628539843176],[16.49514639084846,43.52628496797256],[16.495134529092358,43.52628223255835],[16.49512273384647,43.5262795131188],[16.495110940594582,43.526276794137566],[16.495099147343755,43.52627407515513],[16.495087354093993,43.52627135617146],[16.4950755608453,43.52626863718657],[16.495063767597628,43.52626591820047],[16.495060095260015,43.52626524839711],[16.495056337963828,43.526264910097304],[16.49504361052131,43.52626433638219],[16.49503088307904,43.52626376266566],[16.49501815563704,43.52626318894769],[16.495005428195224,43.526262615228326],[16.495002048496673,43.52626259750997],[16.494998686321406,43.52626284823316],[16.494974716401927,43.526265605583966],[16.49496537747292,43.526265184606366],[16.494956450127066,43.52626478218128],[16.49494828642134,43.526262899993014],[16.494940122716176,43.526261017804174],[16.49493250591408,43.526257605882215],[16.49492916648799,43.5262563079956],[16.49492563414134,43.52625531672134],[16.494902047665764,43.52624987871699],[16.494890254429563,43.52624715971299],[16.494882090728307,43.526245277520005],[16.494874473931453,43.52624186559416],[16.494871134507488,43.52624056770585],[16.494867602162717,43.52623957642981],[16.494855808930073,43.52623685742224],[16.494844015698508,43.526234138413464],[16.494832222467945,43.52623141940346],[16.49482042923849,43.526228700392245],[16.494812265541913,43.52622681819427],[16.494804652406728,43.5262234079012],[16.49479381098381,43.52621854846941],[16.49479156672642,43.52621763394284],[16.494789225789432,43.52621685827567],[16.494786804365354,43.52621622683327],[16.49477508085637,43.52621356440795],[16.494775009173125,43.52621354819803],[16.494766828206977,43.52621170613164],[16.49475917994592,43.52620833168195],[16.494748276057404,43.52620352083217],[16.494737372170597,43.52619870998135],[16.49472646828553,43.52619389912948],[16.49472311690446,43.52619261766634],[16.494719575450453,43.52619164375565],[16.494707757281276,43.52618898271137],[16.49469593911312,43.52618632166585],[16.494684120946022,43.52618366061913],[16.494672302779964,43.52618099957118],[16.494660484614972,43.526178338522],[16.494648678942617,43.52617568028431],[16.494639531511158,43.52617361442422],[16.49463140719354,43.52617041018872],[16.49457845754046,43.526147864850586],[16.494547217141864,43.52618671049103],[16.494600603788353,43.52620944190047],[16.494601485865758,43.52620980350771],[16.49461272516544,43.526214236294585],[16.49461545279927,43.52621518956023],[16.494618295403704,43.52621594431386],[16.49463035568946,43.52621866801465],[16.494642198834846,43.52622133469859],[16.494654017007434,43.52622399574963],[16.494665835181102,43.52622665679945],[16.49467765335579,43.52622931784804],[16.494689471531508,43.52623197889542],[16.494697652498076,43.52623382096733],[16.494705300758913,43.52623719542112],[16.49471620465007,43.526242006274956],[16.494727108542957,43.52624681712776],[16.49473801243761,43.52625162797953],[16.494741363822286,43.526252909442235],[16.494744905280253,43.52625388335225],[16.49475668760458,43.526256536318435],[16.494764671862956,43.52625834955496],[16.494772213781136,43.52626173005619],[16.494783080143783,43.52626659762977],[16.49478641956731,43.52626789552064],[16.494789951912413,43.526268886799194],[16.49480174514834,43.52627160581354],[16.494813538385323,43.52627432482666],[16.494825331623368,43.52627704383856],[16.494837124862435,43.52627976284925],[16.49484528856698,43.526281645045444],[16.494852905367196,43.526285056973215],[16.494856244793226,43.52628635486204],[16.49485977714054,43.52628734613843],[16.4948715703832,43.526290065145545],[16.494883363626915,43.526292784151465],[16.494903320580118,43.526297385348194],[16.494910937385576,43.526300797272086],[16.49491427681373,43.52630209515922],[16.494917809162924,43.52630308643382],[16.494929602411254,43.52630580543496],[16.494941395660632,43.52630852443487],[16.494945067999527,43.526309194242025],[16.49494882529781,43.526309532545504],[16.49496155274895,43.526310106271175],[16.49497428020033,43.52631067999543],[16.494977659901572,43.52631069771461],[16.494981022079596,43.526310446992035],[16.495004992016565,43.526307689639935],[16.49501433095241,43.52630811061429],[16.495027058403824,43.526308684332655],[16.495039785855532,43.526309258049615],[16.49504871320849,43.526309660468186],[16.49505687692362,43.52631154264926],[16.495068670179826,43.52631426163605],[16.49508046343713,43.52631698062163],[16.495092256695482,43.52631969960597],[16.49510404995489,43.52632241858911],[16.495115842225545,43.52632513734283],[16.495126847254017,43.526327675189144],[16.4951375263537,43.526330643991244],[16.495148861927582,43.52633390643619],[16.495160365828557,43.52633721732517],[16.495171869730832,43.52634052821301],[16.49518337363438,43.52634383909967],[16.495186972827103,43.52634469364715],[16.495190688548988,43.52634522180993],[16.49519955559082,43.52634607631945],[16.49520751900789,43.52634836823236],[16.495219022914902,43.52635167911544],[16.495230526823114,43.52635498999735],[16.49524203073256,43.52635830087811],[16.495253534643346,43.52636161175771],[16.495265038555335,43.526364922636134],[16.49527654246858,43.52636823351341],[16.495284505891483,43.52637052542095],[16.495291777112016,43.526374315580405],[16.495302143468557,43.526379719093086],[16.495305350361768,43.52638118329152],[16.495308779096383,43.5263823514146],[16.495320283015342,43.52638566228746],[16.495331797604916,43.526388973115964],[16.495332445885758,43.52638915342576],[16.495344050392028,43.52639227292207],[16.495367259408134,43.526398511911154],[16.49537886391802,43.52640163140394],[16.4954020729413,43.526407870385945],[16.49541367745477,43.52641098987518],[16.49542528196939,43.526414109363245],[16.495446718023135,43.52637189063569],[16.495435113515484,43.52636877114979]]]},"properties":{"role":"widening-study","label":"Radni omotač širine 5 m"}},{"type":"Feature","geometry":{"type":"Polygon","coordinates":[[[16.495191,43.5264],[16.49517,43.526465999999985],[16.495163,43.52649],[16.495143000000002,43.526551999999995],[16.495199,43.52656],[16.49527,43.52656900000001],[16.495399,43.52658499999998],[16.495413,43.526394999999994],[16.495214,43.52633300000001],[16.495208,43.526351999999996],[16.4952,43.52637800000001],[16.495198,43.526377999999994],[16.495191,43.5264]]]},"properties":{"role":"widening-parcel","id":"SPLIT:250/11","label":"k.č. 250/11 · k.o. SPLIT","overlapM2":31.4,"parcelAreaM2":437.9,"ownershipLabel":"Vlasnik nije utvrđen · katastar nema povezan ZK uložak","ownershipStatus":"missing_land_register_link","sourceUrl":"https://oss.uredjenazemlja.hr/oss/public/cad/parcel-info?parcelId=16871429","checkedAt":"2026-09-22T17:53:42.185Z","representativePoint":[16.49529534965816,43.52643300478395]}},{"type":"Feature","geometry":{"type":"Polygon","coordinates":[[[16.494768,43.526768999999994],[16.494846,43.52652599999999],[16.494905,43.52634100000001],[16.494923,43.52628599999999],[16.494924,43.52628300000001],[16.49487,43.526269],[16.494802,43.526252],[16.494746,43.526239],[16.494718,43.526238],[16.494697,43.52624],[16.494653,43.52625],[16.494634,43.52625399999999],[16.494599,43.526364],[16.49459,43.526396000000005],[16.494575,43.52647],[16.494561,43.526531999999996],[16.494552,43.52658],[16.494548,43.52659199999999],[16.494506,43.526692000000004],[16.494478,43.526757999999994],[16.49447,43.526778],[16.494461,43.526802],[16.494673,43.52683799999999],[16.494744,43.52685],[16.494747,43.52684],[16.494758,43.526804999999996],[16.494768,43.526768999999994]]]},"properties":{"role":"widening-parcel","id":"SPLIT:247/2","label":"k.č. 247/2 · k.o. SPLIT","overlapM2":32.8,"parcelAreaM2":1490.5,"ownershipLabel":"Vlasnik nije utvrđen · katastar nema povezan ZK uložak","ownershipStatus":"missing_land_register_link","sourceUrl":"https://oss.uredjenazemlja.hr/oss/public/cad/parcel-info?parcelId=37111516","checkedAt":"2026-09-22T17:53:42.482Z","representativePoint":[16.494696433120072,43.526556006576556]}},{"type":"Feature","geometry":{"type":"Polygon","coordinates":[[[16.494587,43.52621199999999],[16.49456,43.526177000000004],[16.494358,43.526088],[16.49428,43.526234],[16.494104,43.52659599999999],[16.494194,43.52662399999999],[16.494156,43.526747],[16.494148,43.526771999999994],[16.494145,43.526785],[16.49415,43.52678399999999],[16.494297,43.52677299999999],[16.494431,43.526762999999995],[16.494476,43.526647],[16.494513000000005,43.526478999999995],[16.494506,43.52646699999999],[16.494502,43.526458999999996],[16.494549,43.526346],[16.494587,43.52621199999999]]]},"properties":{"role":"widening-parcel","id":"SPLIT:532","label":"k.č. 532 · k.o. SPLIT","overlapM2":2.3,"parcelAreaM2":1805.1,"ownershipLabel":"Vlasnik nije utvrđen · katastar nema povezan ZK uložak","ownershipStatus":"missing_land_register_link","sourceUrl":"https://oss.uredjenazemlja.hr/oss/public/cad/parcel-info?parcelId=16872100","checkedAt":"2026-09-22T17:53:42.685Z","representativePoint":[16.494361792748986,43.52640249204721]}},{"type":"Feature","geometry":{"type":"Polygon","coordinates":[[[16.494859000000005,43.525606],[16.494897,43.525473],[16.49493,43.52538200000001],[16.494947000000003,43.525334],[16.494964,43.525244],[16.494970000000002,43.525183],[16.494975,43.52511400000001],[16.494986,43.525026],[16.49499,43.524982],[16.494974,43.52495700000001],[16.494959,43.524939999999994],[16.494942,43.524905],[16.494943,43.524871000000005],[16.494976,43.52476399999999],[16.495014,43.524648000000006],[16.494979,43.524667],[16.494953,43.524756],[16.494911,43.52489099999999],[16.49491,43.524907000000006],[16.494914,43.524916],[16.494934,43.524958],[16.494951,43.524984999999994],[16.494959,43.52504],[16.494951,43.525103999999985],[16.49494,43.525242999999996],[16.494929,43.525309],[16.494926000000003,43.525324],[16.494923,43.52533100000001],[16.494912,43.525358999999995],[16.494873,43.525470999999996],[16.494858,43.525513999999994],[16.494844,43.52555399999999],[16.494824,43.525608000000005],[16.494822,43.525612],[16.49481,43.52564199999999],[16.494761,43.525781],[16.494748,43.525817],[16.49471,43.52590399999999],[16.494642,43.52605099999999],[16.494582,43.526135],[16.494633,43.52617800000001],[16.494639,43.526162],[16.494645000000002,43.52614299999999],[16.494655,43.526112999999995],[16.494671,43.526067999999995],[16.49469,43.526036],[16.494709,43.525994999999995],[16.494729,43.525951000000006],[16.494756,43.52588899999999],[16.494787,43.525802],[16.494807,43.525743],[16.494824,43.525695000000006],[16.494843,43.525646],[16.494859000000005,43.525606]]]},"properties":{"role":"widening-parcel","id":"SPLIT:13572/1","label":"k.č. 13572/1 · k.o. SPLIT","overlapM2":0.6,"parcelAreaM2":430.1,"ownershipLabel":"Vlasnik nije utvrđen · katastar nema povezan ZK uložak","ownershipStatus":"missing_land_register_link","sourceUrl":"https://oss.uredjenazemlja.hr/oss/public/cad/parcel-info?parcelId=16907654","checkedAt":"2026-09-22T17:53:43.071Z","representativePoint":[16.494901179101884,43.525426499989415]}},{"type":"Feature","geometry":{"type":"Polygon","coordinates":[[[16.495427,43.527066999999995],[16.495432,43.52696600000001],[16.495435,43.526914],[16.495439,43.526824999999995],[16.495443,43.526741],[16.495445000000004,43.526717999999995],[16.49545,43.52661999999999],[16.495455,43.526524],[16.495459,43.526458999999996],[16.495461,43.52640499999998],[16.495413,43.526394999999994],[16.495399,43.52658499999998],[16.495399,43.52658999999999],[16.495383,43.52688299999999],[16.495387,43.52693799999999],[16.495399,43.52708299999999],[16.4954,43.527095],[16.495418,43.527232],[16.495423,43.527139000000005],[16.495427,43.527066999999995]]]},"properties":{"role":"widening-parcel","id":"SPLIT:251/2","label":"k.č. 251/2 · k.o. SPLIT","overlapM2":2.4,"parcelAreaM2":317.0,"ownershipLabel":"Republika Hrvatska · vlasništvo prema GIS-u (2025-10-03); aktualni ZK nije potvrđen","ownershipStatus":"missing_land_register_link","sourceUrl":"https://oss.uredjenazemlja.hr/oss/public/cad/parcel-info?parcelId=16871431","checkedAt":"2026-09-22T17:53:43.542Z","representativePoint":[16.49541473044241,43.526782998949706],"historicalOwnership":{"entityLabel":"Republika Hrvatska","publicLevel":"state","ownershipForm":"ownership","sourceUpdatedAt":"2025-10-03","generatedAt":"2026-08-02","sourceUrl":"/geo/analiza/javne-cestice.geojson","sourceLabel":"GIS Grada Splita · izričiti status i oblik upisa"}}},{"type":"Feature","geometry":{"type":"Polygon","coordinates":[[[16.494633,43.52617800000001],[16.494995,43.526267],[16.495205,43.526301],[16.495208,43.526286],[16.495209,43.52628],[16.49519,43.526277],[16.495115,43.526264],[16.495099000000003,43.526261],[16.494996,43.526242999999994],[16.494883,43.526217],[16.494767,43.52619],[16.494753,43.52618699999999],[16.494639,43.526162],[16.494633,43.52617800000001]]]},"properties":{"role":"widening-parcel","id":"SPLIT:452/1","label":"k.č. 452/1 · k.o. SPLIT","overlapM2":21.0,"parcelAreaM2":111.9,"ownershipLabel":"Vlasnik nije utvrđen · katastar nema povezan ZK uložak","ownershipStatus":"missing_land_register_link","sourceUrl":"https://oss.uredjenazemlja.hr/oss/public/cad/parcel-info?parcelId=16871940","checkedAt":"2026-09-22T17:53:43.807Z","representativePoint":[16.49489199385091,43.52622999790152]}},{"type":"Feature","geometry":{"type":"Polygon","coordinates":[[[16.491425,43.525394],[16.491434,43.52539],[16.491609,43.525425999999996],[16.491633,43.525431],[16.491703,43.525423999999994],[16.491918,43.525444],[16.491954,43.52544699999999],[16.49199,43.52546],[16.492136,43.525476000000005],[16.492163,43.52547700000001],[16.492226,43.525479000000004],[16.49244,43.525485],[16.492546,43.52548500000001],[16.492673,43.525487999999996],[16.492773,43.525499],[16.492844,43.525491],[16.493016,43.52549099999999],[16.49307,43.52548899999999],[16.493202,43.525481],[16.493308,43.52547800000001],[16.493375,43.52551900000001],[16.493543,43.525642999999995],[16.493577,43.52567199999999],[16.493656,43.52573700000001],[16.493931,43.52585899999999],[16.494219,43.525981999999985],[16.494242,43.52599299999999],[16.494393,43.526056999999994],[16.494452,43.526082],[16.494582,43.526135],[16.494633,43.52617800000001],[16.494995,43.526267],[16.495205,43.526301],[16.495226,43.526303999999996],[16.495363,43.526346],[16.495426,43.52636600000001],[16.495463,43.52637399999999],[16.495462,43.526402000000004],[16.495461,43.52640499999998],[16.495413,43.526394999999994],[16.495214,43.52633300000001],[16.494924,43.526281999999995],[16.494924,43.52628300000001],[16.49487,43.526269],[16.494802,43.526252],[16.494746,43.526239],[16.494718,43.526238],[16.494697,43.52624],[16.494653,43.52625],[16.494587,43.52621199999999],[16.49456,43.526177000000004],[16.494358,43.526088],[16.494188000000005,43.526002999999996],[16.493917,43.525887],[16.493875,43.525888999999985],[16.493755,43.525851],[16.493616,43.525844000000006],[16.493574,43.52582100000001],[16.493641,43.52577399999999],[16.493587,43.525737],[16.493554,43.52569799999999],[16.493406,43.525606],[16.493312,43.525546999999996],[16.493279,43.52553999999999],[16.49327,43.52553999999999],[16.493261,43.525535999999995],[16.493233,43.525527999999994],[16.493205,43.525524],[16.493172,43.525523],[16.493092,43.52552200000001],[16.492956,43.525523],[16.492921,43.525524999999995],[16.492846000000004,43.525527],[16.492812,43.525527],[16.492775,43.52553799999999],[16.492735,43.525542],[16.492645,43.525536],[16.492573,43.525537],[16.492507,43.52553699999999],[16.492481,43.52554599999999],[16.49233,43.52552300000001],[16.492239,43.52552400000001],[16.492238,43.52552999999999],[16.492225,43.52552899999999],[16.492212,43.525529],[16.49218,43.525526],[16.492167,43.525525],[16.492113,43.525523],[16.492022,43.525516999999994],[16.491994,43.525519],[16.491916,43.52550600000001],[16.491861,43.525496],[16.491704,43.525462999999995],[16.491608,43.525449],[16.491518,43.525436000000006],[16.491489,43.525439],[16.491469,43.52542499999999],[16.491425,43.525394]]]},"properties":{"role":"widening-parcel","id":"SPLIT:13571/1","label":"k.č. 13571/1 · k.o. SPLIT","overlapM2":253.7,"parcelAreaM2":1642.3,"ownershipLabel":"Republika Hrvatska · vlasništvo prema GIS-u (2025-10-03); aktualni ZK nije potvrđen","ownershipStatus":"missing_land_register_link","sourceUrl":"https://oss.uredjenazemlja.hr/oss/public/cad/parcel-info?parcelId=16907651","checkedAt":"2026-09-22T17:53:44.069Z","representativePoint":[16.494070216782863,43.52593550133597],"historicalOwnership":{"entityLabel":"Republika Hrvatska","publicLevel":"state","ownershipForm":"ownership","sourceUpdatedAt":"2025-10-03","generatedAt":"2026-08-02","sourceUrl":"/geo/analiza/javne-cestice.geojson","sourceLabel":"GIS Grada Splita · izričiti status i oblik upisa"}}},{"type":"Feature","geometry":{"type":"Polygon","coordinates":[[[16.495064,43.52637800000001],[16.495096,43.52638399999999],[16.495127,43.52638999999999],[16.49515,43.526393999999996],[16.49518,43.526399],[16.495191,43.5264],[16.495198,43.526377999999994],[16.4952,43.52637800000001],[16.495208,43.526351999999996],[16.495214,43.52633300000001],[16.494924,43.526281999999995],[16.494924,43.52628300000001],[16.494923,43.52628599999999],[16.494905,43.52634100000001],[16.494918,43.526344],[16.494945,43.52635099999999],[16.494971,43.526357999999995],[16.495001,43.526365],[16.49503,43.52637099999999],[16.495064,43.52637800000001]]]},"properties":{"role":"widening-parcel","id":"SPLIT:248/1","label":"k.č. 248/1 · k.o. SPLIT","overlapM2":34.7,"parcelAreaM2":180.9,"ownershipLabel":"Vlasnik nije utvrđen · katastar nema povezan ZK uložak","ownershipStatus":"missing_land_register_link","sourceUrl":"https://oss.uredjenazemlja.hr/oss/public/cad/parcel-info?parcelId=21836492","checkedAt":"2026-09-22T17:53:44.351Z","representativePoint":[16.49505952300435,43.526337000105386]}},{"type":"Feature","geometry":{"type":"Polygon","coordinates":[[[16.497268243562473,43.52610100409179],[16.49810497719534,43.52609700536575],[16.498809710772502,43.52610100385331],[16.49880999996275,43.52610100467335],[16.49897655036902,43.52610100467368],[16.499372513128655,43.52610798638501],[16.49981392619099,43.52612596248139],[16.49981689979727,43.52612599673536],[16.499963251746816,43.526123414069055],[16.499999028051384,43.52617593675713],[16.500112302988384,43.526386588614464],[16.5003101528742,43.526777342608185],[16.50031274796962,43.52682405483992],[16.500289510618163,43.526915067580376],[16.500362489387786,43.526924932407944],[16.500386489333078,43.52683093240039],[16.50038701846004,43.52682793295179],[16.500387083370526,43.52682490926378],[16.5003840833375,43.526770909264734],[16.500383726305877,43.52676810879334],[16.50038297090767,43.52676535052955],[16.500381825336657,43.526762664391974],[16.50018182514026,43.52636766445224],[16.50018156193985,43.52636716021055],[16.50006756183734,43.526155160244635],[16.500066252992564,43.52615300776433],[16.500019252963973,43.52608400777787],[16.500017547973464,43.52608177645952],[16.50001556101528,43.52607967226764],[16.50001330984838,43.52607771400892],[16.500010814593125,43.52607591918577],[16.50000809755148,43.526074303839884],[16.500005183007676,43.526072882408776],[16.500002097011162,43.526071667596824],[16.499998867143777,43.52607067026171],[16.499995522273228,43.526069899317356],[16.4999920922951,43.526069361654265],[16.49998860786564,43.526069062077916],[16.499985100127763,43.52606900326585],[16.49981658794911,43.52607197701129],[16.49937607400341,43.52605403752639],[16.499374898990197,43.526054003250216],[16.49897789916714,43.52604700325332],[16.498976999962753,43.52604699532652],[16.498810144634746,43.526046995326624],[16.498105289541705,43.52604299614832],[16.498104756064386,43.52604299590983],[16.497267756437747,43.52604699590807],[16.4972641351766,43.52604714214949],[16.49726055082411,43.52604754488074],[16.497257037610453,43.52604820025577],[16.497253629086448,43.52604910201585],[16.497250357803146,43.52605024154921],[16.497247255000968,43.52605160797349],[16.49724435031136,43.52605318823946],[16.497241671473816,43.526054967255725],[16.497239244070983,43.52605692803288],[16.497237091284333,43.52605905184571],[16.49723523367279,43.526061318412005],[16.49723368897639,43.52606370608629],[16.49723247194687,43.526066192066494],[16.49723159420678,43.5260687526118],[16.4972310641385,43.526071363269196],[16.49723088680417,43.52607399910718],[16.49723088586467,43.52609453767628],[16.497276612976496,43.52609453877458],[16.497268240555524,43.52610067070795],[16.497268243562473,43.52610100409179]]]},"properties":{"role":"display-existing-road","source":"existing","segmentId":"existing-59","widthM":6,"widthBasis":"schematic-axis","sourcePath":"/geo/grad/ceste-nerazvrstane.geojson","sourceIndex":59}},{"type":"Feature","geometry":{"type":"Polygon","coordinates":[[[16.500440138584235,43.52718405508161],[16.500441728630058,43.52718633739778],[16.500443608419943,43.52718849996605],[16.500445761076485,43.52719052337011],[16.500448167272367,43.52719238944307],[16.500560167274525,43.527271389468076],[16.50056238790387,43.52727283462372],[16.500762387925903,43.52739283466459],[16.5007650079082,43.52739426999465],[16.50076779180522,43.52739553143175],[16.500770717879178,43.52739660912607],[16.500916717926415,43.52744460914537],[16.500947282061162,43.527395390852455],[16.500805793016283,43.527348873913795],[16.50061076228531,43.52723185549677],[16.50050494600561,43.5271572172557],[16.500397381532874,43.526982788526475],[16.50036082118924,43.52691065603724],[16.500291178800016,43.526929343952126],[16.500328178763734,43.52700234396328],[16.50032913866465,43.52700405504906],[16.500440138584235,43.52718405508161]]]},"properties":{"role":"display-existing-road","source":"existing","segmentId":"existing-70","widthM":6,"widthBasis":"schematic-axis","sourcePath":"/geo/grad/ceste-nerazvrstane.geojson","sourceIndex":70}},{"type":"Feature","geometry":{"type":"Polygon","coordinates":[[[16.500805183520576,43.5275765379697],[16.500687231366935,43.527627366635784],[16.500474076804114,43.52768087456703],[16.500288903771562,43.52771091854682],[16.500040103857224,43.52773701436621],[16.49974832961776,43.52775010552782],[16.49880694553657,43.52775849735926],[16.49880785446384,43.52781250264061],[16.499750154884122,43.527804102636914],[16.499751984216005,43.52780405347191],[16.50004618434651,43.52779085346609],[16.500049195321566,43.527790628391614],[16.500300895430392,43.52776422838007],[16.500303677591944,43.5277638573312],[16.50049227766998,43.52773325731801],[16.50049630438533,43.52773242810085],[16.50071500446658,43.52767752807796],[16.500718488415814,43.527676507228946],[16.500721812726553,43.52767523540549],[16.5008492127583,43.52762033538464],[16.500852184795065,43.52761891032243],[16.500854955550473,43.52761728466397],[16.500857499541027,43.527615473360946],[16.50085979336887,43.5276134930725],[16.500941893353005,43.52753529305154],[16.500944059634435,43.527532992461424],[16.500945888279126,43.52753054158121],[16.5010112882366,43.52743094156226],[16.50101268065222,43.5274285263822],[16.50101374497054,43.52742602441626],[16.501014471180323,43.52742345919861],[16.501014852450677,43.527420854858434],[16.501014885195318,43.52741823589289],[16.501014569106278,43.52741562693668],[16.501013907156825,43.52741305253037],[16.501012905573486,43.52741053688957],[16.501011573777465,43.527408103677054],[16.50100992429605,43.52740577578031],[16.501007972644736,43.52740357509616],[16.50100573718133,43.52740152232485],[16.50100323893323,43.527399636775286],[16.50100050139966,43.527397936183476],[16.500997550330613,43.527396436545644],[16.50099441348465,43.52739515196776],[16.500991120367807,43.52739409453293],[16.500987701956017,43.52739327418767],[16.50098419040379,43.52739269864837],[16.500980618741718,43.527392373328695],[16.500977020565813,43.52739230128871],[16.50093122058623,43.52739300128839],[16.50093217721264,43.52742613860123],[16.500880570657156,43.5275047319818],[16.500805183520576,43.5275765379697]]]},"properties":{"role":"display-existing-road","source":"existing","segmentId":"existing-slip","widthM":6,"widthBasis":"schematic-axis","sourcePath":"/geo/ceste-sve.geojson","sourceIndex":7}},{"type":"Feature","geometry":{"type":"Polygon","coordinates":[[[16.495533925238966,43.52636166821694],[16.495525562303225,43.5263624240208],[16.4955219004225,43.526362801942845],[16.49550934375941,43.52636242338497],[16.49549730679684,43.526360523582966],[16.4954716742559,43.52635480658175],[16.495470103151614,43.52635442845411],[16.495470103123324,43.526354806519535],[16.49547010269559,43.526360522508426],[16.495469582966248,43.52636242181644],[16.495469582937954,43.526362799881845],[16.495468931177946,43.52638060888961],[16.4954701017032,43.526382343880414],[16.49547140910042,43.526384910602104],[16.495472352671328,43.52638756044195],[16.49547292272074,43.526390266172974],[16.495473113391384,43.52639299999399],[16.495473113399928,43.526406932733515],[16.495536011608433,43.526420664504975],[16.49554639078013,43.52642353954894],[16.495546395540188,43.526358838909715],[16.495545962538706,43.526359004225505],[16.495533925238966,43.52636166821694]]]},"properties":{"role":"display-dpu-road","source":"dpu","segmentId":"bilice-connection","level":"surface","sheet":"2a-1","sourceLayer":"TPS_B015_PROMET-Sraf","widthBasis":"original-dpu-fill","sourcePath":"/geo/planovi/dpu-kolnici.geojson"}},{"type":"Feature","geometry":{"type":"Polygon","coordinates":[[[16.495546395540188,43.526358838909715],[16.49554639078013,43.52642353954894],[16.49554699695348,43.52642370745969],[16.495557462600214,43.52642827165633],[16.495566357057896,43.52643360092347],[16.495574199859032,43.526440451412356],[16.495576664831663,43.52644329599983],[16.495675680118424,43.52644329978751],[16.49567568032162,43.526440455295436],[16.495675680810965,43.526433605110405],[16.495676200779418,43.526428276208165],[16.49567620110539,43.52642371241865],[16.49567620132271,43.52642066989232],[16.49567673434165,43.52640582634455],[16.49567777658835,43.526362807941545],[16.495677776615345,43.52636242987613],[16.495677776669332,43.52636167374532],[16.495677776859576,43.52635900928435],[16.49567777715908,43.52635481455864],[16.495677777538923,43.52634949463824],[16.495678297588082,43.52634302253815],[16.49567829810476,43.52633578528602],[16.49567829870241,43.526327413837706],[16.49567883125802,43.52631904240942],[16.495678831910208,43.52630990582867],[16.495679352692623,43.52629315394995],[16.495679352773575,43.52629201975372],[16.495680407523086,43.52624710202166],[16.495681447781433,43.52623188042714],[16.495684071539987,43.52621664989082],[16.495688254027154,43.52620180648016],[16.495694007640488,43.526186963128474],[16.495700812766405,43.52617249788143],[16.495706565968472,43.52616337051816],[16.495714409828715,43.52615499036223],[16.495723305173897,43.526147384379065],[16.495734291149226,43.52614091266947],[16.495745796627126,43.52613558417597],[16.495758353564423,43.52613139891816],[16.49577194959116,43.52612834789367],[16.495793401222727,43.5261256842238],[16.495798634214037,43.52612530635081],[16.495815891943714,43.5261241637858],[16.49589906260692,43.52612530999695],[16.495979400301287,43.526126389711656],[16.49597940655696,43.52603220157095],[16.49585669815942,43.52603053106757],[16.495835778755108,43.52602977417673],[16.495814859430972,43.52602786508265],[16.49579445977128,43.52602482180758],[16.49577457975134,43.52602101341566],[16.49575469981344,43.52601607082397],[16.495742663073468,43.526011875650426],[16.49573115837037,43.526006546299215],[16.495721224846143,43.526000460874755],[16.49571233057299,43.525993232290574],[16.495705007506714,43.525984851565276],[16.495701482122644,43.52597972054477],[16.495600704389503,43.52597971671163],[16.49560038556194,43.525984847587395],[16.495600384952862,43.52599322803782],[16.49560038442753,43.5260004562888],[16.49559986440112,43.52600654132195],[16.495599864013784,43.526011870244204],[16.495599863708883,43.52601606497017],[16.49559986334968,43.52602100682545],[16.495599863072915,43.526024814484416],[16.49559934326742,43.52602785699098],[16.495599343128692,43.52602976532124],[16.495599343073728,43.5260305214521],[16.495599342630722,43.52603661550676],[16.49559934246451,43.52603890190245],[16.49559880976229,43.52604917265945],[16.495597233184142,43.5261241555751],[16.495597233101,43.526125298772925],[16.4955972330735,43.52612567683834],[16.495597232879717,43.52612834129943],[16.495597232657776,43.526131392827466],[16.49559671276808,43.52613557853179],[16.495596712380465,43.526140907453936],[16.495596711909688,43.52614737957389],[16.49559619177098,43.52615498587011],[16.495596191161326,43.52616336632027],[16.495596190497317,43.52617249389973],[16.49559566985928,43.52618695938276],[16.49559513682239,43.52620180293074],[16.495595135742303,43.52621664649918],[16.495594615047953,43.52623187711452],[16.49559409435399,43.526247098728255],[16.49559303954044,43.5262920164595],[16.49559303945787,43.52629315065574],[16.495592518651573,43.52630990253406],[16.49559146644155,43.526319039074274],[16.49558780398125,43.526327410381406],[16.495582570387853,43.52633578162769],[16.495575778114723,43.52634301861722],[16.495566882805313,43.526349490392406],[16.495556948404246,43.5263548099272],[16.495546395540188,43.526358838909715]]]},"properties":{"role":"display-dpu-road","source":"dpu","segmentId":"4b","level":"surface","sheet":"2a-1","sourceLayer":"TPS_B015_PROMET-Sraf","widthBasis":"original-dpu-fill","sourcePath":"/geo/planovi/dpu-kolnici.geojson"}},{"type":"Feature","geometry":{"type":"Polygon","coordinates":[[[16.497231005115854,43.52607184545283],[16.497231031594325,43.52607184699492],[16.4972310641385,43.526071363269196],[16.49723159420678,43.5260687526118],[16.49723247194687,43.526066192066494],[16.49723368897639,43.52606370608629],[16.49723523367279,43.526061318412005],[16.497237091284333,43.52605905184571],[16.497239244070983,43.52605692803288],[16.497241671473816,43.526054967255725],[16.49724435031136,43.52605318823946],[16.497247255000968,43.52605160797349],[16.497250357803146,43.52605024154921],[16.497253629086448,43.52604910201585],[16.497257037610453,43.52604820025577],[16.49726055082411,43.52604754488074],[16.4972641351766,43.52604714214949],[16.497267756437747,43.52604699590807],[16.497268001218753,43.52604699473917],[16.497268001320272,43.52604474533214],[16.496496974068556,43.52603893292703],[16.496305519712955,43.526036640505396],[16.49597940655696,43.52603220157095],[16.495979400301287,43.526126389711656],[16.496495397479645,43.52613332321366],[16.497223188196557,43.52614290799505],[16.497231005115854,43.52607184545283]]]},"properties":{"role":"display-dpu-road","source":"dpu","segmentId":"4e","level":"surface","sheet":"2a-1","sourceLayer":"TPS_B015_PROMET-Sraf","widthBasis":"original-dpu-fill","sourcePath":"/geo/planovi/dpu-kolnici.geojson"}},{"type":"Feature","geometry":{"type":"Polygon","coordinates":[[[16.495473113391384,43.52639299999399],[16.49547292272074,43.526390266172974],[16.495472352671328,43.52638756044195],[16.49547140910042,43.526384910602104],[16.4954701017032,43.526382343880414],[16.495468443913136,43.52637988664975],[16.495466452763957,43.52637756415803],[16.495464148714625,43.5263754002687],[16.495461555439128,43.52637341721557],[16.49545869958323,43.52637163537438],[16.495455610490676,43.52637007305342],[16.495452319901688,43.526368746305465],[16.49544886162686,43.52636766876271],[16.49543621755843,43.52636426982542],[16.495435761429253,43.526424504972184],[16.495473113410792,43.52642465471649],[16.495473113391384,43.52639299999399]]]},"properties":{"role":"display-existing-road","source":"existing","segmentId":"bilice-connection","widthM":6,"widthBasis":"schematic-axis","sourcePath":"/geo/grad/ceste-nerazvrstane.geojson"}},{"type":"Feature","geometry":{"type":"Polygon","coordinates":[[[16.49544886162686,43.52636766876271],[16.495452319901688,43.526368746305465],[16.495455610490676,43.52637007305342],[16.49545869958323,43.52637163537438],[16.495461555439128,43.52637341721557],[16.49546308565068,43.52637458735383],[16.495463599814673,43.526361604720236],[16.4954362385705,43.52636149502764],[16.49543621755843,43.52636426982542],[16.49544886162686,43.52636766876271]]]},"properties":{"role":"display-working-road","source":"candidate","segmentId":"bilice-connection","widthM":7,"widthBasis":"working-connection"}},{"type":"Feature","geometry":{"type":"Polygon","coordinates":[[[16.497223357760895,43.526141366510686],[16.49726713046178,43.52614179252064],[16.497267999073088,43.52609453856908],[16.49723088586467,43.52609453767628],[16.49723088680417,43.52607399910718],[16.497231031594325,43.52607184699492],[16.497231005115854,43.52607184545283],[16.497223357760895,43.526141366510686]]]},"properties":{"role":"display-existing-road","source":"existing","segmentId":"4e","widthM":6,"widthBasis":"schematic-axis","sourcePath":"/geo/grad/ceste-nerazvrstane.geojson"}}]}
