{"type":"FeatureCollection","features":[{"type":"Feature","geometry":{"type":"Polygon","coordinates":[[[16.502396,43.528048999999996],[16.502353,43.527806000000005],[16.502316,43.527750999999995],[16.502297,43.527517],[16.501673,43.527486],[16.50111,43.527486],[16.501116,43.527504000000015],[16.501203,43.527544],[16.501172,43.527603],[16.501227,43.527598],[16.501246,43.527643000000005],[16.501252,43.527679],[16.501178,43.52768400000001],[16.501134,43.52770700000001],[16.501203,43.52788699999999],[16.501697,43.527932],[16.502075,43.527995],[16.502372,43.528071],[16.502396,43.528048999999996]]]},"properties":{"role":"obligation-plot","obligation":"dracevac-4d","conditional":false,"label":"Dračevac 4d · k.č. 285/1","action":"Vlasnik poslovne zgrade Dračevac 4d · 19 stabala","purpose":"DPU dijela područja Dračevac, Sl. gl. 23/04, čl. 6. t. 2.6. i listovi 2. i 3. · GUP, čl. 91.: sadnja je uvjet za uporabnu dozvolu","evidence":"Danas: Na mjestu drvoreda red niskih biljaka (krošnje 2–3 m); visokih stablašica nema ni na jednoj snimci od 2011."}},{"type":"Feature","geometry":{"type":"Point","coordinates":[16.501331,43.52751200000001]},"properties":{"role":"obligation-tree","obligation":"dracevac-4d","placement":"plan","crown_radius_m":1.9,"label":"Dračevac 4d · 1/19","action":"Stablo ucrtano u planu, nije posađeno · uz dalekovod 110 kV: visinu uskladiti s HOPS-om","purpose":"Vlasnik poslovne zgrade Dračevac 4d"}},{"type":"Feature","geometry":{"type":"Point","coordinates":[16.501395,43.527509]},"properties":{"role":"obligation-tree","obligation":"dracevac-4d","placement":"plan","crown_radius_m":1.9,"label":"Dračevac 4d · 2/19","action":"Stablo ucrtano u planu, nije posađeno · uz dalekovod 110 kV: visinu uskladiti s HOPS-om","purpose":"Vlasnik poslovne zgrade Dračevac 4d"}},{"type":"Feature","geometry":{"type":"Point","coordinates":[16.501468000000003,43.52750699999999]},"properties":{"role":"obligation-tree","obligation":"dracevac-4d","placement":"plan","crown_radius_m":1.9,"label":"Dračevac 4d · 3/19","action":"Stablo ucrtano u planu, nije posađeno","purpose":"Vlasnik poslovne zgrade Dračevac 4d"}},{"type":"Feature","geometry":{"type":"Point","coordinates":[16.50152,43.52750700000001]},"properties":{"role":"obligation-tree","obligation":"dracevac-4d","placement":"plan","crown_radius_m":1.9,"label":"Dračevac 4d · 4/19","action":"Stablo ucrtano u planu, nije posađeno","purpose":"Vlasnik poslovne zgrade Dračevac 4d"}},{"type":"Feature","geometry":{"type":"Point","coordinates":[16.501579,43.52750900000001]},"properties":{"role":"obligation-tree","obligation":"dracevac-4d","placement":"plan","crown_radius_m":1.9,"label":"Dračevac 4d · 5/19","action":"Stablo ucrtano u planu, nije posađeno","purpose":"Vlasnik poslovne zgrade Dračevac 4d"}},{"type":"Feature","geometry":{"type":"Point","coordinates":[16.501633,43.527509]},"properties":{"role":"obligation-tree","obligation":"dracevac-4d","placement":"plan","crown_radius_m":1.9,"label":"Dračevac 4d · 6/19","action":"Stablo ucrtano u planu, nije posađeno","purpose":"Vlasnik poslovne zgrade Dračevac 4d"}},{"type":"Feature","geometry":{"type":"Point","coordinates":[16.501691,43.52751099999999]},"properties":{"role":"obligation-tree","obligation":"dracevac-4d","placement":"plan","crown_radius_m":1.9,"label":"Dračevac 4d · 7/19","action":"Stablo ucrtano u planu, nije posađeno","purpose":"Vlasnik poslovne zgrade Dračevac 4d"}},{"type":"Feature","geometry":{"type":"Point","coordinates":[16.501751,43.527508000000005]},"properties":{"role":"obligation-tree","obligation":"dracevac-4d","placement":"plan","crown_radius_m":1.9,"label":"Dračevac 4d · 8/19","action":"Stablo ucrtano u planu, nije posađeno · zamjenjuje mjesto D4 na nogostupu","purpose":"Vlasnik poslovne zgrade Dračevac 4d"}},{"type":"Feature","geometry":{"type":"Point","coordinates":[16.501807,43.52751099999999]},"properties":{"role":"obligation-tree","obligation":"dracevac-4d","placement":"plan","crown_radius_m":1.9,"label":"Dračevac 4d · 9/19","action":"Stablo ucrtano u planu, nije posađeno","purpose":"Vlasnik poslovne zgrade Dračevac 4d"}},{"type":"Feature","geometry":{"type":"Point","coordinates":[16.501866,43.527511999999994]},"properties":{"role":"obligation-tree","obligation":"dracevac-4d","placement":"plan","crown_radius_m":1.9,"label":"Dračevac 4d · 10/19","action":"Stablo ucrtano u planu, nije posađeno · zamjenjuje mjesto D5 na nogostupu","purpose":"Vlasnik poslovne zgrade Dračevac 4d"}},{"type":"Feature","geometry":{"type":"Point","coordinates":[16.501929,43.527514000000004]},"properties":{"role":"obligation-tree","obligation":"dracevac-4d","placement":"plan","crown_radius_m":1.9,"label":"Dračevac 4d · 11/19","action":"Stablo ucrtano u planu, nije posađeno","purpose":"Vlasnik poslovne zgrade Dračevac 4d"}},{"type":"Feature","geometry":{"type":"Point","coordinates":[16.502151,43.527529]},"properties":{"role":"obligation-tree","obligation":"dracevac-4d","placement":"plan","crown_radius_m":1.9,"label":"Dračevac 4d · 12/19","action":"Stablo ucrtano u planu, nije posađeno · zamjenjuje mjesto D7 na nogostupu","purpose":"Vlasnik poslovne zgrade Dračevac 4d"}},{"type":"Feature","geometry":{"type":"Point","coordinates":[16.502224,43.527534]},"properties":{"role":"obligation-tree","obligation":"dracevac-4d","placement":"plan","crown_radius_m":1.9,"label":"Dračevac 4d · 13/19","action":"Stablo ucrtano u planu, nije posađeno","purpose":"Vlasnik poslovne zgrade Dračevac 4d"}},{"type":"Feature","geometry":{"type":"Point","coordinates":[16.502279,43.527535]},"properties":{"role":"obligation-tree","obligation":"dracevac-4d","placement":"plan","crown_radius_m":1.9,"label":"Dračevac 4d · 14/19","action":"Stablo ucrtano u planu, nije posađeno · zamjenjuje mjesto D8 na nogostupu","purpose":"Vlasnik poslovne zgrade Dračevac 4d"}},{"type":"Feature","geometry":{"type":"Point","coordinates":[16.502279,43.52757900000001]},"properties":{"role":"obligation-tree","obligation":"dracevac-4d","placement":"plan","crown_radius_m":1.9,"label":"Dračevac 4d · 15/19","action":"Stablo ucrtano u planu, nije posađeno","purpose":"Vlasnik poslovne zgrade Dračevac 4d"}},{"type":"Feature","geometry":{"type":"Point","coordinates":[16.502282,43.52762299999999]},"properties":{"role":"obligation-tree","obligation":"dracevac-4d","placement":"plan","crown_radius_m":1.9,"label":"Dračevac 4d · 16/19","action":"Stablo ucrtano u planu, nije posađeno","purpose":"Vlasnik poslovne zgrade Dračevac 4d"}},{"type":"Feature","geometry":{"type":"Point","coordinates":[16.502282,43.52766900000001]},"properties":{"role":"obligation-tree","obligation":"dracevac-4d","placement":"plan","crown_radius_m":1.9,"label":"Dračevac 4d · 17/19","action":"Stablo ucrtano u planu, nije posađeno","purpose":"Vlasnik poslovne zgrade Dračevac 4d"}},{"type":"Feature","geometry":{"type":"Point","coordinates":[16.502285,43.527717]},"properties":{"role":"obligation-tree","obligation":"dracevac-4d","placement":"plan","crown_radius_m":1.9,"label":"Dračevac 4d · 18/19","action":"Stablo ucrtano u planu, nije posađeno","purpose":"Vlasnik poslovne zgrade Dračevac 4d"}},{"type":"Feature","geometry":{"type":"Point","coordinates":[16.502278,43.527759]},"properties":{"role":"obligation-tree","obligation":"dracevac-4d","placement":"plan","crown_radius_m":1.9,"label":"Dračevac 4d · 19/19","action":"Stablo ucrtano u planu, nije posađeno","purpose":"Vlasnik poslovne zgrade Dračevac 4d"}},{"type":"Feature","geometry":{"type":"Point","coordinates":[16.501769654718444,43.52748112412304]},"properties":{"role":"street-tree-replaceable","obligation":"dracevac-4d","candidate_id":"D4","action":"Mjesto D4 na nogostupu otpada ako vlasnik poslovne zgrade dračevac 4d posadi stablo iza ograde","evidence":"Podzemna srednjonaponska mreža na 0,8 m"}},{"type":"Feature","geometry":{"type":"Point","coordinates":[16.501892287605784,43.527480003119045]},"properties":{"role":"street-tree-replaceable","obligation":"dracevac-4d","candidate_id":"D5","action":"Mjesto D5 na nogostupu otpada ako vlasnik poslovne zgrade dračevac 4d posadi stablo iza ograde","evidence":"Podzemna srednjonaponska mreža na 0,7 m"}},{"type":"Feature","geometry":{"type":"Point","coordinates":[16.502129902081457,43.52750439772145]},"properties":{"role":"street-tree-replaceable","obligation":"dracevac-4d","candidate_id":"D7","action":"Mjesto D7 na nogostupu otpada ako vlasnik poslovne zgrade dračevac 4d posadi stablo iza ograde","evidence":"Podzemna niskonaponska mreža na 2,3 m"}},{"type":"Feature","geometry":{"type":"Point","coordinates":[16.502253940751583,43.52750965805111]},"properties":{"role":"street-tree-replaceable","obligation":"dracevac-4d","candidate_id":"D8","action":"Mjesto D8 na nogostupu otpada ako vlasnik poslovne zgrade dračevac 4d posadi stablo iza ograde","evidence":"Podzemna niskonaponska mreža na 1,7 m"}},{"type":"Feature","geometry":{"type":"Polygon","coordinates":[[[16.504087,43.52767199999999],[16.504069,43.527676],[16.503958000000004,43.52768699999999],[16.503802,43.527701],[16.503802,43.527705],[16.503803,43.527726],[16.503216,43.527757],[16.503217,43.527732],[16.503058,43.52774600000001],[16.50305,43.52773899999999],[16.503023,43.527605],[16.503012,43.52753299999999],[16.503017,43.527533000000005],[16.503174,43.527512],[16.503327,43.52744599999999],[16.503516,43.527379],[16.503675,43.527332],[16.503839,43.52728299999999],[16.503891,43.527279],[16.503898,43.527278],[16.503957,43.52740099999999],[16.504034,43.52756],[16.504087,43.52767199999999]],[[16.503269,43.527743],[16.503401,43.527716999999996],[16.503398,43.52771099999999],[16.503364,43.52762299999999],[16.503232,43.52764900000001],[16.503262,43.527725999999994],[16.503264000000005,43.52773],[16.503269,43.527743]]]},"properties":{"role":"obligation-plot","obligation":"hala-7a","conditional":false,"label":"Dračevac 7A · k.č. 288/3","action":"Vlasnik hale Dračevac 7A · 8 stabala","purpose":"GUP, čl. 91.: 1 stablo na 200 m² neizgrađenog dijela čestice i 1 na 4 parkirna mjesta; sadnja je uvjet za uporabnu dozvolu · GUP, čl. 73. (urbano pravilo 3.1, poslovna namjena K): najmanje 20 % čestice zelena površina","evidence":"Danas: Iza ulične ograde živica; stabala nema. Kolni ulazi: kamionski na zapadu, glavni s parkiralištem na istoku."}},{"type":"Feature","geometry":{"type":"Point","coordinates":[16.503814029140422,43.5273050572022]},"properties":{"role":"obligation-tree","obligation":"hala-7a","placement":"ilustracija","crown_radius_m":3.0,"label":"Dračevac 7A · 1/8","action":"Dugovano stablo po GUP-u · broj propisuje plan, položaj je naš prijedlog · zamjenjuje mjesto D26 na nogostupu","purpose":"Vlasnik hale Dračevac 7A"}},{"type":"Feature","geometry":{"type":"Point","coordinates":[16.50327517484011,43.52748405290105]},"properties":{"role":"obligation-tree","obligation":"hala-7a","placement":"ilustracija","crown_radius_m":3.0,"label":"Dračevac 7A · 2/8","action":"Dugovano stablo po GUP-u · broj propisuje plan, položaj je naš prijedlog · zamjenjuje mjesto D20 na nogostupu","purpose":"Vlasnik hale Dračevac 7A"}},{"type":"Feature","geometry":{"type":"Point","coordinates":[16.50363060436149,43.527359697310615]},"properties":{"role":"obligation-tree","obligation":"hala-7a","placement":"ilustracija","crown_radius_m":3.0,"label":"Dračevac 7A · 3/8","action":"Dugovano stablo po GUP-u · broj propisuje plan, položaj je naš prijedlog · zamjenjuje mjesto D24 na nogostupu","purpose":"Vlasnik hale Dračevac 7A"}},{"type":"Feature","geometry":{"type":"Point","coordinates":[16.503485563184775,43.527404809410946]},"properties":{"role":"obligation-tree","obligation":"hala-7a","placement":"ilustracija","crown_radius_m":3.0,"label":"Dračevac 7A · 4/8","action":"Dugovano stablo po GUP-u · broj propisuje plan, položaj je naš prijedlog · zamjenjuje mjesto D23 na nogostupu","purpose":"Vlasnik hale Dračevac 7A"}},{"type":"Feature","geometry":{"type":"Point","coordinates":[16.5034140672253,43.52743015455924]},"properties":{"role":"obligation-tree","obligation":"hala-7a","placement":"ilustracija","crown_radius_m":3.0,"label":"Dračevac 7A · 5/8","action":"Dugovano stablo po GUP-u · broj propisuje plan, položaj je naš prijedlog · zamjenjuje mjesto D22 na nogostupu","purpose":"Vlasnik hale Dračevac 7A"}},{"type":"Feature","geometry":{"type":"Point","coordinates":[16.503342571205962,43.5274554996627]},"properties":{"role":"obligation-tree","obligation":"hala-7a","placement":"ilustracija","crown_radius_m":3.0,"label":"Dračevac 7A · 6/8","action":"Dugovano stablo po GUP-u · broj propisuje plan, položaj je naš prijedlog","purpose":"Vlasnik hale Dračevac 7A"}},{"type":"Feature","geometry":{"type":"Point","coordinates":[16.50355692263833,43.527381477435824]},"properties":{"role":"obligation-tree","obligation":"hala-7a","placement":"ilustracija","crown_radius_m":3.0,"label":"Dračevac 7A · 7/8","action":"Dugovano stablo po GUP-u · broj propisuje plan, položaj je naš prijedlog","purpose":"Vlasnik hale Dračevac 7A"}},{"type":"Feature","geometry":{"type":"Point","coordinates":[16.503101705813187,43.52753539853817]},"properties":{"role":"obligation-tree","obligation":"hala-7a","placement":"ilustracija","crown_radius_m":3.0,"label":"Dračevac 7A · 8/8","action":"Dugovano stablo po GUP-u · broj propisuje plan, položaj je naš prijedlog","purpose":"Vlasnik hale Dračevac 7A"}},{"type":"Feature","geometry":{"type":"Point","coordinates":[16.503259248247993,43.527461468721796]},"properties":{"role":"street-tree-replaceable","obligation":"hala-7a","candidate_id":"D20","action":"Mjesto D20 na nogostupu otpada ako vlasnik hale dračevac 7a posadi stablo iza ograde","evidence":"Podzemna niskonaponska mreža na 2,2 m"}},{"type":"Feature","geometry":{"type":"Point","coordinates":[16.503373644692974,43.52741729202616]},"properties":{"role":"street-tree-replaceable","obligation":"hala-7a","candidate_id":"D22","action":"Mjesto D22 na nogostupu otpada ako vlasnik hale dračevac 7a posadi stablo iza ograde","evidence":"Podzemna niskonaponska mreža na 1,7 m"}},{"type":"Feature","geometry":{"type":"Point","coordinates":[16.503483385306417,43.527375599480884]},"properties":{"role":"street-tree-replaceable","obligation":"hala-7a","candidate_id":"D23","action":"Mjesto D23 na nogostupu otpada ako vlasnik hale dračevac 7a posadi stablo iza ograde","evidence":"Odvodnja na 0,7 m"}},{"type":"Feature","geometry":{"type":"Point","coordinates":[16.503599234709355,43.52734399390914]},"properties":{"role":"street-tree-replaceable","obligation":"hala-7a","candidate_id":"D24","action":"Mjesto D24 na nogostupu otpada ako vlasnik hale dračevac 7a posadi stablo iza ograde","evidence":"Podzemna niskonaponska mreža na 2,9 m"}},{"type":"Feature","geometry":{"type":"Point","coordinates":[16.503807843984216,43.52728117319232]},"properties":{"role":"street-tree-replaceable","obligation":"hala-7a","candidate_id":"D26","action":"Mjesto D26 na nogostupu otpada ako vlasnik hale dračevac 7a posadi stablo iza ograde","evidence":"Podzemna niskonaponska mreža na 0,3 m"}},{"type":"Feature","geometry":{"type":"Polygon","coordinates":[[[16.503916,43.52692900000002],[16.50388,43.526953],[16.503797,43.52700899999999],[16.503775,43.527024000000004],[16.503751,43.527038999999995],[16.503774,43.527060999999996],[16.503849,43.52712700000001],[16.5038,43.527132],[16.503508,43.52688899999999],[16.503528,43.526882],[16.503637,43.526866],[16.503681,43.526858],[16.503714,43.52684799999999],[16.503797,43.52683],[16.503811,43.526841999999995],[16.503916,43.52692900000002]]]},"properties":{"role":"obligation-plot","obligation":"dracevac-9c","conditional":false,"label":"Dračevac 9C · k.č. 290/2","action":"Vlasnik zgrade Dračevac 9C · 1 stabala","purpose":"GUP, čl. 91.: 1 stablo na 200 m² neizgrađenog dijela čestice; sadnja je uvjet za uporabnu dozvolu · GUP, čl. 73. (urbano pravilo 3.1, K5 prema M1): najmanje 30 % čestice zelena površina","evidence":"Danas: Neizgrađeni dio uz zgradu popločen; stabla nema."}},{"type":"Feature","geometry":{"type":"Point","coordinates":[16.503813539415283,43.52711698396535]},"properties":{"role":"obligation-tree","obligation":"dracevac-9c","placement":"ilustracija","crown_radius_m":3.0,"label":"Dračevac 9C · 1/1","action":"Dugovano stablo po GUP-u · broj propisuje plan, položaj je naš prijedlog","purpose":"Vlasnik zgrade Dračevac 9C"}},{"type":"Feature","geometry":{"type":"Polygon","coordinates":[[[16.5038,43.527132],[16.503781,43.52713399999999],[16.5036,43.527190000000004],[16.50343,43.527260999999996],[16.503249,43.527326],[16.503208,43.52733299999999],[16.502999,43.527111999999995],[16.503312,43.527082],[16.503321,43.526911999999996],[16.503343,43.526907],[16.503351,43.526905],[16.503374,43.526900000000005],[16.503508,43.52688899999999],[16.5038,43.527132]]]},"properties":{"role":"obligation-plot","obligation":"dracevac-15","conditional":true,"label":"Dračevac 15 · k.č. 291","action":"Uvjetno: Investitor s adresom Dračevac 15, vlasnik dvorišta na čestici 291 · 6 stabala","purpose":"GUP, čl. 91.: 1 stablo na 200 m² neizgrađenog dijela čestice, vrste očekivane visine oko 10 m, pri sadnji visoko najmanje 3 m · Zid i krošnje: Google Karte, 3D prikaz (prije 2025.), poravnat prema gradskim oknima i slivnicima; međa: katastarski plan DGU-a. Obrisi i kontrolne točke su u scripts/data/dracevac-15-google.json","evidence":"Danas: Uz ulicu betonski zid sa žičanom ogradom, 1–2,5 m sjeverno od katastarske međe, a iza njega red maslina; oko polovice krošnji je preko međe. Između 2023. i 2025./26. uz rub podignuta nova građevina."}},{"type":"Feature","geometry":{"type":"Polygon","coordinates":[[[16.503740215254066,43.52708291178607],[16.50373777543646,43.52708430548175],[16.503750905194174,43.52709574342154],[16.503747133456056,43.52710169438738],[16.503758076977554,43.52711155591537],[16.503743728585967,43.52712288640564],[16.50373990512593,43.52712052358111],[16.503733395657605,43.52712371224309],[16.503727942367988,43.52712175068879],[16.503708977757377,43.52713448203781],[16.503703514617193,43.52713093690329],[16.50370026480675,43.527133323022824],[16.503687693922974,43.527124258654155],[16.50368200675406,43.52712843436246],[16.50368693072007,43.52713277307929],[16.503665568135517,43.52715362832663],[16.50365464678198,43.52714732984277],[16.50364813976851,43.527150914394625],[16.50363966808835,43.52714480579465],[16.503647248523777,43.52713884229155],[16.503633899663516,43.52713591697321],[16.50361314024285,43.52712252462603],[16.503585442964717,43.5271309297741],[16.50358408887512,43.52713192398918],[16.503595556778148,43.52713861658326],[16.50359015272876,43.527144572917805],[16.50359151912786,43.5271455581765],[16.503594771405133,43.52714356795484],[16.50360597834145,43.52715204296995],[16.50360327016195,43.527154031400606],[16.503617468409022,43.52716229861473],[16.503610156323738,43.52716766737799],[16.503599276826,43.52716809909991],[16.503588449026868,43.5271768446109],[16.50357975822855,43.52717924863965],[16.50357648871649,43.527178467597494],[16.503570528254894,43.52718244624845],[16.503559102194444,43.52718248386297],[16.503550701905215,43.52718785620469],[16.50355018242301,43.527191816943464],[16.503542065257765,43.527198969915425],[16.503545344616747,43.52720133453763],[16.503538574157165,43.52720630561043],[16.50353311102048,43.52720276046784],[16.50352441529339,43.527204372702826],[16.503521143319283,43.52720319576433],[16.503520348093737,43.52720656355629],[16.503511408622032,43.52721272947558],[16.503501036294757,43.52720722097573],[16.503489083359625,43.52721003163748],[16.503482527106524,43.52720569828453],[16.503467363723928,43.527217229373484],[16.503457557647188,43.5272152821319],[16.50344996980068,43.527220057938045],[16.503438004556322,43.52722088912061],[16.503431504904587,43.52722566134439],[16.50342496834014,43.5272244951463],[16.503423614245822,43.527225489359466],[16.503426347042296,43.5272274598808],[16.50341957657002,43.52723243094655],[16.50341165392141,43.52722711232881],[16.503414903748272,43.527224726217526],[16.50341080455437,43.527221770435105],[16.503398871297037,43.527227748245544],[16.503383572565017,43.52721750511113],[16.50338113273377,43.52721889879917],[16.50338279209465,43.52722324827073],[16.503380625542647,43.52722483901099],[16.503384463758334,43.527229577216104],[16.503383395245297,43.527232747954855],[16.50338692819523,43.52723214247569],[16.50339376018452,43.527237068781055],[16.503386989708492,43.52724203984485],[16.503381524116968,43.52723809880026],[16.503374470518466,43.527241289232016],[16.503364905735307,43.52723439240277],[16.50336516179208,43.527231818191666],[16.50336244868036,43.527233014827026],[16.503361094584818,43.52723400903945],[16.50336929296983,43.52723992060769],[16.503356278888425,43.52724708967845],[16.50335737692718,43.52724866967716],[16.50334980137002,43.52725542495047],[16.503351443507555,43.52725700315909],[16.50334088155557,43.52726475801451],[16.50333377628796,43.52725963465365],[16.503329428417732,43.52726044076364],[16.50332397020865,43.52725768740062],[16.503320720376436,43.5272600735093],[16.503317441023047,43.52725770888069],[16.50331094135785,43.52726248109759],[16.50330547576943,43.52725854004938],[16.503303033474747,43.52725953784097],[16.50331068529864,43.527265055308554],[16.50329902776229,43.527271626055686],[16.503290563480164,43.52726670511429],[16.50329435249293,43.52726352542705],[16.503292986096003,43.527262540164834],[16.503282685115696,43.527268512593466],[16.503279954781874,43.5272669379635],[16.503272642654018,43.52727230670508],[16.50326888561644,43.527280633023565],[16.503271074311343,43.52728260533834],[16.50326403546021,43.52728817113185],[16.503270599085912,43.52729369218156],[16.503267354169168,43.52729687007824],[16.503271197300105,43.52730240007663],[16.503271807813366,43.527313087445506],[16.503274540608857,43.52731505797044],[16.50327291569027,43.52731625102406],[16.503280840798194,43.52732196554609],[16.503299352476866,43.527323884164666],[16.503308097427485,43.52733018984207],[16.503314626620906,43.52733016836253],[16.503318964655982,43.52732777867408],[16.503326614029817,43.52733290024575],[16.50333012730486,43.527329127610244],[16.50332902188489,43.527326359927],[16.50334445368045,43.52731423411942],[16.503348277137288,43.52731659695709],[16.50335126107254,43.52731520147963],[16.503347425314303,43.52731085916824],[16.503357450555306,43.527304293786756],[16.503361271551654,43.52730626072923],[16.503364257946487,43.527305261146196],[16.503360432029385,43.52730250241429],[16.503368827430577,43.52729633829713],[16.50337729664415,43.52730205102225],[16.50337868272717,43.527306203441555],[16.503381942401575,43.5273054009103],[16.503388498658275,43.52730973426893],[16.50339742585382,43.52730158888552],[16.503396327813057,43.527300008887224],[16.503405267309372,43.527293842977016],[16.503412099307116,43.52729876928125],[16.503408849476173,43.527301155392415],[16.503410764896433,43.52730293065235],[16.503419431111762,43.52729656768888],[16.50342216391131,43.52729853821027],[16.503425962762307,43.52729694209774],[16.503429234739635,43.52729811903894],[16.50342949325475,43.52729594072248],[16.503437891108867,43.527290172495015],[16.50344171456783,43.52729253532958],[16.503443605379747,43.52729035164134],[16.503439776999095,43.52728719701731],[16.503457921874254,43.52727387455713],[16.503463360402638,43.52727346075565],[16.50347265192314,43.52728016052462],[16.503476716668345,43.52727757377812],[16.503473981406866,43.52727520736325],[16.503480481060574,43.52727043513709],[16.503476108580376,43.527267282305026],[16.503486128877846,43.527259925122685],[16.503491291663554,43.52725891837312],[16.503488553941153,43.527256156063835],[16.503496407685397,43.52725038962283],[16.503503500659217,43.527253533499774],[16.503503200304987,43.52724898160543],[16.503516470419765,43.52723923830652],[16.50351973747294,43.527239623455614],[16.503525695482065,43.527235248912575],[16.503533335015742,43.52723878689146],[16.503538763694362,43.527236789507334],[16.50354912372218,43.52724031852992],[16.503562132855937,43.527232357647684],[16.503564316635266,43.527233538167344],[16.503572980362776,43.527226779297386],[16.503583899260335,43.52723268189419],[16.503588232354097,43.52722950040594],[16.503595884200188,43.52723501785447],[16.50359832402714,43.52723362416185],[16.503593951543465,43.52723047133428],[16.503600980509837,43.527223321941335],[16.50360149998899,43.52721936120236],[16.50360827044486,43.52721439012585],[16.503611547345265,43.52721635885138],[16.503618061754054,43.527213961985936],[16.50362024799587,43.52721553839928],[16.503624581086495,43.527212356909644],[16.50363386030474,43.52721707719175],[16.50363356240303,43.52721292119247],[16.503643314316513,43.52720615873419],[16.50364220642227,43.52720299515916],[16.50365114341696,43.527196433334844],[16.503660422634834,43.52720115361482],[16.503672321387562,43.52718963325034],[16.503680500097364,43.52719237763822],[16.50371032453005,43.52717604740452],[16.503717417506273,43.527179191268225],[16.503726640083425,43.527174805963256],[16.503736423996937,43.52717319012891],[16.503736138402463,43.5271710136037],[16.503745619480195,43.52716444998],[16.503751085088773,43.52716839100724],[16.503758138658927,43.52716520055221],[16.50376032490263,43.52716677696289],[16.50376739571322,43.527166357770646],[16.503778221021538,43.52715721634792],[16.503783666926612,43.52715799021551],[16.50380431801384,43.52715396316206],[16.50381081762849,43.52714919091703],[16.50381573667876,43.527152737838755],[16.503819794010674,43.52714896339571],[16.50380885047236,43.52713910187369],[16.503787544451153,43.527125315455734],[16.503788076233004,43.527123334189675],[16.503784247844962,43.527120179577075],[16.50378530648249,43.52711542525547],[16.503781207277907,43.527112469486255],[16.503775790933776,43.52711644635577],[16.50377306552009,43.52711566352707],[16.50376568695317,43.527110343141594],[16.503770017565596,43.527106765751626],[16.50376810214101,43.52710499049765],[16.503761058430282,43.5271097645324],[16.50374985394298,43.52710168542717],[16.503754713875495,43.527095730877114],[16.503740215254066,43.52708291178607]]]},"properties":{"role":"olive-row","obligation":"dracevac-15","overrides":"U4","label":"Masline uz rub čestice 291","action":"Zamijeniti visokim stablima; masline presaditi","evidence":"Danas: Uz ulicu betonski zid sa žičanom ogradom, 1–2,5 m sjeverno od katastarske međe, a iza njega red maslina; oko polovice krošnji je preko međe. Između 2023. i 2025./26. uz rub podignuta nova građevina. Krošnje: Google Karte, 3D prikaz (© Google), prije 2025.."}},{"type":"Feature","geometry":{"type":"Point","coordinates":[16.50314338954857,43.52750118391452]},"properties":{"role":"street-tree-in-driveway","candidate_id":"D18","action":"Mjesto D18 je u kolnom ulazu (Kamionski ulaz hale Dračevac 7A) i otpada"}},{"type":"Feature","geometry":{"type":"Point","coordinates":[16.503711679802862,43.52730872240443]},"properties":{"role":"street-tree-in-driveway","candidate_id":"D25","action":"Mjesto D25 je u kolnom ulazu (Glavni ulaz hale Dračevac 7A) i otpada"}}]}
