{"type":"FeatureCollection","features":[{"type":"Feature","geometry":{"type":"Polygon","coordinates":[[[16.506055,43.521642],[16.50606,43.521609],[16.506063,43.521591],[16.506155,43.521291],[16.506206,43.521134],[16.506287,43.521148],[16.506306,43.521088],[16.506225,43.521075],[16.506241,43.521029],[16.506302,43.520829],[16.506321,43.520807],[16.506341,43.520794],[16.506446,43.520763],[16.50652,43.520742],[16.506702,43.520695],[16.50678,43.520654],[16.506831,43.52062],[16.506879,43.52056],[16.506914,43.52053],[16.50697,43.520498],[16.507019256988166,43.52046869520957],[16.50724841239555,43.52093024567232],[16.51104015632993,43.523477008326225],[16.511029,43.523478],[16.510959,43.523488],[16.510883,43.523494],[16.510829,43.523495],[16.510793,43.523495],[16.510154,43.523494],[16.509537,43.523401],[16.509352,43.523373],[16.509192,43.52335],[16.50903,43.523323],[16.508763,43.523279],[16.50847,43.523196],[16.508296,43.523147],[16.508099,43.523091],[16.508026,43.523063],[16.507974,43.523046],[16.507917,43.523028],[16.50787,43.523017],[16.507797,43.522995],[16.507778,43.522985],[16.507762,43.522982],[16.50771,43.52297],[16.507691,43.522963],[16.507647,43.522947],[16.507617,43.522936],[16.50758,43.522921],[16.507513,43.522896],[16.507485,43.522889],[16.507455,43.522873],[16.507433,43.522862],[16.507413,43.522853],[16.507397,43.522848],[16.507374,43.522837],[16.507356,43.522832],[16.507316,43.522813],[16.507308,43.522806],[16.507275,43.522794],[16.507272,43.522793],[16.507355,43.522688],[16.507511,43.522483],[16.507447,43.52245],[16.507203,43.522322],[16.507156,43.522297],[16.506851,43.522137],[16.506687,43.522047],[16.506663,43.521899],[16.506645,43.521784],[16.506131,43.52166],[16.506055,43.521642]]]},"properties":{"parcel_id":"KAMEN:85/13","parcel_number":"85/13","cadastral_municipality":"KAMEN","cohorts":["large_parcel"],"verification_status":"cadastre_public","evidence_source":"cadastre","public_entities":[{"id":"grad-split","label":"Grad Split","category":"city"}],"purpose_primary_code":"K3","purpose_primary_label":"Poslovna namjena — komunalno servisna","built":true,"parcel_area_m2":286951.9,"mapped_area_m2":48282,"verified_at":"2026-08-02","source_updated_at":"2025-10-03"}},{"type":"Feature","geometry":{"type":"Polygon","coordinates":[[[16.494394,43.528395],[16.494345,43.528409],[16.494252,43.528446],[16.49434,43.528607],[16.494382,43.528685],[16.494491,43.528886],[16.494574,43.529036],[16.494614,43.529113],[16.494756,43.529052],[16.49473,43.528988],[16.494529,43.528633],[16.494394,43.528395]]]},"properties":{"parcel_id":"SPLIT:13902/1","parcel_number":"13902/1","cadastral_municipality":"SPLIT","cohorts":["road_corridor"],"verification_status":"cadastre_public","evidence_source":"cadastre","public_entities":[{"id":"vodovod-i-kanalizacija-split","label":"Vodovod i kanalizacija d.o.o. Split","category":"municipal_company"}],"purpose_primary_code":"Z5","purpose_primary_label":"Zaštitno i pejsažno zelenilo","built":true,"parcel_area_m2":1050.5,"mapped_area_m2":1051.2,"verified_at":"2026-08-02","source_updated_at":"2025-10-03"}},{"type":"Feature","geometry":{"type":"Polygon","coordinates":[[[16.487548779681063,43.52340273257401],[16.487672527177892,43.523340563810486],[16.48776,43.523387],[16.487873,43.523418],[16.488001,43.523452],[16.488402,43.523502],[16.488707,43.523543],[16.488802,43.523556],[16.488899,43.52362],[16.488908,43.523626],[16.488928,43.523641],[16.489104,43.523765],[16.489147,43.523795],[16.489172,43.523812],[16.489282,43.523894],[16.489308,43.523912],[16.489367,43.523953],[16.489374,43.523957],[16.489403,43.523978],[16.489489,43.524037],[16.489845,43.524285],[16.489981,43.524379],[16.489993,43.524387],[16.490006,43.524396],[16.490021,43.524406],[16.490095,43.524457],[16.490257,43.524569],[16.490358,43.524639],[16.490392,43.524662],[16.490535,43.524762],[16.490586,43.524798],[16.490798,43.524948],[16.490908,43.525026],[16.491049,43.525126],[16.491054,43.525129],[16.491064,43.525136],[16.491088,43.525154],[16.491118,43.525175],[16.491425,43.525394],[16.491469,43.525425],[16.491489,43.525439],[16.491579,43.525506],[16.491582,43.525508],[16.491607,43.525527],[16.491635,43.525547],[16.491797,43.525731],[16.491908,43.525852],[16.491978,43.525928],[16.492209,43.526191],[16.492261,43.52625],[16.492363,43.526365],[16.492536,43.526562],[16.492914,43.526973],[16.492939,43.527],[16.493187,43.527271],[16.493275,43.527369],[16.493406,43.527451],[16.493573,43.527556],[16.493592,43.527566],[16.493599,43.52757],[16.493854,43.527725],[16.493856,43.527726],[16.493883,43.527742],[16.494028,43.527829],[16.494041,43.527838],[16.494068,43.527854],[16.494173,43.528001],[16.494205,43.528062],[16.494156,43.528086],[16.494071,43.528103],[16.494071,43.528113],[16.49407,43.528109],[16.494062,43.528095],[16.494064,43.528094],[16.494056,43.528081],[16.494049,43.528069],[16.494041,43.528055],[16.493996,43.527962],[16.493954,43.527966],[16.493935,43.527926],[16.493956,43.527921],[16.493783,43.527821],[16.493674,43.527757],[16.493651,43.527743],[16.493627,43.52773],[16.49351,43.52766],[16.493337,43.527615],[16.493356,43.527573],[16.493166,43.527448],[16.493163,43.527446],[16.492696,43.526937],[16.492329,43.526531],[16.492204,43.526383],[16.492139,43.526306],[16.49197,43.526119],[16.491883,43.526023],[16.491852,43.525979],[16.491841,43.525964],[16.491819,43.525937],[16.491813,43.525932],[16.4918,43.525921],[16.491791,43.525911],[16.49174,43.525845],[16.491601,43.525686],[16.491568,43.525661],[16.491438,43.525561],[16.491349,43.525497],[16.491327,43.525481],[16.491285,43.52545],[16.491209,43.525392],[16.491168,43.525361],[16.491063,43.525289],[16.490937,43.525202],[16.490732,43.525056],[16.490507,43.524896],[16.490313,43.524759],[16.490151,43.524644],[16.490098,43.524608],[16.490027,43.52456],[16.489905,43.524476],[16.489737,43.52436],[16.489362,43.524102],[16.489188,43.523982],[16.488795,43.523697],[16.488782,43.523683],[16.488776,43.523681],[16.488774,43.52368],[16.488636,43.52364],[16.488534,43.523628],[16.488382,43.523608],[16.487918,43.523547],[16.487798,43.523518],[16.487774,43.52351],[16.487751,43.523503],[16.487663,43.523461],[16.487641,43.523451],[16.48757,43.523414],[16.487548779681063,43.52340273257401]]]},"properties":{"parcel_id":"SPLIT:13902/2","parcel_number":"13902/2","cadastral_municipality":"SPLIT","cohorts":["large_parcel"],"verification_status":"unresolved","evidence_source":"none","public_entities":[],"purpose_primary_code":"Z5","purpose_primary_label":"Zaštitno i pejsažno zelenilo","built":true,"parcel_area_m2":15771.4,"mapped_area_m2":9258.7,"verified_at":null,"source_updated_at":"2025-10-03"}},{"type":"Feature","geometry":{"type":"Polygon","coordinates":[[[16.488698,43.525107],[16.488862,43.525224],[16.489156,43.525018],[16.488993,43.524903],[16.489024,43.524882],[16.489143,43.524936],[16.489184,43.524974],[16.489205,43.524987],[16.489227,43.524993],[16.489241,43.525004],[16.489312,43.525079],[16.48949,43.525192],[16.489546,43.525227],[16.489603,43.52526],[16.489684,43.525312],[16.489718,43.525332],[16.48988,43.525427],[16.48998,43.525501],[16.489984,43.525505],[16.490121,43.525655],[16.490126,43.52566],[16.490208,43.525737],[16.490294,43.525815],[16.49034,43.525863],[16.490347,43.525869],[16.490437,43.525961],[16.490451,43.525954],[16.490476,43.525979],[16.490536,43.526048],[16.49064,43.526183],[16.490645,43.526196],[16.490884,43.526507],[16.490908,43.526543],[16.490921,43.526562],[16.490953,43.526611],[16.490997,43.526667],[16.491134,43.526718],[16.491483,43.526763],[16.491504,43.526769],[16.491575,43.526788],[16.491696,43.52682],[16.491882,43.526902],[16.491955,43.526934],[16.492097,43.527028],[16.49217,43.527074],[16.492186,43.527092],[16.492331,43.527255],[16.49242,43.527419],[16.492431,43.527438],[16.49244,43.527455],[16.492445,43.52748],[16.492471,43.527566],[16.492473,43.527573],[16.492485,43.527618],[16.492496,43.527681],[16.492496,43.527695],[16.492488,43.527784],[16.49247,43.527854],[16.492443,43.527954],[16.492425,43.528018],[16.492398,43.528093],[16.492255,43.528278],[16.492163,43.528335],[16.492155,43.528339],[16.492111,43.528366],[16.491973,43.528446],[16.491842,43.528512],[16.491794,43.528533],[16.49156,43.528616],[16.49153,43.528622],[16.49129,43.528667],[16.491241,43.528668],[16.491062,43.528674],[16.491016,43.528669],[16.490793,43.528645],[16.490599,43.528674],[16.490524,43.528687],[16.490288,43.528798],[16.490172,43.528927],[16.490048,43.529098],[16.489971,43.529205],[16.489853,43.5292],[16.489821,43.529199],[16.48973,43.529196],[16.489699,43.529195],[16.489636,43.529193],[16.489626,43.529193],[16.489585,43.529194],[16.489548,43.529195],[16.489329,43.529201],[16.489268,43.529204],[16.489249,43.5292],[16.489214,43.529196],[16.489144,43.529195],[16.489296,43.529001],[16.489321,43.52897],[16.489338,43.528948],[16.489412,43.52885],[16.489421,43.528839],[16.489506,43.528723],[16.489663,43.528454],[16.489691,43.528408],[16.489742,43.528303],[16.489818,43.528146],[16.48985,43.528081],[16.489815,43.527944],[16.489804,43.527892],[16.489788,43.527813],[16.489792,43.52763],[16.489825,43.527631],[16.489887,43.527428],[16.48985,43.527423],[16.48983,43.527421],[16.489833,43.52741],[16.489836,43.527404],[16.489907,43.527279],[16.48993,43.527238],[16.489941,43.527218],[16.489957,43.527198],[16.490011,43.527131],[16.490054,43.526925],[16.490044,43.526819],[16.49002,43.526723],[16.49,43.526674],[16.489995,43.526663],[16.489969,43.526519],[16.489933,43.526394],[16.489884,43.526313],[16.489748,43.526087],[16.489738,43.52607],[16.489693,43.526002],[16.489658,43.525973],[16.489627,43.525948],[16.489494,43.525806],[16.489485,43.52579],[16.489443,43.525718],[16.489399,43.52566],[16.489369,43.525628],[16.489338,43.525603],[16.489166,43.525461],[16.489136,43.525447],[16.489078,43.52542],[16.488811,43.525296],[16.48876,43.525263],[16.488708,43.52523],[16.488706,43.525207],[16.488698,43.525107]]]},"properties":{"parcel_id":"SPLIT:13961/1","parcel_number":"13961/1","cadastral_municipality":"SPLIT","cohorts":["large_parcel"],"verification_status":"unresolved","evidence_source":"cadastre","public_entities":[],"purpose_primary_code":"Z5","purpose_primary_label":"Zaštitno i pejsažno zelenilo","built":true,"parcel_area_m2":57099.3,"mapped_area_m2":57003.1,"verified_at":null,"source_updated_at":"2025-10-03"}},{"type":"Feature","geometry":{"type":"Polygon","coordinates":[[[16.48706695049842,43.52388874109435],[16.48712947383484,43.52376901539912],[16.487288836817225,43.52358590593809],[16.487321793849155,43.52356095949083],[16.487437,43.52363],[16.487449,43.523637],[16.487585,43.523745],[16.487615,43.523769],[16.487622,43.523774],[16.48778,43.523906],[16.487817,43.523938],[16.487945,43.524044],[16.488128,43.524176],[16.488121,43.524187],[16.488083,43.524215],[16.488078,43.524211],[16.487808,43.524397],[16.48782,43.524406],[16.48781,43.524413],[16.487781,43.524428],[16.487754,43.524433],[16.487713,43.52443],[16.48767,43.524432],[16.487649,43.524414],[16.487533,43.524289],[16.487494,43.524265],[16.487468,43.52425],[16.487366,43.524191],[16.487308,43.524139],[16.487211,43.524052],[16.487168,43.524002],[16.487071,43.523891],[16.48706695049842,43.52388874109435]]]},"properties":{"parcel_id":"SPLIT:13961/16","parcel_number":"13961/16","cadastral_municipality":"SPLIT","cohorts":["large_parcel"],"verification_status":"unresolved","evidence_source":"cadastre","public_entities":[],"purpose_primary_code":"Z5","purpose_primary_label":"Zaštitno i pejsažno zelenilo","built":false,"parcel_area_m2":20403.1,"mapped_area_m2":3968.4,"verified_at":null,"source_updated_at":"2025-10-03"}},{"type":"Feature","geometry":{"type":"Polygon","coordinates":[[[16.48843139581306,43.52908752063136],[16.488478844003147,43.52895355412517],[16.488487606806277,43.52893608332195],[16.489047,43.528955],[16.489086,43.528357],[16.489116,43.528358],[16.489119,43.528323],[16.489088,43.528322],[16.489092,43.528275],[16.488823911511506,43.52826557717925],[16.48889886099293,43.528116146954495],[16.489123,43.528124],[16.489434,43.528135],[16.489562,43.528139],[16.489792,43.528145],[16.489818,43.528146],[16.489742,43.528303],[16.489691,43.528408],[16.489663,43.528454],[16.489506,43.528723],[16.489421,43.528839],[16.489412,43.52885],[16.489338,43.528948],[16.489335,43.528948],[16.489301,43.528953],[16.489295,43.528975],[16.489296,43.529001],[16.489144,43.529195],[16.489104,43.529191],[16.489032,43.529187],[16.489037,43.529108],[16.48843139581306,43.52908752063136]]]},"properties":{"parcel_id":"SPLIT:155/1","parcel_number":"155/1","cadastral_municipality":"SPLIT","cohorts":["large_parcel"],"verification_status":"private_or_other","evidence_source":"land_register","public_entities":[],"purpose_primary_code":"I","purpose_primary_label":"Gospodarska namjena","built":true,"parcel_area_m2":19811.2,"mapped_area_m2":5398.9,"verified_at":"2026-08-02","source_updated_at":"2025-10-03"}},{"type":"Feature","geometry":{"type":"Polygon","coordinates":[[[16.494774,43.529044],[16.494831,43.528974],[16.49473,43.528988],[16.494756,43.529052],[16.494774,43.529044]]]},"properties":{"parcel_id":"SPLIT:264/1","parcel_number":"264/1","cadastral_municipality":"SPLIT","cohorts":["road_corridor"],"verification_status":"private_or_other","evidence_source":"land_register","public_entities":[],"purpose_primary_code":null,"purpose_primary_label":null,"built":false,"parcel_area_m2":34.2,"mapped_area_m2":34.2,"verified_at":"2026-08-02","source_updated_at":"2025-10-03"}},{"type":"Feature","geometry":{"type":"Polygon","coordinates":[[[16.494529,43.528633],[16.49473,43.528988],[16.494831,43.528974],[16.494891,43.5289],[16.495026,43.528778],[16.494922,43.528656],[16.494801,43.528533],[16.494529,43.528633]]]},"properties":{"parcel_id":"SPLIT:264/2","parcel_number":"264/2","cadastral_municipality":"SPLIT","cohorts":["road_corridor"],"verification_status":"private_or_other","evidence_source":"land_register","public_entities":[],"purpose_primary_code":"Z5","purpose_primary_label":"Zaštitno i pejsažno zelenilo","built":true,"parcel_area_m2":1134.6,"mapped_area_m2":1133.1,"verified_at":"2026-08-02","source_updated_at":"2025-10-03"}},{"type":"Feature","geometry":{"type":"Polygon","coordinates":[[[16.494622,43.528322],[16.494487,43.528365],[16.494394,43.528395],[16.494529,43.528633],[16.494801,43.528533],[16.494761,43.528491],[16.494659,43.528368],[16.494622,43.528322]]]},"properties":{"parcel_id":"SPLIT:264/3","parcel_number":"264/3","cadastral_municipality":"SPLIT","cohorts":["road_corridor"],"verification_status":"private_or_other","evidence_source":"land_register","public_entities":[],"purpose_primary_code":"Z5","purpose_primary_label":"Zaštitno i pejsažno zelenilo","built":false,"parcel_area_m2":622.4,"mapped_area_m2":620.3,"verified_at":"2026-08-02","source_updated_at":"2025-10-03"}},{"type":"Feature","geometry":{"type":"Polygon","coordinates":[[[16.495805,43.529045],[16.495797,43.528949],[16.495793,43.52886],[16.495792,43.528832],[16.495788,43.528803],[16.495785,43.528773],[16.495781,43.528727],[16.495702,43.528773],[16.495543,43.528881],[16.495488,43.528919],[16.495344,43.529017],[16.495341,43.529098],[16.49528,43.529105],[16.495203,43.529116],[16.495148,43.529147],[16.495166,43.529144],[16.495315,43.529121],[16.495336,43.529118],[16.495599,43.529076],[16.495805,43.529045]]]},"properties":{"parcel_id":"SPLIT:268/1","parcel_number":"268/1","cadastral_municipality":"SPLIT","cohorts":["road_corridor"],"verification_status":"private_or_other","evidence_source":"land_register","public_entities":[],"purpose_primary_code":"K","purpose_primary_label":"Poslovna namjena","built":true,"parcel_area_m2":907.4,"mapped_area_m2":905.7,"verified_at":"2026-08-02","source_updated_at":"2025-10-03"}},{"type":"Feature","geometry":{"type":"Polygon","coordinates":[[[16.495512,43.528286],[16.495476,43.528358],[16.495463,43.528378],[16.495436,43.528423],[16.495391,43.528475],[16.495372,43.528498],[16.49534,43.52853],[16.495206,43.528656],[16.495026,43.528778],[16.494891,43.5289],[16.494831,43.528974],[16.494774,43.529044],[16.494917,43.528924],[16.495006,43.528859],[16.495095,43.528794],[16.49517,43.52874],[16.495243,43.528686],[16.495262,43.528669],[16.495367,43.528527],[16.495399,43.528497],[16.495436,43.528457],[16.495469,43.528409],[16.495505,43.528346],[16.495512,43.528286]]]},"properties":{"parcel_id":"SPLIT:273/1","parcel_number":"273/1","cadastral_municipality":"SPLIT","cohorts":["road_corridor"],"verification_status":"confirmed_public","evidence_source":"land_register","public_entities":[{"id":"grad-split","label":"Grad Split","category":"city"}],"purpose_primary_code":null,"purpose_primary_label":null,"built":false,"parcel_area_m2":307.2,"mapped_area_m2":308.1,"verified_at":"2026-08-02","source_updated_at":"2025-10-03"}},{"type":"Feature","geometry":{"type":"Polygon","coordinates":[[[16.494666,43.529201],[16.494654,43.529178],[16.494774,43.529044],[16.494756,43.529052],[16.494614,43.529113],[16.494576,43.529129],[16.494482,43.529216],[16.494662,43.529201],[16.494666,43.529201]]]},"properties":{"parcel_id":"SPLIT:273/3","parcel_number":"273/3","cadastral_municipality":"SPLIT","cohorts":["road_corridor"],"verification_status":"confirmed_public","evidence_source":"land_register","public_entities":[{"id":"grad-split","label":"Grad Split","category":"city"}],"purpose_primary_code":"Z5","purpose_primary_label":"Zaštitno i pejsažno zelenilo","built":true,"parcel_area_m2":144.2,"mapped_area_m2":143.3,"verified_at":"2026-08-02","source_updated_at":"2025-10-03"}},{"type":"Feature","geometry":{"type":"Polygon","coordinates":[[[16.495795,43.528719],[16.495828,43.5287],[16.495804,43.528677],[16.495997,43.528581],[16.495854,43.528651],[16.495789,43.528678],[16.495641,43.528764],[16.495542,43.528828],[16.49549,43.528867],[16.495339,43.529012],[16.495259,43.529063],[16.495178,43.529113],[16.495155,43.529131],[16.495129,43.52915],[16.495148,43.529147],[16.495203,43.529116],[16.49528,43.529105],[16.495287,43.529089],[16.495271,43.529068],[16.495344,43.529017],[16.495488,43.528919],[16.495543,43.528881],[16.495702,43.528773],[16.495781,43.528727],[16.495795,43.528719]]]},"properties":{"parcel_id":"SPLIT:273/4","parcel_number":"273/4","cadastral_municipality":"SPLIT","cohorts":["road_corridor"],"verification_status":"cadastre_public","evidence_source":"cadastre","public_entities":[{"id":"grad-split","label":"Grad Split","category":"city"}],"purpose_primary_code":null,"purpose_primary_label":null,"built":true,"parcel_area_m2":222.9,"mapped_area_m2":222.5,"verified_at":"2026-08-02","source_updated_at":"2025-10-03"}},{"type":"Feature","geometry":{"type":"Polygon","coordinates":[[[16.497204,43.528159],[16.49714,43.52804],[16.497129,43.528019],[16.497034,43.528039],[16.496771,43.528093],[16.496536,43.528178],[16.496351,43.52823],[16.496077,43.528026],[16.495929,43.528036],[16.495499,43.528217],[16.4955,43.528224],[16.495512,43.528286],[16.495505,43.528346],[16.495469,43.528409],[16.495436,43.528457],[16.495399,43.528497],[16.495367,43.528527],[16.495262,43.528669],[16.495243,43.528686],[16.49517,43.52874],[16.495095,43.528794],[16.495006,43.528859],[16.494917,43.528924],[16.494774,43.529044],[16.494654,43.529178],[16.494666,43.529201],[16.494721,43.529198],[16.494734,43.529212],[16.494826,43.529197],[16.495036,43.529164],[16.495129,43.52915],[16.495155,43.529131],[16.495178,43.529113],[16.495259,43.529063],[16.495339,43.529012],[16.49549,43.528867],[16.495542,43.528828],[16.495641,43.528764],[16.495789,43.528678],[16.495854,43.528651],[16.495997,43.528581],[16.496419,43.528398],[16.49644,43.528391],[16.496643,43.528317],[16.496866,43.528251],[16.497158,43.52817],[16.497204,43.528159]]]},"properties":{"parcel_id":"SPLIT:273/5","parcel_number":"273/5","cadastral_municipality":"SPLIT","cohorts":["road_corridor"],"verification_status":"confirmed_public","evidence_source":"land_register","public_entities":[{"id":"grad-split","label":"Grad Split","category":"city"}],"purpose_primary_code":null,"purpose_primary_label":null,"built":true,"parcel_area_m2":7606.9,"mapped_area_m2":7594.5,"verified_at":"2026-08-02","source_updated_at":"2025-10-03"}},{"type":"Feature","geometry":{"type":"Polygon","coordinates":[[[16.495795,43.528719],[16.495828,43.5287],[16.495804,43.528677],[16.495997,43.528581],[16.496419,43.528398],[16.49644,43.528391],[16.496643,43.528317],[16.496866,43.528251],[16.497158,43.52817],[16.497204,43.528159],[16.497479,43.528117],[16.497722,43.528082],[16.497989,43.528063],[16.498038,43.528061],[16.498231,43.528054],[16.498347,43.528047],[16.498443,43.528041],[16.498534,43.528036],[16.498624,43.528029],[16.498672,43.528024],[16.498722,43.528023],[16.498905,43.528025],[16.498976,43.528025],[16.499073,43.528026],[16.499064,43.528065],[16.498989,43.528382],[16.498979,43.528424],[16.49891,43.528735],[16.498917,43.528847],[16.498584,43.528858],[16.497626,43.528869],[16.497626,43.528881],[16.497196,43.52888],[16.496205,43.528984],[16.495816,43.529038],[16.495806,43.52894],[16.495801,43.528832],[16.495795,43.528719]],[[16.49665,43.528392],[16.496663,43.528479],[16.496684,43.528478],[16.496689,43.528513],[16.496737,43.528509],[16.496735,43.528497],[16.496767,43.528495],[16.496768,43.528501],[16.4968,43.528498],[16.496797,43.528479],[16.496823,43.528477],[16.496824,43.528488],[16.496868,43.528484],[16.496918,43.52848],[16.496916,43.528473],[16.496943,43.52847],[16.496946,43.528486],[16.496985,43.528483],[16.496983,43.528476],[16.497015,43.528473],[16.497017,43.528484],[16.497058,43.528481],[16.497046,43.528399],[16.49704,43.528365],[16.496988,43.528369],[16.49699,43.528381],[16.496854,43.528392],[16.496804,43.528396],[16.496715,43.528403],[16.496713,43.528387],[16.49665,43.528392]],[[16.497741,43.528225],[16.497755,43.528408],[16.497769,43.528598],[16.498286,43.528575],[16.498274,43.528415],[16.498259,43.5282],[16.497741,43.528225]]]},"properties":{"parcel_id":"SPLIT:275/3","parcel_number":"275/3","cadastral_municipality":"SPLIT","cohorts":["road_corridor","large_parcel"],"verification_status":"private_or_other","evidence_source":"land_register","public_entities":[],"purpose_primary_code":"D","purpose_primary_label":"Javna i društvena namjena","built":true,"parcel_area_m2":17761.1,"mapped_area_m2":17728.1,"verified_at":"2026-08-02","source_updated_at":"2025-10-03"}},{"type":"Feature","geometry":{"type":"Polygon","coordinates":[[[16.49129,43.528667],[16.49153,43.528622],[16.49156,43.528616],[16.491794,43.528533],[16.491842,43.528512],[16.491973,43.528446],[16.492111,43.528366],[16.492155,43.528339],[16.492163,43.528335],[16.492255,43.528278],[16.492398,43.528093],[16.492425,43.528018],[16.492443,43.527954],[16.492459,43.527955],[16.492447,43.527979],[16.492359,43.528232],[16.492361,43.528276],[16.492363,43.528282],[16.492383,43.528338],[16.49239,43.528355],[16.492477,43.528412],[16.492527,43.528424],[16.492552,43.528429],[16.492691,43.528442],[16.492721,43.528439],[16.492862,43.528424],[16.493106,43.528386],[16.493118,43.528431],[16.493381,43.528351],[16.493515,43.52831],[16.493651,43.528268],[16.493657,43.528266],[16.493662,43.528265],[16.493692,43.528255],[16.493705,43.52825],[16.493718,43.528246],[16.493727,43.528243],[16.49375,43.528236],[16.493769,43.528229],[16.493813,43.528215],[16.493903,43.528185],[16.493913,43.528181],[16.493921,43.528179],[16.494069,43.528129],[16.494071,43.528113],[16.494071,43.528103],[16.494156,43.528086],[16.494205,43.528062],[16.494327,43.528003],[16.494641,43.527913],[16.494651,43.527912],[16.49483,43.52787],[16.494919,43.527851],[16.494981,43.527837],[16.495069,43.527822],[16.495251,43.527791],[16.495378,43.52777],[16.495411,43.527714],[16.495691,43.527679],[16.496066,43.527633],[16.496191,43.527628],[16.496261,43.527624],[16.496321,43.527622],[16.496479,43.527615],[16.496495,43.527614],[16.49671,43.527604],[16.49685,43.527598],[16.496945,43.527593],[16.497191,43.527545],[16.497403,43.527503],[16.497445,43.527495],[16.497496,43.527484],[16.497641,43.527486],[16.497773,43.527488],[16.498051,43.527492],[16.498055,43.527492],[16.498287,43.527515],[16.49845,43.527531],[16.498521,43.527538],[16.498801,43.527589],[16.499168,43.527655],[16.499314,43.527682],[16.499503,43.527688],[16.500012,43.527703],[16.500502,43.527759],[16.500766,43.527788],[16.500826,43.527795],[16.500828,43.527802],[16.500838,43.527843],[16.500876,43.527994],[16.500903,43.528089],[16.500918,43.528141],[16.500903,43.528195],[16.500818,43.528184],[16.500643,43.528162],[16.500417,43.528119],[16.500403,43.528132],[16.500397,43.528138],[16.500285,43.528115],[16.500241,43.528106],[16.499897,43.528085],[16.49975,43.528074],[16.499651,43.528067],[16.499414,43.528051],[16.499275,43.52804],[16.499245,43.528038],[16.499239,43.528037],[16.499073,43.528026],[16.498976,43.528025],[16.498985,43.527917],[16.49886,43.527911],[16.498749,43.527907],[16.497843,43.527887],[16.49772,43.527887],[16.497584,43.527888],[16.497449,43.527889],[16.497251,43.527893],[16.497054,43.527897],[16.496943,43.5279],[16.496832,43.527904],[16.496733,43.527908],[16.496635,43.527912],[16.496524,43.527917],[16.496413,43.527923],[16.496248,43.527932],[16.496168,43.527938],[16.496098,43.527943],[16.495972,43.527953],[16.495924,43.527957],[16.495875,43.527962],[16.495786,43.527971],[16.495657,43.527987],[16.495585,43.527997],[16.495512,43.528007],[16.495368,43.528032],[16.495184,43.528064],[16.495074,43.528086],[16.494968,43.52811],[16.494915,43.528123],[16.494862,43.528135],[16.494804,43.52815],[16.494747,43.528164],[16.494695,43.528179],[16.494643,43.528193],[16.494699,43.5283],[16.494622,43.528322],[16.494487,43.528365],[16.494394,43.528395],[16.494345,43.528409],[16.494252,43.528446],[16.493982,43.528545],[16.493973,43.528549],[16.493933,43.528562],[16.493876,43.528576],[16.493654,43.52863],[16.493634,43.528636],[16.49361,43.528686],[16.49353,43.528661],[16.4935,43.52867],[16.493429,43.528687],[16.493365,43.528703],[16.492883,43.528767],[16.492752,43.528771],[16.492603,43.528775],[16.492541,43.528771],[16.492344,43.528761],[16.492145,43.528738],[16.492108,43.528734],[16.491978,43.528709],[16.491837,43.528685],[16.491688,43.528665],[16.491644,43.52866],[16.491529,43.528662],[16.491413,43.528664],[16.49129,43.528667]]]},"properties":{"parcel_id":"SPLIT:276/1","parcel_number":"276/1","cadastral_municipality":"SPLIT","cohorts":["road_corridor","large_parcel"],"verification_status":"confirmed_public","evidence_source":"land_register","public_entities":[{"id":"grad-split","label":"Grad Split","category":"city"}],"purpose_primary_code":"K","purpose_primary_label":"Poslovna namjena","built":true,"parcel_area_m2":28903.8,"mapped_area_m2":28854.7,"verified_at":"2026-08-02","source_updated_at":"2025-10-03"}},{"type":"Feature","geometry":{"type":"Polygon","coordinates":[[[16.494643,43.528193],[16.494695,43.528179],[16.494747,43.528164],[16.494804,43.52815],[16.494862,43.528135],[16.494915,43.528123],[16.494968,43.52811],[16.495074,43.528086],[16.495184,43.528064],[16.495368,43.528032],[16.495512,43.528007],[16.495585,43.527997],[16.495657,43.527987],[16.495786,43.527971],[16.495875,43.527962],[16.495924,43.527957],[16.495972,43.527953],[16.496098,43.527943],[16.496168,43.527938],[16.496248,43.527932],[16.496413,43.527923],[16.496524,43.527917],[16.496635,43.527912],[16.496733,43.527908],[16.496832,43.527904],[16.496943,43.5279],[16.497054,43.527897],[16.497251,43.527893],[16.497449,43.527889],[16.497584,43.527888],[16.49772,43.527887],[16.497843,43.527887],[16.498749,43.527907],[16.49886,43.527911],[16.498985,43.527917],[16.498976,43.528025],[16.498905,43.528025],[16.498722,43.528023],[16.498672,43.528024],[16.498624,43.528029],[16.498534,43.528036],[16.498443,43.528041],[16.498347,43.528047],[16.498231,43.528054],[16.498038,43.528061],[16.497989,43.528063],[16.497722,43.528082],[16.497479,43.528117],[16.497204,43.528159],[16.49714,43.52804],[16.497129,43.528019],[16.497034,43.528039],[16.496771,43.528093],[16.496536,43.528178],[16.496351,43.52823],[16.496077,43.528026],[16.495929,43.528036],[16.495499,43.528217],[16.495398,43.528164],[16.495387,43.528163],[16.495378,43.528162],[16.495308,43.528157],[16.495195,43.528173],[16.494999,43.528216],[16.494984,43.528219],[16.494699,43.5283],[16.494643,43.528193]]]},"properties":{"parcel_id":"SPLIT:276/2","parcel_number":"276/2","cadastral_municipality":"SPLIT","cohorts":["road_corridor"],"verification_status":"cadastre_public","evidence_source":"cadastre","public_entities":[{"id":"grad-split","label":"Grad Split","category":"city"}],"purpose_primary_code":null,"purpose_primary_label":null,"built":false,"parcel_area_m2":6385.3,"mapped_area_m2":6371.7,"verified_at":"2026-08-02","source_updated_at":"2025-10-03"}},{"type":"Feature","geometry":{"type":"Polygon","coordinates":[[[16.499196,43.528646],[16.499196,43.528638],[16.499188,43.528638],[16.499169,43.528638],[16.499083,43.528638],[16.499085,43.528597],[16.499039,43.528597],[16.498947,43.528597],[16.498961,43.528536],[16.499038,43.528536],[16.49909,43.528536],[16.499093,43.528493],[16.499096,43.528468],[16.499099,43.528426],[16.499101,43.528414],[16.499157,43.528374],[16.4992,43.52821],[16.499238,43.528068],[16.499245,43.528038],[16.499239,43.528037],[16.499073,43.528026],[16.499064,43.528065],[16.498989,43.528382],[16.498979,43.528424],[16.49891,43.528735],[16.498948,43.528703],[16.499012,43.528705],[16.499018,43.528702],[16.499133,43.528645],[16.499196,43.528646]]]},"properties":{"parcel_id":"SPLIT:279/5","parcel_number":"279/5","cadastral_municipality":"SPLIT","cohorts":["road_corridor"],"verification_status":"unresolved","evidence_source":"cadastre","public_entities":[],"purpose_primary_code":"K","purpose_primary_label":"Poslovna namjena","built":true,"parcel_area_m2":872.4,"mapped_area_m2":872.7,"verified_at":null,"source_updated_at":"2025-10-03"}},{"type":"Feature","geometry":{"type":"Polygon","coordinates":[[[16.499349,43.528224],[16.499377,43.528226],[16.499389,43.528168],[16.499414,43.528051],[16.499275,43.52804],[16.499245,43.528038],[16.499238,43.528068],[16.4992,43.52821],[16.499349,43.528224]]]},"properties":{"parcel_id":"SPLIT:279/7","parcel_number":"279/7","cadastral_municipality":"SPLIT","cohorts":["road_corridor"],"verification_status":"unresolved","evidence_source":"cadastre","public_entities":[],"purpose_primary_code":"K","purpose_primary_label":"Poslovna namjena","built":true,"parcel_area_m2":275.5,"mapped_area_m2":274.2,"verified_at":null,"source_updated_at":"2025-10-03"}},{"type":"Feature","geometry":{"type":"Polygon","coordinates":[[[16.499651,43.528067],[16.499622,43.528186],[16.499604,43.52826],[16.499838,43.528288],[16.49986,43.528208],[16.499897,43.528085],[16.49975,43.528074],[16.499651,43.528067]]]},"properties":{"parcel_id":"SPLIT:280/6","parcel_number":"280/6","cadastral_municipality":"SPLIT","cohorts":["road_corridor"],"verification_status":"unresolved","evidence_source":"cadastre","public_entities":[],"purpose_primary_code":"K","purpose_primary_label":"Poslovna namjena","built":true,"parcel_area_m2":436.5,"mapped_area_m2":436.1,"verified_at":null,"source_updated_at":"2025-10-03"}},{"type":"Feature","geometry":{"type":"Polygon","coordinates":[[[16.499651,43.528067],[16.499414,43.528051],[16.499389,43.528168],[16.499438,43.528171],[16.499443,43.528172],[16.499569,43.528182],[16.499573,43.528182],[16.499622,43.528186],[16.499651,43.528067]]]},"properties":{"parcel_id":"SPLIT:280/7","parcel_number":"280/7","cadastral_municipality":"SPLIT","cohorts":["road_corridor"],"verification_status":"unresolved","evidence_source":"cadastre","public_entities":[],"purpose_primary_code":null,"purpose_primary_label":null,"built":true,"parcel_area_m2":253.6,"mapped_area_m2":252.4,"verified_at":null,"source_updated_at":"2025-10-03"}},{"type":"Feature","geometry":{"type":"Polygon","coordinates":[[[16.500403,43.528132],[16.500397,43.528138],[16.500285,43.528115],[16.500074,43.528167],[16.49986,43.528208],[16.499838,43.528288],[16.499796,43.528434],[16.500039,43.528398],[16.500391,43.528308],[16.500403,43.528132]]]},"properties":{"parcel_id":"SPLIT:281/1","parcel_number":"281/1","cadastral_municipality":"SPLIT","cohorts":["road_corridor"],"verification_status":"confirmed_public","evidence_source":"land_register","public_entities":[{"id":"grad-split","label":"Grad Split","category":"city"}],"purpose_primary_code":"K","purpose_primary_label":"Poslovna namjena","built":false,"parcel_area_m2":1101.9,"mapped_area_m2":1098.3,"verified_at":"2026-08-02","source_updated_at":"2025-10-03"}},{"type":"Feature","geometry":{"type":"Polygon","coordinates":[[[16.500285,43.528115],[16.500241,43.528106],[16.499897,43.528085],[16.49986,43.528208],[16.500074,43.528167],[16.500285,43.528115]]]},"properties":{"parcel_id":"SPLIT:281/2","parcel_number":"281/2","cadastral_municipality":"SPLIT","cohorts":["road_corridor"],"verification_status":"confirmed_public","evidence_source":"land_register","public_entities":[{"id":"grad-split","label":"Grad Split","category":"city"}],"purpose_primary_code":null,"purpose_primary_label":null,"built":false,"parcel_area_m2":237.8,"mapped_area_m2":239.7,"verified_at":"2026-08-02","source_updated_at":"2025-10-03"}},{"type":"Feature","geometry":{"type":"Polygon","coordinates":[[[16.490604,43.522132],[16.489992,43.522274],[16.48973,43.522335],[16.489727,43.522329],[16.489662,43.522352],[16.489496,43.522388],[16.489506,43.522401],[16.489555,43.522465],[16.489887,43.522904],[16.489989,43.523038],[16.490077,43.52302],[16.490345,43.522967],[16.490346,43.522973],[16.49035,43.52299],[16.490359,43.523024],[16.490396,43.523014],[16.490591,43.522963],[16.490669,43.522942],[16.490683,43.522939],[16.490771,43.522916],[16.490845,43.522896],[16.491663,43.522681],[16.491564,43.522568],[16.491555,43.522557],[16.491506,43.522501],[16.491394,43.522286],[16.491232,43.521986],[16.490604,43.522132]]]},"properties":{"parcel_id":"SPLIT:2897/2","parcel_number":"2897/2","cadastral_municipality":"SPLIT","cohorts":["large_parcel"],"verification_status":"unresolved","evidence_source":"none","public_entities":[],"purpose_primary_code":"I","purpose_primary_label":"Gospodarska namjena","built":true,"parcel_area_m2":12118,"mapped_area_m2":12096.9,"verified_at":null,"source_updated_at":"2025-10-03"}},{"type":"Feature","geometry":{"type":"Polygon","coordinates":[[[16.496474,43.522032],[16.496428,43.521931],[16.496332,43.521714],[16.496314,43.521673],[16.4963,43.521643],[16.496158,43.521317],[16.495988,43.520933],[16.495964,43.520878],[16.495863,43.520651],[16.495679,43.520696],[16.49505,43.520849],[16.494772,43.520916],[16.4946,43.520958],[16.494654,43.521017],[16.494714,43.521106],[16.494726,43.521225],[16.494721,43.521303],[16.494721,43.521386],[16.494732,43.521476],[16.494753,43.5215],[16.494737,43.521506],[16.494728,43.521534],[16.494742,43.521577],[16.494788,43.521712],[16.49482,43.521828],[16.494821,43.521834],[16.494812,43.521869],[16.494839,43.521976],[16.494859,43.5221],[16.49486,43.52212],[16.494916,43.522404],[16.494919,43.52242],[16.495817,43.522207],[16.496474,43.522032]]]},"properties":{"parcel_id":"SPLIT:3016","parcel_number":"3016","cadastral_municipality":"SPLIT","cohorts":["large_parcel"],"verification_status":"private_or_other","evidence_source":"land_register","public_entities":[],"purpose_primary_code":"I","purpose_primary_label":"Gospodarska namjena","built":true,"parcel_area_m2":19178.4,"mapped_area_m2":19145.2,"verified_at":"2026-08-02","source_updated_at":"2025-10-03"}},{"type":"Feature","geometry":{"type":"Polygon","coordinates":[[[16.489489,43.524037],[16.489505,43.524033],[16.489662,43.523935],[16.489842,43.523833],[16.489939,43.523783],[16.48999,43.52374],[16.489992,43.523728],[16.490027,43.523575],[16.490109,43.523542],[16.490332,43.523452],[16.490483,43.523505],[16.490507,43.523513],[16.490509,43.523513],[16.490572,43.523499],[16.4906,43.523493],[16.490608,43.523491],[16.490662,43.52348],[16.49073,43.523464],[16.49076,43.523456],[16.49078,43.52345],[16.491052,43.523377],[16.491087,43.523425],[16.491088,43.523446],[16.491081,43.52346],[16.491075,43.52347],[16.491031,43.523497],[16.491051,43.523509],[16.491136,43.523468],[16.491178,43.523461],[16.491323,43.523436],[16.491384,43.523427],[16.49162,43.523339],[16.491632,43.523348],[16.49166,43.523339],[16.491832,43.523286],[16.491966,43.523229],[16.491972,43.523226],[16.492023,43.523203],[16.492042,43.523192],[16.492055,43.523182],[16.492067,43.523164],[16.492055,43.523143],[16.492036,43.523109],[16.492277,43.52306],[16.492286,43.523058],[16.492516,43.523011],[16.492759,43.522962],[16.492826,43.522948],[16.492841,43.522943],[16.492977,43.522902],[16.493079,43.52284],[16.493086,43.522836],[16.49331,43.522804],[16.493327,43.522796],[16.493415,43.522758],[16.493425,43.522746],[16.493506,43.52273],[16.493751,43.522683],[16.493932,43.522646],[16.494243,43.522575],[16.494445,43.522528],[16.494919,43.52242],[16.495817,43.522207],[16.496474,43.522032],[16.496854,43.521938],[16.497223,43.52183],[16.497591,43.521722],[16.498104,43.521529],[16.498632,43.521333],[16.498666,43.521333],[16.499052,43.521193],[16.499098,43.521116],[16.49899,43.521016],[16.499053,43.520991],[16.499153,43.520951],[16.499319,43.520871],[16.49935,43.52086],[16.499552,43.52107],[16.499691,43.521085],[16.499812,43.521016],[16.499842,43.521003],[16.499861,43.520997],[16.49989,43.521035],[16.49991,43.521062],[16.499924,43.521079],[16.499937,43.521097],[16.499987,43.52117],[16.499871,43.521234],[16.499834,43.521332],[16.499887,43.521391],[16.499511,43.521518],[16.499497,43.521491],[16.499456,43.521465],[16.4994,43.521452],[16.499338,43.521466],[16.499158,43.521524],[16.498727,43.521669],[16.498695,43.52168],[16.498588,43.521715],[16.49766,43.522023],[16.497322,43.522131],[16.497086,43.522195],[16.496236,43.52239],[16.495932,43.522486],[16.495887,43.522501],[16.495686,43.522563],[16.495669,43.522568],[16.49557,43.5226],[16.495539,43.522609],[16.495513,43.522617],[16.495429,43.522645],[16.495349,43.522671],[16.495247,43.522695],[16.495016,43.522751],[16.494699,43.52282],[16.494341,43.522899],[16.494126,43.522947],[16.494066,43.522959],[16.493908,43.522992],[16.493706,43.523033],[16.493609,43.523053],[16.493502,43.523075],[16.493324,43.523112],[16.493275,43.523123],[16.493125,43.523156],[16.493131,43.523167],[16.493009,43.523185],[16.492865,43.523221],[16.492596,43.523287],[16.492278,43.523364],[16.492268,43.523367],[16.491967,43.523445],[16.491936,43.523454],[16.491935,43.523454],[16.491901,43.523462],[16.491868,43.523471],[16.491769,43.523495],[16.491656,43.523524],[16.491203,43.523641],[16.491137,43.523658],[16.491016,43.523689],[16.490995,43.523681],[16.490987,43.523628],[16.491034,43.523591],[16.491093,43.523548],[16.491091,43.52354],[16.49069,43.52359],[16.490693,43.523604],[16.490716,43.523618],[16.490763,43.523624],[16.490812,43.523649],[16.490829,43.523705],[16.49079,43.523746],[16.49075,43.523754],[16.490716,43.523722],[16.490408,43.523773],[16.490419,43.523811],[16.490437,43.523879],[16.490407,43.523891],[16.49036,43.523933],[16.490299,43.523987],[16.490207,43.524022],[16.490123,43.524083],[16.489965,43.524198],[16.489845,43.524285],[16.489489,43.524037]]]},"properties":{"parcel_id":"SPLIT:3022/1","parcel_number":"3022/1","cadastral_municipality":"SPLIT","cohorts":["large_parcel"],"verification_status":"unresolved","evidence_source":"cadastre","public_entities":[],"purpose_primary_code":"I","purpose_primary_label":"Gospodarska namjena","built":true,"parcel_area_m2":30731.7,"mapped_area_m2":30665.3,"verified_at":null,"source_updated_at":"2025-10-03"}},{"type":"Feature","geometry":{"type":"Polygon","coordinates":[[[16.498345,43.522147],[16.498445,43.522062],[16.49855,43.521934],[16.498719,43.521774],[16.498726,43.521707],[16.498727,43.521669],[16.499158,43.521524],[16.499338,43.521466],[16.4994,43.521452],[16.499456,43.521465],[16.499497,43.521491],[16.499511,43.521518],[16.499887,43.521391],[16.499834,43.521332],[16.499871,43.521234],[16.499987,43.52117],[16.499937,43.521097],[16.5002,43.521041],[16.50044,43.520968],[16.500592,43.520924],[16.500688,43.520899],[16.500736,43.520887],[16.500831,43.520862],[16.501056,43.520798],[16.501433,43.52071],[16.501848,43.52061],[16.502398,43.520567],[16.502712,43.520591],[16.502861,43.520612],[16.503175,43.520649],[16.503331,43.52067],[16.503805,43.520674],[16.504104,43.520624],[16.504091,43.520644],[16.503812,43.520703],[16.50377,43.520803],[16.503706,43.520823],[16.503612,43.520836],[16.503433,43.520858],[16.503282,43.520859],[16.503185,43.520856],[16.503141,43.520843],[16.503084,43.52085],[16.503048,43.520846],[16.502997,43.520847],[16.502893,43.520856],[16.502827,43.52087],[16.502615,43.520847],[16.502589,43.520851],[16.502494,43.520838],[16.502462,43.520847],[16.502338,43.520805],[16.502283,43.520819],[16.502223,43.520814],[16.502153,43.520831],[16.502159,43.520852],[16.502146,43.520852],[16.502085,43.52087],[16.502083,43.520834],[16.502042,43.520817],[16.501958,43.520818],[16.501839,43.520854],[16.501785,43.520857],[16.501617,43.520913],[16.50141,43.521009],[16.501213,43.521097],[16.501222,43.521109],[16.501111,43.521155],[16.50096,43.521249],[16.50077,43.521337],[16.500692,43.521372],[16.500657,43.521392],[16.500585,43.521431],[16.500456,43.521503],[16.500305,43.521569],[16.500168,43.521598],[16.500074,43.521598],[16.500108,43.521635],[16.500067,43.521649],[16.499744,43.521707],[16.499746,43.521722],[16.499536,43.521756],[16.499489,43.52177],[16.499437,43.521787],[16.499429,43.521792],[16.499407,43.521808],[16.499317,43.521832],[16.499161,43.521839],[16.499158,43.521847],[16.49905,43.521869],[16.498945,43.521913],[16.498922,43.521951],[16.498908,43.521947],[16.498845,43.521965],[16.498704,43.522007],[16.498528,43.522077],[16.498345,43.522147]]]},"properties":{"parcel_id":"SPLIT:3083","parcel_number":"3083","cadastral_municipality":"SPLIT","cohorts":["large_parcel"],"verification_status":"private_or_other","evidence_source":"land_register","public_entities":[],"purpose_primary_code":"K","purpose_primary_label":"Poslovna namjena","built":true,"parcel_area_m2":14969.5,"mapped_area_m2":14947.1,"verified_at":"2026-08-02","source_updated_at":"2025-10-03"}},{"type":"Feature","geometry":{"type":"Polygon","coordinates":[[[16.500074,43.521598],[16.500108,43.521635],[16.500067,43.521649],[16.499744,43.521707],[16.499746,43.521722],[16.499536,43.521756],[16.499489,43.52177],[16.499437,43.521787],[16.499536,43.522042],[16.499595,43.522225],[16.499636,43.522272],[16.499623,43.522355],[16.499639,43.522432],[16.499705,43.522561],[16.499744,43.522666],[16.49977,43.522778],[16.499821,43.522914],[16.49987,43.523008],[16.499879,43.523035],[16.499914,43.523135],[16.500037,43.523133],[16.500299,43.523061],[16.500365,43.523042],[16.500377,43.523038],[16.500722,43.522951],[16.500769,43.522934],[16.500806,43.522927],[16.500926,43.522894],[16.501246,43.522811],[16.501168,43.522608],[16.501051,43.522337],[16.500943,43.522088],[16.500856,43.52187],[16.500827,43.5218],[16.500785,43.521699],[16.500701,43.521496],[16.500657,43.521392],[16.500585,43.521431],[16.500456,43.521503],[16.500305,43.521569],[16.500168,43.521598],[16.500074,43.521598]]]},"properties":{"parcel_id":"SPLIT:3088/1","parcel_number":"3088/1","cadastral_municipality":"SPLIT","cohorts":["large_parcel"],"verification_status":"private_or_other","evidence_source":"land_register","public_entities":[],"purpose_primary_code":"K","purpose_primary_label":"Poslovna namjena","built":true,"parcel_area_m2":17402.7,"mapped_area_m2":17373,"verified_at":"2026-08-02","source_updated_at":"2025-10-03"}},{"type":"Feature","geometry":{"type":"Polygon","coordinates":[[[16.503577,43.525262],[16.503645,43.525212],[16.503735,43.525127],[16.50374,43.525122],[16.503874,43.525058],[16.503876,43.525057],[16.503937,43.525032],[16.503977,43.525023],[16.504398,43.52493],[16.504581,43.524933],[16.504579,43.524883],[16.504578,43.524846],[16.504579,43.52483],[16.50458,43.524777],[16.50458,43.524768],[16.50458,43.524755],[16.504565,43.524749],[16.504562,43.524745],[16.504562,43.524712],[16.50455,43.524676],[16.504549,43.524672],[16.504544,43.524642],[16.504544,43.524606],[16.504554,43.524577],[16.504555,43.524565],[16.504556,43.524542],[16.504533,43.524418],[16.504564,43.5244],[16.504558,43.524196],[16.504437,43.524202],[16.504416,43.524201],[16.504307,43.524197],[16.504186,43.524184],[16.504114,43.524176],[16.503992,43.524191],[16.503968,43.524193],[16.503834,43.524206],[16.503639,43.524174],[16.503522,43.524175],[16.503357,43.524183],[16.503261,43.524202],[16.503246,43.524212],[16.503157,43.524233],[16.503006,43.524273],[16.50287,43.524279],[16.502746,43.524287],[16.502623,43.524309],[16.50258,43.524306],[16.502611,43.524378],[16.502642,43.524456],[16.502638,43.524458],[16.502651,43.524486],[16.502651,43.524487],[16.502694,43.524561],[16.502738,43.524667],[16.502771,43.524751],[16.502775,43.524775],[16.502813,43.524866],[16.502819,43.52488],[16.502861,43.524974],[16.50287,43.525],[16.503125,43.524941],[16.503193,43.525129],[16.503308,43.525145],[16.503235,43.525178],[16.503254,43.525228],[16.503313,43.52538],[16.503328,43.525369],[16.503409,43.525364],[16.503437,43.525358],[16.503451,43.525357],[16.50346,43.525354],[16.503505,43.525319],[16.503542,43.525289],[16.503577,43.525262]],[[16.503726,43.524776],[16.503722,43.524757],[16.503681,43.524585],[16.503638,43.524405],[16.503647,43.524396],[16.503925,43.524361],[16.503968,43.524549],[16.504,43.524677],[16.504013,43.524728],[16.504016,43.52474],[16.503986,43.524743],[16.503761,43.524772],[16.503726,43.524776]],[[16.503643,43.52459],[16.50341,43.524619],[16.503404,43.524593],[16.503391,43.524537],[16.503372,43.52445],[16.503469,43.524437],[16.503604,43.524418],[16.50363,43.524527],[16.503636,43.52456],[16.503643,43.52459]]]},"properties":{"parcel_id":"SPLIT:375/1","parcel_number":"375/1","cadastral_municipality":"SPLIT","cohorts":["large_parcel"],"verification_status":"unresolved","evidence_source":"cadastre","public_entities":[],"purpose_primary_code":"K5","purpose_primary_label":"Poslovna namjena i stanovanje","built":true,"parcel_area_m2":12869.2,"mapped_area_m2":12846.1,"verified_at":null,"source_updated_at":"2025-10-03"}},{"type":"Feature","geometry":{"type":"Polygon","coordinates":[[[16.497086,43.526007],[16.497762,43.526016],[16.49777,43.525705],[16.497778,43.525383],[16.497786,43.525054],[16.497711,43.525053],[16.497544,43.525051],[16.497185,43.525046],[16.496941,43.525043],[16.496941,43.524977],[16.496565,43.524972],[16.496178,43.524967],[16.495851,43.524962],[16.495771,43.524961],[16.49577,43.524989],[16.49577,43.524993],[16.495769,43.525011],[16.495764,43.52521],[16.495762,43.525301],[16.495759,43.525417],[16.495756,43.525502],[16.495748,43.525828],[16.495744,43.525989],[16.495791,43.52599],[16.495815,43.52599],[16.495927,43.525992],[16.496507,43.525999],[16.497001,43.526006],[16.497086,43.526007]]]},"properties":{"parcel_id":"SPLIT:466/1","parcel_number":"466/1","cadastral_municipality":"SPLIT","cohorts":["large_parcel"],"verification_status":"private_or_other","evidence_source":"land_register","public_entities":[],"purpose_primary_code":"K","purpose_primary_label":"Poslovna namjena","built":true,"parcel_area_m2":18125.3,"mapped_area_m2":18099,"verified_at":"2026-08-02","source_updated_at":"2025-10-03"}}]}
