{"type":"FeatureCollection","features":[{"type":"Feature","geometry":{"type":"Polygon","coordinates":[[[16.507937,43.520261],[16.508019,43.520239],[16.508095,43.520219],[16.508229,43.520181],[16.508471,43.520112],[16.508452,43.520114],[16.508332,43.520117],[16.508165,43.520117],[16.507964,43.520117],[16.507649,43.520148],[16.50738,43.520224],[16.50737,43.520229],[16.507352,43.520246],[16.507337,43.520256],[16.507319,43.520264],[16.507258,43.520286],[16.507183,43.520326],[16.507113,43.520364],[16.507056,43.52039],[16.507032,43.5204],[16.507004,43.520407],[16.506951,43.520422],[16.506919,43.520428],[16.506894,43.520431],[16.506882,43.520432],[16.506882,43.520441],[16.506889,43.52047],[16.506879,43.52056],[16.506914,43.52053],[16.50697,43.520498],[16.507049,43.520451],[16.507074,43.520437],[16.507102,43.520428],[16.507145,43.52042],[16.507335,43.520389],[16.50744,43.52037],[16.507531,43.520354],[16.507655,43.520329],[16.507727,43.520314],[16.507798,43.520297],[16.507854,43.520283],[16.507937,43.520261]]]},"properties":{"parcel_id":"KAMEN:142/1","parcel_number":"142/1","cadastral_municipality":"KAMEN","public_level":"city","ownership_form":"ownership","purpose_primary_code":"K3","purpose_primary_label":"Poslovna namjena — komunalno servisna","built":false,"area_m2":1588.6,"source_updated_at":"2025-10-03","generated_at":"2026-08-02"}},{"type":"Feature","geometry":{"type":"Polygon","coordinates":[[[16.507146,43.517959],[16.507151,43.517929],[16.507166,43.51782],[16.5072,43.517769],[16.507221,43.517583],[16.507264,43.51742],[16.507218,43.517409],[16.507184,43.517586],[16.507162,43.517736],[16.507136,43.517783],[16.507116,43.517801],[16.507135,43.517822],[16.507129,43.517896],[16.507083,43.518075],[16.507027,43.51819],[16.506983,43.518354],[16.506952,43.518454],[16.506835,43.518565],[16.506818,43.518587],[16.506777,43.518676],[16.506706,43.518828],[16.506673,43.518959],[16.506598,43.519031],[16.506563,43.519164],[16.506556,43.519202],[16.506541,43.519288],[16.506572,43.519513],[16.506726,43.519849],[16.506729,43.519869],[16.506792,43.520073],[16.506816,43.520145],[16.506817,43.520154],[16.506835,43.520153],[16.506853,43.520228],[16.506836,43.520143],[16.506828,43.520111],[16.506761,43.519864],[16.506707,43.519732],[16.506652,43.519603],[16.506621,43.519534],[16.506577,43.519333],[16.506581,43.519296],[16.506591,43.519201],[16.506624,43.519094],[16.506646,43.519034],[16.506702,43.518958],[16.506735,43.518857],[16.506771,43.518767],[16.506787,43.518728],[16.506845,43.518603],[16.506896,43.518547],[16.506969,43.518473],[16.50701,43.518414],[16.507036,43.518241],[16.507095,43.518116],[16.507145,43.517963],[16.507146,43.517959]]]},"properties":{"parcel_id":"KAMEN:2327/1","parcel_number":"2327/1","cadastral_municipality":"KAMEN","public_level":"city","ownership_form":"ownership","purpose_primary_code":"Z5","purpose_primary_label":"Zaštitno i pejsažno zelenilo","built":false,"area_m2":876.6,"source_updated_at":"2025-10-03","generated_at":"2026-08-02"}},{"type":"Feature","geometry":{"type":"Polygon","coordinates":[[[16.50652,43.520742],[16.506614,43.520707],[16.506831,43.52062],[16.506879,43.52056],[16.506889,43.52047],[16.506882,43.520441],[16.506882,43.520432],[16.506842,43.52044],[16.506841,43.520447],[16.506845,43.520476],[16.506846,43.520551],[16.506801,43.520595],[16.506596,43.520678],[16.506529,43.520701],[16.506385,43.520755],[16.506255,43.520815],[16.50622,43.520849],[16.506127,43.521075],[16.506115,43.521102],[16.506127,43.521079],[16.50614,43.521058],[16.506153,43.521041],[16.50617,43.521031],[16.50618,43.52103],[16.506229,43.520888],[16.506267,43.520843],[16.506302,43.520829],[16.506321,43.520807],[16.506341,43.520794],[16.506446,43.520763],[16.50652,43.520742]]]},"properties":{"parcel_id":"KAMEN:2327/8","parcel_number":"2327/8","cadastral_municipality":"KAMEN","public_level":"city","ownership_form":"ownership","purpose_primary_code":"K3","purpose_primary_label":"Poslovna namjena — komunalno servisna","built":false,"area_m2":291.4,"source_updated_at":"2025-10-03","generated_at":"2026-08-02"}},{"type":"Feature","geometry":{"type":"Polygon","coordinates":[[[16.506902,43.520428],[16.506882,43.520432],[16.506894,43.520431],[16.506919,43.520428],[16.506951,43.520422],[16.507004,43.520407],[16.507032,43.5204],[16.507056,43.52039],[16.507113,43.520364],[16.507068,43.520056],[16.506882,43.520098],[16.506844,43.520107],[16.506828,43.520111],[16.506836,43.520143],[16.506853,43.520228],[16.506902,43.520428]]]},"properties":{"parcel_id":"KAMEN:88/1","parcel_number":"88/1","cadastral_municipality":"KAMEN","public_level":"city","ownership_form":"coownership","purpose_primary_code":"Z5","purpose_primary_label":"Zaštitno i pejsažno zelenilo","built":false,"area_m2":681.2,"source_updated_at":"2025-10-03","generated_at":"2026-08-02"}},{"type":"Feature","geometry":{"type":"Polygon","coordinates":[[[16.506882,43.520432],[16.506902,43.520428],[16.506853,43.520228],[16.506867,43.520292],[16.506882,43.520432]]]},"properties":{"parcel_id":"KAMEN:88/4","parcel_number":"88/4","cadastral_municipality":"KAMEN","public_level":"city","ownership_form":"coownership","purpose_primary_code":null,"purpose_primary_label":null,"built":false,"area_m2":14.3,"source_updated_at":"2025-10-03","generated_at":"2026-08-02"}},{"type":"Feature","geometry":{"type":"Polygon","coordinates":[[[16.488252,43.524302],[16.488268,43.524314],[16.488277,43.524321],[16.488284,43.524319],[16.488378,43.524299],[16.488405,43.524291],[16.488614,43.524209],[16.488817,43.52415],[16.48905,43.524103],[16.489342,43.524123],[16.489362,43.524102],[16.489082,43.524087],[16.488969,43.524104],[16.488823,43.524124],[16.488594,43.52418],[16.488356,43.524248],[16.488252,43.524302]]]},"properties":{"parcel_id":"SPLIT:13565/1","parcel_number":"13565/1","cadastral_municipality":"SPLIT","public_level":"state","ownership_form":"ownership","purpose_primary_code":"Z5","purpose_primary_label":"Zaštitno i pejsažno zelenilo","built":false,"area_m2":288.8,"source_updated_at":"2025-10-03","generated_at":"2026-08-02"}},{"type":"Feature","geometry":{"type":"Polygon","coordinates":[[[16.485126,43.525525],[16.485108,43.525555],[16.485125,43.525552],[16.485434,43.525516],[16.485585,43.525466],[16.485755,43.525435],[16.485775,43.525437],[16.485769,43.525511],[16.485802,43.525508],[16.485833,43.525427],[16.485861,43.525399],[16.485922,43.525382],[16.486115,43.525306],[16.486173,43.525282],[16.486359,43.525231],[16.486594,43.52518],[16.486829,43.525123],[16.48701,43.525092],[16.487222,43.525043],[16.487349,43.52502],[16.487569,43.52496],[16.487744,43.524765],[16.487846,43.524619],[16.487957,43.524542],[16.487928,43.524524],[16.487814,43.524603],[16.487701,43.524749],[16.487625,43.524828],[16.487597,43.52488],[16.487537,43.524898],[16.487469,43.52495],[16.487441,43.52495],[16.48736,43.524976],[16.487215,43.525015],[16.486993,43.525066],[16.48674,43.525117],[16.486584,43.52515],[16.486548,43.525152],[16.486496,43.525149],[16.486439,43.525156],[16.48643,43.525157],[16.486406,43.525157],[16.48634,43.525193],[16.48631,43.525159],[16.486219,43.525201],[16.486176,43.525216],[16.486096,43.525278],[16.485951,43.525338],[16.485831,43.525383],[16.48568,43.525424],[16.485441,43.525477],[16.485257,43.525506],[16.485126,43.525525]]]},"properties":{"parcel_id":"SPLIT:13565/2","parcel_number":"13565/2","cadastral_municipality":"SPLIT","public_level":"state","ownership_form":"ownership","purpose_primary_code":"I","purpose_primary_label":"Gospodarska namjena","built":false,"area_m2":1048.9,"source_updated_at":"2025-10-03","generated_at":"2026-08-02"}},{"type":"Feature","geometry":{"type":"Polygon","coordinates":[[[16.48932958834722,43.527257386037995],[16.489344113253775,43.527228427064436],[16.489404,43.527235],[16.489564,43.527237],[16.489814,43.527236],[16.48993,43.527238],[16.489907,43.527279],[16.489816,43.527282],[16.489481,43.527269],[16.48932958834722,43.527257386037995]]]},"properties":{"parcel_id":"SPLIT:13569/1","parcel_number":"13569/1","cadastral_municipality":"SPLIT","public_level":"state","ownership_form":"ownership","purpose_primary_code":"I","purpose_primary_label":"Gospodarska namjena","built":false,"area_m2":195.7,"source_updated_at":"2025-10-03","generated_at":"2026-08-02"}},{"type":"Feature","geometry":{"type":"Polygon","coordinates":[[[16.493627,43.52773],[16.49351,43.52766],[16.493337,43.527615],[16.493338,43.527627],[16.493079,43.527585],[16.493021,43.527582],[16.492894,43.527572],[16.492803,43.527565],[16.492739,43.52756],[16.492674,43.527556],[16.492533,43.527546],[16.492485,43.527522],[16.492466,43.527512],[16.492451,43.527482],[16.492445,43.52748],[16.492471,43.527566],[16.492545,43.527579],[16.492912,43.52762],[16.492969,43.527608],[16.49306,43.527614],[16.493202,43.527656],[16.493218,43.527658],[16.493234,43.52766],[16.49324,43.52766],[16.493245,43.527661],[16.493266,43.527663],[16.49328,43.527665],[16.493283,43.527665],[16.493296,43.527667],[16.493333,43.527671],[16.49335,43.527674],[16.493359,43.527675],[16.493378,43.527677],[16.493384,43.527678],[16.493548,43.527701],[16.493627,43.52773]]]},"properties":{"parcel_id":"SPLIT:13569/2","parcel_number":"13569/2","cadastral_municipality":"SPLIT","public_level":"state","ownership_form":"ownership","purpose_primary_code":"Z5","purpose_primary_label":"Zaštitno i pejsažno zelenilo","built":true,"area_m2":404.6,"source_updated_at":"2025-10-03","generated_at":"2026-08-02"}},{"type":"Feature","geometry":{"type":"Polygon","coordinates":[[[16.491425,43.525394],[16.491434,43.52539],[16.491609,43.525426],[16.491633,43.525431],[16.491703,43.525424],[16.491918,43.525444],[16.491954,43.525447],[16.49199,43.52546],[16.492136,43.525476],[16.492163,43.525477],[16.492226,43.525479],[16.49244,43.525485],[16.492546,43.525485],[16.492673,43.525488],[16.492773,43.525499],[16.492844,43.525491],[16.493016,43.525491],[16.49307,43.525489],[16.493202,43.525481],[16.493308,43.525478],[16.493375,43.525519],[16.493543,43.525643],[16.493577,43.525672],[16.493656,43.525737],[16.493931,43.525859],[16.494219,43.525982],[16.494242,43.525993],[16.494393,43.526057],[16.494452,43.526082],[16.494582,43.526135],[16.494633,43.526178],[16.494995,43.526267],[16.495205,43.526301],[16.495226,43.526304],[16.495363,43.526346],[16.495426,43.526366],[16.495463,43.526374],[16.495462,43.526402],[16.495461,43.526405],[16.495413,43.526395],[16.495214,43.526333],[16.494924,43.526282],[16.494901,43.526274],[16.494736,43.526237],[16.494689,43.526227],[16.494646,43.52624],[16.494639,43.526242],[16.494587,43.526212],[16.49456,43.526177],[16.494358,43.526088],[16.494188,43.526003],[16.493917,43.525887],[16.493875,43.525889],[16.493747,43.52585],[16.493616,43.525844],[16.493574,43.525821],[16.493641,43.525774],[16.493587,43.525737],[16.493554,43.525698],[16.493406,43.525606],[16.493312,43.525547],[16.493279,43.52554],[16.493261,43.52554],[16.493237,43.525527],[16.493094,43.52552],[16.493059,43.525521],[16.492972,43.525525],[16.492921,43.525525],[16.492846,43.525527],[16.492812,43.525527],[16.492775,43.525538],[16.492735,43.525542],[16.492645,43.525536],[16.492573,43.525537],[16.492507,43.525537],[16.492481,43.525546],[16.49233,43.525523],[16.492239,43.525524],[16.492238,43.52553],[16.492225,43.525529],[16.492212,43.525529],[16.49218,43.525526],[16.492167,43.525525],[16.492113,43.525523],[16.492022,43.525517],[16.491994,43.525519],[16.491916,43.525506],[16.491861,43.525496],[16.491704,43.525463],[16.491608,43.525449],[16.491518,43.525436],[16.491489,43.525439],[16.491469,43.525425],[16.491425,43.525394]]]},"properties":{"parcel_id":"SPLIT:13571/1","parcel_number":"13571/1","cadastral_municipality":"SPLIT","public_level":"state","ownership_form":"ownership","purpose_primary_code":"K5","purpose_primary_label":"Poslovna namjena i stanovanje","built":true,"area_m2":1630.8,"source_updated_at":"2025-10-03","generated_at":"2026-08-02"}},{"type":"Feature","geometry":{"type":"Polygon","coordinates":[[[16.495731,43.526423],[16.495785,43.526424],[16.495989,43.52645],[16.496105,43.526481],[16.496222,43.526511],[16.49629,43.526512],[16.496495,43.526495],[16.496811,43.526534],[16.497091,43.526571],[16.497177,43.526578],[16.497486,43.526609],[16.497816,43.526631],[16.497859,43.526628],[16.498178,43.526661],[16.498351,43.526674],[16.498621,43.526691],[16.498612,43.526714],[16.49886,43.526735],[16.498903,43.52674],[16.499,43.526752],[16.499136,43.526757],[16.499282,43.526791],[16.499403,43.526817],[16.499484,43.526829],[16.499533,43.526832],[16.499674,43.52683],[16.499693,43.526823],[16.499737,43.526815],[16.499787,43.526814],[16.499894,43.526807],[16.500007,43.526803],[16.500108,43.526797],[16.500117,43.526795],[16.50013,43.526828],[16.500022,43.526839],[16.499857,43.526839],[16.499674,43.52685],[16.499531,43.52685],[16.499465,43.526851],[16.499356,43.526838],[16.499156,43.526805],[16.499132,43.526795],[16.499121,43.526791],[16.499077,43.526797],[16.498803,43.526767],[16.498712,43.526757],[16.498319,43.526741],[16.497916,43.526689],[16.497881,43.526677],[16.497801,43.526663],[16.497743,43.526657],[16.497485,43.526637],[16.497156,43.526604],[16.497025,43.526597],[16.496803,43.526564],[16.496638,43.526543],[16.496586,43.526522],[16.49649,43.526517],[16.496285,43.526537],[16.496224,43.526525],[16.496097,43.526497],[16.495981,43.526474],[16.49578,43.526448],[16.495731,43.526444],[16.495731,43.526423]]]},"properties":{"parcel_id":"SPLIT:13571/2","parcel_number":"13571/2","cadastral_municipality":"SPLIT","public_level":"city","ownership_form":"ownership","purpose_primary_code":"K","purpose_primary_label":"Poslovna namjena","built":true,"area_m2":1369.6,"source_updated_at":"2025-10-03","generated_at":"2026-08-02"}},{"type":"Feature","geometry":{"type":"Polygon","coordinates":[[[16.500454,43.526754],[16.500563,43.526742],[16.500621,43.526858],[16.500644,43.526874],[16.500694,43.526872],[16.500851,43.526847],[16.500897,43.52684],[16.501152,43.526788],[16.501162,43.526785],[16.501252,43.526763],[16.501332,43.526754],[16.501411,43.526774],[16.501471,43.526792],[16.501485,43.526797],[16.501512,43.526797],[16.501661,43.526749],[16.501738,43.526706],[16.501749,43.5267],[16.501755,43.526696],[16.501762,43.526693],[16.501769,43.526689],[16.501782,43.526682],[16.501799,43.526672],[16.501842,43.526634],[16.501901,43.52671],[16.501919,43.526733],[16.501929,43.526741],[16.501934,43.526742],[16.501947,43.526744],[16.501972,43.526746],[16.502022,43.526744],[16.502047,43.526742],[16.502072,43.526739],[16.502168,43.526719],[16.502211,43.526709],[16.502328,43.526685],[16.502354,43.526679],[16.502389,43.526672],[16.502575,43.526634],[16.50258,43.526633],[16.502643,43.52662],[16.502793,43.52659],[16.502804,43.526588],[16.502903,43.526569],[16.5031,43.52653],[16.503145,43.526521],[16.503157,43.526518],[16.503169,43.526516],[16.503181,43.526512],[16.503192,43.526509],[16.503205,43.526505],[16.503246,43.526486],[16.503276,43.526468],[16.503284,43.526461],[16.503298,43.526445],[16.503302,43.526436],[16.503306,43.526409],[16.50331,43.526379],[16.503325,43.526279],[16.503333,43.526226],[16.503341,43.526171],[16.503365,43.526045],[16.503424,43.526012],[16.503483,43.52598],[16.503593,43.525903],[16.50371,43.525815],[16.503719,43.525811],[16.503857,43.525748],[16.503864,43.525745],[16.503948,43.525711],[16.504061,43.525664],[16.504109,43.525645],[16.504112,43.525644],[16.504343,43.525561],[16.504474,43.525506],[16.504577,43.525464],[16.504613,43.525449],[16.504714,43.525419],[16.50498,43.525293],[16.505013,43.525272],[16.505068,43.525245],[16.50509,43.525226],[16.505099,43.525218],[16.505112,43.525204],[16.505121,43.525188],[16.505122,43.525175],[16.505129,43.525137],[16.505128,43.525124],[16.505121,43.525085],[16.505114,43.525056],[16.505109,43.525012],[16.505107,43.524999],[16.505101,43.524971],[16.50512,43.524971],[16.505178,43.524974],[16.505273,43.524968],[16.505374,43.524949],[16.505491,43.524926],[16.505657,43.524889],[16.505673,43.524874],[16.505683,43.524844],[16.50574,43.524723],[16.505749,43.524711],[16.505759,43.524705],[16.505786,43.524637],[16.505828,43.524554],[16.50585,43.524512],[16.505877,43.524459],[16.505882,43.524445],[16.505913,43.524367],[16.505924,43.524335],[16.505942,43.524284],[16.505971,43.524218],[16.505989,43.52413],[16.505988,43.524107],[16.505991,43.524047],[16.505977,43.523993],[16.505977,43.523963],[16.505955,43.52388],[16.505908,43.523761],[16.505877,43.523667],[16.505843,43.523489],[16.505778,43.523186],[16.505747,43.523089],[16.505745,43.523022],[16.505719,43.522925],[16.505748,43.522845],[16.505791,43.522802],[16.505818,43.522813],[16.505774,43.522862],[16.505746,43.522922],[16.505751,43.522969],[16.505784,43.523083],[16.505794,43.523122],[16.505815,43.523202],[16.505827,43.523287],[16.505845,43.523385],[16.505866,43.523491],[16.50587,43.523512],[16.505886,43.523588],[16.505927,43.523745],[16.505944,43.523798],[16.505982,43.523895],[16.506011,43.524006],[16.506021,43.524076],[16.506019,43.524164],[16.505986,43.524252],[16.505936,43.524373],[16.505918,43.524463],[16.505921,43.524489],[16.505892,43.524498],[16.505875,43.524517],[16.505829,43.524592],[16.505781,43.524726],[16.505779,43.524732],[16.505755,43.524797],[16.505738,43.524894],[16.505646,43.52492],[16.505593,43.524942],[16.505529,43.524966],[16.505524,43.52498],[16.505317,43.525016],[16.505167,43.525044],[16.505152,43.525233],[16.505132,43.525268],[16.505066,43.525269],[16.505052,43.525277],[16.505069,43.525294],[16.505025,43.525315],[16.504919,43.525358],[16.504868,43.525378],[16.504734,43.525432],[16.504626,43.525467],[16.504498,43.525525],[16.504349,43.525584],[16.504216,43.525644],[16.504136,43.525669],[16.503794,43.525804],[16.503788,43.525807],[16.503764,43.525823],[16.503718,43.525852],[16.50367,43.525883],[16.503651,43.525895],[16.503628,43.52591],[16.503615,43.525918],[16.503534,43.52597],[16.503496,43.525993],[16.503429,43.526041],[16.503405,43.526073],[16.503365,43.526277],[16.503347,43.526371],[16.50336,43.52646],[16.503273,43.526481],[16.503253,43.526493],[16.503211,43.526513],[16.503197,43.526517],[16.503186,43.526521],[16.503173,43.526525],[16.503161,43.526527],[16.503148,43.52653],[16.503079,43.526547],[16.502977,43.526582],[16.502962,43.526585],[16.502787,43.526626],[16.502573,43.526653],[16.502517,43.52666],[16.50235,43.526716],[16.50211,43.526768],[16.502002,43.526762],[16.501941,43.526749],[16.501816,43.526713],[16.501675,43.526765],[16.501547,43.526833],[16.50147,43.526855],[16.501429,43.526867],[16.501386,43.526798],[16.501306,43.526777],[16.501162,43.526806],[16.500905,43.526873],[16.50085,43.526888],[16.500787,43.526906],[16.500619,43.526927],[16.5006,43.526929],[16.50058,43.526856],[16.500556,43.526792],[16.500516,43.52678],[16.500472,43.526786],[16.500454,43.526754]]]},"properties":{"parcel_id":"SPLIT:13571/3","parcel_number":"13571/3","cadastral_municipality":"SPLIT","public_level":"state","ownership_form":"ownership","purpose_primary_code":"K5","purpose_primary_label":"Poslovna namjena i stanovanje","built":true,"area_m2":2411.9,"source_updated_at":"2025-10-03","generated_at":"2026-08-02"}},{"type":"Feature","geometry":{"type":"Polygon","coordinates":[[[16.500228,43.526817],[16.500472,43.526786],[16.500454,43.526754],[16.500287,43.526772],[16.500237,43.526773],[16.500117,43.526795],[16.50013,43.526828],[16.500228,43.526817]]]},"properties":{"parcel_id":"SPLIT:13571/6","parcel_number":"13571/6","cadastral_municipality":"SPLIT","public_level":"city","ownership_form":"ownership","purpose_primary_code":"K","purpose_primary_label":"Poslovna namjena","built":false,"area_m2":114.2,"source_updated_at":"2025-10-03","generated_at":"2026-08-02"}},{"type":"Feature","geometry":{"type":"Polygon","coordinates":[[[16.494639,43.526242],[16.494587,43.526212],[16.494549,43.526346],[16.494502,43.526459],[16.494506,43.526467],[16.494513,43.526479],[16.494476,43.526647],[16.494431,43.526763],[16.494406,43.526811],[16.494375,43.526835],[16.494369,43.526875],[16.494376,43.526933],[16.49437,43.526957],[16.49435,43.527032],[16.494299,43.527103],[16.494242,43.52718],[16.494064,43.527423],[16.494038,43.527459],[16.494025,43.527479],[16.493951,43.527586],[16.493854,43.527725],[16.493856,43.527726],[16.493883,43.527742],[16.493981,43.527592],[16.49408,43.52746],[16.494102,43.52743],[16.494241,43.527243],[16.494258,43.527212],[16.494339,43.527107],[16.494342,43.527104],[16.494351,43.527091],[16.494353,43.527088],[16.49437,43.527058],[16.494382,43.527038],[16.494409,43.526941],[16.494445,43.526825],[16.494512,43.526657],[16.494553,43.526478],[16.494574,43.52639],[16.494601,43.526279],[16.494639,43.526242]]]},"properties":{"parcel_id":"SPLIT:13573","parcel_number":"13573","cadastral_municipality":"SPLIT","public_level":"state","ownership_form":"ownership","purpose_primary_code":"K5","purpose_primary_label":"Poslovna namjena i stanovanje","built":false,"area_m2":562.3,"source_updated_at":"2025-10-03","generated_at":"2026-08-02"}},{"type":"Feature","geometry":{"type":"Polygon","coordinates":[[[16.494974,43.524957],[16.494999,43.524951],[16.495023,43.524944],[16.495222,43.524909],[16.495387,43.524911],[16.495587,43.524904],[16.495629,43.52489],[16.495717,43.524872],[16.495747,43.524856],[16.495771,43.524831],[16.495778,43.524824],[16.495856,43.524801],[16.496007,43.524757],[16.496011,43.524756],[16.496066,43.52474],[16.496064,43.524726],[16.496106,43.524712],[16.496166,43.524691],[16.496201,43.524679],[16.496231,43.52467],[16.496313,43.524646],[16.49641,43.524631],[16.496493,43.524609],[16.49664,43.524581],[16.496729,43.524532],[16.496957,43.524449],[16.497088,43.524401],[16.497238,43.524346],[16.497723,43.524171],[16.497804,43.524139],[16.497908,43.524105],[16.498052,43.524059],[16.498113,43.524039],[16.498273,43.523971],[16.498329,43.523954],[16.498403,43.52393],[16.498451,43.523917],[16.498549,43.523891],[16.498619,43.523843],[16.498737,43.523788],[16.498799,43.52377],[16.49892,43.523736],[16.499108,43.523679],[16.499181,43.52365],[16.499188,43.523647],[16.499223,43.523631],[16.499385,43.523591],[16.499468,43.52357],[16.499614,43.523533],[16.499702,43.523514],[16.499947,43.523458],[16.500168,43.523409],[16.500445,43.52334],[16.500611,43.523288],[16.500806,43.523209],[16.500835,43.523202],[16.500877,43.523195],[16.500858,43.523149],[16.500943,43.523142],[16.501007,43.523137],[16.50116,43.5231],[16.501318,43.52305],[16.501552,43.522991],[16.501616,43.523027],[16.501708,43.523005],[16.501907,43.522956],[16.501906,43.522907],[16.501987,43.522889],[16.50204,43.522916],[16.502183,43.522885],[16.502386,43.522834],[16.502495,43.522795],[16.502634,43.52278],[16.502741,43.522762],[16.502829,43.522735],[16.502827,43.522709],[16.5029,43.522689],[16.502938,43.522667],[16.503056,43.522629],[16.503303,43.522534],[16.503699,43.522433],[16.503712,43.52243],[16.503788,43.52241],[16.503855,43.522372],[16.503967,43.52236],[16.504093,43.522314],[16.504088,43.522307],[16.504311,43.522251],[16.504369,43.522236],[16.504656,43.522246],[16.504857,43.522263],[16.505125,43.52227],[16.505335,43.522273],[16.505507,43.522263],[16.505558,43.522254],[16.505625,43.522252],[16.505685,43.522231],[16.505664,43.522335],[16.505607,43.522333],[16.505546,43.522381],[16.505402,43.522435],[16.505347,43.522419],[16.505109,43.522427],[16.504836,43.522411],[16.504812,43.522387],[16.50465,43.522367],[16.504638,43.522291],[16.504464,43.522286],[16.504285,43.522292],[16.503987,43.522382],[16.503862,43.522427],[16.503837,43.522459],[16.503707,43.522501],[16.503479,43.522568],[16.503306,43.522626],[16.503266,43.522639],[16.503101,43.522658],[16.502882,43.52272],[16.502897,43.52274],[16.502766,43.522784],[16.50251,43.52282],[16.502397,43.522861],[16.502166,43.522916],[16.502042,43.522956],[16.501882,43.522993],[16.501722,43.523034],[16.501487,43.523099],[16.5012,43.523161],[16.500964,43.523215],[16.500941,43.523217],[16.500848,43.523223],[16.500755,43.523261],[16.500714,43.523292],[16.500721,43.523313],[16.500446,43.523419],[16.50035,43.523453],[16.500284,43.523511],[16.500154,43.523524],[16.499972,43.523542],[16.499799,43.523563],[16.49976,43.523574],[16.499648,43.523604],[16.499407,43.52365],[16.499235,43.523673],[16.49912,43.523698],[16.498912,43.523765],[16.498667,43.523878],[16.49856,43.523919],[16.49843,43.523967],[16.4984,43.523988],[16.498312,43.524013],[16.498136,43.524062],[16.497856,43.524178],[16.497694,43.524229],[16.497544,43.524292],[16.497232,43.524394],[16.497117,43.52443],[16.497045,43.524462],[16.497037,43.524468],[16.496985,43.524492],[16.496811,43.524541],[16.496643,43.524605],[16.496586,43.524622],[16.496327,43.524694],[16.496242,43.524728],[16.496165,43.524749],[16.496082,43.52478],[16.49586,43.524827],[16.495798,43.524851],[16.495757,43.524877],[16.495715,43.524891],[16.495595,43.52492],[16.495505,43.524927],[16.495368,43.524925],[16.495236,43.524928],[16.495135,43.524937],[16.495126,43.524939],[16.49504,43.524956],[16.495023,43.524959],[16.49499,43.524982],[16.494974,43.524957]]]},"properties":{"parcel_id":"SPLIT:13574","parcel_number":"13574","cadastral_municipality":"SPLIT","public_level":"state","ownership_form":"ownership","purpose_primary_code":"K","purpose_primary_label":"Poslovna namjena","built":true,"area_m2":5702.5,"source_updated_at":"2025-10-03","generated_at":"2026-08-02"}},{"type":"Feature","geometry":{"type":"Polygon","coordinates":[[[16.49991,43.521062],[16.500179,43.521004],[16.500405,43.520936],[16.500581,43.52089],[16.500689,43.520862],[16.500813,43.52083],[16.501053,43.520761],[16.50141,43.520678],[16.501397,43.520631],[16.501648,43.520597],[16.501898,43.520557],[16.502104,43.520544],[16.502306,43.520532],[16.502342,43.520541],[16.50272,43.520512],[16.502723,43.520561],[16.502872,43.520578],[16.50318,43.520624],[16.503337,43.520636],[16.5038,43.52065],[16.503954,43.520604],[16.50411,43.520582],[16.504275,43.520548],[16.504374,43.520521],[16.504424,43.520499],[16.504594,43.520454],[16.504721,43.520428],[16.504912,43.520335],[16.504945,43.520347],[16.50495,43.520402],[16.504751,43.520449],[16.504719,43.520479],[16.504641,43.520496],[16.50453,43.520534],[16.504559,43.520578],[16.504402,43.520645],[16.504363,43.520601],[16.50436,43.520597],[16.504354,43.520598],[16.504271,43.520616],[16.504177,43.52066],[16.504168,43.520627],[16.504135,43.520615],[16.504104,43.520624],[16.503805,43.520674],[16.503331,43.52067],[16.503175,43.520649],[16.502861,43.520612],[16.502712,43.520591],[16.502398,43.520567],[16.501848,43.52061],[16.501433,43.52071],[16.501056,43.520798],[16.500831,43.520862],[16.500736,43.520887],[16.500688,43.520899],[16.500592,43.520924],[16.50044,43.520968],[16.5002,43.521041],[16.499937,43.521097],[16.499924,43.521079],[16.49991,43.521062]]]},"properties":{"parcel_id":"SPLIT:13577/2","parcel_number":"13577/2","cadastral_municipality":"SPLIT","public_level":"city","ownership_form":"ownership","purpose_primary_code":"I","purpose_primary_label":"Gospodarska namjena","built":false,"area_m2":2106.2,"source_updated_at":"2025-10-03","generated_at":"2026-08-02"}},{"type":"Feature","geometry":{"type":"Polygon","coordinates":[[[16.504951,43.520402],[16.504971,43.520356],[16.504945,43.520347],[16.50495,43.520402],[16.504951,43.520402]]]},"properties":{"parcel_id":"SPLIT:13577/3","parcel_number":"13577/3","cadastral_municipality":"SPLIT","public_level":"city","ownership_form":"ownership","purpose_primary_code":"I","purpose_primary_label":"Gospodarska namjena","built":false,"area_m2":6.4,"source_updated_at":"2025-10-03","generated_at":"2026-08-02"}},{"type":"Feature","geometry":{"type":"Polygon","coordinates":[[[16.487548779681063,43.52340273257401],[16.487672527177892,43.523340563810486],[16.48776,43.523387],[16.487873,43.523418],[16.488001,43.523452],[16.488402,43.523502],[16.488707,43.523543],[16.488802,43.523556],[16.488899,43.52362],[16.488908,43.523626],[16.488928,43.523641],[16.489104,43.523765],[16.489147,43.523795],[16.489172,43.523812],[16.489282,43.523894],[16.489308,43.523912],[16.489367,43.523953],[16.489374,43.523957],[16.489403,43.523978],[16.489489,43.524037],[16.489845,43.524285],[16.489981,43.524379],[16.489993,43.524387],[16.490006,43.524396],[16.490021,43.524406],[16.490095,43.524457],[16.490257,43.524569],[16.490358,43.524639],[16.490392,43.524662],[16.490535,43.524762],[16.490586,43.524798],[16.490798,43.524948],[16.490908,43.525026],[16.491049,43.525126],[16.491054,43.525129],[16.491064,43.525136],[16.491088,43.525154],[16.491118,43.525175],[16.491425,43.525394],[16.491469,43.525425],[16.491489,43.525439],[16.491579,43.525506],[16.491582,43.525508],[16.491607,43.525527],[16.491635,43.525547],[16.491797,43.525731],[16.491908,43.525852],[16.491978,43.525928],[16.492209,43.526191],[16.492261,43.52625],[16.492363,43.526365],[16.492536,43.526562],[16.492914,43.526973],[16.492939,43.527],[16.493187,43.527271],[16.493275,43.527369],[16.493406,43.527451],[16.493573,43.527556],[16.493592,43.527566],[16.493599,43.52757],[16.493854,43.527725],[16.493856,43.527726],[16.493883,43.527742],[16.494028,43.527829],[16.494041,43.527838],[16.494068,43.527854],[16.494173,43.528001],[16.494205,43.528062],[16.494156,43.528086],[16.494071,43.528103],[16.494071,43.528113],[16.494051,43.528082],[16.494047,43.528074],[16.494044,43.52807],[16.494,43.527999],[16.493985,43.527983],[16.493965,43.527963],[16.493949,43.527946],[16.493951,43.527938],[16.493955,43.52792],[16.493783,43.527821],[16.493674,43.527757],[16.493651,43.527743],[16.493627,43.52773],[16.49351,43.52766],[16.493337,43.527615],[16.493356,43.527573],[16.493166,43.527448],[16.493163,43.527446],[16.492696,43.526937],[16.492329,43.526531],[16.492204,43.526383],[16.492139,43.526306],[16.491903,43.526037],[16.491885,43.526017],[16.491854,43.525972],[16.491819,43.525929],[16.49181,43.525926],[16.49174,43.525845],[16.491601,43.525686],[16.491568,43.525661],[16.491438,43.525561],[16.491349,43.525497],[16.491327,43.525481],[16.491285,43.52545],[16.491209,43.525392],[16.491168,43.525361],[16.491063,43.525289],[16.490937,43.525202],[16.490732,43.525056],[16.490507,43.524896],[16.490313,43.524759],[16.490151,43.524644],[16.490098,43.524608],[16.490027,43.52456],[16.489905,43.524476],[16.489737,43.52436],[16.489362,43.524102],[16.489188,43.523982],[16.488795,43.523697],[16.488782,43.523683],[16.488776,43.523681],[16.488774,43.52368],[16.488636,43.52364],[16.488534,43.523628],[16.488382,43.523608],[16.487918,43.523547],[16.487798,43.523518],[16.487774,43.52351],[16.487751,43.523503],[16.487663,43.523461],[16.487641,43.523451],[16.48757,43.523414],[16.487548779681063,43.52340273257401]]]},"properties":{"parcel_id":"SPLIT:13902/2","parcel_number":"13902/2","cadastral_municipality":"SPLIT","public_level":"city","ownership_form":"ownership","purpose_primary_code":"Z5","purpose_primary_label":"Zaštitno i pejsažno zelenilo","built":true,"area_m2":9250.9,"source_updated_at":"2025-10-03","generated_at":"2026-08-02"}},{"type":"Feature","geometry":{"type":"Polygon","coordinates":[[[16.500677,43.527332],[16.500639,43.527359],[16.500658,43.527362],[16.500769,43.52738],[16.50075,43.527344],[16.500677,43.527332]]]},"properties":{"parcel_id":"SPLIT:13905/4","parcel_number":"13905/4","cadastral_municipality":"SPLIT","public_level":"city","ownership_form":"ownership","purpose_primary_code":"K5","purpose_primary_label":"Poslovna namjena i stanovanje","built":false,"area_m2":30,"source_updated_at":"2025-10-03","generated_at":"2026-08-02"}},{"type":"Feature","geometry":{"type":"Polygon","coordinates":[[[16.488698,43.525107],[16.488862,43.525224],[16.489156,43.525018],[16.488993,43.524903],[16.489024,43.524882],[16.489143,43.524936],[16.489184,43.524974],[16.489205,43.524987],[16.489227,43.524993],[16.489241,43.525004],[16.489312,43.525079],[16.48949,43.525192],[16.489546,43.525227],[16.489603,43.52526],[16.489684,43.525312],[16.489718,43.525332],[16.48988,43.525427],[16.48998,43.525501],[16.489984,43.525505],[16.490121,43.525655],[16.490126,43.52566],[16.490208,43.525737],[16.490294,43.525815],[16.49034,43.525863],[16.490347,43.525869],[16.490437,43.525961],[16.490451,43.525954],[16.490476,43.525979],[16.490536,43.526048],[16.49064,43.526183],[16.490645,43.526196],[16.490884,43.526507],[16.490908,43.526543],[16.490921,43.526562],[16.490953,43.526611],[16.490997,43.526667],[16.491134,43.526718],[16.491483,43.526763],[16.491504,43.526769],[16.491575,43.526788],[16.491696,43.52682],[16.491882,43.526902],[16.491955,43.526934],[16.492097,43.527028],[16.49217,43.527074],[16.492186,43.527092],[16.492331,43.527255],[16.49242,43.527419],[16.492431,43.527438],[16.49244,43.527455],[16.492445,43.52748],[16.492471,43.527566],[16.492473,43.527573],[16.492485,43.527618],[16.492496,43.527681],[16.492496,43.527695],[16.492488,43.527784],[16.49247,43.527854],[16.492443,43.527954],[16.492425,43.528018],[16.492398,43.528093],[16.492255,43.528278],[16.492163,43.528335],[16.492155,43.528339],[16.492111,43.528366],[16.491973,43.528446],[16.491842,43.528512],[16.491794,43.528533],[16.49156,43.528616],[16.49153,43.528622],[16.49129,43.528667],[16.491241,43.528668],[16.491062,43.528674],[16.491016,43.528669],[16.490793,43.528645],[16.490599,43.528674],[16.490524,43.528687],[16.490315,43.528785],[16.490288,43.528798],[16.490172,43.528927],[16.490077,43.529055],[16.489971,43.5292],[16.489658,43.52919],[16.489333,43.529178],[16.489276,43.5292],[16.489256,43.529198],[16.489243,43.529197],[16.489214,43.529191],[16.48919,43.529192],[16.489169,43.529193],[16.489149,43.529193],[16.489296,43.529001],[16.489321,43.52897],[16.489338,43.528948],[16.489412,43.52885],[16.489421,43.528839],[16.489506,43.528723],[16.489663,43.528454],[16.489691,43.528408],[16.489742,43.528303],[16.489818,43.528146],[16.48985,43.528081],[16.489815,43.527944],[16.489804,43.527892],[16.489788,43.527813],[16.489792,43.52763],[16.489825,43.527631],[16.489887,43.527428],[16.48985,43.527423],[16.48983,43.527421],[16.489833,43.52741],[16.489836,43.527404],[16.489907,43.527279],[16.48993,43.527238],[16.489941,43.527218],[16.489957,43.527198],[16.490011,43.527131],[16.490054,43.526925],[16.490044,43.526819],[16.49002,43.526723],[16.49,43.526674],[16.489995,43.526663],[16.489969,43.526519],[16.489933,43.526394],[16.489884,43.526313],[16.489748,43.526087],[16.489738,43.52607],[16.489693,43.526002],[16.489658,43.525973],[16.489627,43.525948],[16.489494,43.525806],[16.489485,43.52579],[16.489443,43.525718],[16.489399,43.52566],[16.489369,43.525628],[16.489338,43.525603],[16.489166,43.525461],[16.489136,43.525447],[16.489078,43.52542],[16.488811,43.525296],[16.48876,43.525263],[16.488708,43.52523],[16.488706,43.525207],[16.488698,43.525107]]]},"properties":{"parcel_id":"SPLIT:13961/1","parcel_number":"13961/1","cadastral_municipality":"SPLIT","public_level":"state","ownership_form":"ownership","purpose_primary_code":"Z5","purpose_primary_label":"Zaštitno i pejsažno zelenilo","built":true,"area_m2":56936.4,"source_updated_at":"2025-10-03","generated_at":"2026-08-02"}},{"type":"Feature","geometry":{"type":"Polygon","coordinates":[[[16.488078,43.524211],[16.487808,43.524397],[16.48782,43.524406],[16.48781,43.524413],[16.487781,43.524428],[16.487754,43.524433],[16.487713,43.52443],[16.487742,43.524453],[16.487783,43.524485],[16.487792,43.524487],[16.487928,43.524524],[16.487957,43.524542],[16.487984,43.524562],[16.488303,43.524806],[16.488424,43.524897],[16.488653,43.525072],[16.488698,43.525107],[16.488862,43.525224],[16.489156,43.525018],[16.488993,43.524903],[16.489024,43.524882],[16.488982,43.524851],[16.488805,43.52472],[16.488712,43.524649],[16.488594,43.52456],[16.48829,43.52433],[16.48828,43.524323],[16.488277,43.524321],[16.488268,43.524314],[16.488252,43.524302],[16.488242,43.524295],[16.488235,43.524286],[16.488204,43.524248],[16.488191,43.524227],[16.488179,43.524213],[16.488128,43.524176],[16.488121,43.524187],[16.488083,43.524215],[16.488078,43.524211]]]},"properties":{"parcel_id":"SPLIT:13961/15","parcel_number":"13961/15","cadastral_municipality":"SPLIT","public_level":"state","ownership_form":"ownership","purpose_primary_code":"Z5","purpose_primary_label":"Zaštitno i pejsažno zelenilo","built":true,"area_m2":4514.4,"source_updated_at":"2025-10-03","generated_at":"2026-08-02"}},{"type":"Feature","geometry":{"type":"Polygon","coordinates":[[[16.48706695049842,43.52388874109435],[16.48712947383484,43.52376901539912],[16.487288836817225,43.52358590593809],[16.487321793849155,43.52356095949083],[16.487437,43.52363],[16.487449,43.523637],[16.487585,43.523745],[16.487615,43.523769],[16.487622,43.523774],[16.48778,43.523906],[16.487817,43.523938],[16.487945,43.524044],[16.488128,43.524176],[16.488121,43.524187],[16.488083,43.524215],[16.488078,43.524211],[16.487808,43.524397],[16.48782,43.524406],[16.48781,43.524413],[16.487781,43.524428],[16.487754,43.524433],[16.487713,43.52443],[16.48767,43.524432],[16.487649,43.524414],[16.487533,43.524289],[16.487494,43.524265],[16.487468,43.52425],[16.487366,43.524191],[16.487308,43.524139],[16.487211,43.524052],[16.487168,43.524002],[16.487071,43.523891],[16.48706695049842,43.52388874109435]]]},"properties":{"parcel_id":"SPLIT:13961/16","parcel_number":"13961/16","cadastral_municipality":"SPLIT","public_level":"state","ownership_form":"ownership","purpose_primary_code":"Z5","purpose_primary_label":"Zaštitno i pejsažno zelenilo","built":false,"area_m2":3968.4,"source_updated_at":"2025-10-03","generated_at":"2026-08-02"}},{"type":"Feature","geometry":{"type":"Polygon","coordinates":[[[16.495427,43.527067],[16.495432,43.526966],[16.495435,43.526914],[16.495439,43.526825],[16.495443,43.526741],[16.495445,43.526718],[16.49545,43.52662],[16.495455,43.526524],[16.495459,43.526459],[16.495461,43.526405],[16.495413,43.526395],[16.495399,43.526585],[16.495399,43.52659],[16.495383,43.526883],[16.495387,43.526938],[16.495399,43.527083],[16.4954,43.527095],[16.495418,43.527232],[16.495423,43.527139],[16.495427,43.527067]]]},"properties":{"parcel_id":"SPLIT:251/2","parcel_number":"251/2","cadastral_municipality":"SPLIT","public_level":"state","ownership_form":"ownership","purpose_primary_code":"K5","purpose_primary_label":"Poslovna namjena i stanovanje","built":false,"area_m2":316.5,"source_updated_at":"2025-10-03","generated_at":"2026-08-02"}},{"type":"Feature","geometry":{"type":"Polygon","coordinates":[[[16.495589,43.52723],[16.495644,43.527433],[16.495708,43.527445],[16.495711,43.527297],[16.495715,43.527113],[16.495664,43.526963],[16.495625,43.526845],[16.495619,43.526613],[16.495644,43.526438],[16.495533,43.52642],[16.495502,43.526663],[16.49551,43.5268],[16.495514,43.526861],[16.495516,43.526883],[16.495536,43.527011],[16.495562,43.52712],[16.495589,43.52723]]]},"properties":{"parcel_id":"SPLIT:252/2","parcel_number":"252/2","cadastral_municipality":"SPLIT","public_level":"state","ownership_form":"ownership","purpose_primary_code":"K","purpose_primary_label":"Poslovna namjena","built":true,"area_m2":1073.2,"source_updated_at":"2025-10-03","generated_at":"2026-08-02"}},{"type":"Feature","geometry":{"type":"Polygon","coordinates":[[[16.496307,43.526971],[16.496286,43.526925],[16.49626,43.526804],[16.496255,43.526683],[16.496255,43.526632],[16.496285,43.526537],[16.496224,43.526525],[16.496097,43.526497],[16.495981,43.526474],[16.49578,43.526448],[16.495731,43.526444],[16.495715,43.527113],[16.495762,43.527249],[16.495806,43.527292],[16.495897,43.527428],[16.495909,43.527449],[16.495997,43.527448],[16.496105,43.527486],[16.496117,43.52749],[16.496168,43.527586],[16.496332,43.527592],[16.496333,43.527591],[16.496397,43.527554],[16.496456,43.527523],[16.496525,43.527492],[16.496595,43.527461],[16.49659,43.527422],[16.496491,43.52727],[16.496307,43.526971]]]},"properties":{"parcel_id":"SPLIT:253/1","parcel_number":"253/1","cadastral_municipality":"SPLIT","public_level":"city","ownership_form":"ownership","purpose_primary_code":"K","purpose_primary_label":"Poslovna namjena","built":true,"area_m2":5735.9,"source_updated_at":"2025-10-03","generated_at":"2026-08-02"}},{"type":"Feature","geometry":{"type":"Polygon","coordinates":[[[16.496285,43.526537],[16.496255,43.526632],[16.496255,43.526683],[16.49626,43.526804],[16.496286,43.526925],[16.496307,43.526971],[16.496491,43.52727],[16.49659,43.527422],[16.496646,43.527373],[16.49674,43.527319],[16.496875,43.527283],[16.496936,43.527264],[16.496902,43.527151],[16.496886,43.526936],[16.496972,43.526939],[16.496974,43.526832],[16.496983,43.52675],[16.497025,43.526597],[16.496803,43.526564],[16.496638,43.526543],[16.496586,43.526522],[16.49649,43.526517],[16.496285,43.526537]]]},"properties":{"parcel_id":"SPLIT:254","parcel_number":"254","cadastral_municipality":"SPLIT","public_level":"city","ownership_form":"ownership","purpose_primary_code":"K","purpose_primary_label":"Poslovna namjena","built":true,"area_m2":4306.2,"source_updated_at":"2025-10-03","generated_at":"2026-08-02"}},{"type":"Feature","geometry":{"type":"Polygon","coordinates":[[[16.497025,43.526597],[16.496983,43.52675],[16.496974,43.526832],[16.496972,43.526939],[16.496886,43.526936],[16.496902,43.527151],[16.496936,43.527264],[16.497112,43.527202],[16.497238,43.527159],[16.497463,43.52709],[16.497635,43.527041],[16.497636,43.526992],[16.497793,43.526996],[16.497802,43.526917],[16.497836,43.52683],[16.497867,43.526774],[16.497881,43.526677],[16.497801,43.526663],[16.497743,43.526657],[16.497485,43.526637],[16.497156,43.526604],[16.497025,43.526597]]]},"properties":{"parcel_id":"SPLIT:255","parcel_number":"255","cadastral_municipality":"SPLIT","public_level":"city","ownership_form":"ownership","purpose_primary_code":"K","purpose_primary_label":"Poslovna namjena","built":true,"area_m2":3861.7,"source_updated_at":"2025-10-03","generated_at":"2026-08-02"}},{"type":"Feature","geometry":{"type":"Polygon","coordinates":[[[16.49129,43.528667],[16.49153,43.528622],[16.49156,43.528616],[16.491794,43.528533],[16.491842,43.528512],[16.491973,43.528446],[16.492111,43.528366],[16.492155,43.528339],[16.492163,43.528335],[16.492255,43.528278],[16.492398,43.528093],[16.492425,43.528018],[16.492443,43.527954],[16.492459,43.527955],[16.492447,43.527979],[16.492359,43.528232],[16.492361,43.528276],[16.492363,43.528282],[16.492383,43.528338],[16.49239,43.528355],[16.492477,43.528412],[16.492527,43.528424],[16.492552,43.528429],[16.492691,43.528442],[16.492721,43.528439],[16.492862,43.528424],[16.493106,43.528386],[16.493118,43.528431],[16.493381,43.528351],[16.493515,43.52831],[16.493651,43.528268],[16.493657,43.528266],[16.493662,43.528265],[16.493692,43.528255],[16.493705,43.52825],[16.493718,43.528246],[16.493727,43.528243],[16.49375,43.528236],[16.493769,43.528229],[16.493813,43.528215],[16.493903,43.528185],[16.493916,43.52818],[16.493921,43.528179],[16.494069,43.528129],[16.494071,43.528113],[16.494071,43.528103],[16.494156,43.528086],[16.494205,43.528062],[16.494327,43.528003],[16.494641,43.527913],[16.494651,43.527911],[16.49483,43.52787],[16.494919,43.527851],[16.494981,43.527837],[16.495069,43.527822],[16.495251,43.527791],[16.495378,43.52777],[16.495411,43.527714],[16.495691,43.527679],[16.496066,43.527633],[16.496191,43.527628],[16.496261,43.527624],[16.496321,43.527622],[16.496479,43.527615],[16.496495,43.527614],[16.49671,43.527604],[16.49685,43.527598],[16.496945,43.527593],[16.497191,43.527545],[16.497403,43.527503],[16.497445,43.527495],[16.497496,43.527484],[16.497641,43.527486],[16.497773,43.527488],[16.498051,43.527492],[16.498055,43.527492],[16.498287,43.527515],[16.49845,43.527531],[16.498521,43.527538],[16.498801,43.527589],[16.499168,43.527655],[16.499314,43.527682],[16.499503,43.527688],[16.500012,43.527703],[16.500502,43.527759],[16.500766,43.527788],[16.500826,43.527795],[16.500828,43.527802],[16.500838,43.527843],[16.500876,43.527994],[16.500903,43.528089],[16.500918,43.528141],[16.500903,43.528195],[16.500818,43.528184],[16.500643,43.528162],[16.500417,43.528119],[16.500403,43.528132],[16.500397,43.528138],[16.500285,43.528115],[16.500241,43.528106],[16.499897,43.528085],[16.49975,43.528074],[16.499659,43.528068],[16.499558,43.528061],[16.499419,43.528051],[16.499275,43.52804],[16.499245,43.528038],[16.499239,43.528037],[16.499073,43.528026],[16.498976,43.528025],[16.498985,43.527917],[16.49886,43.527911],[16.498749,43.527907],[16.497843,43.527887],[16.49772,43.527887],[16.497584,43.527888],[16.497449,43.527889],[16.497251,43.527893],[16.497054,43.527897],[16.496943,43.5279],[16.496832,43.527904],[16.496733,43.527908],[16.496635,43.527912],[16.496524,43.527917],[16.496413,43.527923],[16.496248,43.527932],[16.496168,43.527938],[16.496098,43.527943],[16.495972,43.527953],[16.495924,43.527957],[16.495875,43.527962],[16.495786,43.527971],[16.495657,43.527987],[16.495585,43.527997],[16.495512,43.528007],[16.495368,43.528032],[16.495184,43.528064],[16.495074,43.528086],[16.494968,43.52811],[16.494915,43.528123],[16.494862,43.528135],[16.494804,43.52815],[16.494747,43.528164],[16.494695,43.528179],[16.494643,43.528193],[16.494699,43.5283],[16.494622,43.528322],[16.494487,43.528365],[16.494394,43.528395],[16.494345,43.528409],[16.494252,43.528446],[16.493982,43.528545],[16.493973,43.528549],[16.493933,43.528562],[16.493876,43.528576],[16.493654,43.52863],[16.493634,43.528636],[16.49361,43.528686],[16.49353,43.528661],[16.4935,43.52867],[16.493429,43.528687],[16.493365,43.528703],[16.492883,43.528767],[16.492752,43.528771],[16.492603,43.528775],[16.492541,43.528771],[16.492344,43.528761],[16.492145,43.528738],[16.492108,43.528734],[16.491978,43.528709],[16.491837,43.528685],[16.491688,43.528665],[16.491644,43.52866],[16.491529,43.528662],[16.491413,43.528664],[16.49129,43.528667]]]},"properties":{"parcel_id":"SPLIT:276/1","parcel_number":"276/1","cadastral_municipality":"SPLIT","public_level":"state","ownership_form":"ownership","purpose_primary_code":"K","purpose_primary_label":"Poslovna namjena","built":true,"area_m2":28855.8,"source_updated_at":"2025-10-03","generated_at":"2026-08-02"}},{"type":"Feature","geometry":{"type":"Polygon","coordinates":[[[16.500639,43.527359],[16.500435,43.527328],[16.500135,43.527274],[16.500059,43.527538],[16.500012,43.527703],[16.500502,43.527759],[16.500587,43.527545],[16.50063,43.527438],[16.500591,43.527391],[16.500639,43.527359]]]},"properties":{"parcel_id":"SPLIT:281/3","parcel_number":"281/3","cadastral_municipality":"SPLIT","public_level":"city","ownership_form":"ownership","purpose_primary_code":"K","purpose_primary_label":"Poslovna namjena","built":true,"area_m2":1938,"source_updated_at":"2025-10-03","generated_at":"2026-08-02"}},{"type":"Feature","geometry":{"type":"Polygon","coordinates":[[[16.500797,43.527707],[16.500754,43.527576],[16.500726,43.527547],[16.500678,43.527498],[16.50063,43.527438],[16.500587,43.527545],[16.500502,43.527759],[16.500766,43.527788],[16.500797,43.527707]]]},"properties":{"parcel_id":"SPLIT:282/2","parcel_number":"282/2","cadastral_municipality":"SPLIT","public_level":"city","ownership_form":"ownership","purpose_primary_code":"K","purpose_primary_label":"Poslovna namjena","built":false,"area_m2":537.6,"source_updated_at":"2025-10-03","generated_at":"2026-08-02"}},{"type":"Feature","geometry":{"type":"Polygon","coordinates":[[[16.500769,43.52738],[16.500658,43.527362],[16.50063,43.527438],[16.500678,43.527498],[16.500726,43.527547],[16.500754,43.527576],[16.500797,43.527707],[16.500806,43.527687],[16.500832,43.527618],[16.500857,43.527556],[16.500853,43.527549],[16.500835,43.527513],[16.500799,43.52744],[16.500769,43.52738]]]},"properties":{"parcel_id":"SPLIT:282/5","parcel_number":"282/5","cadastral_municipality":"SPLIT","public_level":"city","ownership_form":"ownership","purpose_primary_code":"K","purpose_primary_label":"Poslovna namjena","built":false,"area_m2":315.2,"source_updated_at":"2025-10-03","generated_at":"2026-08-02"}},{"type":"Feature","geometry":{"type":"Polygon","coordinates":[[[16.5064,43.527222],[16.50633,43.527162],[16.506315,43.527169],[16.506121,43.527273],[16.506007,43.527334],[16.505854,43.527399],[16.505638,43.527492],[16.505207,43.527606],[16.505127,43.527627],[16.504897,43.527674],[16.504655,43.52774],[16.504531,43.527774],[16.504356,43.527899],[16.504175,43.528028],[16.504157,43.528066],[16.504129,43.528124],[16.504126,43.528132],[16.504125,43.528133],[16.504138,43.528132],[16.504163,43.528129],[16.504221,43.528127],[16.504228,43.528127],[16.504514,43.527962],[16.504611,43.527929],[16.504739,43.527849],[16.504802,43.527831],[16.504939,43.527778],[16.505347,43.527671],[16.505481,43.527648],[16.505575,43.52761],[16.505608,43.527597],[16.505782,43.527513],[16.505957,43.527436],[16.505997,43.527433],[16.506097,43.527389],[16.506252,43.527318],[16.5064,43.527222]]]},"properties":{"parcel_id":"SPLIT:297/2","parcel_number":"297/2","cadastral_municipality":"SPLIT","public_level":"state","ownership_form":"ownership","purpose_primary_code":"K","purpose_primary_label":"Poslovna namjena","built":false,"area_m2":2317.4,"source_updated_at":"2025-10-03","generated_at":"2026-08-02"}},{"type":"Feature","geometry":{"type":"Polygon","coordinates":[[[16.489489,43.524037],[16.489505,43.524033],[16.489662,43.523935],[16.489842,43.523833],[16.489939,43.523783],[16.48999,43.52374],[16.489992,43.523728],[16.490027,43.523575],[16.490109,43.523542],[16.490332,43.523452],[16.490483,43.523505],[16.490507,43.523513],[16.490509,43.523513],[16.490572,43.523499],[16.4906,43.523493],[16.490608,43.523491],[16.490662,43.52348],[16.49073,43.523464],[16.49076,43.523456],[16.49078,43.52345],[16.491052,43.523377],[16.491087,43.523425],[16.491088,43.523446],[16.491081,43.52346],[16.491075,43.52347],[16.491031,43.523497],[16.491051,43.523509],[16.491136,43.523468],[16.491178,43.523461],[16.491323,43.523436],[16.491384,43.523427],[16.49162,43.523339],[16.491632,43.523348],[16.49166,43.523339],[16.491832,43.523286],[16.491966,43.523229],[16.491972,43.523226],[16.492023,43.523203],[16.492042,43.523192],[16.492055,43.523182],[16.492067,43.523164],[16.492055,43.523143],[16.492036,43.523109],[16.492277,43.52306],[16.492286,43.523058],[16.492516,43.523011],[16.492759,43.522962],[16.492826,43.522948],[16.492841,43.522943],[16.492977,43.522902],[16.493079,43.52284],[16.493086,43.522836],[16.49331,43.522804],[16.493327,43.522796],[16.493415,43.522758],[16.493425,43.522746],[16.493506,43.52273],[16.493751,43.522683],[16.493932,43.522646],[16.494919,43.52242],[16.495817,43.522207],[16.496474,43.522032],[16.496854,43.521938],[16.497223,43.52183],[16.497591,43.521722],[16.498104,43.521529],[16.498632,43.521333],[16.498666,43.521333],[16.499052,43.521193],[16.499098,43.521116],[16.49899,43.521016],[16.499053,43.520991],[16.499153,43.520951],[16.499319,43.520871],[16.49935,43.52086],[16.499552,43.52107],[16.499691,43.521085],[16.499812,43.521016],[16.499842,43.521003],[16.499861,43.520997],[16.49989,43.521035],[16.49991,43.521062],[16.499924,43.521079],[16.499937,43.521097],[16.499987,43.52117],[16.499871,43.521234],[16.499834,43.521332],[16.499887,43.521391],[16.499511,43.521518],[16.499497,43.521491],[16.499456,43.521465],[16.4994,43.521452],[16.499338,43.521466],[16.499158,43.521524],[16.498727,43.521669],[16.498695,43.52168],[16.498588,43.521715],[16.49766,43.522023],[16.497322,43.522131],[16.497086,43.522195],[16.496236,43.52239],[16.495932,43.522486],[16.495887,43.522501],[16.495686,43.522563],[16.495669,43.522568],[16.49557,43.5226],[16.495539,43.522609],[16.495513,43.522617],[16.495429,43.522645],[16.495349,43.522671],[16.495247,43.522695],[16.495016,43.522751],[16.494699,43.52282],[16.494341,43.522899],[16.494126,43.522947],[16.494066,43.522959],[16.493908,43.522992],[16.493706,43.523033],[16.493609,43.523053],[16.493502,43.523075],[16.493324,43.523112],[16.493275,43.523123],[16.493125,43.523156],[16.493131,43.523167],[16.493009,43.523185],[16.492865,43.523221],[16.492278,43.523364],[16.492268,43.523367],[16.492261,43.523369],[16.491967,43.523445],[16.491936,43.523454],[16.491935,43.523454],[16.491901,43.523462],[16.491868,43.523471],[16.491769,43.523495],[16.491656,43.523524],[16.491203,43.523641],[16.491137,43.523658],[16.491016,43.523689],[16.490995,43.523681],[16.490987,43.523628],[16.491034,43.523591],[16.491093,43.523548],[16.491091,43.52354],[16.49069,43.52359],[16.490693,43.523604],[16.490716,43.523618],[16.490763,43.523624],[16.490812,43.523649],[16.490829,43.523705],[16.49079,43.523746],[16.49075,43.523754],[16.490716,43.523722],[16.490408,43.523773],[16.490419,43.523811],[16.490437,43.523879],[16.490407,43.523891],[16.49036,43.523933],[16.490299,43.523987],[16.490207,43.524022],[16.490123,43.524083],[16.489965,43.524198],[16.489845,43.524285],[16.489489,43.524037]]]},"properties":{"parcel_id":"SPLIT:3022/1","parcel_number":"3022/1","cadastral_municipality":"SPLIT","public_level":"state","ownership_form":"ownership","purpose_primary_code":"I","purpose_primary_label":"Gospodarska namjena","built":true,"area_m2":30663.2,"source_updated_at":"2025-10-03","generated_at":"2026-08-02"}},{"type":"Feature","geometry":{"type":"Polygon","coordinates":[[[16.491131,43.52346],[16.49111,43.523423],[16.491073,43.523372],[16.491052,43.523377],[16.491087,43.523425],[16.491088,43.523446],[16.491081,43.52346],[16.491075,43.52347],[16.491031,43.523497],[16.491051,43.523509],[16.491136,43.523468],[16.491131,43.52346]]]},"properties":{"parcel_id":"SPLIT:3022/12","parcel_number":"3022/12","cadastral_municipality":"SPLIT","public_level":"state","ownership_form":"ownership","purpose_primary_code":"I","purpose_primary_label":"Gospodarska namjena","built":false,"area_m2":41.7,"source_updated_at":"2025-10-03","generated_at":"2026-08-02"}},{"type":"Feature","geometry":{"type":"Polygon","coordinates":[[[16.498345,43.522147],[16.498445,43.522062],[16.49855,43.521934],[16.498719,43.521774],[16.498726,43.521707],[16.498727,43.521669],[16.499158,43.521524],[16.499338,43.521466],[16.4994,43.521452],[16.499456,43.521465],[16.499497,43.521491],[16.499511,43.521518],[16.499887,43.521391],[16.499834,43.521332],[16.499871,43.521234],[16.499987,43.52117],[16.499937,43.521097],[16.5002,43.521041],[16.50044,43.520968],[16.500592,43.520924],[16.500688,43.520899],[16.500736,43.520887],[16.500831,43.520862],[16.501056,43.520798],[16.501433,43.52071],[16.501848,43.52061],[16.502398,43.520567],[16.502712,43.520591],[16.502861,43.520612],[16.503175,43.520649],[16.503331,43.52067],[16.503805,43.520674],[16.504104,43.520624],[16.504091,43.520644],[16.503812,43.520703],[16.50377,43.520803],[16.503706,43.520823],[16.503612,43.520836],[16.503433,43.520858],[16.503282,43.520859],[16.503185,43.520856],[16.503141,43.520843],[16.503084,43.52085],[16.503048,43.520846],[16.502997,43.520847],[16.502893,43.520856],[16.502827,43.52087],[16.502615,43.520847],[16.502589,43.520851],[16.502494,43.520838],[16.502462,43.520847],[16.502338,43.520805],[16.502283,43.520819],[16.502223,43.520814],[16.502153,43.520831],[16.502159,43.520852],[16.502146,43.520852],[16.502085,43.52087],[16.502083,43.520834],[16.502042,43.520817],[16.501958,43.520818],[16.501839,43.520854],[16.501785,43.520857],[16.501617,43.520913],[16.50141,43.521009],[16.501213,43.521097],[16.501222,43.521109],[16.501111,43.521155],[16.50096,43.521249],[16.50077,43.521337],[16.500692,43.521372],[16.500657,43.521392],[16.500456,43.521503],[16.500305,43.521569],[16.500168,43.521598],[16.500074,43.521598],[16.500108,43.521635],[16.500067,43.521649],[16.499744,43.521707],[16.499746,43.521722],[16.499536,43.521756],[16.499489,43.52177],[16.499437,43.521787],[16.499429,43.521792],[16.499407,43.521808],[16.499317,43.521832],[16.499161,43.521839],[16.499158,43.521847],[16.49905,43.521869],[16.498945,43.521913],[16.498922,43.521951],[16.498908,43.521947],[16.498845,43.521965],[16.498704,43.522007],[16.498528,43.522077],[16.498345,43.522147]]]},"properties":{"parcel_id":"SPLIT:3083","parcel_number":"3083","cadastral_municipality":"SPLIT","public_level":"city","ownership_form":"ownership","purpose_primary_code":"K","purpose_primary_label":"Poslovna namjena","built":true,"area_m2":14947.8,"source_updated_at":"2025-10-03","generated_at":"2026-08-02"}},{"type":"Feature","geometry":{"type":"Polygon","coordinates":[[[16.505316,43.520275],[16.505225,43.520274],[16.505174,43.520274],[16.505173,43.520259],[16.504929,43.520283],[16.504982,43.520318],[16.505015,43.520333],[16.505118,43.520329],[16.505187,43.52032],[16.505322,43.520304],[16.505533,43.520303],[16.505556,43.520299],[16.505573,43.520295],[16.50559,43.520289],[16.505603,43.520284],[16.505601,43.520283],[16.505564,43.520255],[16.505548,43.520257],[16.505316,43.520275]]]},"properties":{"parcel_id":"SPLIT:3132/1","parcel_number":"3132/1","cadastral_municipality":"SPLIT","public_level":"state","ownership_form":"ownership","purpose_primary_code":"I","purpose_primary_label":"Gospodarska namjena","built":true,"area_m2":253.7,"source_updated_at":"2025-10-03","generated_at":"2026-08-02"}},{"type":"Feature","geometry":{"type":"Polygon","coordinates":[[[16.500441,43.526726],[16.500426,43.526694],[16.500376,43.526596],[16.500289,43.526422],[16.500225,43.526449],[16.500212,43.526542],[16.500222,43.526598],[16.500254,43.526698],[16.500276,43.526729],[16.500287,43.526772],[16.500454,43.526754],[16.500441,43.526726]]]},"properties":{"parcel_id":"SPLIT:401/2","parcel_number":"401/2","cadastral_municipality":"SPLIT","public_level":"city","ownership_form":"ownership","purpose_primary_code":"K","purpose_primary_label":"Poslovna namjena","built":false,"area_m2":418.6,"source_updated_at":"2025-10-03","generated_at":"2026-08-02"}},{"type":"Feature","geometry":{"type":"Polygon","coordinates":[[[16.502002,43.526762],[16.501941,43.526749],[16.501887,43.526857],[16.501885,43.526956],[16.501931,43.527018],[16.50197,43.527116],[16.502012,43.527209],[16.502096,43.527354],[16.502141,43.527378],[16.502165,43.52738],[16.502151,43.527307],[16.50211,43.527241],[16.502042,43.527129],[16.501973,43.527034],[16.501957,43.527011],[16.50191,43.526954],[16.501914,43.526892],[16.501915,43.526879],[16.501916,43.526862],[16.501947,43.526825],[16.502002,43.526762]]]},"properties":{"parcel_id":"SPLIT:418","parcel_number":"418","cadastral_municipality":"SPLIT","public_level":"state","ownership_form":"ownership","purpose_primary_code":"K5","purpose_primary_label":"Poslovna namjena i stanovanje","built":false,"area_m2":298,"source_updated_at":"2025-10-03","generated_at":"2026-08-02"}},{"type":"Feature","geometry":{"type":"Polygon","coordinates":[[[16.501429,43.526867],[16.501276,43.526964],[16.501234,43.527046],[16.501227,43.527268],[16.50115,43.527268],[16.500841,43.527268],[16.50071,43.527267],[16.50084,43.527314],[16.500968,43.527361],[16.501148,43.527377],[16.501225,43.527384],[16.501455,43.527381],[16.501679,43.527368],[16.501721,43.527387],[16.501767,43.527385],[16.50181,43.527367],[16.501878,43.527367],[16.501933,43.527366],[16.501938,43.52736],[16.502096,43.527354],[16.502012,43.527209],[16.50197,43.527116],[16.501931,43.527018],[16.501885,43.526956],[16.501887,43.526857],[16.501941,43.526749],[16.501816,43.526713],[16.501675,43.526765],[16.501547,43.526833],[16.50147,43.526855],[16.501429,43.526867]]]},"properties":{"parcel_id":"SPLIT:419/1","parcel_number":"419/1","cadastral_municipality":"SPLIT","public_level":"city","ownership_form":"ownership","purpose_primary_code":"K5","purpose_primary_label":"Poslovna namjena i stanovanje","built":true,"area_m2":3992.4,"source_updated_at":"2025-10-03","generated_at":"2026-08-02"}},{"type":"Feature","geometry":{"type":"Polygon","coordinates":[[[16.500566,43.527202],[16.500682,43.527206],[16.500625,43.527093],[16.50059,43.527092],[16.500553,43.527073],[16.500345,43.527074],[16.500238,43.527097],[16.500226,43.527068],[16.499955,43.52705],[16.499923,43.527163],[16.499994,43.527173],[16.500422,43.527183],[16.500533,43.527198],[16.500566,43.527202]]]},"properties":{"parcel_id":"SPLIT:419/2","parcel_number":"419/2","cadastral_municipality":"SPLIT","public_level":"city","ownership_form":"ownership","purpose_primary_code":"K","purpose_primary_label":"Poslovna namjena","built":false,"area_m2":716.2,"source_updated_at":"2025-10-03","generated_at":"2026-08-02"}},{"type":"Feature","geometry":{"type":"Polygon","coordinates":[[[16.500682,43.527206],[16.500566,43.527202],[16.500533,43.527198],[16.500422,43.527183],[16.499994,43.527173],[16.499923,43.527163],[16.499912,43.52722],[16.500133,43.52725],[16.50044,43.527304],[16.500677,43.527332],[16.500728,43.527299],[16.50071,43.527267],[16.500708,43.527263],[16.500682,43.527206]]]},"properties":{"parcel_id":"SPLIT:419/5","parcel_number":"419/5","cadastral_municipality":"SPLIT","public_level":"city","ownership_form":"ownership","purpose_primary_code":"K","purpose_primary_label":"Poslovna namjena","built":true,"area_m2":673.1,"source_updated_at":"2025-10-03","generated_at":"2026-08-02"}},{"type":"Feature","geometry":{"type":"Polygon","coordinates":[[[16.500728,43.527299],[16.500677,43.527332],[16.50075,43.527344],[16.500728,43.527299]]]},"properties":{"parcel_id":"SPLIT:419/7","parcel_number":"419/7","cadastral_municipality":"SPLIT","public_level":"city","ownership_form":"ownership","purpose_primary_code":"K5","purpose_primary_label":"Poslovna namjena i stanovanje","built":false,"area_m2":13.5,"source_updated_at":"2025-10-03","generated_at":"2026-08-02"}},{"type":"Feature","geometry":{"type":"Polygon","coordinates":[[[16.50071,43.527267],[16.50084,43.527314],[16.500968,43.527361],[16.501148,43.527377],[16.501225,43.527384],[16.501455,43.527381],[16.501679,43.527368],[16.501721,43.527387],[16.501767,43.527385],[16.50181,43.527367],[16.501878,43.527367],[16.501933,43.527366],[16.501938,43.52736],[16.502096,43.527354],[16.502141,43.527378],[16.502165,43.52738],[16.502393,43.527395],[16.502578,43.527408],[16.502695,43.527405],[16.502921,43.5274],[16.503097,43.527351],[16.503217,43.527332],[16.503249,43.527326],[16.50343,43.527261],[16.5036,43.52719],[16.503781,43.527134],[16.5038,43.527132],[16.503849,43.527127],[16.503946,43.527117],[16.504005,43.527111],[16.504044,43.527113],[16.50424,43.527124],[16.504429,43.527182],[16.504525,43.527221],[16.504608,43.527255],[16.504735,43.527346],[16.504751,43.527357],[16.504876,43.527471],[16.50493,43.527559],[16.504966,43.527594],[16.505012,43.527603],[16.505127,43.527627],[16.504897,43.527674],[16.504655,43.52774],[16.504692,43.52772],[16.504729,43.527663],[16.504729,43.527624],[16.504721,43.527599],[16.504702,43.527544],[16.504695,43.527538],[16.504493,43.527369],[16.504454,43.527352],[16.504355,43.527305],[16.504198,43.527272],[16.504014,43.52727],[16.503898,43.527278],[16.503891,43.527279],[16.503839,43.527283],[16.503675,43.527332],[16.503516,43.527379],[16.503327,43.527446],[16.503174,43.527512],[16.503017,43.527533],[16.503012,43.527533],[16.502975,43.527538],[16.502954,43.527541],[16.502621,43.527549],[16.502562,43.52755],[16.502478,43.52754],[16.502372,43.527527],[16.502291,43.527522],[16.502053,43.52751],[16.501827,43.527498],[16.501767,43.527496],[16.501707,43.527495],[16.501461,43.527494],[16.501454,43.527494],[16.501225,43.527501],[16.501154,43.527496],[16.501145,43.527496],[16.501105,43.527493],[16.501005,43.527484],[16.500929,43.527479],[16.500891,43.527466],[16.500837,43.527451],[16.500799,43.52744],[16.500769,43.52738],[16.50075,43.527344],[16.500728,43.527299],[16.50071,43.527267]]]},"properties":{"parcel_id":"SPLIT:419/9","parcel_number":"419/9","cadastral_municipality":"SPLIT","public_level":"state","ownership_form":"ownership","purpose_primary_code":"K5","purpose_primary_label":"Poslovna namjena i stanovanje","built":true,"area_m2":5749.2,"source_updated_at":"2025-10-03","generated_at":"2026-08-02"}},{"type":"Feature","geometry":{"type":"Polygon","coordinates":[[[16.499945,43.527049],[16.499648,43.52702],[16.499445,43.526984],[16.499285,43.526974],[16.499183,43.526954],[16.499107,43.526953],[16.499087,43.526953],[16.498827,43.526935],[16.498813,43.526961],[16.498773,43.526959],[16.498753,43.526958],[16.498674,43.526998],[16.498621,43.526995],[16.498584,43.52721],[16.498583,43.527215],[16.498772,43.527266],[16.498901,43.527272],[16.498953,43.527256],[16.498961,43.527063],[16.499447,43.527095],[16.499923,43.527163],[16.499955,43.52705],[16.499945,43.527049]]]},"properties":{"parcel_id":"SPLIT:420/1","parcel_number":"420/1","cadastral_municipality":"SPLIT","public_level":"city","ownership_form":"ownership","purpose_primary_code":"K","purpose_primary_label":"Poslovna namjena","built":false,"area_m2":1921.7,"source_updated_at":"2025-10-03","generated_at":"2026-08-02"}},{"type":"Feature","geometry":{"type":"Polygon","coordinates":[[[16.500319,43.527074],[16.500345,43.527074],[16.500589,43.527022],[16.500563,43.526972],[16.500472,43.526787],[16.500472,43.526786],[16.500228,43.526817],[16.50013,43.526828],[16.500226,43.527068],[16.500319,43.527074]]]},"properties":{"parcel_id":"SPLIT:420/11","parcel_number":"420/11","cadastral_municipality":"SPLIT","public_level":"city","ownership_form":"ownership","purpose_primary_code":"K","purpose_primary_label":"Poslovna namjena","built":true,"area_m2":825.8,"source_updated_at":"2025-10-03","generated_at":"2026-08-02"}},{"type":"Feature","geometry":{"type":"Polygon","coordinates":[[[16.500553,43.527073],[16.50059,43.527092],[16.500625,43.527093],[16.500589,43.527022],[16.500345,43.527074],[16.500553,43.527073]]]},"properties":{"parcel_id":"SPLIT:420/12","parcel_number":"420/12","cadastral_municipality":"SPLIT","public_level":"city","ownership_form":"ownership","purpose_primary_code":"K","purpose_primary_label":"Poslovna namjena","built":false,"area_m2":69.9,"source_updated_at":"2025-10-03","generated_at":"2026-08-02"}},{"type":"Feature","geometry":{"type":"Polygon","coordinates":[[[16.499955,43.52705],[16.500226,43.527068],[16.50013,43.526828],[16.500022,43.526839],[16.499934,43.526839],[16.499945,43.527049],[16.499955,43.52705]]]},"properties":{"parcel_id":"SPLIT:420/3","parcel_number":"420/3","cadastral_municipality":"SPLIT","public_level":"city","ownership_form":"coownership","purpose_primary_code":"K","purpose_primary_label":"Poslovna namjena","built":false,"area_m2":475.2,"source_updated_at":"2025-10-03","generated_at":"2026-08-02"}},{"type":"Feature","geometry":{"type":"Polygon","coordinates":[[[16.497916,43.526689],[16.497863,43.526842],[16.497841,43.526924],[16.497941,43.526926],[16.498042,43.526942],[16.498184,43.526958],[16.498621,43.526995],[16.498674,43.526998],[16.498753,43.526958],[16.498773,43.526959],[16.498803,43.526767],[16.498712,43.526757],[16.498319,43.526741],[16.497916,43.526689]]]},"properties":{"parcel_id":"SPLIT:420/4","parcel_number":"420/4","cadastral_municipality":"SPLIT","public_level":"city","ownership_form":"ownership","purpose_primary_code":"K","purpose_primary_label":"Poslovna namjena","built":true,"area_m2":1898.4,"source_updated_at":"2025-10-03","generated_at":"2026-08-02"}},{"type":"Feature","geometry":{"type":"Polygon","coordinates":[[[16.497816,43.527011],[16.497834,43.527044],[16.497899,43.527072],[16.498116,43.527078],[16.498281,43.527091],[16.498401,43.527138],[16.498495,43.52719],[16.498583,43.527215],[16.498584,43.52721],[16.498621,43.526995],[16.498184,43.526958],[16.498042,43.526942],[16.497941,43.526926],[16.497841,43.526924],[16.497816,43.527011]]]},"properties":{"parcel_id":"SPLIT:420/5","parcel_number":"420/5","cadastral_municipality":"SPLIT","public_level":"city","ownership_form":"ownership","purpose_primary_code":"K","purpose_primary_label":"Poslovna namjena","built":false,"area_m2":1056.2,"source_updated_at":"2025-10-03","generated_at":"2026-08-02"}},{"type":"Feature","geometry":{"type":"Polygon","coordinates":[[[16.498803,43.526767],[16.498773,43.526959],[16.498813,43.526961],[16.498827,43.526935],[16.499087,43.526953],[16.499107,43.526953],[16.499132,43.526795],[16.499121,43.526791],[16.499077,43.526797],[16.498803,43.526767]]]},"properties":{"parcel_id":"SPLIT:420/8","parcel_number":"420/8","cadastral_municipality":"SPLIT","public_level":"city","ownership_form":"ownership","purpose_primary_code":"K","purpose_primary_label":"Poslovna namjena","built":false,"area_m2":485.9,"source_updated_at":"2025-10-03","generated_at":"2026-08-02"}},{"type":"Feature","geometry":{"type":"Polygon","coordinates":[[[16.499465,43.526851],[16.499356,43.526838],[16.499156,43.526805],[16.499132,43.526795],[16.499107,43.526953],[16.499183,43.526954],[16.499285,43.526974],[16.499445,43.526984],[16.499465,43.526851]]]},"properties":{"parcel_id":"SPLIT:420/9","parcel_number":"420/9","cadastral_municipality":"SPLIT","public_level":"city","ownership_form":"ownership","purpose_primary_code":"K","purpose_primary_label":"Poslovna namjena","built":false,"area_m2":433.7,"source_updated_at":"2025-10-03","generated_at":"2026-08-02"}},{"type":"Feature","geometry":{"type":"Polygon","coordinates":[[[16.5002,43.526447],[16.500192,43.526488],[16.500193,43.526571],[16.500244,43.526715],[16.500253,43.526751],[16.500237,43.526773],[16.500287,43.526772],[16.500276,43.526729],[16.500254,43.526698],[16.500222,43.526598],[16.500212,43.526542],[16.500225,43.526449],[16.5002,43.526447]]]},"properties":{"parcel_id":"SPLIT:421","parcel_number":"421","cadastral_municipality":"SPLIT","public_level":"city","ownership_form":"ownership","purpose_primary_code":"K","purpose_primary_label":"Poslovna namjena","built":false,"area_m2":66.9,"source_updated_at":"2025-10-03","generated_at":"2026-08-02"}},{"type":"Feature","geometry":{"type":"Polygon","coordinates":[[[16.499828,43.52625],[16.499813,43.52625],[16.499802,43.52625],[16.499829,43.526405],[16.499851,43.526536],[16.499871,43.526658],[16.499884,43.52676],[16.499894,43.526807],[16.500007,43.526803],[16.500108,43.526797],[16.500117,43.526795],[16.500115,43.526788],[16.500001,43.526502],[16.499913,43.526282],[16.499897,43.526271],[16.499865,43.526257],[16.499828,43.52625]]]},"properties":{"parcel_id":"SPLIT:422/1","parcel_number":"422/1","cadastral_municipality":"SPLIT","public_level":"city","ownership_form":"ownership","purpose_primary_code":"K","purpose_primary_label":"Poslovna namjena","built":false,"area_m2":795.7,"source_updated_at":"2025-10-03","generated_at":"2026-08-02"}},{"type":"Feature","geometry":{"type":"Polygon","coordinates":[[[16.500146,43.526142],[16.50003,43.526177],[16.499973,43.526192],[16.499861,43.526198],[16.499804,43.52618],[16.499795,43.52621],[16.499802,43.52625],[16.499813,43.52625],[16.499828,43.52625],[16.499865,43.526257],[16.499897,43.526271],[16.499913,43.526282],[16.500001,43.526502],[16.500115,43.526788],[16.500117,43.526795],[16.500237,43.526773],[16.500253,43.526751],[16.500244,43.526715],[16.500193,43.526571],[16.500192,43.526488],[16.5002,43.526447],[16.500241,43.526329],[16.500146,43.526142],[16.500146,43.526142]]]},"properties":{"parcel_id":"SPLIT:422/3","parcel_number":"422/3","cadastral_municipality":"SPLIT","public_level":"city","ownership_form":"ownership","purpose_primary_code":"K","purpose_primary_label":"Poslovna namjena","built":false,"area_m2":1257,"source_updated_at":"2025-10-03","generated_at":"2026-08-02"}},{"type":"Feature","geometry":{"type":"Polygon","coordinates":[[[16.49946,43.52674],[16.499522,43.526695],[16.499624,43.526731],[16.499674,43.526728],[16.499678,43.526751],[16.499732,43.526753],[16.499783,43.52675],[16.499884,43.52676],[16.499871,43.526658],[16.499851,43.526536],[16.499829,43.526405],[16.499802,43.52625],[16.499727,43.526249],[16.499601,43.526247],[16.499386,43.526351],[16.499387,43.526745],[16.499403,43.526817],[16.499484,43.526829],[16.499533,43.526832],[16.49946,43.52674]]]},"properties":{"parcel_id":"SPLIT:426/1","parcel_number":"426/1","cadastral_municipality":"SPLIT","public_level":"city","ownership_form":"ownership","purpose_primary_code":"K","purpose_primary_label":"Poslovna namjena","built":true,"area_m2":1974.6,"source_updated_at":"2025-10-03","generated_at":"2026-08-02"}},{"type":"Feature","geometry":{"type":"Polygon","coordinates":[[[16.499884,43.52676],[16.499783,43.52675],[16.499732,43.526753],[16.499678,43.526751],[16.499674,43.526728],[16.499624,43.526731],[16.499522,43.526695],[16.49946,43.52674],[16.499533,43.526832],[16.499674,43.52683],[16.499693,43.526823],[16.499737,43.526815],[16.499787,43.526814],[16.499894,43.526807],[16.499884,43.52676]]]},"properties":{"parcel_id":"SPLIT:427","parcel_number":"427","cadastral_municipality":"SPLIT","public_level":"city","ownership_form":"ownership","purpose_primary_code":"K","purpose_primary_label":"Poslovna namjena","built":true,"area_m2":305.4,"source_updated_at":"2025-10-03","generated_at":"2026-08-02"}},{"type":"Feature","geometry":{"type":"Polygon","coordinates":[[[16.498905,43.526719],[16.498903,43.52674],[16.499,43.526752],[16.499136,43.526757],[16.499282,43.526791],[16.499403,43.526817],[16.499387,43.526745],[16.499386,43.526351],[16.499383,43.526297],[16.499384,43.526244],[16.498922,43.526238],[16.498918,43.526315],[16.498916,43.526328],[16.498902,43.526552],[16.498905,43.526719]]]},"properties":{"parcel_id":"SPLIT:428/1","parcel_number":"428/1","cadastral_municipality":"SPLIT","public_level":"city","ownership_form":"ownership","purpose_primary_code":"K","purpose_primary_label":"Poslovna namjena","built":true,"area_m2":2265.5,"source_updated_at":"2025-10-03","generated_at":"2026-08-02"}},{"type":"Feature","geometry":{"type":"Polygon","coordinates":[[[16.499388,43.526126],[16.498932,43.526043],[16.498922,43.526238],[16.499384,43.526244],[16.499388,43.526126]]]},"properties":{"parcel_id":"SPLIT:428/2","parcel_number":"428/2","cadastral_municipality":"SPLIT","public_level":"city","ownership_form":"ownership","purpose_primary_code":"K","purpose_primary_label":"Poslovna namjena","built":true,"area_m2":646.8,"source_updated_at":"2025-10-03","generated_at":"2026-08-02"}},{"type":"Feature","geometry":{"type":"Polygon","coordinates":[[[16.49805,43.526066],[16.498049,43.526069],[16.498004,43.526226],[16.498423,43.526232],[16.49844,43.52604],[16.49805,43.526066]]]},"properties":{"parcel_id":"SPLIT:438/3","parcel_number":"438/3","cadastral_municipality":"SPLIT","public_level":"city","ownership_form":"ownership","purpose_primary_code":"K","purpose_primary_label":"Poslovna namjena","built":true,"area_m2":635.5,"source_updated_at":"2025-10-03","generated_at":"2026-08-02"}},{"type":"Feature","geometry":{"type":"Polygon","coordinates":[[[16.497976,43.526077],[16.498023,43.526093],[16.497985,43.526226],[16.498004,43.526226],[16.498049,43.526069],[16.497976,43.526077]]]},"properties":{"parcel_id":"SPLIT:439/3","parcel_number":"439/3","cadastral_municipality":"SPLIT","public_level":"county","ownership_form":"ownership","purpose_primary_code":"K","purpose_primary_label":"Poslovna namjena","built":false,"area_m2":31.7,"source_updated_at":"2025-10-03","generated_at":"2026-08-02"}},{"type":"Feature","geometry":{"type":"Polygon","coordinates":[[[16.497325,43.52646],[16.497331,43.526218],[16.497274,43.526217],[16.497265,43.526241],[16.497223,43.526345],[16.497223,43.526346],[16.49715,43.526509],[16.497177,43.526578],[16.497486,43.526609],[16.497528,43.526462],[16.497325,43.52646]]]},"properties":{"parcel_id":"SPLIT:444/1","parcel_number":"444/1","cadastral_municipality":"SPLIT","public_level":"city","ownership_form":"ownership","purpose_primary_code":"K","purpose_primary_label":"Poslovna namjena","built":true,"area_m2":636.8,"source_updated_at":"2025-10-03","generated_at":"2026-08-02"}},{"type":"Feature","geometry":{"type":"Polygon","coordinates":[[[16.497331,43.526218],[16.497325,43.52646],[16.497528,43.526462],[16.49754,43.526421],[16.497577,43.526272],[16.497638,43.526077],[16.497329,43.526073],[16.497274,43.526217],[16.497331,43.526218]]]},"properties":{"parcel_id":"SPLIT:444/2","parcel_number":"444/2","cadastral_municipality":"SPLIT","public_level":"city","ownership_form":"ownership","purpose_primary_code":"K","purpose_primary_label":"Poslovna namjena","built":true,"area_m2":910.5,"source_updated_at":"2025-10-03","generated_at":"2026-08-02"}},{"type":"Feature","geometry":{"type":"Polygon","coordinates":[[[16.496901,43.526212],[16.496523,43.526207],[16.496528,43.526275],[16.496771,43.526325],[16.497223,43.526345],[16.497265,43.526241],[16.497274,43.526217],[16.496901,43.526212]]]},"properties":{"parcel_id":"SPLIT:446/1","parcel_number":"446/1","cadastral_municipality":"SPLIT","public_level":"city","ownership_form":"ownership","purpose_primary_code":"K","purpose_primary_label":"Poslovna namjena","built":false,"area_m2":723.4,"source_updated_at":"2025-10-03","generated_at":"2026-08-02"}},{"type":"Feature","geometry":{"type":"Polygon","coordinates":[[[16.496901,43.526212],[16.497274,43.526217],[16.497329,43.526073],[16.497245,43.526049],[16.497144,43.526036],[16.497084,43.526018],[16.497001,43.526006],[16.496507,43.525999],[16.496523,43.526207],[16.496901,43.526212]]]},"properties":{"parcel_id":"SPLIT:446/2","parcel_number":"446/2","cadastral_municipality":"SPLIT","public_level":"city","ownership_form":"ownership","purpose_primary_code":"K","purpose_primary_label":"Poslovna namjena","built":false,"area_m2":1394.5,"source_updated_at":"2025-10-03","generated_at":"2026-08-02"}},{"type":"Feature","geometry":{"type":"Polygon","coordinates":[[[16.495368,43.524925],[16.495356,43.525126],[16.495339,43.525462],[16.495481,43.525446],[16.495498,43.52508],[16.495505,43.524927],[16.495368,43.524925]]]},"properties":{"parcel_id":"SPLIT:455/2","parcel_number":"455/2","cadastral_municipality":"SPLIT","public_level":"state","ownership_form":"ownership","purpose_primary_code":"K5","purpose_primary_label":"Poslovna namjena i stanovanje","built":false,"area_m2":661.6,"source_updated_at":"2025-10-03","generated_at":"2026-08-02"}},{"type":"Feature","geometry":{"type":"Polygon","coordinates":[[[16.495481,43.525446],[16.495447,43.525826],[16.49549,43.525827],[16.495494,43.525747],[16.495501,43.525655],[16.495506,43.525571],[16.495513,43.525443],[16.495481,43.525446]]]},"properties":{"parcel_id":"SPLIT:459/7","parcel_number":"459/7","cadastral_municipality":"SPLIT","public_level":"state","ownership_form":"ownership","purpose_primary_code":"K5","purpose_primary_label":"Poslovna namjena i stanovanje","built":false,"area_m2":128.7,"source_updated_at":"2025-10-03","generated_at":"2026-08-02"}},{"type":"Feature","geometry":{"type":"Polygon","coordinates":[[[16.495505,43.524927],[16.495498,43.52508],[16.495481,43.525446],[16.495513,43.525443],[16.495521,43.525279],[16.495527,43.525177],[16.495532,43.525072],[16.495727,43.525007],[16.495715,43.524891],[16.495595,43.52492],[16.495505,43.524927]]]},"properties":{"parcel_id":"SPLIT:459/8","parcel_number":"459/8","cadastral_municipality":"SPLIT","public_level":"state","ownership_form":"ownership","purpose_primary_code":"K","purpose_primary_label":"Poslovna namjena","built":false,"area_m2":368.9,"source_updated_at":"2025-10-03","generated_at":"2026-08-02"}},{"type":"Feature","geometry":{"type":"Polygon","coordinates":[[[16.496933,43.525582],[16.497154,43.525602],[16.497149,43.525627],[16.497298,43.525645],[16.497267,43.525234],[16.497153,43.525194],[16.496916,43.525079],[16.496565,43.524972],[16.496178,43.524967],[16.496139,43.525277],[16.496112,43.525518],[16.496526,43.525551],[16.496933,43.525582]]]},"properties":{"parcel_id":"SPLIT:466/1","parcel_number":"466/1","cadastral_municipality":"SPLIT","public_level":"city","ownership_form":"ownership","purpose_primary_code":"K","purpose_primary_label":"Poslovna namjena","built":true,"area_m2":5301.6,"source_updated_at":"2025-10-03","generated_at":"2026-08-02"}},{"type":"Feature","geometry":{"type":"Polygon","coordinates":[[[16.497613,43.524743],[16.49762,43.524719],[16.497595,43.524697],[16.497407,43.52462],[16.497267,43.524618],[16.497185,43.525046],[16.497544,43.525051],[16.497613,43.524743]]]},"properties":{"parcel_id":"SPLIT:467/1","parcel_number":"467/1","cadastral_municipality":"SPLIT","public_level":"city","ownership_form":"ownership","purpose_primary_code":"K","purpose_primary_label":"Poslovna namjena","built":false,"area_m2":1318.2,"source_updated_at":"2025-10-03","generated_at":"2026-08-02"}},{"type":"Feature","geometry":{"type":"Polygon","coordinates":[[[16.497185,43.525046],[16.497158,43.525187],[16.497153,43.525194],[16.497267,43.525234],[16.49746,43.525297],[16.497464,43.525289],[16.497518,43.525166],[16.497544,43.525051],[16.497185,43.525046]]]},"properties":{"parcel_id":"SPLIT:467/2","parcel_number":"467/2","cadastral_municipality":"SPLIT","public_level":"city","ownership_form":"ownership","purpose_primary_code":"K","purpose_primary_label":"Poslovna namjena","built":true,"area_m2":631.2,"source_updated_at":"2025-10-03","generated_at":"2026-08-02"}},{"type":"Feature","geometry":{"type":"Polygon","coordinates":[[[16.496565,43.524972],[16.496941,43.524977],[16.496941,43.525043],[16.497185,43.525046],[16.497267,43.524618],[16.497046,43.524569],[16.496051,43.524897],[16.496018,43.524907],[16.496185,43.524908],[16.496523,43.524959],[16.496565,43.524972]]]},"properties":{"parcel_id":"SPLIT:468/1","parcel_number":"468/1","cadastral_municipality":"SPLIT","public_level":"city","ownership_form":"ownership","purpose_primary_code":"K","purpose_primary_label":"Poslovna namjena","built":true,"area_m2":2751,"source_updated_at":"2025-10-03","generated_at":"2026-08-02"}},{"type":"Feature","geometry":{"type":"Polygon","coordinates":[[[16.496916,43.525079],[16.497153,43.525194],[16.497158,43.525187],[16.497185,43.525046],[16.496941,43.525043],[16.496941,43.524977],[16.496565,43.524972],[16.496916,43.525079]]]},"properties":{"parcel_id":"SPLIT:468/3","parcel_number":"468/3","cadastral_municipality":"SPLIT","public_level":"city","ownership_form":"ownership","purpose_primary_code":"K","purpose_primary_label":"Poslovna namjena","built":true,"area_m2":395.6,"source_updated_at":"2025-10-03","generated_at":"2026-08-02"}},{"type":"Feature","geometry":{"type":"Polygon","coordinates":[[[16.496095,43.524338],[16.496002,43.524373],[16.495823,43.524563],[16.495752,43.524616],[16.495641,43.524664],[16.495575,43.52469],[16.495566,43.524696],[16.495558,43.524705],[16.49558,43.524769],[16.495027,43.524765],[16.495003,43.524765],[16.494976,43.524764],[16.494943,43.524871],[16.494942,43.524905],[16.494959,43.52494],[16.494974,43.524957],[16.494999,43.524951],[16.495023,43.524944],[16.495222,43.524909],[16.495387,43.524911],[16.495587,43.524904],[16.495629,43.52489],[16.495717,43.524872],[16.495747,43.524856],[16.495771,43.524831],[16.495778,43.524824],[16.495856,43.524801],[16.496007,43.524757],[16.496011,43.524756],[16.496066,43.52474],[16.496064,43.524726],[16.496106,43.524712],[16.496146,43.524698],[16.496166,43.524691],[16.496201,43.524679],[16.496231,43.52467],[16.496313,43.524646],[16.496095,43.524338]]]},"properties":{"parcel_id":"SPLIT:502","parcel_number":"502","cadastral_municipality":"SPLIT","public_level":"city","ownership_form":"coownership","purpose_primary_code":"K","purpose_primary_label":"Poslovna namjena","built":true,"area_m2":2559.8,"source_updated_at":"2025-10-03","generated_at":"2026-08-02"}},{"type":"Feature","geometry":{"type":"Polygon","coordinates":[[[16.491528,43.526248],[16.491306,43.526355],[16.491129,43.526439],[16.491037,43.526483],[16.490935,43.526531],[16.490911,43.526542],[16.490908,43.526543],[16.490921,43.526562],[16.491062,43.526496],[16.491144,43.526456],[16.491322,43.52637],[16.491537,43.526274],[16.491589,43.526252],[16.491772,43.526172],[16.491809,43.526139],[16.491798,43.526127],[16.491796,43.526125],[16.491589,43.52622],[16.491528,43.526248]]]},"properties":{"parcel_id":"SPLIT:551/1","parcel_number":"551/1","cadastral_municipality":"SPLIT","public_level":"state","ownership_form":"coownership","purpose_primary_code":"Z5","purpose_primary_label":"Zaštitno i pejsažno zelenilo","built":false,"area_m2":217.4,"source_updated_at":"2025-10-03","generated_at":"2026-08-02"}},{"type":"Feature","geometry":{"type":"Polygon","coordinates":[[[16.490044,43.526819],[16.49002,43.526723],[16.49,43.526674],[16.489969,43.526654],[16.489936,43.526508],[16.489888,43.526423],[16.489825,43.526445],[16.489825,43.526461],[16.489828,43.52651],[16.489837,43.526551],[16.489848,43.526596],[16.489815,43.526684],[16.489845,43.526717],[16.489906,43.526747],[16.489936,43.526773],[16.490008,43.526825],[16.490044,43.526819]]]},"properties":{"parcel_id":"SPLIT:558/1","parcel_number":"558/1","cadastral_municipality":"SPLIT","public_level":"state","ownership_form":"ownership","purpose_primary_code":"I","purpose_primary_label":"Gospodarska namjena","built":true,"area_m2":404.2,"source_updated_at":"2025-10-03","generated_at":"2026-08-02"}},{"type":"Feature","geometry":{"type":"Polygon","coordinates":[[[16.490347,43.525869],[16.490437,43.525961],[16.490451,43.525954],[16.490476,43.525979],[16.490536,43.526048],[16.49064,43.526183],[16.490645,43.526196],[16.490884,43.526507],[16.490908,43.526543],[16.490911,43.526542],[16.490935,43.526531],[16.491037,43.526483],[16.49101,43.526488],[16.490982,43.526487],[16.490956,43.526482],[16.490932,43.526471],[16.490912,43.526457],[16.490866,43.526395],[16.490859,43.526385],[16.490834,43.526352],[16.490827,43.526343],[16.490819,43.526332],[16.490785,43.526288],[16.490682,43.526155],[16.490663,43.526131],[16.490622,43.526076],[16.490572,43.52601],[16.490523,43.525956],[16.490496,43.525929],[16.490452,43.525886],[16.490407,43.525848],[16.490347,43.525869]]]},"properties":{"parcel_id":"SPLIT:569/1","parcel_number":"569/1","cadastral_municipality":"SPLIT","public_level":"state","ownership_form":"ownership","purpose_primary_code":"Z5","purpose_primary_label":"Zaštitno i pejsažno zelenilo","built":true,"area_m2":441.4,"source_updated_at":"2025-10-03","generated_at":"2026-08-02"}},{"type":"Feature","geometry":{"type":"Polygon","coordinates":[[[16.495504,43.52262],[16.495429,43.522645],[16.495349,43.522671],[16.495247,43.522695],[16.495286,43.522975],[16.495291,43.523017],[16.49548,43.522997],[16.495492,43.522978],[16.495499,43.522966],[16.495514,43.522871],[16.495564,43.522776],[16.495581,43.522714],[16.495504,43.52262]]]},"properties":{"parcel_id":"SPLIT:615","parcel_number":"615","cadastral_municipality":"SPLIT","public_level":"state","ownership_form":"ownership","purpose_primary_code":"Z5","purpose_primary_label":"Zaštitno i pejsažno zelenilo","built":false,"area_m2":834.1,"source_updated_at":"2025-10-03","generated_at":"2026-08-02"}},{"type":"Feature","geometry":{"type":"Polygon","coordinates":[[[16.488686,43.522637],[16.488519,43.522712],[16.488485,43.522724],[16.488509,43.522886],[16.488561,43.523236],[16.488663,43.523231],[16.488749,43.523227],[16.488713,43.522888],[16.488686,43.522637]]]},"properties":{"parcel_id":"SPLIT:659/4","parcel_number":"659/4","cadastral_municipality":"SPLIT","public_level":"city","ownership_form":"ownership","purpose_primary_code":"K5","purpose_primary_label":"Poslovna namjena i stanovanje","built":true,"area_m2":988.8,"source_updated_at":"2025-10-03","generated_at":"2026-08-02"}},{"type":"Feature","geometry":{"type":"Polygon","coordinates":[[[16.48913,43.522486],[16.488996,43.52251],[16.488991,43.522512],[16.489038,43.522893],[16.489081,43.523237],[16.489092,43.523237],[16.489174,43.523239],[16.489227,43.523232],[16.489183,43.522895],[16.48913,43.522486]]]},"properties":{"parcel_id":"SPLIT:659/7","parcel_number":"659/7","cadastral_municipality":"SPLIT","public_level":"city","ownership_form":"ownership","purpose_primary_code":"K5","purpose_primary_label":"Poslovna namjena i stanovanje","built":true,"area_m2":957,"source_updated_at":"2025-10-03","generated_at":"2026-08-02"}},{"type":"Feature","geometry":{"type":"Polygon","coordinates":[[[16.488128,43.524176],[16.488179,43.524213],[16.488191,43.524227],[16.488204,43.524248],[16.488235,43.524286],[16.488242,43.524295],[16.488252,43.524302],[16.488356,43.524248],[16.488594,43.52418],[16.488823,43.524124],[16.488969,43.524104],[16.489082,43.524087],[16.489362,43.524102],[16.489188,43.523982],[16.489057,43.523988],[16.488905,43.524013],[16.488811,43.52404],[16.488545,43.524051],[16.488422,43.524081],[16.488246,43.524134],[16.488174,43.524159],[16.488128,43.524176]]]},"properties":{"parcel_id":"SPLIT:688/1","parcel_number":"688/1","cadastral_municipality":"SPLIT","public_level":"city","ownership_form":"ownership","purpose_primary_code":"Z5","purpose_primary_label":"Zaštitno i pejsažno zelenilo","built":false,"area_m2":1182.3,"source_updated_at":"2025-10-03","generated_at":"2026-08-02"}},{"type":"Feature","geometry":{"type":"Polygon","coordinates":[[[16.487349,43.52502],[16.487389,43.525068],[16.487405,43.525081],[16.487264,43.525187],[16.487164,43.525266],[16.487061,43.525326],[16.486988,43.525374],[16.486974,43.525393],[16.487039,43.525386],[16.487071,43.525364],[16.487118,43.525339],[16.487157,43.525315],[16.487262,43.525235],[16.487433,43.525106],[16.487563,43.524998],[16.487718,43.524909],[16.487727,43.524904],[16.487762,43.524882],[16.487824,43.524849],[16.487747,43.524823],[16.487791,43.524748],[16.487798,43.524737],[16.487878,43.524655],[16.487984,43.524562],[16.487957,43.524542],[16.487846,43.524619],[16.487744,43.524765],[16.487569,43.52496],[16.487349,43.52502]]]},"properties":{"parcel_id":"SPLIT:705/1","parcel_number":"705/1","cadastral_municipality":"SPLIT","public_level":"state","ownership_form":"ownership","purpose_primary_code":null,"purpose_primary_label":null,"built":false,"area_m2":566.2,"source_updated_at":"2025-10-03","generated_at":"2026-08-02"}}]}
