{"type": "FeatureCollection", "features": [{"type": "Feature", "properties": {"ko": "SPLIT", "cestica": "505/2", "povrsina_m2": 20.3, "sirina_m": 2.4, "duljina_m": 8.5, "namjena": "K5", "udio_stambeno": 1.0, "zgrada_m2": 12.0, "udio_koridora": 0.0, "cesta_kroz": 0.0, "pristup_m": 4.7, "slobodno_m2": 8.3, "skupina": 1, "skupina_cestica": 8, "skupina_slobodno_m2": 7813.2, "skupina_pristup_m": 0.0, "bez_pristupa": false, "boja": "#16a34a"}, "geometry": {"type": "Polygon", "coordinates": [[[16.494139, 43.524868], [16.494134, 43.524864], [16.494117, 43.524851], [16.494108, 43.524845], [16.494088, 43.524836], [16.494069, 43.524828], [16.494043, 43.524817], [16.494055, 43.524837], [16.494076, 43.524875], [16.494139, 43.524868]]]}}, {"type": "Feature", "properties": {"ko": "SPLIT", "cestica": "508", "povrsina_m2": 2617.5, "sirina_m": 23.1, "duljina_m": 113.3, "namjena": "K5", "udio_stambeno": 1.0, "zgrada_m2": 14.5, "udio_koridora": 0.035, "cesta_kroz": 0.0, "pristup_m": 0.0, "slobodno_m2": 2511.7, "skupina": 1, "skupina_cestica": 8, "skupina_slobodno_m2": 7813.2, "skupina_pristup_m": 0.0, "bez_pristupa": false, "boja": "#16a34a"}, "geometry": {"type": "Polygon", "coordinates": [[[16.494284, 43.525242], [16.494166, 43.525271], [16.493914, 43.525317], [16.493824, 43.525232], [16.493762, 43.52515], [16.493724, 43.525109], [16.493578, 43.52512], [16.493435, 43.525139], [16.493254, 43.525154], [16.493118, 43.525154], [16.493017, 43.525141], [16.493028, 43.525186], [16.493069, 43.525203], [16.49307, 43.525434], [16.49307, 43.525489], [16.493202, 43.525481], [16.493308, 43.525478], [16.493369, 43.525471], [16.493456, 43.525435], [16.493458, 43.525435], [16.49353, 43.525427], [16.493579, 43.525422], [16.493637, 43.525436], [16.493761, 43.525448], [16.49383, 43.525434], [16.493996, 43.525399], [16.494107, 43.525376], [16.494212, 43.525367], [16.494314, 43.525348], [16.494284, 43.525242]]]}}, {"type": "Feature", "properties": {"ko": "SPLIT", "cestica": "509/1", "povrsina_m2": 2468.1, "sirina_m": 16.4, "duljina_m": 150.6, "namjena": "K5", "udio_stambeno": 1.0, "zgrada_m2": 7.3, "udio_koridora": 0.0, "cesta_kroz": 0.0, "pristup_m": 9.0, "slobodno_m2": 2460.8, "skupina": 1, "skupina_cestica": 8, "skupina_slobodno_m2": 7813.2, "skupina_pristup_m": 0.0, "bez_pristupa": false, "boja": "#16a34a"}, "geometry": {"type": "Polygon", "coordinates": [[[16.494491, 43.524987], [16.494453, 43.525019], [16.494264, 43.525199], [16.494076, 43.524875], [16.493956, 43.524886], [16.493878, 43.524895], [16.493818, 43.524903], [16.493803, 43.524905], [16.493788, 43.524904], [16.493753, 43.5249], [16.493746, 43.5249], [16.493715, 43.524901], [16.493633, 43.524909], [16.493625, 43.524909], [16.49362, 43.524895], [16.493615, 43.524895], [16.493264, 43.524903], [16.493027, 43.524954], [16.493028, 43.524981], [16.493256, 43.524965], [16.49354, 43.524967], [16.493578, 43.52512], [16.493724, 43.525109], [16.493762, 43.52515], [16.493824, 43.525232], [16.493914, 43.525317], [16.494166, 43.525271], [16.494284, 43.525242], [16.494332, 43.525239], [16.494566, 43.525168], [16.494537, 43.525094], [16.494495, 43.525009], [16.494491, 43.524987]]]}}, {"type": "Feature", "properties": {"ko": "SPLIT", "cestica": "512", "povrsina_m2": 2606.7, "sirina_m": 18.6, "duljina_m": 140.3, "namjena": "K5", "udio_stambeno": 1.0, "zgrada_m2": 2.7, "udio_koridora": 0.111, "cesta_kroz": 0.0, "pristup_m": 1.2, "slobodno_m2": 2314.5, "skupina": 1, "skupina_cestica": 8, "skupina_slobodno_m2": 7813.2, "skupina_pristup_m": 0.0, "bez_pristupa": false, "boja": "#16a34a"}, "geometry": {"type": "Polygon", "coordinates": [[[16.493028, 43.524981], [16.492824, 43.524984], [16.492673, 43.524979], [16.492559, 43.524979], [16.492418, 43.524966], [16.492368, 43.524963], [16.492302, 43.524977], [16.492239, 43.524978], [16.492223, 43.524978], [16.49193, 43.524953], [16.491818, 43.524943], [16.491831, 43.525106], [16.491926, 43.525111], [16.492024, 43.525116], [16.492138, 43.525132], [16.492235, 43.525141], [16.49229, 43.525147], [16.49244, 43.525145], [16.49259, 43.525154], [16.492656, 43.525153], [16.492795, 43.525126], [16.492875, 43.525137], [16.493017, 43.525141], [16.493118, 43.525154], [16.493254, 43.525154], [16.493435, 43.525139], [16.493578, 43.52512], [16.49354, 43.524967], [16.493256, 43.524965], [16.493028, 43.524981]]]}}, {"type": "Feature", "properties": {"ko": "SPLIT", "cestica": "513", "povrsina_m2": 1943.5, "sirina_m": 41.2, "duljina_m": 47.1, "namjena": "K5", "udio_stambeno": 1.0, "zgrada_m2": 13.3, "udio_koridora": 0.285, "cesta_kroz": 0.0, "pristup_m": 0.0, "slobodno_m2": 1376.2, "skupina": 1, "skupina_cestica": 8, "skupina_slobodno_m2": 7813.2, "skupina_pristup_m": 0.0, "bez_pristupa": false, "boja": "#16a34a"}, "geometry": {"type": "Polygon", "coordinates": [[[16.49307, 43.525489], [16.49307, 43.525434], [16.493069, 43.525203], [16.493028, 43.525186], [16.493017, 43.525141], [16.492875, 43.525137], [16.492795, 43.525126], [16.492656, 43.525153], [16.49259, 43.525154], [16.49244, 43.525145], [16.492439, 43.525392], [16.492441, 43.525468], [16.49244, 43.525485], [16.492543, 43.525485], [16.492546, 43.525485], [16.492673, 43.525488], [16.492773, 43.525499], [16.492844, 43.525491], [16.493016, 43.525491], [16.49307, 43.525489]]]}}, {"type": "Feature", "properties": {"ko": "SPLIT", "cestica": "515", "povrsina_m2": 1132.8, "sirina_m": 10.4, "duljina_m": 109.0, "namjena": "K5", "udio_stambeno": 0.568, "zgrada_m2": 11.6, "udio_koridora": 0.206, "cesta_kroz": 0.0, "pristup_m": 0.0, "slobodno_m2": 540.6, "skupina": 1, "skupina_cestica": 8, "skupina_slobodno_m2": 7813.2, "skupina_pristup_m": 0.0, "bez_pristupa": false, "boja": "#16a34a"}, "geometry": {"type": "Polygon", "coordinates": [[[16.491818, 43.524943], [16.491729, 43.524944], [16.491621, 43.524938], [16.491599, 43.524937], [16.491413, 43.524931], [16.491336, 43.524917], [16.491279, 43.524912], [16.491209, 43.524907], [16.491134, 43.524897], [16.490979, 43.524871], [16.490896, 43.524857], [16.490805, 43.524834], [16.49059, 43.52479], [16.490586, 43.524798], [16.490798, 43.524948], [16.490976, 43.524964], [16.491022, 43.524969], [16.491504, 43.525013], [16.491482, 43.52509], [16.491617, 43.525096], [16.491676, 43.525099], [16.491831, 43.525106], [16.491818, 43.524943]]]}}, {"type": "Feature", "properties": {"ko": "SPLIT", "cestica": "509/2", "povrsina_m2": 815.7, "sirina_m": 19.4, "duljina_m": 42.0, "namjena": "K5", "udio_stambeno": 1.0, "zgrada_m2": 2.6, "udio_koridora": 0.007, "cesta_kroz": 0.0, "pristup_m": 0.0, "slobodno_m2": 807.4, "skupina": 1, "skupina_cestica": 8, "skupina_slobodno_m2": 7813.2, "skupina_pristup_m": 0.0, "bez_pristupa": false, "boja": "#16a34a"}, "geometry": {"type": "Polygon", "coordinates": [[[16.494491, 43.524987], [16.494487, 43.524958], [16.494515, 43.524944], [16.494517, 43.524886], [16.494491, 43.524846], [16.494483, 43.524834], [16.494459, 43.524822], [16.494407, 43.524832], [16.494402, 43.524833], [16.494368, 43.524845], [16.494298, 43.524868], [16.494267, 43.524852], [16.494139, 43.524868], [16.494076, 43.524875], [16.494264, 43.525199], [16.494453, 43.525019], [16.494491, 43.524987]]]}}, {"type": "Feature", "properties": {"ko": "SPLIT", "cestica": "517", "povrsina_m2": 524.3, "sirina_m": 12.0, "duljina_m": 43.5, "namjena": "K5", "udio_stambeno": 0.686, "zgrada_m2": 7.9, "udio_koridora": 0.0, "cesta_kroz": 0.0, "pristup_m": 0.1, "slobodno_m2": 359.6, "skupina": 1, "skupina_cestica": 8, "skupina_slobodno_m2": 7813.2, "skupina_pristup_m": 0.0, "bez_pristupa": false, "boja": "#16a34a"}, "geometry": {"type": "Polygon", "coordinates": [[[16.491676, 43.525099], [16.491617, 43.525096], [16.491482, 43.52509], [16.491265, 43.525074], [16.491186, 43.5251], [16.491088, 43.525154], [16.491118, 43.525175], [16.491158, 43.525178], [16.49119, 43.525181], [16.491273, 43.525188], [16.491437, 43.525199], [16.491614, 43.525212], [16.491665, 43.525216], [16.491676, 43.525099]]]}}, {"type": "Feature", "properties": {"ko": "SPLIT", "cestica": "401/1", "povrsina_m2": 4202.7, "sirina_m": 28.6, "duljina_m": 146.9, "namjena": "K5", "udio_stambeno": 1.0, "zgrada_m2": 0.0, "udio_koridora": 0.299, "cesta_kroz": 0.0, "pristup_m": 4.4, "slobodno_m2": 2944.5, "skupina": 2, "skupina_cestica": 7, "skupina_slobodno_m2": 4563.8, "skupina_pristup_m": 3.0, "bez_pristupa": false, "boja": "#16a34a"}, "geometry": {"type": "Polygon", "coordinates": [[[16.500502, 43.526344], [16.500415, 43.526371], [16.500289, 43.526422], [16.500376, 43.526596], [16.500426, 43.526694], [16.500441, 43.526726], [16.500454, 43.526754], [16.500563, 43.526742], [16.500572, 43.52666], [16.500657, 43.526563], [16.500736, 43.52648], [16.50079, 43.526442], [16.500862, 43.526408], [16.500961, 43.526361], [16.501037, 43.526325], [16.501117, 43.526292], [16.501175, 43.526251], [16.501288, 43.526173], [16.501394, 43.526056], [16.501414, 43.526028], [16.50147, 43.525933], [16.501493, 43.525899], [16.501607, 43.525727], [16.501566, 43.525702], [16.501499, 43.525665], [16.501476, 43.525652], [16.501382, 43.525718], [16.501268, 43.525806], [16.501221, 43.525825], [16.501186, 43.525829], [16.501082, 43.525847], [16.50096, 43.525874], [16.50091, 43.525887], [16.500875, 43.525898], [16.500736, 43.525942], [16.500737, 43.526065], [16.50071, 43.526229], [16.500686, 43.526282], [16.50064, 43.526305], [16.500554, 43.526329], [16.500502, 43.526344]]]}}, {"type": "Feature", "properties": {"ko": "SPLIT", "cestica": "399", "povrsina_m2": 3549.3, "sirina_m": 31.4, "duljina_m": 113.1, "namjena": "K5", "udio_stambeno": 0.758, "zgrada_m2": 2.7, "udio_koridora": 0.431, "cesta_kroz": 0.0, "pristup_m": 15.9, "slobodno_m2": 1957.7, "skupina": 2, "skupina_cestica": 7, "skupina_slobodno_m2": 4563.8, "skupina_pristup_m": 3.0, "bez_pristupa": false, "boja": "#16a34a"}, "geometry": {"type": "Polygon", "coordinates": [[[16.500899, 43.524756], [16.500818, 43.524757], [16.500799, 43.524778], [16.500724, 43.524806], [16.500557, 43.524826], [16.500469, 43.524838], [16.500382, 43.524835], [16.500164, 43.524766], [16.500052, 43.524727], [16.499905, 43.524702], [16.499816, 43.524686], [16.49981, 43.524794], [16.499779, 43.524968], [16.49989, 43.52501], [16.500064, 43.525058], [16.500275, 43.525104], [16.500638, 43.525166], [16.500892, 43.525204], [16.501035, 43.525226], [16.501059, 43.525244], [16.50105, 43.525211], [16.501014, 43.525149], [16.500989, 43.52507], [16.50095, 43.524963], [16.500927, 43.524871], [16.500903, 43.52477], [16.500899, 43.524756]]]}}, {"type": "Feature", "properties": {"ko": "SPLIT", "cestica": "431/2", "povrsina_m2": 130.3, "sirina_m": 7.6, "duljina_m": 17.2, "namjena": "K5", "udio_stambeno": 0.98, "zgrada_m2": 0.0, "udio_koridora": 0.027, "cesta_kroz": 0.0, "pristup_m": 69.9, "slobodno_m2": 124.3, "skupina": 2, "skupina_cestica": 7, "skupina_slobodno_m2": 4563.8, "skupina_pristup_m": 3.0, "bez_pristupa": false, "boja": "#16a34a"}, "geometry": {"type": "Polygon", "coordinates": [[[16.499689, 43.525009], [16.49974, 43.525134], [16.499819, 43.525095], [16.49989, 43.52501], [16.499689, 43.525009]]]}}, {"type": "Feature", "properties": {"ko": "SPLIT", "cestica": "424/1", "povrsina_m2": 1339.9, "sirina_m": 21.9, "duljina_m": 61.2, "namjena": "K5", "udio_stambeno": 0.998, "zgrada_m2": 0.0, "udio_koridora": 0.333, "cesta_kroz": 0.0, "pristup_m": 16.9, "slobodno_m2": 891.0, "skupina": 2, "skupina_cestica": 7, "skupina_slobodno_m2": 4563.8, "skupina_pristup_m": 3.0, "bez_pristupa": false, "boja": "#16a34a"}, "geometry": {"type": "Polygon", "coordinates": [[[16.49986, 43.525324], [16.499814, 43.525312], [16.500048, 43.525897], [16.500277, 43.525804], [16.500241, 43.525643], [16.500208, 43.525416], [16.499975, 43.525355], [16.49986, 43.525324]]]}}, {"type": "Feature", "properties": {"ko": "SPLIT", "cestica": "423/1", "povrsina_m2": 471.1, "sirina_m": 14.9, "duljina_m": 31.6, "namjena": "K5", "udio_stambeno": 0.972, "zgrada_m2": 0.0, "udio_koridora": 0.099, "cesta_kroz": 0.0, "pristup_m": 3.0, "slobodno_m2": 411.1, "skupina": 2, "skupina_cestica": 7, "skupina_slobodno_m2": 4563.8, "skupina_pristup_m": 3.0, "bez_pristupa": false, "boja": "#16a34a"}, "geometry": {"type": "Polygon", "coordinates": [[[16.500146, 43.526142], [16.500246, 43.526113], [16.50027, 43.526068], [16.500287, 43.525952], [16.500277, 43.525804], [16.500048, 43.525897], [16.500108, 43.526047], [16.500146, 43.526142]]]}}, {"type": "Feature", "properties": {"ko": "SPLIT", "cestica": "430/2", "povrsina_m2": 497.0, "sirina_m": 16.1, "duljina_m": 30.9, "namjena": "K5", "udio_stambeno": 1.0, "zgrada_m2": 0.0, "udio_koridora": 0.424, "cesta_kroz": 0.0, "pristup_m": 65.9, "slobodno_m2": 286.4, "skupina": 2, "skupina_cestica": 7, "skupina_slobodno_m2": 4563.8, "skupina_pristup_m": 3.0, "bez_pristupa": false, "boja": "#16a34a"}, "geometry": {"type": "Polygon", "coordinates": [[[16.500064, 43.525058], [16.49989, 43.52501], [16.499819, 43.525095], [16.49974, 43.525134], [16.499814, 43.525312], [16.49986, 43.525324], [16.499879, 43.525265], [16.499961, 43.525224], [16.49999, 43.525206], [16.500039, 43.525142], [16.500064, 43.525058]]]}}, {"type": "Feature", "properties": {"ko": "SPLIT", "cestica": "403", "povrsina_m2": 4346.6, "sirina_m": 41.2, "duljina_m": 105.5, "namjena": "K5", "udio_stambeno": 1.0, "zgrada_m2": 0.0, "udio_koridora": 0.498, "cesta_kroz": 0.0, "pristup_m": 21.5, "slobodno_m2": 2183.3, "skupina": 2, "skupina_cestica": 7, "skupina_slobodno_m2": 4563.8, "skupina_pristup_m": 3.0, "bez_pristupa": false, "boja": "#16a34a"}, "geometry": {"type": "Polygon", "coordinates": [[[16.500208, 43.525416], [16.500241, 43.525643], [16.500277, 43.525804], [16.500287, 43.525952], [16.500737, 43.526065], [16.500736, 43.525942], [16.500875, 43.525898], [16.50091, 43.525887], [16.50096, 43.525874], [16.501082, 43.525847], [16.501186, 43.525829], [16.501221, 43.525825], [16.501268, 43.525806], [16.501382, 43.525718], [16.501476, 43.525652], [16.501194, 43.525502], [16.501134, 43.52547], [16.500899, 43.525502], [16.500884, 43.525505], [16.500796, 43.525527], [16.500662, 43.525497], [16.500208, 43.525416]]]}}, {"type": "Feature", "properties": {"ko": "SPLIT", "cestica": "588", "povrsina_m2": 1552.2, "sirina_m": 25.5, "duljina_m": 60.9, "namjena": "K5", "udio_stambeno": 0.916, "zgrada_m2": 0.0, "udio_koridora": 0.06, "cesta_kroz": 0.0, "pristup_m": 0.0, "slobodno_m2": 1329.0, "skupina": 3, "skupina_cestica": 8, "skupina_slobodno_m2": 3950.6, "skupina_pristup_m": 0.0, "bez_pristupa": false, "boja": "#16a34a"}, "geometry": {"type": "Polygon", "coordinates": [[[16.491754, 43.524818], [16.49173, 43.524731], [16.491722, 43.524597], [16.491708, 43.524478], [16.4917, 43.524451], [16.491699, 43.524446], [16.491633, 43.524461], [16.491525, 43.524485], [16.491318, 43.524526], [16.491233, 43.524539], [16.491216, 43.524585], [16.491226, 43.524659], [16.491337, 43.524632], [16.491361, 43.524883], [16.491612, 43.524906], [16.491622, 43.524907], [16.491738, 43.524911], [16.491754, 43.524818]]]}}, {"type": "Feature", "properties": {"ko": "SPLIT", "cestica": "589/1", "povrsina_m2": 1871.9, "sirina_m": 43.3, "duljina_m": 43.3, "namjena": "K5", "udio_stambeno": 1.0, "zgrada_m2": 0.0, "udio_koridora": 0.1, "cesta_kroz": 0.0, "pristup_m": 0.0, "slobodno_m2": 1684.3, "skupina": 3, "skupina_cestica": 8, "skupina_slobodno_m2": 3950.6, "skupina_pristup_m": 0.0, "bez_pristupa": false, "boja": "#16a34a"}, "geometry": {"type": "Polygon", "coordinates": [[[16.492301, 43.524726], [16.492285, 43.524651], [16.492272, 43.524595], [16.49225, 43.524499], [16.492219, 43.52436], [16.492211, 43.524326], [16.491972, 43.524392], [16.491944, 43.5244], [16.491927, 43.524404], [16.491808, 43.524444], [16.491708, 43.524478], [16.491722, 43.524597], [16.49173, 43.524731], [16.491754, 43.524818], [16.491934, 43.524794], [16.491997, 43.524785], [16.492245, 43.524737], [16.492301, 43.524726]]]}}, {"type": "Feature", "properties": {"ko": "SPLIT", "cestica": "590/3", "povrsina_m2": 308.5, "sirina_m": 15.9, "duljina_m": 19.4, "namjena": "K5", "udio_stambeno": 1.0, "zgrada_m2": 0.0, "udio_koridora": 0.0, "cesta_kroz": 0.0, "pristup_m": 40.8, "slobodno_m2": 308.5, "skupina": 3, "skupina_cestica": 8, "skupina_slobodno_m2": 3950.6, "skupina_pristup_m": 0.0, "bez_pristupa": false, "boja": "#16a34a"}, "geometry": {"type": "Polygon", "coordinates": [[[16.491922, 43.524378], [16.491921, 43.524371], [16.491896, 43.524237], [16.491654, 43.524263], [16.491688, 43.524404], [16.491922, 43.524378]]]}}, {"type": "Feature", "properties": {"ko": "SPLIT", "cestica": "589/3", "povrsina_m2": 32.5, "sirina_m": 3.9, "duljina_m": 8.3, "namjena": "K5", "udio_stambeno": 1.0, "zgrada_m2": 0.1, "udio_koridora": 0.0, "cesta_kroz": 0.0, "pristup_m": 37.4, "slobodno_m2": 32.4, "skupina": 3, "skupina_cestica": 8, "skupina_slobodno_m2": 3950.6, "skupina_pristup_m": 0.0, "bez_pristupa": false, "boja": "#16a34a"}, "geometry": {"type": "Polygon", "coordinates": [[[16.492315, 43.524337], [16.492307, 43.5243], [16.492255, 43.524314], [16.492234, 43.52432], [16.492211, 43.524326], [16.492219, 43.52436], [16.492254, 43.524352], [16.492315, 43.524337]]]}}, {"type": "Feature", "properties": {"ko": "SPLIT", "cestica": "590/6", "povrsina_m2": 263.4, "sirina_m": 3.3, "duljina_m": 78.7, "namjena": "K5", "udio_stambeno": 0.61, "zgrada_m2": 0.0, "udio_koridora": 0.495, "cesta_kroz": 0.0, "pristup_m": 24.7, "slobodno_m2": 133.1, "skupina": 3, "skupina_cestica": 8, "skupina_slobodno_m2": 3950.6, "skupina_pristup_m": 0.0, "bez_pristupa": false, "boja": "#16a34a"}, "geometry": {"type": "Polygon", "coordinates": [[[16.492228, 43.523886], [16.492005, 43.523928], [16.491955, 43.523937], [16.49184, 43.523957], [16.49187, 43.5241], [16.491896, 43.524237], [16.491921, 43.524371], [16.491922, 43.524378], [16.491927, 43.524404], [16.491944, 43.5244], [16.491972, 43.524392], [16.491967, 43.524372], [16.491947, 43.52428], [16.491912, 43.524124], [16.491889, 43.524012], [16.491889, 43.524004], [16.491891, 43.523997], [16.491895, 43.523989], [16.4919, 43.523984], [16.491907, 43.523979], [16.491914, 43.523976], [16.491923, 43.523973], [16.491954, 43.523968], [16.492234, 43.523918], [16.492228, 43.523886]]]}}, {"type": "Feature", "properties": {"ko": "SPLIT", "cestica": "591", "povrsina_m2": 319.3, "sirina_m": 11.2, "duljina_m": 28.5, "namjena": "K5", "udio_stambeno": 0.939, "zgrada_m2": 0.0, "udio_koridora": 0.38, "cesta_kroz": 0.0, "pristup_m": 24.7, "slobodno_m2": 198.1, "skupina": 3, "skupina_cestica": 8, "skupina_slobodno_m2": 3950.6, "skupina_pristup_m": 0.0, "bez_pristupa": false, "boja": "#16a34a"}, "geometry": {"type": "Polygon", "coordinates": [[[16.492416, 43.524083], [16.492386, 43.523938], [16.492383, 43.523911], [16.49238, 43.52389], [16.492266, 43.523884], [16.492262, 43.523884], [16.492228, 43.523886], [16.492234, 43.523918], [16.492261, 43.52406], [16.492282, 43.524165], [16.492416, 43.524083]]]}}, {"type": "Feature", "properties": {"ko": "SPLIT", "cestica": "590/4", "povrsina_m2": 311.0, "sirina_m": 15.5, "duljina_m": 20.0, "namjena": "K5", "udio_stambeno": 1.0, "zgrada_m2": 0.0, "udio_koridora": 0.0, "cesta_kroz": 0.0, "pristup_m": 43.5, "slobodno_m2": 311.0, "skupina": 3, "skupina_cestica": 8, "skupina_slobodno_m2": 3950.6, "skupina_pristup_m": 0.0, "bez_pristupa": false, "boja": "#16a34a"}, "geometry": {"type": "Polygon", "coordinates": [[[16.49162, 43.524125], [16.491639, 43.524205], [16.491654, 43.524263], [16.491896, 43.524237], [16.49187, 43.5241], [16.491641, 43.524123], [16.49162, 43.524125]]]}}, {"type": "Feature", "properties": {"ko": "SPLIT", "cestica": "587", "povrsina_m2": 244.0, "sirina_m": 9.3, "duljina_m": 26.2, "namjena": "K5", "udio_stambeno": 0.726, "zgrada_m2": 0.0, "udio_koridora": 0.085, "cesta_kroz": 0.0, "pristup_m": 0.0, "slobodno_m2": 160.0, "skupina": 3, "skupina_cestica": 8, "skupina_slobodno_m2": 3950.6, "skupina_pristup_m": 0.0, "bez_pristupa": false, "boja": "#16a34a"}, "geometry": {"type": "Polygon", "coordinates": [[[16.491239, 43.524872], [16.491361, 43.524883], [16.491337, 43.524632], [16.491226, 43.524659], [16.491239, 43.524872]]]}}, {"type": "Feature", "properties": {"ko": "SPLIT", "cestica": "375/3", "povrsina_m2": 600.7, "sirina_m": 14.2, "duljina_m": 42.2, "namjena": "K5", "udio_stambeno": 1.0, "zgrada_m2": 0.0, "udio_koridora": 0.015, "cesta_kroz": 0.0, "pristup_m": 0.0, "slobodno_m2": 591.6, "skupina": 4, "skupina_cestica": 4, "skupina_slobodno_m2": 2691.2, "skupina_pristup_m": 0.0, "bez_pristupa": false, "boja": "#16a34a"}, "geometry": {"type": "Polygon", "coordinates": [[[16.503235, 43.525178], [16.503308, 43.525145], [16.503193, 43.525129], [16.503125, 43.524941], [16.50287, 43.525], [16.502875, 43.525012], [16.502898, 43.525061], [16.502917, 43.525101], [16.502955, 43.525181], [16.502971, 43.525249], [16.503209, 43.525172], [16.50323, 43.525166], [16.503235, 43.525178]]]}}, {"type": "Feature", "properties": {"ko": "SPLIT", "cestica": "406/11", "povrsina_m2": 684.5, "sirina_m": 10.9, "duljina_m": 62.7, "namjena": "K5", "udio_stambeno": 1.0, "zgrada_m2": 0.0, "udio_koridora": 0.016, "cesta_kroz": 0.0, "pristup_m": 0.0, "slobodno_m2": 673.4, "skupina": 4, "skupina_cestica": 4, "skupina_slobodno_m2": 2691.2, "skupina_pristup_m": 0.0, "bez_pristupa": false, "boja": "#16a34a"}, "geometry": {"type": "Polygon", "coordinates": [[[16.502448, 43.524783], [16.502456, 43.52479], [16.502495, 43.524935], [16.502819, 43.52488], [16.502813, 43.524866], [16.502775, 43.524775], [16.502771, 43.524751], [16.502738, 43.524667], [16.502622, 43.524698], [16.502501, 43.52473], [16.502406, 43.524755], [16.502273, 43.524791], [16.502158, 43.524825], [16.502163, 43.524857], [16.502287, 43.524821], [16.502421, 43.524785], [16.502439, 43.52478], [16.502448, 43.524783]]]}}, {"type": "Feature", "properties": {"ko": "SPLIT", "cestica": "406/1", "povrsina_m2": 678.6, "sirina_m": 10.8, "duljina_m": 63.1, "namjena": "K5", "udio_stambeno": 1.0, "zgrada_m2": 0.0, "udio_koridora": 0.011, "cesta_kroz": 0.0, "pristup_m": 0.0, "slobodno_m2": 671.0, "skupina": 4, "skupina_cestica": 4, "skupina_slobodno_m2": 2691.2, "skupina_pristup_m": 0.0, "bez_pristupa": false, "boja": "#16a34a"}, "geometry": {"type": "Polygon", "coordinates": [[[16.502528, 43.525084], [16.502523, 43.525092], [16.502236, 43.525141], [16.502236, 43.525141], [16.502243, 43.525172], [16.502898, 43.525061], [16.502875, 43.525012], [16.50287, 43.525], [16.502861, 43.524974], [16.502819, 43.52488], [16.502495, 43.524935], [16.502534, 43.525077], [16.502528, 43.525084]]]}}, {"type": "Feature", "properties": {"ko": "SPLIT", "cestica": "406/10", "povrsina_m2": 836.4, "sirina_m": 26.7, "duljina_m": 31.4, "namjena": "K5", "udio_stambeno": 1.0, "zgrada_m2": 0.0, "udio_koridora": 0.097, "cesta_kroz": 0.0, "pristup_m": 0.0, "slobodno_m2": 755.3, "skupina": 4, "skupina_cestica": 4, "skupina_slobodno_m2": 2691.2, "skupina_pristup_m": 0.0, "bez_pristupa": false, "boja": "#16a34a"}, "geometry": {"type": "Polygon", "coordinates": [[[16.502456, 43.52479], [16.502448, 43.524783], [16.502439, 43.52478], [16.502421, 43.524785], [16.502287, 43.524821], [16.502163, 43.524857], [16.502165, 43.524875], [16.502186, 43.524951], [16.502209, 43.525019], [16.502222, 43.525076], [16.502236, 43.525141], [16.502523, 43.525092], [16.502528, 43.525084], [16.502534, 43.525077], [16.502495, 43.524935], [16.502456, 43.52479]]]}}, {"type": "Feature", "properties": {"ko": "SPLIT", "cestica": "290/5", "povrsina_m2": 81.1, "sirina_m": 2.4, "duljina_m": 34.3, "namjena": "K5", "udio_stambeno": 1.0, "zgrada_m2": 0.0, "udio_koridora": 0.0, "cesta_kroz": 0.0, "pristup_m": 4.9, "slobodno_m2": 81.1, "skupina": 5, "skupina_cestica": 2, "skupina_slobodno_m2": 1654.0, "skupina_pristup_m": 2.9, "bez_pristupa": false, "boja": "#16a34a"}, "geometry": {"type": "Polygon", "coordinates": [[[16.504256, 43.526915], [16.504232, 43.526895], [16.504157, 43.526971], [16.504095, 43.527031], [16.504071, 43.527059], [16.504051, 43.527074], [16.504037, 43.527083], [16.504012, 43.527095], [16.503994, 43.527103], [16.503975, 43.527109], [16.503946, 43.527117], [16.504005, 43.527111], [16.504044, 43.527113], [16.504104, 43.527064], [16.504244, 43.526924], [16.504256, 43.526915]]]}}, {"type": "Feature", "properties": {"ko": "SPLIT", "cestica": "289/10", "povrsina_m2": 1946.7, "sirina_m": 25.8, "duljina_m": 75.4, "namjena": "K5", "udio_stambeno": 0.854, "zgrada_m2": 0.0, "udio_koridora": 0.071, "cesta_kroz": 0.0, "pristup_m": 2.9, "slobodno_m2": 1572.8, "skupina": 5, "skupina_cestica": 2, "skupina_slobodno_m2": 1654.0, "skupina_pristup_m": 2.9, "bez_pristupa": false, "boja": "#16a34a"}, "geometry": {"type": "Polygon", "coordinates": [[[16.504576, 43.527128], [16.504587, 43.527114], [16.504618, 43.527081], [16.504628, 43.527066], [16.504635, 43.527056], [16.504649, 43.527031], [16.504658, 43.527012], [16.504666, 43.526994], [16.50468, 43.526961], [16.504691, 43.526926], [16.504694, 43.526911], [16.504705, 43.526884], [16.504716, 43.526863], [16.504724, 43.526854], [16.504728, 43.526841], [16.504738, 43.526807], [16.50475, 43.526771], [16.504768, 43.526726], [16.504777, 43.526707], [16.504782, 43.526687], [16.504784, 43.526666], [16.504783, 43.52666], [16.504784, 43.526642], [16.504782, 43.526638], [16.504787, 43.526614], [16.504661, 43.526628], [16.504579, 43.526633], [16.504485, 43.526642], [16.504457, 43.526723], [16.504383, 43.52683], [16.504311, 43.526876], [16.504256, 43.526915], [16.504244, 43.526924], [16.504104, 43.527064], [16.504044, 43.527113], [16.50424, 43.527124], [16.504429, 43.527182], [16.504525, 43.527221], [16.504523, 43.52722], [16.504533, 43.527187], [16.504543, 43.527177], [16.50455, 43.527171], [16.504563, 43.527166], [16.504568, 43.527148], [16.504576, 43.527128]]]}}, {"type": "Feature", "properties": {"ko": "SPLIT", "cestica": "406/8", "povrsina_m2": 1545.0, "sirina_m": 20.0, "duljina_m": 77.3, "namjena": "K5", "udio_stambeno": 1.0, "zgrada_m2": 0.0, "udio_koridora": 0.03, "cesta_kroz": 0.0, "pristup_m": 0.0, "slobodno_m2": 1499.1, "skupina": 6, "skupina_cestica": 1, "skupina_slobodno_m2": 1499.1, "skupina_pristup_m": 0.0, "bez_pristupa": false, "boja": "#16a34a"}, "geometry": {"type": "Polygon", "coordinates": [[[16.50256, 43.52548], [16.502584, 43.525486], [16.502598, 43.525488], [16.502615, 43.525504], [16.502633, 43.525529], [16.502655, 43.525592], [16.502709, 43.525588], [16.502708, 43.525582], [16.502809, 43.525532], [16.502967, 43.525456], [16.502962, 43.525409], [16.502961, 43.525401], [16.502967, 43.525392], [16.502988, 43.52538], [16.503015, 43.525373], [16.502988, 43.525311], [16.502978, 43.525275], [16.502633, 43.525352], [16.502573, 43.525165], [16.502253, 43.52522], [16.502259, 43.525256], [16.502266, 43.525317], [16.502271, 43.525369], [16.502258, 43.52542], [16.502271, 43.525437], [16.50244, 43.525459], [16.502537, 43.525471], [16.50256, 43.52548]]]}}, {"type": "Feature", "properties": {"ko": "SPLIT", "cestica": "525", "povrsina_m2": 1418.3, "sirina_m": 19.8, "duljina_m": 71.6, "namjena": "K5", "udio_stambeno": 1.0, "zgrada_m2": 15.5, "udio_koridora": 0.115, "cesta_kroz": 0.239, "pristup_m": 0.0, "slobodno_m2": 1239.3, "skupina": 7, "skupina_cestica": 1, "skupina_slobodno_m2": 1239.3, "skupina_pristup_m": 0.0, "bez_pristupa": false, "boja": "#16a34a"}, "geometry": {"type": "Polygon", "coordinates": [[[16.49351, 43.525998], [16.493466, 43.526002], [16.493363, 43.52601], [16.493295, 43.526017], [16.493104, 43.526034], [16.493104, 43.526035], [16.492971, 43.526064], [16.492778, 43.526113], [16.492736, 43.526127], [16.492637, 43.526162], [16.492549, 43.526194], [16.4926, 43.526235], [16.492648, 43.526317], [16.492726, 43.52634], [16.492775, 43.526326], [16.492829, 43.52631], [16.493135, 43.52622], [16.493279, 43.526178], [16.49344, 43.526134], [16.493443, 43.526135], [16.49351, 43.525998]]]}}, {"type": "Feature", "properties": {"ko": "SPLIT", "cestica": "292", "povrsina_m2": 988.8, "sirina_m": 27.8, "duljina_m": 35.6, "namjena": "K5", "udio_stambeno": 1.0, "zgrada_m2": 0.0, "udio_koridora": 0.004, "cesta_kroz": 0.0, "pristup_m": 0.0, "slobodno_m2": 984.4, "skupina": 8, "skupina_cestica": 1, "skupina_slobodno_m2": 984.4, "skupina_pristup_m": 0.0, "bez_pristupa": false, "boja": "#16a34a"}, "geometry": {"type": "Polygon", "coordinates": [[[16.503217, 43.527332], [16.503138, 43.527248], [16.503013, 43.5271], [16.502945, 43.527117], [16.502841, 43.527142], [16.502723, 43.52722], [16.502633, 43.527265], [16.502695, 43.527405], [16.502921, 43.5274], [16.503097, 43.527351], [16.503217, 43.527332]]]}}, {"type": "Feature", "properties": {"ko": "SPLIT", "cestica": "241/2", "povrsina_m2": 877.9, "sirina_m": 20.9, "duljina_m": 42.1, "namjena": "K5", "udio_stambeno": 0.896, "zgrada_m2": 0.0, "udio_koridora": 0.101, "cesta_kroz": 0.0, "pristup_m": 0.0, "slobodno_m2": 774.2, "skupina": 9, "skupina_cestica": 2, "skupina_slobodno_m2": 932.8, "skupina_pristup_m": 0.0, "bez_pristupa": false, "boja": "#16a34a"}, "geometry": {"type": "Polygon", "coordinates": [[[16.495409, 43.527454], [16.494897, 43.527445], [16.494901, 43.527471], [16.494912, 43.527545], [16.494938, 43.527686], [16.49506, 43.527657], [16.495241, 43.527642], [16.495316, 43.527627], [16.495377, 43.527619], [16.495406, 43.527622], [16.495406, 43.527566], [16.495402, 43.527559], [16.495408, 43.5275], [16.495409, 43.527473], [16.495409, 43.527454]]]}}, {"type": "Feature", "properties": {"ko": "SPLIT", "cestica": "242/2", "povrsina_m2": 213.8, "sirina_m": 5.1, "duljina_m": 41.9, "namjena": "K5", "udio_stambeno": 0.891, "zgrada_m2": 1.1, "udio_koridora": 0.242, "cesta_kroz": 0.0, "pristup_m": 0.0, "slobodno_m2": 158.6, "skupina": 9, "skupina_cestica": 2, "skupina_slobodno_m2": 932.8, "skupina_pristup_m": 0.0, "bez_pristupa": false, "boja": "#16a34a"}, "geometry": {"type": "Polygon", "coordinates": [[[16.495411, 43.5274], [16.495225, 43.527403], [16.494889, 43.527406], [16.494897, 43.527445], [16.495409, 43.527454], [16.495411, 43.5274]]]}}, {"type": "Feature", "properties": {"ko": "SPLIT", "cestica": "295/10", "povrsina_m2": 938.5, "sirina_m": 27.7, "duljina_m": 33.9, "namjena": "K5", "udio_stambeno": 1.0, "zgrada_m2": 0.0, "udio_koridora": 0.121, "cesta_kroz": 0.018, "pristup_m": 0.0, "slobodno_m2": 825.0, "skupina": 10, "skupina_cestica": 2, "skupina_slobodno_m2": 891.9, "skupina_pristup_m": 0.0, "bez_pristupa": false, "boja": "#16a34a"}, "geometry": {"type": "Polygon", "coordinates": [[[16.503794, 43.525804], [16.503788, 43.525807], [16.503874, 43.526035], [16.504056, 43.526005], [16.504235, 43.525975], [16.504204, 43.525868], [16.504136, 43.525669], [16.503794, 43.525804]]]}}, {"type": "Feature", "properties": {"ko": "SPLIT", "cestica": "295/11", "povrsina_m2": 66.8, "sirina_m": 2.9, "duljina_m": 22.7, "namjena": "K5", "udio_stambeno": 1.0, "zgrada_m2": 0.0, "udio_koridora": 0.0, "cesta_kroz": 0.0, "pristup_m": 17.1, "slobodno_m2": 66.8, "skupina": 10, "skupina_cestica": 2, "skupina_slobodno_m2": 891.9, "skupina_pristup_m": 0.0, "bez_pristupa": false, "boja": "#16a34a"}, "geometry": {"type": "Polygon", "coordinates": [[[16.503874, 43.526035], [16.503781, 43.526051], [16.503788, 43.526077], [16.5039, 43.526058], [16.504061, 43.526031], [16.504056, 43.526005], [16.503874, 43.526035]]]}}, {"type": "Feature", "properties": {"ko": "SPLIT", "cestica": "506/2", "povrsina_m2": 889.0, "sirina_m": 16.9, "duljina_m": 52.7, "namjena": "K5", "udio_stambeno": 0.965, "zgrada_m2": 0.0, "udio_koridora": 0.005, "cesta_kroz": 0.0, "pristup_m": 0.0, "slobodno_m2": 853.7, "skupina": 11, "skupina_cestica": 1, "skupina_slobodno_m2": 853.7, "skupina_pristup_m": 0.0, "bez_pristupa": false, "boja": "#16a34a"}, "geometry": {"type": "Polygon", "coordinates": [[[16.494624, 43.525573], [16.494327, 43.525516], [16.49432, 43.525558], [16.494315, 43.525606], [16.494309, 43.525679], [16.494302, 43.52575], [16.494298, 43.525807], [16.494289, 43.525863], [16.494268, 43.525945], [16.494256, 43.525968], [16.494346, 43.526018], [16.494367, 43.525993], [16.494429, 43.525915], [16.494484, 43.525834], [16.494534, 43.525752], [16.494577, 43.525672], [16.494606, 43.525614], [16.494624, 43.525573]]]}}, {"type": "Feature", "properties": {"ko": "SPLIT", "cestica": "595", "povrsina_m2": 1049.8, "sirina_m": 11.9, "duljina_m": 88.6, "namjena": "K5", "udio_stambeno": 0.949, "zgrada_m2": 6.5, "udio_koridora": 0.183, "cesta_kroz": 0.0, "pristup_m": 0.0, "slobodno_m2": 852.0, "skupina": 12, "skupina_cestica": 1, "skupina_slobodno_m2": 850.4, "skupina_pristup_m": 0.0, "bez_pristupa": false, "boja": "#16a34a"}, "geometry": {"type": "Polygon", "coordinates": [[[16.49268, 43.523836], [16.492659, 43.523841], [16.492526, 43.52387], [16.492531, 43.523892], [16.492537, 43.523919], [16.49259, 43.524184], [16.492618, 43.52436], [16.492634, 43.524455], [16.492652, 43.524567], [16.492654, 43.524575], [16.492654, 43.52458], [16.492656, 43.524589], [16.492656, 43.524592], [16.492657, 43.524596], [16.492657, 43.5246], [16.492658, 43.524603], [16.492659, 43.524607], [16.492659, 43.524611], [16.49266, 43.524614], [16.49266, 43.524618], [16.492661, 43.524622], [16.492662, 43.524625], [16.492662, 43.524629], [16.492665, 43.524648], [16.492693, 43.524643], [16.492693, 43.524641], [16.492808, 43.524629], [16.492791, 43.524508], [16.492776, 43.524407], [16.492717, 43.524086], [16.492681, 43.523841], [16.49268, 43.523836]]]}}, {"type": "Feature", "properties": {"ko": "SPLIT", "cestica": "631/2", "povrsina_m2": 52.9, "sirina_m": 5.9, "duljina_m": 8.9, "namjena": "M/K5", "udio_stambeno": 1.0, "zgrada_m2": 0.0, "udio_koridora": 0.0, "cesta_kroz": 0.0, "pristup_m": 24.5, "slobodno_m2": 52.9, "skupina": 13, "skupina_cestica": 6, "skupina_slobodno_m2": 811.5, "skupina_pristup_m": 2.6, "bez_pristupa": false, "boja": "#16a34a"}, "geometry": {"type": "Polygon", "coordinates": [[[16.49395, 43.523723], [16.49392, 43.523661], [16.493824, 43.5237], [16.493846, 43.523741], [16.49395, 43.523723]]]}}, {"type": "Feature", "properties": {"ko": "SPLIT", "cestica": "626/2", "povrsina_m2": 410.6, "sirina_m": 18.3, "duljina_m": 22.4, "namjena": "M/K5", "udio_stambeno": 0.934, "zgrada_m2": 0.0, "udio_koridora": 0.15, "cesta_kroz": 0.0, "pristup_m": 25.5, "slobodno_m2": 349.1, "skupina": 13, "skupina_cestica": 6, "skupina_slobodno_m2": 811.5, "skupina_pristup_m": 2.6, "bez_pristupa": false, "boja": "#16a34a"}, "geometry": {"type": "Polygon", "coordinates": [[[16.494557, 43.523592], [16.494498, 43.523505], [16.494451, 43.523435], [16.494447, 43.523437], [16.494298, 43.523503], [16.49421, 43.523541], [16.494278, 43.523668], [16.494367, 43.523651], [16.494557, 43.523592]]]}}, {"type": "Feature", "properties": {"ko": "SPLIT", "cestica": "627/1", "povrsina_m2": 82.1, "sirina_m": 3.8, "duljina_m": 21.6, "namjena": "M/K5", "udio_stambeno": 1.0, "zgrada_m2": 0.0, "udio_koridora": 0.0, "cesta_kroz": 0.0, "pristup_m": 14.3, "slobodno_m2": 82.1, "skupina": 13, "skupina_cestica": 6, "skupina_slobodno_m2": 811.5, "skupina_pristup_m": 2.6, "bez_pristupa": false, "boja": "#16a34a"}, "geometry": {"type": "Polygon", "coordinates": [[[16.49421, 43.523541], [16.494188, 43.523501], [16.494183, 43.523491], [16.494185, 43.523501], [16.494191, 43.523526], [16.49399, 43.523551], [16.49403, 43.523614], [16.49421, 43.523541]]]}}, {"type": "Feature", "properties": {"ko": "SPLIT", "cestica": "630/3", "povrsina_m2": 148.9, "sirina_m": 7.0, "duljina_m": 21.3, "namjena": "M/K5", "udio_stambeno": 0.517, "zgrada_m2": 0.0, "udio_koridora": 0.0, "cesta_kroz": 0.0, "pristup_m": 2.6, "slobodno_m2": 77.0, "skupina": 13, "skupina_cestica": 6, "skupina_slobodno_m2": 811.5, "skupina_pristup_m": 2.6, "bez_pristupa": false, "boja": "#16a34a"}, "geometry": {"type": "Polygon", "coordinates": [[[16.49403, 43.523614], [16.49399, 43.523551], [16.493984, 43.523552], [16.493884, 43.523497], [16.49384, 43.523472], [16.493825, 43.523474], [16.493836, 43.523496], [16.49392, 43.523661], [16.49403, 43.523614]]]}}, {"type": "Feature", "properties": {"ko": "SPLIT", "cestica": "627/2", "povrsina_m2": 210.7, "sirina_m": 12.5, "duljina_m": 16.9, "namjena": "M/K5", "udio_stambeno": 0.914, "zgrada_m2": 0.0, "udio_koridora": 0.221, "cesta_kroz": 0.0, "pristup_m": 21.9, "slobodno_m2": 164.1, "skupina": 13, "skupina_cestica": 6, "skupina_slobodno_m2": 811.5, "skupina_pristup_m": 2.6, "bez_pristupa": false, "boja": "#16a34a"}, "geometry": {"type": "Polygon", "coordinates": [[[16.494278, 43.523668], [16.49421, 43.523541], [16.49403, 43.523614], [16.494085, 43.523703], [16.494278, 43.523668]]]}}, {"type": "Feature", "properties": {"ko": "SPLIT", "cestica": "630/2", "povrsina_m2": 95.8, "sirina_m": 8.4, "duljina_m": 11.4, "namjena": "M/K5", "udio_stambeno": 0.997, "zgrada_m2": 0.0, "udio_koridora": 0.1, "cesta_kroz": 0.0, "pristup_m": 22.0, "slobodno_m2": 86.2, "skupina": 13, "skupina_cestica": 6, "skupina_slobodno_m2": 811.5, "skupina_pristup_m": 2.6, "bez_pristupa": false, "boja": "#16a34a"}, "geometry": {"type": "Polygon", "coordinates": [[[16.494085, 43.523703], [16.49403, 43.523614], [16.49392, 43.523661], [16.49395, 43.523723], [16.494085, 43.523703]]]}}, {"type": "Feature", "properties": {"ko": "SPLIT", "cestica": "603/1", "povrsina_m2": 20.0, "sirina_m": 0.8, "duljina_m": 25.7, "namjena": "K5", "udio_stambeno": 0.689, "zgrada_m2": 0.0, "udio_koridora": 0.568, "cesta_kroz": 0.0, "pristup_m": 42.0, "slobodno_m2": 8.6, "skupina": 14, "skupina_cestica": 5, "skupina_slobodno_m2": 733.4, "skupina_pristup_m": 40.8, "bez_pristupa": true, "boja": "#dc2626"}, "geometry": {"type": "Polygon", "coordinates": [[[16.493391, 43.523895], [16.493373, 43.523907], [16.493449, 43.52397], [16.493555, 43.524032], [16.49361, 43.524054], [16.493605, 43.524045], [16.493556, 43.524026], [16.493462, 43.523969], [16.493461, 43.523969], [16.493426, 43.523942], [16.493414, 43.523928], [16.493391, 43.523895]]]}}, {"type": "Feature", "properties": {"ko": "SPLIT", "cestica": "604/1", "povrsina_m2": 28.6, "sirina_m": 2.2, "duljina_m": 12.9, "namjena": "K5", "udio_stambeno": 1.0, "zgrada_m2": 0.0, "udio_koridora": 0.09, "cesta_kroz": 0.0, "pristup_m": 51.2, "slobodno_m2": 26.1, "skupina": 14, "skupina_cestica": 5, "skupina_slobodno_m2": 733.4, "skupina_pristup_m": 40.8, "bez_pristupa": true, "boja": "#dc2626"}, "geometry": {"type": "Polygon", "coordinates": [[[16.493605, 43.524045], [16.493574, 43.523991], [16.493462, 43.523969], [16.493556, 43.524026], [16.493605, 43.524045]]]}}, {"type": "Feature", "properties": {"ko": "SPLIT", "cestica": "606/2", "povrsina_m2": 253.0, "sirina_m": 13.9, "duljina_m": 18.2, "namjena": "K5", "udio_stambeno": 1.0, "zgrada_m2": 8.2, "udio_koridora": 0.0, "cesta_kroz": 0.0, "pristup_m": 53.7, "slobodno_m2": 244.8, "skupina": 14, "skupina_cestica": 5, "skupina_slobodno_m2": 733.4, "skupina_pristup_m": 40.8, "bez_pristupa": true, "boja": "#dc2626"}, "geometry": {"type": "Polygon", "coordinates": [[[16.494381, 43.523984], [16.494223, 43.523977], [16.494173, 43.523974], [16.494191, 43.524103], [16.494251, 43.524113], [16.494397, 43.524128], [16.494381, 43.523984]]]}}, {"type": "Feature", "properties": {"ko": "SPLIT", "cestica": "606/3", "povrsina_m2": 493.9, "sirina_m": 9.5, "duljina_m": 52.3, "namjena": "K5", "udio_stambeno": 1.0, "zgrada_m2": 0.0, "udio_koridora": 0.011, "cesta_kroz": 0.0, "pristup_m": 48.8, "slobodno_m2": 488.6, "skupina": 14, "skupina_cestica": 5, "skupina_slobodno_m2": 733.4, "skupina_pristup_m": 40.8, "bez_pristupa": true, "boja": "#dc2626"}, "geometry": {"type": "Polygon", "coordinates": [[[16.494173, 43.523974], [16.4939, 43.523962], [16.493544, 43.523936], [16.493574, 43.523991], [16.493839, 43.524042], [16.494191, 43.524103], [16.494173, 43.523974]]]}}, {"type": "Feature", "properties": {"ko": "SPLIT", "cestica": "607/1", "povrsina_m2": 59.8, "sirina_m": 5.6, "duljina_m": 10.8, "namjena": "K5", "udio_stambeno": 0.675, "zgrada_m2": 0.0, "udio_koridora": 0.459, "cesta_kroz": 0.0, "pristup_m": 40.8, "slobodno_m2": 31.8, "skupina": 14, "skupina_cestica": 5, "skupina_slobodno_m2": 733.4, "skupina_pristup_m": 40.8, "bez_pristupa": true, "boja": "#dc2626"}, "geometry": {"type": "Polygon", "coordinates": [[[16.493505, 43.523869], [16.493477, 43.523877], [16.493421, 43.52388], [16.493391, 43.523895], [16.493414, 43.523928], [16.493544, 43.523936], [16.493505, 43.523869]]]}}, {"type": "Feature", "properties": {"ko": "SPLIT", "cestica": "414/2", "povrsina_m2": 492.0, "sirina_m": 17.7, "duljina_m": 27.7, "namjena": "K5", "udio_stambeno": 1.0, "zgrada_m2": 0.0, "udio_koridora": 0.0, "cesta_kroz": 0.0, "pristup_m": 10.5, "slobodno_m2": 492.0, "skupina": 15, "skupina_cestica": 1, "skupina_slobodno_m2": 492.0, "skupina_pristup_m": 10.5, "bez_pristupa": true, "boja": "#dc2626"}, "geometry": {"type": "Polygon", "coordinates": [[[16.503296, 43.525864], [16.50329, 43.525844], [16.503278, 43.52581], [16.50327, 43.525783], [16.503252, 43.525762], [16.503075, 43.525796], [16.502912, 43.525828], [16.502956, 43.525947], [16.502967, 43.525978], [16.503129, 43.525943], [16.503246, 43.525922], [16.503301, 43.525911], [16.503301, 43.525894], [16.503296, 43.525864]]]}}, {"type": "Feature", "properties": {"ko": "SPLIT", "cestica": "248/2", "povrsina_m2": 485.6, "sirina_m": 18.9, "duljina_m": 25.7, "namjena": "K5", "udio_stambeno": 1.0, "zgrada_m2": 0.0, "udio_koridora": 0.0, "cesta_kroz": 0.0, "pristup_m": 3.8, "slobodno_m2": 485.6, "skupina": 16, "skupina_cestica": 1, "skupina_slobodno_m2": 485.6, "skupina_pristup_m": 3.8, "bez_pristupa": true, "boja": "#dc2626"}, "geometry": {"type": "Polygon", "coordinates": [[[16.495127, 43.52639], [16.495096, 43.526384], [16.495064, 43.526378], [16.49503, 43.526371], [16.495001, 43.526365], [16.494971, 43.526358], [16.494945, 43.526351], [16.494918, 43.526344], [16.494905, 43.526341], [16.494846, 43.526526], [16.495136, 43.526575], [16.495143, 43.526552], [16.495163, 43.52649], [16.49517, 43.526466], [16.495191, 43.5264], [16.49518, 43.526399], [16.49515, 43.526394], [16.495127, 43.52639]]]}}, {"type": "Feature", "properties": {"ko": "SPLIT", "cestica": "375/8", "povrsina_m2": 508.9, "sirina_m": 21.1, "duljina_m": 24.1, "namjena": "K5", "udio_stambeno": 1.0, "zgrada_m2": 0.0, "udio_koridora": 0.087, "cesta_kroz": 0.0, "pristup_m": 0.0, "slobodno_m2": 464.9, "skupina": 17, "skupina_cestica": 1, "skupina_slobodno_m2": 464.9, "skupina_pristup_m": 0.0, "bez_pristupa": false, "boja": "#16a34a"}, "geometry": {"type": "Polygon", "coordinates": [[[16.503681, 43.524585], [16.503722, 43.524757], [16.503726, 43.524776], [16.503761, 43.524772], [16.503986, 43.524743], [16.504016, 43.52474], [16.504013, 43.524728], [16.504, 43.524677], [16.503968, 43.524549], [16.503681, 43.524585]]]}}, {"type": "Feature", "properties": {"ko": "SPLIT", "cestica": "404/17", "povrsina_m2": 454.5, "sirina_m": 21.3, "duljina_m": 21.3, "namjena": "K5", "udio_stambeno": 1.0, "zgrada_m2": 0.3, "udio_koridora": 0.116, "cesta_kroz": 0.0, "pristup_m": 0.0, "slobodno_m2": 401.5, "skupina": 18, "skupina_cestica": 1, "skupina_slobodno_m2": 401.5, "skupina_pristup_m": 0.0, "bez_pristupa": false, "boja": "#16a34a"}, "geometry": {"type": "Polygon", "coordinates": [[[16.501453, 43.525329], [16.501507, 43.525341], [16.501606, 43.525358], [16.50173, 43.525381], [16.501769, 43.525197], [16.5017, 43.525185], [16.501593, 43.525168], [16.501508, 43.525156], [16.501453, 43.525329]]]}}, {"type": "Feature", "properties": {"ko": "SPLIT", "cestica": "612/3", "povrsina_m2": 957.2, "sirina_m": 22.2, "duljina_m": 43.1, "namjena": "K5", "udio_stambeno": 0.897, "zgrada_m2": 3.6, "udio_koridora": 0.525, "cesta_kroz": 0.0, "pristup_m": 12.4, "slobodno_m2": 451.4, "skupina": 19, "skupina_cestica": 1, "skupina_slobodno_m2": 353.6, "skupina_pristup_m": 12.4, "bez_pristupa": true, "boja": "#dc2626"}, "geometry": {"type": "Polygon", "coordinates": [[[16.49486, 43.52349], [16.494798, 43.523522], [16.494761, 43.523541], [16.494714, 43.523559], [16.494681, 43.523571], [16.494641, 43.523583], [16.494608, 43.523592], [16.494672, 43.523753], [16.494678, 43.523769], [16.495124, 43.523659], [16.495135, 43.523656], [16.49513, 43.523639], [16.495104, 43.523546], [16.495118, 43.523544], [16.495089, 43.52342], [16.495009, 43.523443], [16.494964, 43.523455], [16.494904, 43.523472], [16.49486, 43.52349]]]}}, {"type": "Feature", "properties": {"ko": "SPLIT", "cestica": "599", "povrsina_m2": 736.7, "sirina_m": 22.4, "duljina_m": 32.9, "namjena": "K5", "udio_stambeno": 1.0, "zgrada_m2": 4.8, "udio_koridora": 0.532, "cesta_kroz": 0.0, "pristup_m": 0.0, "slobodno_m2": 340.2, "skupina": 20, "skupina_cestica": 1, "skupina_slobodno_m2": 340.2, "skupina_pristup_m": 0.0, "bez_pristupa": false, "boja": "#16a34a"}, "geometry": {"type": "Polygon", "coordinates": [[[16.49349, 43.524425], [16.493463, 43.524334], [16.493213, 43.52436], [16.493215, 43.524388], [16.493218, 43.524435], [16.49322, 43.524451], [16.493233, 43.524637], [16.493559, 43.524622], [16.49349, 43.524425]]]}}, {"type": "Feature", "properties": {"ko": "SPLIT", "cestica": "307/1", "povrsina_m2": 451.1, "sirina_m": 16.2, "duljina_m": 27.9, "namjena": "K5", "udio_stambeno": 1.0, "zgrada_m2": 0.0, "udio_koridora": 0.311, "cesta_kroz": 0.232, "pristup_m": 0.0, "slobodno_m2": 310.9, "skupina": 21, "skupina_cestica": 1, "skupina_slobodno_m2": 310.9, "skupina_pristup_m": 0.0, "bez_pristupa": false, "boja": "#16a34a"}, "geometry": {"type": "Polygon", "coordinates": [[[16.50467, 43.525611], [16.504967, 43.52553], [16.50495, 43.52547], [16.504919, 43.525358], [16.504868, 43.525378], [16.504734, 43.525432], [16.504626, 43.525467], [16.50467, 43.525611]]]}}]}