{"type":"FeatureCollection","features":[{"type":"Feature","properties":{"id":"RoadLink.206","localId":"rl.206","izvor":"Hrvatske ceste (INSPIRE WFS)"},"geometry":{"type":"LineString","coordinates":[[16.490016,43.527977],[16.489997,43.527928],[16.489984,43.527886],[16.489974,43.527842],[16.489967,43.527794],[16.489964,43.527749],[16.489965,43.527702],[16.489969,43.527654],[16.489975,43.527618],[16.489984,43.527578],[16.489996,43.527537],[16.49001,43.527498],[16.490029,43.527457],[16.490047,43.527422],[16.490068,43.527386],[16.490093,43.52735],[16.49012,43.527314],[16.490149,43.52728],[16.490178,43.52725]]}},{"type":"Feature","properties":{"id":"RoadLink.21157","localId":"rl.21157","izvor":"Hrvatske ceste (INSPIRE WFS)"},"geometry":{"type":"LineString","coordinates":[[16.500966,43.528051],[16.500956,43.52805],[16.500712,43.528021],[16.500468,43.527993],[16.50001,43.527949],[16.499586,43.527916],[16.499104,43.527886],[16.4987,43.527869],[16.498483,43.52786],[16.49807,43.527851],[16.4977,43.52785],[16.497152,43.527855],[16.496785,43.527868],[16.496404,43.527886],[16.496215,43.527895],[16.495881,43.527922],[16.495534,43.527964],[16.495279,43.528004],[16.494925,43.528079],[16.494592,43.528164],[16.494423,43.528214],[16.494002,43.52835],[16.493703,43.528453],[16.493483,43.528522],[16.493331,43.528567],[16.493161,43.528608]]}},{"type":"Feature","properties":{"id":"RoadLink.21158","localId":"rl.21158","izvor":"Hrvatske ceste (INSPIRE WFS)"},"geometry":{"type":"LineString","coordinates":[[16.493161,43.528608],[16.492994,43.528633],[16.492846,43.528651],[16.492706,43.528661],[16.492562,43.528663],[16.492417,43.528658],[16.492292,43.528648],[16.492159,43.52863],[16.491889,43.528591],[16.491632,43.528552],[16.491404,43.528522]]}},{"type":"Feature","properties":{"id":"RoadLink.21159","localId":"rl.21159","izvor":"Hrvatske ceste (INSPIRE WFS)"},"geometry":{"type":"LineString","coordinates":[[16.500966,43.528051],[16.50075,43.528065],[16.500695,43.528067],[16.50064,43.528065],[16.500586,43.528061],[16.500146,43.528016],[16.499698,43.527978],[16.499235,43.527947],[16.498837,43.527927],[16.498451,43.527918],[16.498215,43.527922],[16.497979,43.527933],[16.497783,43.527952],[16.497589,43.527979],[16.497254,43.52804],[16.496926,43.528118],[16.496709,43.528181],[16.496497,43.528255],[16.496312,43.528329],[16.496132,43.528409],[16.495885,43.528535],[16.495652,43.528673],[16.495323,43.528888],[16.495114,43.529037],[16.495068,43.529072],[16.494987,43.529129],[16.4949,43.529181],[16.494808,43.529229]]}},{"type":"Feature","properties":{"id":"RoadLink.21160","localId":"rl.21160","izvor":"Hrvatske ceste (INSPIRE WFS)"},"geometry":{"type":"LineString","coordinates":[[16.494808,43.529229],[16.494868,43.52915],[16.494896,43.529116],[16.494926,43.529083],[16.49496,43.529051],[16.495093,43.528935],[16.495233,43.528807],[16.495398,43.528651],[16.495464,43.528587],[16.495526,43.528521],[16.495617,43.528414],[16.495634,43.528391],[16.495649,43.528367],[16.495662,43.528342],[16.495673,43.528317],[16.495678,43.5283],[16.495682,43.528283],[16.495683,43.528265],[16.495683,43.528248],[16.495681,43.52823],[16.495677,43.528213],[16.495672,43.528201],[16.495667,43.528189],[16.49566,43.528177],[16.495651,43.528165],[16.495642,43.528154],[16.495631,43.528144],[16.495619,43.528135],[16.495606,43.528126],[16.495592,43.528118],[16.495577,43.528111],[16.495561,43.528105],[16.495523,43.528092],[16.495483,43.528082],[16.495442,43.528074],[16.4954,43.528069],[16.495357,43.528066],[16.495322,43.528066],[16.495287,43.528067],[16.495252,43.528071],[16.495217,43.528077],[16.495003,43.528124],[16.49483,43.528165],[16.494581,43.528231],[16.49413,43.528372],[16.493736,43.528505],[16.493616,43.528544],[16.493492,43.528575],[16.493411,43.528591],[16.493328,43.528601],[16.493245,43.528607],[16.493161,43.528608]]}},{"type":"Feature","properties":{"id":"RoadLink.21161","localId":"rl.21161","izvor":"Hrvatske ceste (INSPIRE WFS)"},"geometry":{"type":"LineString","coordinates":[[16.493427851796053,43.53040109856765],[16.493461,43.530365],[16.493728,43.530091],[16.49382,43.530004],[16.493917,43.529921],[16.494119,43.529758],[16.494165,43.529721]]}},{"type":"Feature","properties":{"id":"RoadLink.21162","localId":"rl.21162","izvor":"Hrvatske ceste (INSPIRE WFS)"},"geometry":{"type":"LineString","coordinates":[[16.494165,43.529721],[16.494284,43.52963],[16.494578,43.529406],[16.494808,43.529229]]}},{"type":"Feature","properties":{"id":"RoadLink.21163","localId":"rl.21163","izvor":"Hrvatske ceste (INSPIRE WFS)"},"geometry":{"type":"LineString","coordinates":[[16.494165,43.529721],[16.49411,43.529805],[16.494091,43.529831],[16.49407,43.529855],[16.494046,43.529878],[16.493924,43.529983],[16.493797,43.530094],[16.493641,43.530251],[16.49349804898319,43.53040109856765]]}},{"type":"Feature","properties":{"id":"RoadLink.212","localId":"rl.212","izvor":"Hrvatske ceste (INSPIRE WFS)"},"geometry":{"type":"LineString","coordinates":[[16.490725,43.528508],[16.490687,43.528499],[16.490628,43.528481],[16.490577,43.528463],[16.49053,43.528444],[16.490481,43.528422],[16.490435,43.5284],[16.490394,43.528377],[16.490362,43.528358],[16.490329,43.528337],[16.490289,43.528308],[16.490261,43.528287],[16.490228,43.52826],[16.490201,43.528236],[16.490172,43.528207],[16.490138,43.52817],[16.490113,43.52814],[16.49009,43.528109],[16.490068,43.528077],[16.490043,43.528034],[16.490016,43.527977]]}},{"type":"Feature","properties":{"id":"RoadLink.23292","localId":"rl.23292","izvor":"Hrvatske ceste (INSPIRE WFS)"},"geometry":{"type":"LineString","coordinates":[[16.488658175056663,43.53040109856765],[16.488659,43.530398],[16.488716,43.530241],[16.488788,43.530087],[16.488866,43.529943],[16.48896,43.529795],[16.489078,43.52961],[16.489208,43.52941],[16.489355,43.529191],[16.489497,43.528976],[16.489663,43.528738],[16.489826,43.528496],[16.489878,43.528412],[16.489906,43.528362],[16.489932,43.528308],[16.489952,43.528256],[16.489967,43.528201],[16.489989,43.528101],[16.490016,43.527977]]}},{"type":"Feature","properties":{"id":"RoadLink.23293","localId":"rl.23293","izvor":"Hrvatske ceste (INSPIRE WFS)"},"geometry":{"type":"LineString","coordinates":[[16.488686058573215,43.53040109856765],[16.488715,43.53034],[16.488762,43.53025],[16.488834,43.530122],[16.48891,43.529996],[16.489049,43.529784],[16.489248,43.529514],[16.489275,43.529476],[16.489357,43.529368],[16.489529,43.529144],[16.489677,43.528949],[16.489698,43.528921],[16.489877,43.52869],[16.489907,43.52865],[16.49005,43.528457],[16.490114,43.528364],[16.490174,43.52827],[16.490229,43.528175],[16.490281,43.528078],[16.490289,43.528061],[16.490313,43.528012],[16.490342,43.527946],[16.490369,43.527879],[16.490392,43.527811],[16.490413,43.527742],[16.490419,43.527719],[16.490432,43.527667],[16.490449,43.527592],[16.490463,43.527516],[16.490473,43.527439],[16.490476,43.527411],[16.49048,43.527364],[16.490484,43.527296],[16.490484,43.527288],[16.490484,43.527212],[16.490483,43.527178],[16.490481,43.527137],[16.490478,43.527099],[16.490474,43.527061],[16.490466,43.526994],[16.490455,43.526927],[16.490441,43.526861],[16.490431,43.526823],[16.490424,43.526795],[16.490405,43.526729],[16.490383,43.526664],[16.490358,43.526599],[16.49034,43.526559],[16.490327,43.526528],[16.490294,43.526458],[16.490274,43.52642],[16.490257,43.526389],[16.490217,43.52632],[16.490175,43.526253],[16.490129,43.526186],[16.490081,43.526121],[16.490012,43.52604],[16.48994,43.52596],[16.489869,43.525887],[16.489864,43.525882],[16.489785,43.525805],[16.48976,43.525782],[16.489703,43.525731],[16.489618,43.525658],[16.48953,43.525588],[16.489439,43.525519],[16.489369,43.525466],[16.489282,43.525401],[16.489221,43.525356],[16.48895,43.525149]]}},{"type":"Feature","properties":{"id":"RoadLink.23294","localId":"rl.23294","izvor":"Hrvatske ceste (INSPIRE WFS)"},"geometry":{"type":"LineString","coordinates":[[16.490178,43.52725],[16.490192,43.527203],[16.4902,43.527161],[16.490212,43.527106],[16.490216,43.527039],[16.490218,43.526955],[16.490212,43.526863],[16.490192,43.526774],[16.490162,43.526653],[16.490112,43.526516],[16.490066,43.526398],[16.490013,43.526296],[16.489963,43.526205],[16.489905,43.526112],[16.489749,43.525898],[16.489677,43.525817],[16.489588,43.525733],[16.489463,43.525623],[16.489349,43.525529],[16.489217,43.525423],[16.489114,43.525343],[16.48907,43.525303],[16.489029,43.525259],[16.488986,43.525206],[16.48895,43.525149]]}},{"type":"Feature","properties":{"id":"RoadLink.23295","localId":"rl.23295","izvor":"Hrvatske ceste (INSPIRE WFS)"},"geometry":{"type":"LineString","coordinates":[[16.48895,43.525149],[16.488706,43.524963],[16.488295,43.524646],[16.487908,43.524348],[16.487228,43.523827],[16.486975858925536,43.52363334933152]]}},{"type":"Feature","properties":{"id":"RoadLink.23309","localId":"rl.23309","izvor":"Hrvatske ceste (INSPIRE WFS)"},"geometry":{"type":"LineString","coordinates":[[16.486975858925536,43.523496067139675],[16.486981,43.5235],[16.487606,43.523978],[16.487915,43.524214],[16.488723,43.52483],[16.489051,43.525081]]}},{"type":"Feature","properties":{"id":"RoadLink.23311","localId":"rl.23311","izvor":"Hrvatske ceste (INSPIRE WFS)"},"geometry":{"type":"LineString","coordinates":[[16.490725,43.528508],[16.49064,43.528528],[16.490579,43.528541],[16.490471,43.528573],[16.4904,43.528599],[16.49035,43.528622],[16.4903,43.52865],[16.49026,43.528681],[16.490234,43.528704],[16.490189,43.528745],[16.490154,43.528783],[16.490064,43.528875],[16.489943,43.529014],[16.489843,43.529135],[16.489648,43.529364],[16.48949,43.529551],[16.489358,43.52971],[16.489287,43.529803],[16.489224,43.529892],[16.489168,43.529975],[16.489122,43.530046],[16.489078,43.530116],[16.48903,43.530196],[16.488975,43.530275],[16.488877,43.530396],[16.488872897246345,43.53040109856765]]}},{"type":"Feature","properties":{"id":"RoadLink.23312","localId":"rl.23312","izvor":"Hrvatske ceste (INSPIRE WFS)"},"geometry":{"type":"LineString","coordinates":[[16.489051,43.525081],[16.489332,43.525295],[16.489507,43.525429],[16.489642,43.525532],[16.489671,43.525554],[16.489755,43.525622],[16.489835,43.525691],[16.489913,43.525763],[16.489951,43.5258],[16.489987,43.525836],[16.490059,43.52591],[16.490127,43.525986],[16.490181,43.526052],[16.490232,43.52612],[16.49028,43.526188],[16.490288,43.526201],[16.490325,43.526258],[16.490367,43.526328],[16.490406,43.5264],[16.490442,43.526472],[16.49047,43.526533],[16.490475,43.526545],[16.490506,43.526625],[16.490533,43.526706],[16.490557,43.526787],[16.490577,43.526869],[16.490579,43.526879],[16.490593,43.526951],[16.490603,43.527019],[16.490611,43.527087],[16.490616,43.527156],[16.490618,43.527225],[16.490618,43.527259],[16.490617,43.527293]]}},{"type":"Feature","properties":{"id":"RoadLink.23313","localId":"rl.23313","izvor":"Hrvatske ceste (INSPIRE WFS)"},"geometry":{"type":"LineString","coordinates":[[16.489051,43.525081],[16.489142,43.525119],[16.4892,43.525147],[16.489266,43.525182],[16.489325,43.525217],[16.489384,43.525251],[16.489521,43.52534],[16.48961,43.525399],[16.489697,43.525457],[16.489786,43.525519],[16.489872,43.525578],[16.489956,43.525641],[16.490035,43.525706],[16.490104,43.525766],[16.490176,43.525834],[16.490214,43.525871],[16.490247,43.525904],[16.49028,43.525939],[16.490314,43.525975],[16.490346,43.526011],[16.490376,43.526046],[16.490402,43.526081],[16.490428,43.526117],[16.490454,43.526151],[16.490481,43.526186],[16.490504,43.526221],[16.490528,43.526256],[16.490553,43.526291],[16.490574,43.526327],[16.490596,43.526363],[16.490617,43.526399],[16.490639,43.526434],[16.49066,43.52647],[16.490682,43.526506],[16.490707,43.526543],[16.490731,43.526579],[16.490755,43.526616],[16.490783,43.526651],[16.490807,43.526677],[16.490832,43.526704],[16.490859,43.526728],[16.490898,43.526757],[16.490942,43.526784],[16.490986,43.526809],[16.491033,43.526832],[16.491078,43.52685],[16.491125,43.526868],[16.491173,43.526884],[16.491318,43.526926]]}},{"type":"Feature","properties":{"id":"RoadLink.247","localId":"rl.247","izvor":"Hrvatske ceste (INSPIRE WFS)"},"geometry":{"type":"LineString","coordinates":[[16.492185,43.527945],[16.492163,43.528154],[16.492156,43.528224],[16.492155,43.528264],[16.492157,43.528315],[16.492166,43.528347],[16.492181,43.528377],[16.492196,43.528402],[16.492218,43.528429],[16.492253,43.528461],[16.492283,43.528482],[16.492324,43.528505],[16.492361,43.528522],[16.492401,43.528536],[16.492444,43.528547],[16.492489,43.528555],[16.492544,43.528561],[16.492591,43.528562],[16.492675,43.528563],[16.492745,43.528559],[16.492822,43.528555],[16.492918,43.528546],[16.493051,43.528524],[16.493184,43.528499],[16.493295,43.528473],[16.493429,43.528435],[16.493543,43.528398],[16.493684,43.528352],[16.49401,43.52824],[16.494432,43.528107],[16.494646,43.528045],[16.494794,43.528008],[16.495037,43.527951],[16.4952,43.527918],[16.495402,43.527882],[16.495607,43.527856],[16.495832,43.52783],[16.496106,43.527806],[16.496366,43.52779],[16.496597,43.527778],[16.497011,43.527762],[16.497392,43.527754],[16.497734,43.527751],[16.498161,43.527754],[16.49851,43.527762],[16.498847,43.527774],[16.499309,43.527798],[16.499708,43.527825],[16.500058,43.527854],[16.500452,43.527892],[16.500697,43.52792],[16.500941,43.527949],[16.501184,43.52798],[16.501428,43.528013],[16.50167,43.528047],[16.501913,43.528082],[16.502155,43.528118],[16.502397,43.528155],[16.502639,43.528193],[16.502881,43.52823],[16.507724,43.528985],[16.507836,43.529002],[16.507948,43.52902],[16.50806,43.529038],[16.508172,43.529057],[16.508284,43.529077],[16.508395,43.529097],[16.508506,43.529119],[16.508616,43.529143],[16.508726,43.529168],[16.508834,43.529195],[16.508961,43.529229],[16.509064,43.52926],[16.509193,43.529301],[16.509279,43.52933],[16.5094,43.529375],[16.509538,43.52943],[16.509695,43.529498],[16.509866,43.52958],[16.510018,43.52966],[16.510174,43.52975],[16.510311,43.529837],[16.510461,43.52994],[16.510588,43.530036],[16.510723,43.530147],[16.510839,43.530247],[16.51096,43.530371],[16.51098772236494,43.53040109856765]]}},{"type":"Feature","properties":{"id":"RoadLink.256","localId":"rl.256","izvor":"Hrvatske ceste (INSPIRE WFS)"},"geometry":{"type":"LineString","coordinates":[[16.492185,43.527945],[16.492176,43.52797],[16.492161,43.528002],[16.492144,43.528035],[16.492126,43.528067],[16.492106,43.528098],[16.492084,43.528128],[16.492062,43.528156],[16.492038,43.528183],[16.492013,43.528209],[16.491985,43.528237],[16.491956,43.528263],[16.491929,43.528285],[16.491894,43.528313],[16.491859,43.528337],[16.491824,43.528359],[16.491779,43.528385],[16.49173,43.528411],[16.491684,43.528433],[16.491632,43.528455],[16.491576,43.528475],[16.491502,43.528498],[16.491465,43.528508],[16.491429,43.528517],[16.491404,43.528522]]}},{"type":"Feature","properties":{"id":"RoadLink.25651","localId":"rl.25651","izvor":"Hrvatske ceste (INSPIRE WFS)"},"geometry":{"type":"LineString","coordinates":[[16.490617,43.527293],[16.490625,43.527336],[16.49063,43.527374],[16.490633,43.52741],[16.490634,43.527442],[16.490634,43.527473],[16.490633,43.527503],[16.49063,43.527533],[16.490627,43.527564],[16.490623,43.527595],[16.490619,43.527629],[16.490614,43.527663],[16.49061,43.527697],[16.490604,43.527733],[16.490599,43.527768],[16.490593,43.527803],[16.490588,43.527839],[16.490582,43.527873],[16.490576,43.527906],[16.49057,43.527939],[16.490564,43.52797],[16.490558,43.528],[16.490552,43.528029],[16.490546,43.528055],[16.490541,43.52808],[16.490536,43.528102],[16.490531,43.528123],[16.490527,43.528142],[16.490522,43.52816],[16.490518,43.528177],[16.490514,43.528194],[16.490509,43.52821],[16.490505,43.528225],[16.490501,43.528241],[16.490496,43.528258],[16.490491,43.528274],[16.490486,43.52829],[16.490481,43.528306],[16.490476,43.528323],[16.490471,43.528339],[16.490466,43.528355],[16.490461,43.52837],[16.490455,43.528385],[16.49045,43.528401],[16.490444,43.528416],[16.490438,43.52843],[16.490432,43.528445],[16.490426,43.52846],[16.49042,43.528474],[16.490414,43.528488],[16.490407,43.528503],[16.4904,43.528517],[16.490393,43.528531],[16.490386,43.528546],[16.490378,43.52856],[16.490371,43.528573],[16.490363,43.528587],[16.490356,43.5286],[16.490348,43.528614],[16.49034,43.528627],[16.490331,43.528641],[16.490323,43.528655],[16.490314,43.528669],[16.490304,43.528683],[16.490293,43.528699],[16.490282,43.528715],[16.490271,43.528731],[16.490259,43.528748],[16.490246,43.528766],[16.490233,43.528783],[16.49022,43.528802],[16.490207,43.52882],[16.490193,43.528838],[16.490179,43.528856],[16.490165,43.528875],[16.490151,43.528893],[16.490137,43.528912],[16.490122,43.528931],[16.490107,43.52895],[16.490092,43.52897],[16.490075,43.52899],[16.490059,43.52901],[16.490041,43.529032],[16.490023,43.529054],[16.490004,43.529076],[16.489985,43.5291],[16.489965,43.529124],[16.489944,43.529149],[16.489923,43.529174],[16.489901,43.529201],[16.489879,43.529228],[16.489857,43.529255],[16.489835,43.529283],[16.489813,43.529311],[16.489791,43.529338],[16.489771,43.529364],[16.489751,43.52939],[16.489732,43.529415],[16.489714,43.529439],[16.489698,43.529462],[16.489682,43.529484],[16.489666,43.529505],[16.489652,43.529527],[16.489638,43.529547],[16.489624,43.529568],[16.489611,43.529589],[16.489598,43.529609],[16.489586,43.52963],[16.489573,43.52965],[16.48956,43.529671],[16.489548,43.529693],[16.489535,43.529715],[16.489522,43.529738],[16.489508,43.529761],[16.489495,43.529785],[16.489481,43.52981],[16.489467,43.529836],[16.489452,43.529864],[16.489438,43.529893],[16.489423,43.529923],[16.489408,43.529955],[16.489396,43.529988],[16.489387,43.53002],[16.489382,43.530043],[16.489376,43.530079],[16.489372,43.530117],[16.489372,43.530144],[16.489375,43.53018],[16.489381,43.530216],[16.489391,43.530252],[16.489402,43.530282],[16.489417,43.530313],[16.489436,43.530347],[16.489454,43.530372],[16.489472,43.530395],[16.48947761068224,43.53040109856765]]}},{"type":"Feature","properties":{"id":"RoadLink.25652","localId":"rl.25652","izvor":"Hrvatske ceste (INSPIRE WFS)"},"geometry":{"type":"LineString","coordinates":[[16.490617,43.527293],[16.490614,43.527362],[16.490605,43.52745],[16.490593,43.527537],[16.490577,43.527624],[16.490558,43.527711],[16.490534,43.527794],[16.490507,43.527876],[16.490476,43.527958],[16.490466,43.527981],[16.490441,43.528039],[16.490403,43.528119],[16.490368,43.528188],[16.490329,43.528256],[16.490299,43.528306],[16.490288,43.528323],[16.490245,43.52839],[16.490134,43.52855],[16.490037,43.528681],[16.490016,43.528708],[16.48974,43.529069],[16.489585,43.529271],[16.489502,43.52938],[16.489406,43.529505],[16.489395,43.529522],[16.489364,43.529565],[16.489325,43.529616],[16.489221,43.529758],[16.489132,43.529888],[16.489027,43.530048],[16.488987,43.530114],[16.488905,43.530258],[16.488838,43.530385],[16.48883044758555,43.53040109856765]]}},{"type":"Feature","properties":{"id":"RoadLink.262","localId":"rl.262","izvor":"Hrvatske ceste (INSPIRE WFS)"},"geometry":{"type":"LineString","coordinates":[[16.490178,43.52725],[16.49021,43.527219],[16.490245,43.527189],[16.490282,43.52716],[16.490329,43.527126],[16.490376,43.527097],[16.490423,43.52707],[16.49047,43.527046],[16.49052,43.527023],[16.490564,43.527005],[16.490614,43.526987],[16.490662,43.526972],[16.490722,43.526955],[16.490773,43.526943],[16.490831,43.526932],[16.490892,43.526923],[16.490946,43.526916],[16.491004,43.526912],[16.491065,43.52691],[16.491115,43.526909],[16.491158,43.526911],[16.491203,43.526913],[16.491264,43.526919],[16.491318,43.526926]]}},{"type":"Feature","properties":{"id":"RoadLink.26578","localId":"rl.26578","izvor":"Hrvatske ceste (INSPIRE WFS)"},"geometry":{"type":"LineString","coordinates":[[16.486975858925536,43.525207070537235],[16.486982,43.525204],[16.487037,43.525177],[16.48709,43.525148],[16.487142,43.525119],[16.487193,43.525089],[16.487246,43.525057],[16.4873,43.525023],[16.487356,43.524987],[16.487414,43.524948],[16.487476,43.524906],[16.48754,43.524863],[16.487606,43.524817],[16.487674,43.52477],[16.487743,43.524722],[16.487812,43.524673],[16.487881,43.524625],[16.487948,43.524577],[16.488014,43.524531],[16.488078,43.524486],[16.48814,43.524442],[16.4882,43.5244],[16.488258,43.52436],[16.488314,43.524322],[16.488367,43.524285],[16.488418,43.524251],[16.488466,43.524219],[16.488512,43.524189],[16.488556,43.524162],[16.488598,43.524135],[16.488639,43.524111],[16.488678,43.524088],[16.488717,43.524066],[16.488755,43.524045],[16.488793,43.524025],[16.48883,43.524006],[16.488868,43.523988],[16.488907,43.52397],[16.488946,43.523953],[16.488986,43.523936],[16.489028,43.523919],[16.48907,43.523903],[16.489115,43.523886],[16.489161,43.52387],[16.489209,43.523853],[16.489257,43.523838],[16.489306,43.523822],[16.489356,43.523807],[16.489406,43.523793],[16.489456,43.523779],[16.489507,43.523766],[16.489558,43.523754],[16.489611,43.523742],[16.489667,43.52373],[16.489727,43.523718],[16.489793,43.523707],[16.489865,43.523695],[16.489945,43.523683],[16.490032,43.52367],[16.490127,43.523656],[16.490226,43.523642],[16.490328,43.523628],[16.490431,43.523614],[16.490534,43.5236],[16.490634,43.523586],[16.49073,43.523572],[16.490821,43.523559],[16.490906,43.523545],[16.490988,43.523532],[16.491068,43.523518],[16.491146,43.523504],[16.491225,43.523488],[16.491305,43.523472],[16.491389,43.523454],[16.491475,43.523435],[16.491567,43.523414],[16.491661,43.523392],[16.49176,43.523369],[16.491862,43.523344],[16.491967,43.523318],[16.492076,43.523291],[16.492187,43.523263],[16.492302,43.523234],[16.492419,43.523204],[16.492539,43.523173],[16.492661,43.523142],[16.492785,43.52311],[16.49291,43.523078],[16.493037,43.523046],[16.493165,43.523013],[16.493294,43.522981],[16.493424,43.522949],[16.493556,43.522916],[16.493689,43.522883],[16.493825,43.522849],[16.493962,43.522815],[16.494102,43.52278],[16.494245,43.522744],[16.494391,43.522707],[16.49454,43.522669],[16.494691,43.522631],[16.494843,43.522591],[16.494996,43.522552],[16.495151,43.522513],[16.495305,43.522474],[16.49546,43.522436],[16.495613,43.522398],[16.495765,43.522361],[16.495915,43.522324],[16.496061,43.522289],[16.496204,43.522254],[16.496342,43.522221],[16.496475,43.522188],[16.496601,43.522156],[16.49672,43.522125],[16.496835,43.522094],[16.496946,43.522064],[16.497055,43.522032],[16.497165,43.522],[16.497277,43.521966],[16.497394,43.52193],[16.497516,43.521891],[16.497646,43.521849],[16.497782,43.521805],[16.497922,43.521758],[16.498065,43.521711],[16.498208,43.521663],[16.49835,43.521615],[16.498489,43.521568],[16.498623,43.521522],[16.498751,43.521478],[16.498872,43.521437],[16.498988,43.521397],[16.499099,43.521359],[16.499205,43.521322],[16.499307,43.521288],[16.499405,43.521255],[16.4995,43.521223],[16.499592,43.521193],[16.499682,43.521163],[16.49977,43.521135],[16.499857,43.521108],[16.499943,43.521082],[16.50003,43.521056],[16.500116,43.52103],[16.500203,43.521004],[16.500292,43.520979],[16.500383,43.520954],[16.500476,43.520928],[16.500572,43.520902],[16.500672,43.520876],[16.500776,43.52085],[16.500885,43.520823],[16.500999,43.520796],[16.501119,43.520769],[16.501243,43.520741],[16.50137,43.520713],[16.5015,43.520686],[16.501631,43.52066],[16.501762,43.520636],[16.501891,43.520613],[16.502017,43.520592],[16.50214,43.520573],[16.50226,43.520556],[16.502378,43.520542],[16.502495,43.520529],[16.502612,43.520519],[16.502731,43.520509],[16.502852,43.520502],[16.502976,43.520495],[16.503104,43.52049],[16.503234,43.520485],[16.503366,43.520481],[16.503499,43.520478],[16.503629,43.520476],[16.503757,43.520473],[16.50388,43.520471],[16.503997,43.520469],[16.504108,43.520467],[16.504213,43.520465],[16.504313,43.520462],[16.50441,43.520459],[16.504506,43.520456],[16.504601,43.520453],[16.504697,43.520449],[16.504797,43.520445],[16.504899,43.52044],[16.505004,43.520435],[16.505108,43.520429],[16.50521,43.520424],[16.505308,43.520418],[16.505399,43.520412],[16.505481,43.520406],[16.505554,43.5204],[16.505614,43.520395],[16.505662,43.520389],[16.505701,43.520384],[16.505732,43.520378],[16.505756,43.520372],[16.505775,43.520365],[16.50579,43.520357],[16.505803,43.520348],[16.505815,43.520338],[16.505826,43.520327],[16.505837,43.520314],[16.505847,43.520299],[16.505856,43.520281],[16.505866,43.520261],[16.505875,43.520239],[16.505883,43.520214],[16.505892,43.520185],[16.5059,43.520153],[16.505909,43.52012],[16.505917,43.520084],[16.505926,43.520048],[16.505934,43.52001],[16.505942,43.519972],[16.505951,43.519935],[16.50596,43.519898],[16.505969,43.519861],[16.505979,43.519824],[16.50599,43.519785],[16.506002,43.519744],[16.506015,43.5197],[16.50603,43.519654],[16.506047,43.519602],[16.506066,43.519547],[16.506087,43.519487],[16.506092999938655,43.519470826252316]]}},{"type":"Feature","properties":{"id":"RoadLink.391","localId":"rl.391","izvor":"Hrvatske ceste (INSPIRE WFS)"},"geometry":{"type":"LineString","coordinates":[[16.491404,43.528522],[16.491347,43.528533],[16.491277,43.528543],[16.4912,43.52855],[16.491132,43.528553],[16.491081,43.528554],[16.491023,43.528552],[16.490968,43.528549],[16.490909,43.528543],[16.49085,43.528534],[16.490795,43.528524],[16.490739,43.528512],[16.490725,43.528508]]}},{"type":"Feature","properties":{"id":"RoadLink.392","localId":"rl.392","izvor":"Hrvatske ceste (INSPIRE WFS)"},"geometry":{"type":"LineString","coordinates":[[16.491318,43.526926],[16.49138,43.526936],[16.491439,43.526948],[16.491489,43.526961],[16.491543,43.526977],[16.491595,43.526995],[16.491651,43.527016],[16.491706,43.527041],[16.491755,43.527065],[16.491799,43.527089],[16.491842,43.527115],[16.49189,43.527148],[16.49194,43.527187],[16.491981,43.527223],[16.492018,43.527258],[16.492051,43.527295],[16.49208,43.52733],[16.492109,43.52737],[16.492135,43.527412],[16.492155,43.527448],[16.492174,43.52749],[16.492189,43.527528],[16.492201,43.527568],[16.492211,43.527608],[16.492218,43.527645],[16.492222,43.527682],[16.492224,43.527716],[16.492224,43.527748],[16.492221,43.52779],[16.492216,43.527828],[16.49221,43.527861],[16.4922,43.527898],[16.492189,43.527934],[16.492185,43.527945]]}},{"type":"Feature","properties":{"id":"RoadLink.81","localId":"rl.81","izvor":"Hrvatske ceste (INSPIRE WFS)"},"geometry":{"type":"LineString","coordinates":[[16.510720561596624,43.53040109856765],[16.510619,43.530296],[16.510396,43.530101],[16.510151,43.52992],[16.509886,43.529754],[16.509604,43.529605],[16.509306,43.529473],[16.508993,43.529359],[16.508669,43.529264],[16.508569,43.529239],[16.508468,43.529216],[16.508366,43.529194],[16.508264,43.529174],[16.508161,43.529154],[16.508058,43.529135],[16.507954,43.529118],[16.50785,43.5291],[16.507746,43.529083],[16.507642,43.529067],[16.507547,43.529051],[16.506164,43.52884],[16.502897,43.528331],[16.502655,43.528294],[16.502413,43.528256],[16.502171,43.528219],[16.501929,43.528183],[16.501686,43.528148],[16.501443,43.528114],[16.5012,43.528081],[16.500966,43.528051]]}}]}