{"type": "FeatureCollection", "features": [{"type": "Feature", "properties": {"naziv": "Dračevac"}, "geometry": {"type": "Polygon", "coordinates": [[[16.4957571029663, 43.5291979143192], [16.4966154098511, 43.5245305388389], [16.4974308013916, 43.5219477692031], [16.5012502670288, 43.5205474261866], [16.5055847167969, 43.5207652594572], [16.505970954895, 43.5215432290035], [16.5100479125977, 43.5242816020025], [16.5032243728638, 43.5285756184546], [16.4957571029663, 43.5291979143192]]]}}, {"type": "Feature", "properties": {"naziv": "Bilice"}, "geometry": {"type": "Polygon", "coordinates": [[[16.4957571029663, 43.5291979143192], [16.4898777008057, 43.5293223727217], [16.4909076690674, 43.5272687762407], [16.4909076690674, 43.526179719434], [16.4884614944458, 43.5242504848257], [16.4959716796875, 43.5225390153847], [16.4974308013916, 43.5219477692032], [16.4966154098511, 43.5245305388389], [16.4957571029663, 43.5291979143192]]]}}]}