{"type":"FeatureCollection","features":[{"type":"Feature","id":7151,"geometry":{"type":"Polygon","coordinates":[[[16.50578866653466,43.52374669816245],[16.50528028162729,43.52358290065022],[16.505102270414454,43.52344906810992],[16.505096170141602,43.52343003547934],[16.50508957544595,43.52340097693064],[16.505085605758403,43.52337166712105],[16.505084278404354,43.52334223027173],[16.505085600812897,43.5233127933044],[16.50508956556857,43.52328348314133],[16.505096155359308,43.52325442400462],[16.5051053442139,43.52322574011647],[16.505117091316706,43.5231975556997],[16.50513134595569,43.52316999047658],[16.505148048759715,43.52314316326945],[16.50516712551305,43.52311718750031],[16.505188497052192,43.523092175691126],[16.50521207060605,43.523068234063246],[16.505237745981614,43.52304546613791],[16.50526541308953,43.52302396913567],[16.50529495194412,43.523003833976404],[16.505326237611794,43.522985147979654],[16.505359136499646,43.52296799126422],[16.505393506355365,43.522952436748035],[16.505429201215588,43.52293855194848],[16.505463669140827,43.522927184933465],[16.506226199345747,43.523444987833194],[16.50610654715578,43.523683023484146],[16.50607937433967,43.52369925294733],[16.506046475258596,43.52371640986783],[16.506037331335964,43.523720548368836],[16.50578866653466,43.52374669816245]]]},"properties":{"OBJECTID":7151,"OperatorCo":1,"BrojOperatora":"jedan","Shape.STArea()":5188.1201564,"Shape.STLength()":276.068123470527}},{"type":"Feature","id":7601,"geometry":{"type":"Polygon","coordinates":[[[16.486528257565105,43.52451175262595],[16.48656871216382,43.524512721452396],[16.486596296015367,43.52451470143195],[16.486623880742243,43.52451272791971],[16.486664335767877,43.524511768578144],[16.486704790368787,43.524512737356446],[16.486745070122492,43.52451562883342],[16.486785004319238,43.52452043038736],[16.48682442225052,43.52452712309567],[16.48686315320994,43.5245356772341],[16.486901032677753,43.5245460558781],[16.486937897372286,43.52455821580239],[16.486973591436264,43.52457210298077],[16.487007960249777,43.52458765978683],[16.48704085785408,43.52460481869347],[16.487072142002265,43.52462350677323],[16.487101679107933,43.52464364389848],[16.487129344245172,43.52466514274135],[16.487155017436557,43.52468791237395],[16.487178588602045,43.524711855568434],[16.487199957559,43.52473686879689],[16.48721903154726,43.524762845831845],[16.487235731415364,43.52478967414601],[16.487249982959906,43.52481724031251],[16.487261726823156,43.524845425505085],[16.487270912306794,43.52487410999808],[16.487277498609767,43.52490316956604],[16.487281459775826,43.524932479985004],[16.487282778508117,43.52496191703181],[16.48728144740697,43.52499135378371],[16.48727747391768,43.525020663319474],[16.487270875381757,43.52504972141924],[16.487261677800458,43.5250784038639],[16.487249922020297,43.525106586435896],[16.487235658783792,43.52513414941937],[16.487218947493265,43.525160973999476],[16.487199862395368,43.52518694676377],[16.48717848268535,43.5252119552005],[16.487154901165663,43.5252358931004],[16.487129218061206,43.52525865695547],[16.487101543492862,43.5252801495599],[16.487071997477454,43.52530028001011],[16.487040704980018,43.52531896100365],[16.487007799624244,43.525336112440485],[16.486973423692486,43.52535166142274],[16.486937723177785,43.525365540454125],[16.48690085273117,43.525377691941166],[16.48686296824047,43.52538806189128],[16.486824233014147,43.5253966071148],[16.48678481159674,43.52540329072353],[16.486760795283477,43.525406172944805],[16.48676055525617,43.525406316041824],[16.486756154341858,43.52540894398731],[16.48672324885657,43.52542609534194],[16.48668887280064,43.5254416442384],[16.48665317216766,43.525455523180696],[16.486616301609143,43.525467674575786],[16.4865784170134,43.52547804443143],[16.486539681689354,43.52548658955841],[16.486500260181955,43.5254932730689],[16.48646032322034,43.52549806527728],[16.486420041531428,43.525500947299975],[16.48637958584091,43.52550190655485],[16.486339130584216,43.52550093766156],[16.486317731665142,43.52549940213744],[16.48629633205312,43.52550093254009],[16.486255876360666,43.5255018917512],[16.486215421105978,43.525500922814146],[16.486175140722047,43.52549803115101],[16.486135205928854,43.5254932293848],[16.486095787444796,43.525486536439956],[16.486057055985565,43.52547798204296],[16.486019176079438,43.52546760312098],[16.485982311015785,43.52545544290237],[16.485946616658502,43.52544155541664],[16.485912247633088,43.52542599829387],[16.48587934990257,43.52540883906495],[16.48584806571691,43.5253901506614],[16.485818528664165,43.52537001321496],[16.485790863670463,43.52534851405759],[16.485765190712154,43.52532574412138],[16.48574161986679,43.52530180063814],[16.485720251313108,43.52527678713965],[16.485701177806174,43.5252508098571],[16.485688293462186,43.5252301100601],[16.485759789731652,43.524783376991024],[16.48576531956279,43.52477776340671],[16.48579100297596,43.52475499985612],[16.48581867776939,43.52473350756695],[16.485848223924812,43.52471337743864],[16.485879516477063,43.52469469676946],[16.48591242180373,43.524677545655415],[16.485946797625083,43.524661996990275],[16.485982497951955,43.52464811826657],[16.48601936813845,43.52463596707407],[16.486057252302903,43.52462559740206],[16.486095987144072,43.52461705243716],[16.48613540812546,43.52461036906494],[16.486143884807223,43.52460935201607],[16.486143936765878,43.52460934572127],[16.486151694295543,43.524604714458256],[16.48618459949621,43.52458756326561],[16.486218975196575,43.52457201451839],[16.486254675408,43.524558135709434],[16.486291545485084,43.52454598442898],[16.486329429546622,43.52453561466661],[16.486368164291818,43.52452706960937],[16.486407585184587,43.52452038614318],[16.486447521505394,43.52451559395233],[16.48648780253734,43.52451271191937],[16.486528257565105,43.52451175262595]]]},"properties":{"OBJECTID":7601,"OperatorCo":1,"BrojOperatora":"jedan","Shape.STArea()":11211.22064991,"Shape.STLength()":382.5511122419071}},{"type":"Feature","id":7198,"geometry":{"type":"Polygon","coordinates":[[[16.48999357077878,43.524698602730474],[16.49036562690513,43.524901697273066],[16.490485993277094,43.52507034346818],[16.490485481815806,43.52508168088964],[16.490481509871792,43.52511099053645],[16.490474912863917,43.52514004882078],[16.49046571678689,43.52516873152287],[16.49046267116277,43.52517603423387],[16.490321251142685,43.525290915550336],[16.48990805628418,43.52550132277081],[16.489868193219287,43.525502268909825],[16.489827737906285,43.52550130125088],[16.48978745734931,43.525498410860315],[16.489747522269102,43.52549361035575],[16.489728063330524,43.52549030683751],[16.489414361219087,43.525261987889245],[16.48982420891734,43.524770059268775],[16.48999357077878,43.524698602730474]]]},"properties":{"OBJECTID":7198,"OperatorCo":1,"BrojOperatora":"jedan","Shape.STArea()":4689.13430629,"Shape.STLength()":258.78698755783205}},{"type":"Feature","id":7149,"geometry":{"type":"Polygon","coordinates":[[[16.495151935759182,43.530070063496765],[16.495172224913336,43.5300792450376],[16.495182782640924,43.53008474993164],[16.495254586274914,43.53027809455442],[16.49550897869132,43.53044932153132],[16.495604623709408,43.530451065247895],[16.495966723520105,43.530714546781496],[16.495967189881625,43.53071549826181],[16.495892488668545,43.53075535086734],[16.495546715402767,43.53078888130011],[16.49550895436259,43.53077720301201],[16.4953010566745,43.530849041430976],[16.49505738014555,43.530719011863376],[16.494964587227706,43.530752763628556],[16.494847051324623,43.53077271212863],[16.494512800486536,43.53074027029104],[16.494389294590615,43.53068410002312],[16.494222233871938,43.53054429942225],[16.49422250861167,43.53054344248851],[16.49422179990826,43.530541232571984],[16.49421520965833,43.53051217343257],[16.494211244770018,43.53048286328229],[16.494209922548404,43.53045342634375],[16.49421125040069,43.530423989539216],[16.494213353880244,43.5304084619703],[16.495024048183197,43.53007819990596],[16.495151935759182,43.530070063496765]]]},"properties":{"OBJECTID":7149,"OperatorCo":1,"BrojOperatora":"jedan","Shape.STArea()":6722.562217105,"Shape.STLength()":362.9021721578403}},{"type":"Feature","properties":{"OBJECTID":7210,"OperatorCo":1,"BrojOperatora":"jedan","Shape.STArea()":62740.665528925,"Shape.STLength()":1783.406938776363},"geometry":{"type":"MultiPolygon","coordinates":[[[[16.49930098960426,43.529988869491895],[16.499300991474676,43.529826910710405],[16.499301757296372,43.52982645343627],[16.499334661609893,43.52980929847489],[16.499369036898088,43.52979374578836],[16.499404737174352,43.529779862886244],[16.499441607792477,43.529767707376486],[16.49947949286953,43.52975733326659],[16.499518229100005,43.52974878376229],[16.499557651941636,43.529742095768455],[16.49956458016408,43.5297412532498],[16.49956466553059,43.529741116426514],[16.49958129343434,43.52971441518484],[16.49960037464734,43.529688440374464],[16.499621750806593,43.529663429634624],[16.4996453291212,43.529639489182095],[16.499671009377746,43.52961672253308],[16.499698681465983,43.52959522690266],[16.49972822537885,43.529575093204755],[16.49975951616117,43.52955640875277],[16.499792420198155,43.52953925365885],[16.49982679521536,43.52952370083395],[16.499862495227365,43.529509817788266],[16.49989936558906,43.52949766213031],[16.499937250418636,43.52948728786825],[16.499975986411627,43.529478738208454],[16.49998818125699,43.52947666965361],[16.49998822455815,43.529476662452375],[16.49998762824199,43.529463402265414],[16.499988953262644,43.52943396538866],[16.499992920886935,43.52940465543382],[16.499999513790613,43.529375596622074],[16.50000870598936,43.52934691317433],[16.50002045665297,43.52931872931149],[16.50003471505418,43.52929116475338],[16.500051421805864,43.529264338319614],[16.50007050267523,43.529238363428725],[16.50009187848128,43.52921335259902],[16.500115456434617,43.52918941204765],[16.500141136323382,43.52916664529124],[16.500168808038907,43.52914514954536],[16.500198351575715,43.52912501572438],[16.500229641980244,43.52910633114226],[16.500262545639327,43.529089175911686],[16.500296920280128,43.52907362294423],[16.500332619918844,43.52905973975064],[16.500369489911968,43.52904758394014],[16.500407374379265,43.52903720952147],[16.500429419425117,43.52903234410134],[16.501079977560263,43.52917434200656],[16.50109697036176,43.529189406843706],[16.50112054879463,43.52921334714505],[16.501141925101656,43.529238357748085],[16.501161006491305,43.529264332436625],[16.50117771378033,43.52929115869325],[16.501191972733665,43.52931872310014],[16.501203723961808,43.529346906838384],[16.501212916735103,43.529375590188636],[16.501219510220842,43.52940464893048],[16.50122347843223,43.52943395884324],[16.501224804042522,43.529463395705925],[16.501223479622258,43.52949283259685],[16.501219512588065,43.52952214259394],[16.50121292025413,43.52955120147528],[16.50120372859502,43.52957988501878],[16.50119197843168,43.52960806900195],[16.501177720482836,43.52963563370284],[16.501171489004275,43.52964564079239],[16.501194203652663,43.52964727793975],[16.501234142380984,43.52965207444278],[16.50127356525147,43.529658762163706],[16.501312301536164,43.52966731139989],[16.501350186692573,43.5296776852476],[16.50138705741486,43.5296898405022],[16.50142275781964,43.529703723157326],[16.501457133260143,43.52971927560605],[16.501490037749136,43.529736430339824],[16.50152132901024,43.529755114449245],[16.501550873426613,43.52977524782363],[16.501578546040907,43.529796743150946],[16.501580941049237,43.529798866357154],[16.49930098960426,43.529988869491895]]],[[[16.50229013075956,43.529739764980945],[16.502295737276977,43.52973641700127],[16.502328640692966,43.529719261178016],[16.502363015160682,43.529703707591125],[16.5023987146971,43.52968982375401],[16.502435584659075,43.529677667278584],[16.502473469166574,43.52966729217648],[16.502512204916492,43.52965874165774],[16.502551627368618,43.52965205263151],[16.502591565796862,43.52964725480612],[16.502631849474906,43.52964436708819],[16.502672307676296,43.5296434020835],[16.502712765962805,43.52964436519699],[16.50275304989574,43.52964725103189],[16.502792988747547,43.52965204699039],[16.50283241179022,43.529658734173836],[16.50287114829505,43.52966728288191],[16.50290903371858,43.52967765621308],[16.50293453436713,43.52968606265068],[16.50229013075956,43.529739764980945]]]]}},{"type":"Feature","properties":{"OBJECTID":9872,"OperatorCo":1,"BrojOperatora":"jedan","Shape.STArea()":401061.45968604,"Shape.STLength()":6996.82775477056},"geometry":{"type":"Polygon","coordinates":[[[16.486975858925536,43.52418522715357],[16.487023728824127,43.52397150611139],[16.48712947383484,43.52376901539912],[16.487228112533426,43.52365567867145],[16.487372569066217,43.523654526821915],[16.487383432154875,43.523658109742485],[16.487419125790442,43.523671996783925],[16.48745349420754,43.52368755345849],[16.48748639144909,43.52370471223959],[16.487517675269768,43.52372340020038],[16.487547212084575,43.52374353721367],[16.487574876968804,43.5237650359521],[16.48760054994615,43.52378780548824],[16.487624120937504,43.52381174859465],[16.487645489760926,43.52383676174379],[16.487664563656868,43.52386273870849],[16.48768126347423,43.52388956696182],[16.487695515009854,43.523917133077134],[16.487707258906028,43.52394531822843],[16.487716444464297,43.523974002690146],[16.487723030883316,43.52400306223706],[16.487726992206287,43.524032372645266],[16.48772831113571,43.524061809691595],[16.48772698027108,43.52409124645335],[16.487723007056662,43.524120556009265],[16.487716408832803,43.52414961413936],[16.487707211599425,43.52417829662445],[16.48769545620154,43.524206479246786],[16.48768119338003,43.524234042290225],[16.48766448253547,43.524260866939734],[16.487645397912548,43.52428683978255],[16.48762401870453,43.524311848306596],[16.487600437711684,43.52433578630223],[16.487574755156672,43.52435855026105],[16.48754708115802,43.52438004297679],[16.487517535730102,43.52440017354536],[16.487486243835452,43.52441885466387],[16.48745333909518,43.52443600623172],[16.487418963788997,43.52445155535047],[16.487383263907258,43.524465434523236],[16.48734639409828,43.524477586155946],[16.48730851024717,43.5244879562554],[16.487269775659662,43.52449650163129],[16.48723035487756,43.524503185394764],[16.487190418626838,43.52450797785907],[16.487150137631435,43.524510860139586],[16.48710968261407,43.52451181965303],[16.48706922800726,43.524510851017986],[16.487029273586796,43.52450798309618],[16.487023979766334,43.524508361873025],[16.48698779169755,43.524401575458576],[16.486975858925536,43.52418522715357]]]}},{"type":"Feature","id":7150,"geometry":{"type":"Polygon","coordinates":[[[16.496702857539585,43.53072919789856],[16.496618937339363,43.53072156303314],[16.496375022938906,43.53033109439243],[16.496375033848107,43.53014894080262],[16.496398362838985,43.5301398697764],[16.496435234280103,43.53012771523691],[16.496473120097704,43.53011734212383],[16.496492393277048,43.530113088583505],[16.496962258236724,43.530574641260124],[16.496968184725954,43.53059318461184],[16.4967725757672,43.53071651850348],[16.496702857539585,43.53072919789856]]]},"properties":{"OBJECTID":7150,"OperatorCo":1,"BrojOperatora":"jedan","Shape.STArea()":1684.041632315,"Shape.STLength()":177.68220946618828}}]}