{"type":"FeatureCollection","features":[{"type":"Feature","properties":{"naziv":"Karepovac","vrsta":"odlagaliste otpada","osm_id":"way/142573630","izvor":"OpenStreetMap (ODbL)"},"geometry":{"type":"Polygon","coordinates":[[[16.506279,43.5209624],[16.5062021,43.5212328],[16.5060118,43.5215616],[16.5059397,43.5216712],[16.5058186,43.5220081],[16.505732,43.5223028],[16.5057856,43.522225],[16.5061424,43.5221161],[16.5062201,43.522402],[16.5067298,43.5225712],[16.5068558,43.52247],[16.5067459,43.5223125],[16.5063811,43.5220947],[16.5063462,43.5220422],[16.506416,43.5220188],[16.5067271,43.5221958],[16.5073762,43.5225537],[16.5072179,43.5228337],[16.5073729,43.5229262],[16.507607,43.5229885],[16.5084116,43.5232223],[16.5091639,43.5233868],[16.5093802,43.5234342],[16.5095412,43.5234695],[16.5103962,43.5236568],[16.5108582,43.5236029],[16.5113604,43.5234854],[16.5115545,43.5233366],[16.5121953,43.5231616],[16.5130272,43.5229442],[16.5137038,43.5227896],[16.5141625,43.5226214],[16.5150674,43.5224813],[16.5156831,43.5223509],[16.5162621,43.5221964],[16.5163113,43.5221883],[16.516342,43.5223787],[16.5164098,43.5224828],[16.5165176,43.5225438],[16.5173572,43.5222861],[16.5173456,43.5221684],[16.5172848,43.5219748],[16.5171122,43.5211992],[16.5170509,43.5209756],[16.5168932,43.520343],[16.5163232,43.5203557],[16.5162495,43.5202166],[16.5158961,43.5199286],[16.5153818,43.519699],[16.5146931,43.519578],[16.5139956,43.5194574],[16.5131277,43.5192416],[16.5127042,43.519287],[16.5119603,43.5193619],[16.5113731,43.5193344],[16.5112071,43.519292],[16.5105143,43.5193917],[16.5092401,43.5196476],[16.5092396,43.5198919],[16.50837,43.520081],[16.5081555,43.520127],[16.5076397,43.520183],[16.5072921,43.5202594],[16.5069457,43.5204162],[16.5069219,43.5205386],[16.5067816,43.5206455],[16.5066718,43.5206956],[16.5064989,43.5207541],[16.5063203,43.5208044],[16.5063015,43.5208835],[16.506279,43.5209624]]]}}]}