{"type":"FeatureCollection","features":[{"type":"Feature","id":"way/44650054","properties":{"amenity":"parking","parking":"surface","id":"way/44650054"},"geometry":{"type":"Polygon","coordinates":[[[16.4994696,43.5337703],[16.499476,43.5337065],[16.4994978,43.5336509],[16.5002082,43.5336987],[16.5001423,43.5340261],[16.4994319,43.5339954],[16.4994696,43.5337703]]]}},{"type":"Feature","id":"way/44650459","properties":{"amenity":"parking","id":"way/44650459"},"geometry":{"type":"Polygon","coordinates":[[[16.4905274,43.5373074],[16.4898688,43.5376527],[16.4897675,43.5375914],[16.4895833,43.5374202],[16.4898864,43.5371795],[16.4904627,43.5372392],[16.4904905,43.5372651],[16.4905274,43.5373074]]]}},{"type":"Feature","id":"way/45421202","properties":{"amenity":"parking","id":"way/45421202"},"geometry":{"type":"Polygon","coordinates":[[[16.4861082,43.528971],[16.4850655,43.5289311],[16.4850026,43.5288508],[16.4849105,43.5287036],[16.4848307,43.5285758],[16.484799,43.5285251],[16.4851163,43.5285413],[16.4851387,43.5282572],[16.4863698,43.5282367],[16.4863382,43.5286194],[16.486132,43.5286226],[16.4861082,43.528971]]]}},{"type":"Feature","id":"way/119668775","properties":{"access":"yes","amenity":"parking","wheelchair":"yes","id":"way/119668775"},"geometry":{"type":"Polygon","coordinates":[[[16.4895741,43.533838],[16.4895813,43.5336972],[16.4899381,43.533702],[16.4895827,43.5335757],[16.4895939,43.5334897],[16.4895856,43.5334085],[16.4896914,43.5334471],[16.490155,43.5336143],[16.4901257,43.5336566],[16.4901798,43.533676],[16.4901104,43.5337873],[16.4900536,43.5337747],[16.4900209,43.5337992],[16.4899689,43.5338026],[16.4899651,43.5338449],[16.4895741,43.533838]]]}},{"type":"Feature","id":"way/120075155","properties":{"access":"yes","amenity":"parking","fee":"no","parking":"surface","id":"way/120075155"},"geometry":{"type":"Polygon","coordinates":[[[16.4931579,43.5101346],[16.4930324,43.5101501],[16.4928433,43.5101726],[16.4927416,43.5101622],[16.492674,43.5101044],[16.4926374,43.5100321],[16.492644,43.5099678],[16.4928399,43.5099233],[16.4930122,43.5098896],[16.4931442,43.5098813],[16.4931579,43.5101346]]]}},{"type":"Feature","id":"way/120075168","properties":{"access":"yes","amenity":"parking","fee":"no","parking":"surface","id":"way/120075168"},"geometry":{"type":"Polygon","coordinates":[[[16.4905236,43.5113352],[16.4904316,43.5113076],[16.4903983,43.5112638],[16.4903921,43.5112084],[16.4904659,43.5108421],[16.4905046,43.5102493],[16.4907351,43.510179],[16.4916081,43.5099606],[16.492165,43.5098258],[16.4922704,43.5098363],[16.4923534,43.5098815],[16.4924231,43.5099667],[16.4923952,43.5100922],[16.4922288,43.5102031],[16.4920995,43.5102435],[16.4919407,43.5102614],[16.4917491,43.5102973],[16.4915236,43.5103719],[16.4913118,43.510496],[16.4911583,43.5106035],[16.4910621,43.5107659],[16.4908701,43.5112114],[16.4907042,43.5113386],[16.4905236,43.5113352]]]}},{"type":"Feature","id":"way/122108627","properties":{"access":"yes","amenity":"parking","building":"yes","parking":"multi-storey","id":"way/122108627"},"geometry":{"type":"Polygon","coordinates":[[[16.4699337,43.5175659],[16.4699332,43.5174943],[16.4699326,43.5173969],[16.4711461,43.5173927],[16.4711468,43.5175082],[16.4711477,43.5176411],[16.4711481,43.517705],[16.4706873,43.5177066],[16.4701508,43.5177085],[16.4701498,43.5175651],[16.4699337,43.5175659]]]}},{"type":"Feature","id":"way/122108628","properties":{"access":"yes","amenity":"parking","building":"yes","fee":"no","parking":"multi-storey","id":"way/122108628"},"geometry":{"type":"Polygon","coordinates":[[[16.4723548,43.5170866],[16.4726318,43.5168794],[16.4733492,43.5173983],[16.4732773,43.5174503],[16.4730653,43.5176035],[16.4723548,43.5170866]]]}},{"type":"Feature","id":"way/122108648","properties":{"amenity":"parking","building":"parking","building:levels":"2","parking":"multi-storey","surface":"concrete","id":"way/122108648"},"geometry":{"type":"Polygon","coordinates":[[[16.4748444,43.5180722],[16.4742364,43.5180655],[16.4738857,43.5180632],[16.4737812,43.5180625],[16.4737726,43.5178854],[16.473887,43.5178863],[16.4738856,43.5177792],[16.4744425,43.5177864],[16.4744694,43.5177867],[16.4746184,43.5177887],[16.4747187,43.5178636],[16.4747779,43.5179106],[16.474839,43.5179599],[16.474841,43.5180017],[16.4748444,43.5180722]]]}},{"type":"Feature","id":"way/122218562","properties":{"access":"private","amenity":"parking","id":"way/122218562"},"geometry":{"type":"Polygon","coordinates":[[[16.4812406,43.5107157],[16.4812584,43.510622],[16.4813145,43.510626],[16.4813377,43.5105467],[16.481467,43.5105656],[16.4814593,43.5105934],[16.4815454,43.510606],[16.4815616,43.5105474],[16.4820783,43.5106229],[16.4822129,43.5106426],[16.4821961,43.5107031],[16.4829593,43.5108142],[16.4829075,43.5109752],[16.4824918,43.5109262],[16.4820806,43.5108546],[16.4812406,43.5107157]]]}},{"type":"Feature","id":"way/126693264","properties":{"amenity":"parking","id":"way/126693264"},"geometry":{"type":"Polygon","coordinates":[[[16.4894359,43.5167098],[16.4892913,43.5164236],[16.4897073,43.5163131],[16.4898518,43.5165994],[16.4894359,43.5167098]]]}},{"type":"Feature","id":"way/127107690","properties":{"access":"yes","amenity":"parking","capacity:disabled":"no","capacity:parent":"no","capacity:women":"no","fee":"no","orientation":"perpendicular","parking":"surface","source":"survey","surface":"asphalt","id":"way/127107690"},"geometry":{"type":"Polygon","coordinates":[[[16.4698677,43.5123918],[16.4703733,43.5122308],[16.4706644,43.5121314],[16.4707305,43.5120866],[16.4707317,43.512041],[16.4707138,43.5120035],[16.4707803,43.5119733],[16.4708346,43.5120679],[16.4709158,43.5121092],[16.4709887,43.5122048],[16.4710106,43.5122617],[16.4710111,43.5123408],[16.4709923,43.5124159],[16.470939,43.512471],[16.4708316,43.512541],[16.4707028,43.5125844],[16.4705433,43.5125915],[16.4700151,43.5124695],[16.4699646,43.5124335],[16.4698975,43.5124245],[16.4698677,43.5123918]]]}},{"type":"Feature","id":"way/127107698","properties":{"access":"yes","amenity":"parking","capacity:disabled":"no","capacity:parent":"no","capacity:women":"no","fee":"no","lit":"no","maxstay":"no","orientation":"perpendicular","parking":"surface","source":"survey","id":"way/127107698"},"geometry":{"type":"Polygon","coordinates":[[[16.469632,43.5127303],[16.4696602,43.5126469],[16.4697497,43.5126852],[16.4698395,43.512708],[16.4705535,43.5127441],[16.4706274,43.5127524],[16.4707286,43.5127957],[16.4708357,43.5128656],[16.4709016,43.5129291],[16.4709365,43.5129967],[16.4706864,43.5129915],[16.4696288,43.5129769],[16.469632,43.5127303]]]}},{"type":"Feature","id":"way/127196089","properties":{"amenity":"parking","id":"way/127196089"},"geometry":{"type":"Polygon","coordinates":[[[16.4855556,43.5251995],[16.4855141,43.5246348],[16.4860368,43.5246599],[16.4860402,43.5248331],[16.4860956,43.525192],[16.4857598,43.52531],[16.4855556,43.5251995]]]}},{"type":"Feature","id":"way/131893898","properties":{"access":"yes","amenity":"parking","fee":"no","parking":"surface","wheelchair":"yes","id":"way/131893898"},"geometry":{"type":"Polygon","coordinates":[[[16.4895147,43.5331918],[16.4892468,43.5330898],[16.4894806,43.5327473],[16.4900134,43.5327369],[16.4900257,43.5328449],[16.4901756,43.5328452],[16.4901551,43.5333589],[16.4902184,43.5333644],[16.4903742,43.5333656],[16.4903743,43.5333568],[16.490537,43.5333581],[16.4905368,43.533368],[16.4906361,43.5333688],[16.4905879,43.5334765],[16.4902065,43.533462],[16.4900667,43.5333898],[16.4895147,43.5331918]]]}},{"type":"Feature","id":"way/134567069","properties":{"access":"yes","amenity":"parking","fee":"no","parking":"surface","id":"way/134567069"},"geometry":{"type":"Polygon","coordinates":[[[16.4735987,43.5106288],[16.4733573,43.5105819],[16.473216,43.5105061],[16.47255,43.5104006],[16.4725841,43.5102785],[16.4726033,43.51021],[16.4731938,43.5103094],[16.4731576,43.5104255],[16.4732345,43.5104396],[16.4732316,43.5104509],[16.4734278,43.510516],[16.4736271,43.5105486],[16.4735987,43.5106288]]]}},{"type":"Feature","id":"way/134567077","properties":{"access":"yes","amenity":"parking","fee":"no","parking":"surface","id":"way/134567077"},"geometry":{"type":"Polygon","coordinates":[[[16.470498,43.5100491],[16.4705546,43.5098707],[16.4712236,43.5099823],[16.471167,43.5101608],[16.470498,43.5100491]]]}},{"type":"Feature","id":"way/134567078","properties":{"access":"yes","amenity":"parking","fee":"no","parking":"surface","id":"way/134567078"},"geometry":{"type":"Polygon","coordinates":[[[16.4723617,43.5103624],[16.4714531,43.5102104],[16.4715064,43.5100198],[16.4720969,43.5101193],[16.4720607,43.5102353],[16.4721376,43.5102494],[16.4721347,43.5102607],[16.4723824,43.5103031],[16.4723617,43.5103624]]]}},{"type":"Feature","id":"way/136523614","properties":{"access":"private","amenity":"parking","fee":"no","name":"HEP","parking":"surface","surface":"gravel","id":"way/136523614"},"geometry":{"type":"Polygon","coordinates":[[[16.4821435,43.5115915],[16.4821818,43.5115581],[16.4822706,43.5114807],[16.4823384,43.5114216],[16.4829054,43.5117208],[16.4825025,43.5118336],[16.4824364,43.5118521],[16.4821435,43.5115915]]]}},{"type":"Feature","id":"way/140580406","properties":{"access":"yes","amenity":"parking","fee":"no","parking":"surface","id":"way/140580406"},"geometry":{"type":"Polygon","coordinates":[[[16.4713027,43.511473],[16.4713603,43.5113035],[16.4720729,43.5114263],[16.4719961,43.5116178],[16.4717035,43.5115611],[16.4713113,43.5114851],[16.4713027,43.511473]]]}},{"type":"Feature","id":"way/140644001","properties":{"amenity":"parking","building":"yes","building:levels":"2","capacity":"1","fee":"Garage is for habitant, top parking is free","name":"Privatna garaza Tijardoviceva","parking":"multi-storey","roof:material":"concrete","roof:shape":"flat","id":"way/140644001"},"geometry":{"type":"Polygon","coordinates":[[[16.4738871,43.5165424],[16.4738943,43.5163182],[16.4738963,43.516254],[16.4749663,43.5162718],[16.4749994,43.5162724],[16.4749902,43.5165608],[16.4738871,43.5165424]]]}},{"type":"Feature","id":"way/140644006","properties":{"access":"yes","amenity":"parking","fee":"no","parking":"surface","id":"way/140644006"},"geometry":{"type":"Polygon","coordinates":[[[16.4719446,43.5167557],[16.471411,43.5163594],[16.4714911,43.5162709],[16.4723508,43.5162789],[16.4724546,43.5163436],[16.4720921,43.5165725],[16.4720321,43.5166104],[16.4721013,43.5166566],[16.4719446,43.5167557]]]}},{"type":"Feature","id":"way/140664328","properties":{"amenity":"parking","building":"parking","building:levels":"3","parking":"multi-storey","id":"way/140664328"},"geometry":{"type":"Polygon","coordinates":[[[16.476227,43.5180407],[16.4761677,43.5179946],[16.4761004,43.5179419],[16.4762248,43.517858],[16.477003,43.5173334],[16.4770729,43.5172863],[16.4771995,43.517385],[16.4764383,43.5178982],[16.476227,43.5180407]]]}},{"type":"Feature","id":"way/140664345","properties":{"access":"yes","amenity":"parking","parking":"surface","id":"way/140664345"},"geometry":{"type":"Polygon","coordinates":[[[16.4730927,43.5184839],[16.4727571,43.5184789],[16.4722616,43.5184715],[16.4720619,43.5183848],[16.4720619,43.5182514],[16.4733573,43.518285],[16.473413,43.5182864],[16.473413,43.5184009],[16.4731007,43.5184346],[16.4730927,43.5184839]]]}},{"type":"Feature","id":"way/140743713","properties":{"access":"yes","amenity":"parking","fee":"no","parking":"surface","id":"way/140743713"},"geometry":{"type":"Polygon","coordinates":[[[16.4761619,43.5185873],[16.4761638,43.5183155],[16.476663,43.5181939],[16.4778237,43.5182302],[16.4778218,43.5183383],[16.4778199,43.5184832],[16.4778186,43.5185783],[16.4761619,43.5185873]]]}},{"type":"Feature","id":"way/140953606","properties":{"amenity":"parking","id":"way/140953606"},"geometry":{"type":"Polygon","coordinates":[[[16.4770398,43.5164506],[16.4770497,43.5160975],[16.4768214,43.5160942],[16.4768247,43.5159796],[16.4771688,43.5159846],[16.4771675,43.5160304],[16.4775045,43.5160354],[16.4775024,43.5161135],[16.4776179,43.5161152],[16.4776147,43.5162315],[16.4776083,43.516459],[16.4772097,43.5164531],[16.4770398,43.5164506]]]}},{"type":"Feature","id":"way/141134940","properties":{"amenity":"parking","id":"way/141134940"},"geometry":{"type":"Polygon","coordinates":[[[16.4784694,43.5169106],[16.4772743,43.5168983],[16.4772782,43.5166982],[16.4784733,43.5167105],[16.4784694,43.5169106]]]}},{"type":"Feature","id":"way/141134957","properties":{"access":"yes","amenity":"parking","fee":"no","parking":"surface","id":"way/141134957"},"geometry":{"type":"Polygon","coordinates":[[[16.4713777,43.5145678],[16.4713721,43.5144488],[16.4717676,43.5144557],[16.47177,43.5144795],[16.4723336,43.5144883],[16.4723776,43.514438],[16.4723859,43.5142688],[16.4727276,43.5143196],[16.4727408,43.514574],[16.4720637,43.5145794],[16.4713777,43.5145678]]]}},{"type":"Feature","id":"way/141664619","properties":{"access":"yes","amenity":"parking","fee":"yes","parking":"surface","id":"way/141664619"},"geometry":{"type":"Polygon","coordinates":[[[16.4720413,43.5131047],[16.472311,43.512728],[16.4723722,43.5127544],[16.4724483,43.5131263],[16.4720413,43.5131047]]]}},{"type":"Feature","id":"way/148803722","properties":{"access":"private","amenity":"parking","parking":"surface","id":"way/148803722"},"geometry":{"type":"Polygon","coordinates":[[[16.4734061,43.51948],[16.4733964,43.5193744],[16.473674,43.5193561],[16.4736837,43.5194631],[16.4734061,43.51948]]]}},{"type":"Feature","id":"way/148803723","properties":{"access":"yes","amenity":"parking","fee":"yes","parking":"surface","surface":"asphalt","id":"way/148803723"},"geometry":{"type":"Polygon","coordinates":[[[16.4718396,43.5200824],[16.4718071,43.5198271],[16.4727331,43.5197405],[16.4726724,43.5198341],[16.4724865,43.5200286],[16.4718396,43.5200824]]]}},{"type":"Feature","id":"way/148803724","properties":{"access":"permissive","amenity":"parking","id":"way/148803724"},"geometry":{"type":"Polygon","coordinates":[[[16.4744232,43.5210891],[16.4743795,43.5208485],[16.474742,43.5208111],[16.4747708,43.5210624],[16.4744713,43.5210864],[16.4744232,43.5210891]]]}},{"type":"Feature","id":"way/156980643","properties":{"access":"permissive","amenity":"parking","id":"way/156980643"},"geometry":{"type":"Polygon","coordinates":[[[16.4939737,43.5300553],[16.4942592,43.5297573],[16.4943905,43.5301795],[16.4941079,43.5301112],[16.4939737,43.5300553]]]}},{"type":"Feature","id":"way/161760788","properties":{"access":"customers","amenity":"parking","id":"way/161760788"},"geometry":{"type":"Polygon","coordinates":[[[16.4805653,43.5278101],[16.4803362,43.5276613],[16.480625,43.5274114],[16.4793646,43.5265869],[16.4797155,43.5262972],[16.4806898,43.5269393],[16.4806624,43.5269632],[16.4808779,43.5271042],[16.4809473,43.5272332],[16.4811738,43.5273847],[16.481225,43.5274632],[16.4811894,43.5275215],[16.4809052,43.5277282],[16.4807717,43.527834],[16.4806658,43.5278407],[16.4805653,43.5278101]]]}},{"type":"Feature","id":"way/161760799","properties":{"amenity":"parking","id":"way/161760799"},"geometry":{"type":"Polygon","coordinates":[[[16.5000628,43.526802],[16.4998143,43.5263125],[16.5000006,43.5262628],[16.500249,43.5267523],[16.5000628,43.526802]]]}},{"type":"Feature","id":"way/162828097","properties":{"access":"yes","amenity":"parking","fee":"no","parking":"surface","id":"way/162828097"},"geometry":{"type":"Polygon","coordinates":[[[16.4978439,43.525757],[16.4978434,43.5254396],[16.497843,43.5252499],[16.4977839,43.5252499],[16.4977837,43.5251515],[16.4976709,43.5251516],[16.4976707,43.525049],[16.4980074,43.5250487],[16.4980081,43.5254418],[16.4991177,43.5254407],[16.4991182,43.5257558],[16.4978439,43.525757]]]}},{"type":"Feature","id":"way/163103695","properties":{"access":"yes","amenity":"parking","capacity:disabled":"no","fee":"no","parking":"surface","id":"way/163103695"},"geometry":{"type":"Polygon","coordinates":[[[16.4737785,43.5219304],[16.4737204,43.521789],[16.4744024,43.5217161],[16.4744169,43.5218478],[16.4737785,43.5219304]]]}},{"type":"Feature","id":"way/164363813","properties":{"access":"yes","amenity":"parking","fee":"no","parking":"surface","source":"survey","id":"way/164363813"},"geometry":{"type":"Polygon","coordinates":[[[16.4757406,43.5239266],[16.4757723,43.5241256],[16.4755396,43.5241381],[16.4755219,43.5239704],[16.4749888,43.5239835],[16.4749907,43.5240206],[16.4747842,43.5240322],[16.4747752,43.5239816],[16.4747641,43.5239196],[16.4756444,43.5238409],[16.4756528,43.5238969],[16.4757066,43.5239266],[16.4757406,43.5239266]]]}},{"type":"Feature","id":"way/171546165","properties":{"access":"yes","amenity":"parking","fee":"no","parking":"surface","id":"way/171546165"},"geometry":{"type":"Polygon","coordinates":[[[16.4824962,43.5098326],[16.4823543,43.5100397],[16.4821606,43.5100032],[16.4820985,43.5101671],[16.48194,43.5101442],[16.4820726,43.5097556],[16.4824962,43.5098326]]]}},{"type":"Feature","id":"way/175980010","properties":{"access":"yes","amenity":"parking","building":"parking","building:levels":"4","check_date:fee":"2024-12-13","fee":"no","parking":"multi-storey","roof:material":"asphalt","roof:shape":"flat","id":"way/175980010"},"geometry":{"type":"Polygon","coordinates":[[[16.5045537,43.5141354],[16.5018178,43.5147755],[16.5015844,43.5142509],[16.5043203,43.5136108],[16.5045537,43.5141354]]]}},{"type":"Feature","id":"way/182380444","properties":{"access":"yes","amenity":"parking","fee":"no","parking":"surface","id":"way/182380444"},"geometry":{"type":"Polygon","coordinates":[[[16.4723238,43.5140302],[16.4720024,43.5139582],[16.4720098,43.513934],[16.4718623,43.5139112],[16.4718568,43.513936],[16.4716549,43.5139125],[16.4715655,43.5139111],[16.4714702,43.5138839],[16.4713915,43.5138282],[16.4713939,43.513768],[16.4714167,43.5137085],[16.4716564,43.5134221],[16.4718261,43.5131833],[16.4719358,43.5132256],[16.4718279,43.5133524],[16.4718546,43.5133638],[16.4715577,43.5137092],[16.471552,43.5137327],[16.4716064,43.5137639],[16.4723803,43.5139361],[16.4723238,43.5140302]]]}},{"type":"Feature","id":"way/198050316","properties":{"access":"yes","amenity":"parking","fee":"no","parking":"surface","id":"way/198050316"},"geometry":{"type":"Polygon","coordinates":[[[16.492295,43.514603],[16.4925918,43.5145975],[16.4925979,43.5145137],[16.4931752,43.5145021],[16.4933358,43.5145501],[16.493424,43.5145861],[16.4934737,43.5146385],[16.4934896,43.5147077],[16.4933791,43.5147253],[16.4933425,43.514728],[16.4932286,43.5147337],[16.4931635,43.5147407],[16.4930965,43.5147479],[16.4929588,43.5148418],[16.4926895,43.5148347],[16.4925985,43.5147712],[16.4924907,43.5147694],[16.4922922,43.5146142],[16.492295,43.514603]]]}},{"type":"Feature","id":"way/235054371","properties":{"amenity":"parking","id":"way/235054371"},"geometry":{"type":"Polygon","coordinates":[[[16.4867616,43.5118924],[16.4867004,43.5116444],[16.4871142,43.5115779],[16.4872007,43.5118114],[16.4867616,43.5118924]]]}},{"type":"Feature","id":"way/235141999","properties":{"amenity":"parking","id":"way/235141999"},"geometry":{"type":"Polygon","coordinates":[[[16.4907764,43.5322269],[16.490778,43.5320709],[16.4907832,43.5317688],[16.4910982,43.5317651],[16.4910979,43.5319156],[16.4909594,43.5319191],[16.4909666,43.5321336],[16.4908662,43.5321828],[16.4907764,43.5322269]]]}},{"type":"Feature","id":"way/256068274","properties":{"access":"yes","amenity":"parking","fee":"yes","parking":"surface","wheelchair":"yes","id":"way/256068274"},"geometry":{"type":"Polygon","coordinates":[[[16.4876686,43.5353651],[16.487356,43.5351719],[16.4873249,43.5351527],[16.487184,43.5350438],[16.4870788,43.5349471],[16.487136,43.5349216],[16.4873466,43.5349673],[16.4877073,43.5352042],[16.4877035,43.5353309],[16.4876686,43.5353651]]]}},{"type":"Feature","id":"way/269436357","properties":{"amenity":"parking","id":"way/269436357"},"geometry":{"type":"Polygon","coordinates":[[[16.4933289,43.5330729],[16.4931529,43.5330697],[16.493094,43.533055],[16.4930958,43.5329101],[16.4933345,43.5329129],[16.4933289,43.5330729]]]}},{"type":"Feature","id":"way/269441851","properties":{"amenity":"parking","id":"way/269441851"},"geometry":{"type":"Polygon","coordinates":[[[16.5048764,43.5353372],[16.5046867,43.5352844],[16.5048851,43.5348542],[16.5049126,43.5347199],[16.5049866,43.5346116],[16.5050332,43.5344234],[16.5050901,43.5344209],[16.5051159,43.5346159],[16.5050828,43.5346507],[16.5052504,43.5346934],[16.5049685,43.5352223],[16.5049225,43.5352971],[16.5048764,43.5353372]]]}},{"type":"Feature","id":"way/273815177","properties":{"access":"yes","amenity":"parking","fee":"no","parking":"surface","id":"way/273815177"},"geometry":{"type":"Polygon","coordinates":[[[16.4840812,43.5252157],[16.4836713,43.5252521],[16.4825515,43.5235995],[16.4832882,43.5234817],[16.4833509,43.5236112],[16.4837354,43.523589],[16.4840812,43.5252157]]]}},{"type":"Feature","id":"way/283629053","properties":{"access":"yes","amenity":"parking","fee":"no","parking":"surface","supervised":"no","surface":"compacted","id":"way/283629053"},"geometry":{"type":"Polygon","coordinates":[[[16.4707614,43.5184831],[16.4707663,43.5184337],[16.4708958,43.5183251],[16.4713483,43.5184748],[16.471371,43.5184355],[16.4720151,43.5186625],[16.471976,43.5187185],[16.4717551,43.5187459],[16.4716315,43.5187338],[16.4716223,43.5185881],[16.4713732,43.5185687],[16.471186,43.5185116],[16.4711992,43.5184716],[16.4710594,43.5184402],[16.4710241,43.5184906],[16.4707614,43.5184831]]]}},{"type":"Feature","id":"way/372823799","properties":{"access":"yes","amenity":"parking","fee":"yes","parking":"surface","wheelchair":"yes","id":"way/372823799"},"geometry":{"type":"Polygon","coordinates":[[[16.4882733,43.5376256],[16.4883345,43.5372336],[16.4883826,43.5372019],[16.4884599,43.5371744],[16.4885809,43.5371903],[16.4886467,43.5372226],[16.4886668,43.5372325],[16.4887383,43.5372346],[16.4886741,43.5374914],[16.4886508,43.5376213],[16.4887149,43.5376224],[16.4886566,43.5379742],[16.488305,43.5376544],[16.4882733,43.5376256]]]}},{"type":"Feature","id":"way/374834587","properties":{"amenity":"parking","wheelchair":"yes","id":"way/374834587"},"geometry":{"type":"Polygon","coordinates":[[[16.492099,43.535885],[16.4918327,43.5353812],[16.4922722,43.5353057],[16.4922535,43.535856],[16.492099,43.535885]]]}},{"type":"Feature","id":"way/378235865","properties":{"amenity":"parking","parking":"street_side","id":"way/378235865"},"geometry":{"type":"Polygon","coordinates":[[[16.4745946,43.5390517],[16.4745651,43.5389778],[16.4747823,43.5389058],[16.4753697,43.5389603],[16.4753605,43.5390451],[16.4745946,43.5390517]]]}},{"type":"Feature","id":"way/409536327","properties":{"access":"yes","amenity":"parking","fee":"no","parking":"surface","id":"way/409536327"},"geometry":{"type":"Polygon","coordinates":[[[16.4695122,43.5182361],[16.4694943,43.5181428],[16.4695122,43.5181121],[16.4695855,43.5181038],[16.4695822,43.5180566],[16.4697923,43.5180377],[16.4700886,43.5180106],[16.470284,43.5180625],[16.4703003,43.5181334],[16.4698135,43.5181723],[16.4698183,43.5182042],[16.4695122,43.5182361]]]}},{"type":"Feature","id":"way/417212602","properties":{"access":"customers","amenity":"parking","fee":"no","parking":"surface","id":"way/417212602"},"geometry":{"type":"Polygon","coordinates":[[[16.4771624,43.5130511],[16.4771505,43.5129464],[16.4773918,43.5129106],[16.4774254,43.5129206],[16.4774412,43.5130784],[16.4773186,43.5130884],[16.4773166,43.5131228],[16.4772415,43.5131099],[16.4772415,43.5130784],[16.4771644,43.5130769],[16.4771624,43.5130511]]]}},{"type":"Feature","id":"way/419193755","properties":{"amenity":"parking","id":"way/419193755"},"geometry":{"type":"Polygon","coordinates":[[[16.4803156,43.5124],[16.4803026,43.5122358],[16.4803075,43.5121225],[16.4803254,43.5120079],[16.4803059,43.5118981],[16.4803938,43.5118816],[16.4804473,43.5118715],[16.4806495,43.5119091],[16.4806502,43.5119357],[16.4809247,43.5120894],[16.480923,43.5121319],[16.4808905,43.5121992],[16.4808286,43.5122736],[16.4807683,43.5123386],[16.4807065,43.5123622],[16.4806657,43.5123894],[16.4803156,43.5124]]]}},{"type":"Feature","id":"way/451863555","properties":{"access":"yes","amenity":"parking","fee":"no","parking":"surface","id":"way/451863555"},"geometry":{"type":"Polygon","coordinates":[[[16.471848,43.5118439],[16.4717077,43.5117995],[16.4715839,43.5117373],[16.4715176,43.5117367],[16.4714489,43.5116708],[16.4714623,43.5116431],[16.4715523,43.5116365],[16.471618,43.5116514],[16.4716399,43.5116121],[16.4717512,43.5115758],[16.4718748,43.5116127],[16.4719944,43.5116202],[16.4720141,43.5116848],[16.4720042,43.511788],[16.4719271,43.5118468],[16.471848,43.5118439]]]}},{"type":"Feature","id":"way/488449706","properties":{"amenity":"parking","id":"way/488449706"},"geometry":{"type":"Polygon","coordinates":[[[16.4961054,43.5261246],[16.4961216,43.5255343],[16.4966851,43.5255508],[16.4966395,43.5261364],[16.4961054,43.5261246]]]}},{"type":"Feature","id":"way/488449707","properties":{"amenity":"parking","id":"way/488449707"},"geometry":{"type":"Polygon","coordinates":[[[16.4968153,43.5257917],[16.4968218,43.5254871],[16.4969358,43.5254823],[16.4969358,43.525317],[16.4972192,43.5253147],[16.4971996,43.5257964],[16.4968153,43.5257917]]]}},{"type":"Feature","id":"way/490085748","properties":{"amenity":"parking","id":"way/490085748"},"geometry":{"type":"Polygon","coordinates":[[[16.4934547,43.5326278],[16.493452,43.5324723],[16.4936304,43.5324771],[16.4936241,43.5325566],[16.4936183,43.5326317],[16.4934547,43.5326278]]]}},{"type":"Feature","id":"way/490086407","properties":{"amenity":"parking","id":"way/490086407"},"geometry":{"type":"Polygon","coordinates":[[[16.4930968,43.5321431],[16.4930988,43.5321003],[16.4933971,43.5321043],[16.4933961,43.5321477],[16.4930968,43.5321431]]]}},{"type":"Feature","id":"way/490086408","properties":{"amenity":"parking","id":"way/490086408"},"geometry":{"type":"Polygon","coordinates":[[[16.4930611,43.5321398],[16.4927258,43.5321365],[16.4927265,43.5320976],[16.4930618,43.5321008],[16.4930611,43.5321398]]]}},{"type":"Feature","id":"way/490087494","properties":{"amenity":"parking","id":"way/490087494"},"geometry":{"type":"Polygon","coordinates":[[[16.4934613,43.532404],[16.4934707,43.5321172],[16.4936772,43.5321191],[16.4936665,43.5324079],[16.4934613,43.532404]]]}},{"type":"Feature","id":"way/490104569","properties":{"amenity":"parking","id":"way/490104569"},"geometry":{"type":"Polygon","coordinates":[[[16.491757,43.5334705],[16.4917678,43.5333733],[16.4924168,43.5333772],[16.4925349,43.5334044],[16.4925134,43.5335016],[16.491757,43.5334705]]]}},{"type":"Feature","id":"way/490111521","properties":{"amenity":"parking","id":"way/490111521"},"geometry":{"type":"Polygon","coordinates":[[[16.4938329,43.5355067],[16.4938332,43.5353638],[16.4939194,43.5353588],[16.493918,43.5353855],[16.4942587,43.5353682],[16.494255,43.5354766],[16.4938329,43.5355067]]]}},{"type":"Feature","id":"way/490111524","properties":{"amenity":"parking","id":"way/490111524"},"geometry":{"type":"Polygon","coordinates":[[[16.4959827,43.5344136],[16.49551,43.5343845],[16.4955542,43.5339821],[16.4960484,43.5340146],[16.4959827,43.5344136]]]}},{"type":"Feature","id":"way/490433113","properties":{"amenity":"parking","parking":"street_side","id":"way/490433113"},"geometry":{"type":"Polygon","coordinates":[[[16.491563,43.5348707],[16.4914798,43.5347579],[16.4914959,43.5345966],[16.4915656,43.5345752],[16.491563,43.5348707]]]}},{"type":"Feature","id":"way/490433114","properties":{"amenity":"parking","parking":"street_side","id":"way/490433114"},"geometry":{"type":"Polygon","coordinates":[[[16.4918044,43.5351216],[16.4917212,43.5351507],[16.491571,43.5349116],[16.4916461,43.5348766],[16.4918044,43.5351216]]]}},{"type":"Feature","id":"way/671259500","properties":{"access":"yes","amenity":"parking","fee":"yes","parking":"surface","id":"way/671259500"},"geometry":{"type":"Polygon","coordinates":[[[16.4911339,43.5375859],[16.4912957,43.5374661],[16.4913958,43.5374131],[16.4914992,43.5374156],[16.4916205,43.5374677],[16.4915059,43.5375565],[16.4914643,43.5375199],[16.4912463,43.5376649],[16.4911339,43.5375859]]]}},{"type":"Feature","id":"way/738481754","properties":{"amenity":"parking","id":"way/738481754"},"geometry":{"type":"Polygon","coordinates":[[[16.5185103,43.5127389],[16.5185907,43.5128109],[16.5184486,43.5128557],[16.5182074,43.512899],[16.5179831,43.5126441],[16.5181348,43.5125464],[16.5182166,43.5126183],[16.5181509,43.5126631],[16.5182152,43.5127234],[16.5181951,43.512738],[16.5183158,43.512844],[16.5185103,43.5127389]]]}},{"type":"Feature","id":"way/769961471","properties":{"access":"yes","amenity":"parking","fee":"no","parking":"surface","surface":"asphalt","id":"way/769961471"},"geometry":{"type":"Polygon","coordinates":[[[16.4738856,43.5177792],[16.4738863,43.5176318],[16.4743493,43.5176353],[16.4743797,43.5176344],[16.4743986,43.5176263],[16.4743976,43.5176076],[16.4745709,43.5177501],[16.4744402,43.5177476],[16.4744425,43.5177864],[16.4738856,43.5177792]]]}},{"type":"Feature","id":"way/769961475","properties":{"access":"no","amenity":"parking","operator":"SPLIT PARKING d.o.o.","operator:type":"government","id":"way/769961475"},"geometry":{"type":"Polygon","coordinates":[[[16.4744458,43.5184757],[16.4751134,43.518479],[16.4751044,43.5186167],[16.4744481,43.5186118],[16.4744458,43.5184757]]]}},{"type":"Feature","id":"way/822582560","properties":{"access":"yes","addr:city":"Split","addr:postcode":"21000","amenity":"parking","capacity":"61","fee":"no","height":"3","layer":"-1","parking":"underground","surface":"asphalt","id":"way/822582560"},"geometry":{"type":"Polygon","coordinates":[[[16.4695148,43.514128],[16.4696963,43.5141529],[16.4697975,43.5141621],[16.4699353,43.5141858],[16.4701491,43.5142187],[16.4699726,43.5144169],[16.469937,43.5144546],[16.4698728,43.5145266],[16.4698543,43.5145197],[16.4697702,43.5144886],[16.4699404,43.5143386],[16.4699706,43.5143065],[16.4699616,43.5142465],[16.4695431,43.5141851],[16.4695148,43.514128]]]}},{"type":"Feature","id":"way/837571175","properties":{"access":"yes","amenity":"parking","fee":"no","parking":"surface","id":"way/837571175"},"geometry":{"type":"Polygon","coordinates":[[[16.4721125,43.5119352],[16.4721243,43.5118895],[16.472197,43.5117546],[16.4721473,43.5117192],[16.4721923,43.5116558],[16.4722457,43.5115364],[16.4722731,43.5114318],[16.472328,43.5114406],[16.4724296,43.5115409],[16.4727142,43.5115925],[16.4725638,43.5117605],[16.4723402,43.5119212],[16.4722243,43.511992],[16.4721125,43.5119352]]]}},{"type":"Feature","id":"way/868986168","properties":{"amenity":"parking","id":"way/868986168"},"geometry":{"type":"Polygon","coordinates":[[[16.4941067,43.5218395],[16.493812,43.5219294],[16.4933282,43.5220606],[16.4931086,43.5216096],[16.4931818,43.5216081],[16.493192,43.5216272],[16.4932895,43.5216552],[16.4934135,43.5216597],[16.4938363,43.5215447],[16.4939217,43.5215712],[16.4940083,43.5216968],[16.4941067,43.5218395]]]}},{"type":"Feature","id":"way/912399406","properties":{"access":"private","amenity":"parking","area":"yes","capacity":"20","capacity:disabled":"0","fee":"no","parking":"surface","surface":"asphalt","id":"way/912399406"},"geometry":{"type":"Polygon","coordinates":[[[16.4852357,43.5132332],[16.485284,43.5133637],[16.4852961,43.5134083],[16.4852259,43.513419],[16.4851908,43.5134002],[16.485152,43.5133721],[16.4850603,43.5130658],[16.4850901,43.5130598],[16.4851256,43.5130506],[16.4853129,43.5130174],[16.4853958,43.513202],[16.4852357,43.5132332]]]}},{"type":"Feature","id":"way/1034468069","properties":{"amenity":"parking","orientation":"perpendicular","parking":"street_side","id":"way/1034468069"},"geometry":{"type":"Polygon","coordinates":[[[16.4903962,43.5294389],[16.4903953,43.5294854],[16.4898867,43.5294804],[16.4898875,43.5294341],[16.4903962,43.5294389]]]}},{"type":"Feature","id":"way/1034468070","properties":{"amenity":"parking","orientation":"perpendicular","parking":"street_side","id":"way/1034468070"},"geometry":{"type":"Polygon","coordinates":[[[16.4898414,43.5293682],[16.4900985,43.5290469],[16.4903038,43.5288111],[16.4904075,43.5287484],[16.4905477,43.5286932],[16.4905538,43.5287455],[16.4904197,43.5287971],[16.4903079,43.5288737],[16.4901442,43.5290771],[16.4898962,43.5293932],[16.4898414,43.5293682]]]}},{"type":"Feature","id":"way/1034468074","properties":{"access":"customers","amenity":"parking","fee":"no","layer":"-1","parking":"underground","id":"way/1034468074"},"geometry":{"type":"Polygon","coordinates":[[[16.4898766,43.5301939],[16.4898897,43.5295679],[16.4899262,43.5295683],[16.4920114,43.5295913],[16.4919982,43.5302176],[16.490795,43.5302041],[16.4906876,43.530203],[16.4899142,43.5301943],[16.4898766,43.5301939]]]}},{"type":"Feature","id":"way/1086530419","properties":{"access":"yes","amenity":"parking","parking":"surface","surface":"unpaved","id":"way/1086530419"},"geometry":{"type":"Polygon","coordinates":[[[16.4844136,43.5177546],[16.4843499,43.517634],[16.484311,43.5175493],[16.4843198,43.5175018],[16.484387,43.5174236],[16.4845675,43.5173992],[16.4846259,43.5174775],[16.4846914,43.5176032],[16.4847498,43.5176533],[16.4848595,43.5178008],[16.4849462,43.5178907],[16.4849303,43.5180459],[16.4844136,43.5177546]]]}},{"type":"Feature","id":"way/1097017043","properties":{"amenity":"parking","id":"way/1097017043"},"geometry":{"type":"Polygon","coordinates":[[[16.4958516,43.5161634],[16.4958452,43.5160188],[16.4958405,43.515968],[16.4961441,43.5159485],[16.4961523,43.5159942],[16.4964668,43.5159772],[16.4967248,43.5160653],[16.4967505,43.5161284],[16.4963366,43.5161538],[16.4963049,43.5161557],[16.4962802,43.5161572],[16.4959833,43.5161754],[16.4958516,43.5161634]]]}},{"type":"Feature","id":"way/1238140724","properties":{"amenity":"parking","id":"way/1238140724"},"geometry":{"type":"Polygon","coordinates":[[[16.4785923,43.5169582],[16.4785762,43.5169397],[16.4785869,43.516823],[16.4787412,43.516823],[16.4789168,43.5168026],[16.4791448,43.5167802],[16.4792333,43.516932],[16.4790563,43.5169543],[16.478937,43.5169679],[16.4785923,43.5169582]]]}},{"type":"Feature","id":"way/1238141355","properties":{"amenity":"parking","building":"yes","parking":"multi-storey","id":"way/1238141355"},"geometry":{"type":"Polygon","coordinates":[[[16.4777949,43.5150033],[16.4777971,43.514853],[16.4785579,43.5148587],[16.4785587,43.5148051],[16.4796589,43.5148135],[16.4796567,43.5149638],[16.478367,43.5149539],[16.4783662,43.5150076],[16.4777949,43.5150033]]]}},{"type":"Feature","id":"way/1238141356","properties":{"amenity":"parking","id":"way/1238141356"},"geometry":{"type":"Polygon","coordinates":[[[16.4787007,43.5155117],[16.4782615,43.5155081],[16.478056,43.5154074],[16.4780567,43.5153588],[16.478703,43.515364],[16.4787007,43.5155117]]]}},{"type":"Feature","id":"way/1260590913","properties":{"amenity":"parking","id":"way/1260590913"},"geometry":{"type":"Polygon","coordinates":[[[16.4954551,43.5239728],[16.4954422,43.5239343],[16.4954131,43.523828],[16.4954748,43.5237934],[16.4955459,43.5237609],[16.4956684,43.523749],[16.4957222,43.5237446],[16.495761,43.5238834],[16.4956138,43.523905],[16.4956202,43.5239529],[16.4954551,43.5239728]]]}},{"type":"Feature","id":"way/1303852795","properties":{"amenity":"parking","id":"way/1303852795"},"geometry":{"type":"Polygon","coordinates":[[[16.4847645,43.5186245],[16.4849816,43.5185441],[16.4851202,43.5185503],[16.4853918,43.5190288],[16.4850781,43.5191286],[16.4847645,43.5186245]]]}},{"type":"Feature","id":"way/1324665280","properties":{"amenity":"parking","capacity":"10","capacity:disabled":"1","parking":"surface","id":"way/1324665280"},"geometry":{"type":"Polygon","coordinates":[[[16.4950042,43.5354529],[16.4950217,43.5353327],[16.4951759,43.5353425],[16.4951548,43.5354656],[16.4950042,43.5354529]]]}},{"type":"Feature","id":"way/1387391657","properties":{"access":"customers","amenity":"parking","fee":"no","parking":"surface","id":"way/1387391657"},"geometry":{"type":"Polygon","coordinates":[[[16.483061,43.5279169],[16.4824866,43.5275347],[16.4827563,43.5273347],[16.4824028,43.5270741],[16.4825445,43.5269536],[16.4834845,43.5275524],[16.483061,43.5279169]]]}},{"type":"Feature","id":"way/1390815494","properties":{"amenity":"parking","id":"way/1390815494"},"geometry":{"type":"Polygon","coordinates":[[[16.4915788,43.5356048],[16.4915131,43.535528],[16.4914755,43.5354551],[16.4914514,43.5353588],[16.4914138,43.535248],[16.4913776,43.5351877],[16.4915077,43.5351343],[16.4915506,43.5350993],[16.4915788,43.5351245],[16.4917451,43.5354356],[16.4916123,43.5355893],[16.4915788,43.5356048]]]}},{"type":"Feature","id":"way/1481049703","properties":{"amenity":"parking","operator":"SPLIT PARKING d.o.o.","operator:type":"government","id":"way/1481049703"},"geometry":{"type":"Polygon","coordinates":[[[16.5000409,43.5276404],[16.499951,43.527627],[16.4998875,43.527604],[16.4998266,43.527556],[16.4998081,43.5272923],[16.4997962,43.5271178],[16.4998729,43.5270612],[16.4999748,43.5270247],[16.5000779,43.5270295],[16.500152,43.5270497],[16.5002115,43.5271197],[16.50023,43.5272607],[16.5002314,43.5274237],[16.5002234,43.5275752],[16.5001639,43.527626],[16.5000409,43.5276404]]]}},{"type":"Feature","id":"way/1512532049","properties":{"amenity":"parking","id":"way/1512532049"},"geometry":{"type":"Polygon","coordinates":[[[16.470312,43.5205176],[16.4702935,43.5203915],[16.4708171,43.520346],[16.4708452,43.5204636],[16.470312,43.5205176]]]}},{"type":"Feature","id":"way/1512532051","properties":{"amenity":"parking","fee":"no","parking":"street_side","id":"way/1512532051"},"geometry":{"type":"Polygon","coordinates":[[[16.470953,43.5206018],[16.4709069,43.5203584],[16.4710241,43.5203476],[16.4710594,43.5205921],[16.470953,43.5206018]]]}},{"type":"Feature","id":"way/1512532052","properties":{"amenity":"parking","fee":"no","parking":"street_side","id":"way/1512532052"},"geometry":{"type":"Polygon","coordinates":[[[16.4710116,43.5206334],[16.4719622,43.520529],[16.4719545,43.5205718],[16.4710202,43.5206743],[16.4710116,43.5206334]]]}},{"type":"Feature","id":"way/1512532053","properties":{"amenity":"parking","fee":"no","parking":"street_side","id":"way/1512532053"},"geometry":{"type":"Polygon","coordinates":[[[16.4707715,43.5206276],[16.4707782,43.5206826],[16.4701014,43.5207415],[16.4700931,43.520683],[16.4707715,43.5206276]]]}},{"type":"Feature","id":"way/1512532054","properties":{"amenity":"parking","fee":"no","parking":"street_side","id":"way/1512532054"},"geometry":{"type":"Polygon","coordinates":[[[16.4699215,43.5210333],[16.4700222,43.521083],[16.4700704,43.5214537],[16.4700746,43.5214857],[16.4700761,43.5214977],[16.4699924,43.5215077],[16.4699215,43.5210333]]]}},{"type":"Feature","id":"way/1512532063","properties":{"amenity":"parking","fee":"no","parking":"street_side","id":"way/1512532063"},"geometry":{"type":"Polygon","coordinates":[[[16.4720877,43.5205358],[16.4720768,43.5204573],[16.4726495,43.520412],[16.4726575,43.5204734],[16.4721879,43.5205123],[16.4720877,43.5205358]]]}},{"type":"Feature","id":"way/1512532064","properties":{"amenity":"parking","fee":"no","id":"way/1512532064"},"geometry":{"type":"Polygon","coordinates":[[[16.4720768,43.5204573],[16.4720479,43.5202766],[16.4726041,43.5202294],[16.4726495,43.520412],[16.4720768,43.5204573]]]}},{"type":"Feature","id":"way/1512532066","properties":{"amenity":"parking","id":"way/1512532066"},"geometry":{"type":"Polygon","coordinates":[[[16.4729344,43.5202377],[16.4729481,43.5202193],[16.4730354,43.5202035],[16.4730887,43.5202224],[16.4731414,43.5204152],[16.47294,43.5204349],[16.4729344,43.5202377]]]}},{"type":"Feature","id":"way/1512532068","properties":{"amenity":"parking","parking":"street_side","id":"way/1512532068"},"geometry":{"type":"Polygon","coordinates":[[[16.4729183,43.5211805],[16.4728332,43.5206994],[16.4728428,43.5206627],[16.4728132,43.5205905],[16.4729871,43.5205503],[16.4730105,43.5206916],[16.4730887,43.5211696],[16.4729183,43.5211805]]]}},{"type":"Feature","id":"node/1272941075","properties":{"amenity":"parking","parking":"surface","id":"node/1272941075"},"geometry":{"type":"Point","coordinates":[16.4842895,43.526235]}},{"type":"Feature","id":"node/1403134606","properties":{"amenity":"parking","id":"node/1403134606"},"geometry":{"type":"Point","coordinates":[16.4706495,43.5224217]}},{"type":"Feature","id":"node/3781838806","properties":{"amenity":"parking","layer":"-1","parking":"underground","id":"node/3781838806"},"geometry":{"type":"Point","coordinates":[16.4848188,43.5199494]}},{"type":"Feature","id":"node/3781838813","properties":{"amenity":"parking","layer":"-1","parking":"underground","id":"node/3781838813"},"geometry":{"type":"Point","coordinates":[16.4840411,43.5200708]}},{"type":"Feature","id":"node/6395950196","properties":{"access":"customers","amenity":"parking","fee":"no","layer":"-1","parking":"underground","id":"node/6395950196"},"geometry":{"type":"Point","coordinates":[16.483206,43.518386]}},{"type":"Feature","id":"node/6395950198","properties":{"access":"customers","amenity":"parking","fee":"no","layer":"-1","parking":"underground","id":"node/6395950198"},"geometry":{"type":"Point","coordinates":[16.4832923,43.5183701]}},{"type":"Feature","id":"node/6399546626","properties":{"amenity":"parking","layer":"-1","parking":"underground","id":"node/6399546626"},"geometry":{"type":"Point","coordinates":[16.4853499,43.5194246]}},{"type":"Feature","id":"node/12080107734","properties":{"amenity":"parking","layer":"-1","parking":"underground","id":"node/12080107734"},"geometry":{"type":"Point","coordinates":[16.4852942,43.5192949]}},{"type":"Feature","id":"node/13232272661","properties":{"amenity":"parking","id":"node/13232272661"},"geometry":{"type":"Point","coordinates":[16.4929105,43.5348826]}},{"type":"Feature","id":"node/13584276279","properties":{"amenity":"parking","layer":"-1","parking":"underground","id":"node/13584276279"},"geometry":{"type":"Point","coordinates":[16.5022071,43.527798]}}]}