{"type":"FeatureCollection","features":[{"type":"Feature","properties":{"OBJECTID":1838,"Shape.STArea()":1539087.6456294686,"Shape.STLength()":4398.020595627406,"OZNAKA":"EKZ-1845","HTRS96_X":500930,"HTRS96_Y":4820180,"POLUMJER__":700,"ŽUPANIJA":"SPLITSKO-DALMATINSKA","GRAD_OPĆI":"SPLIT","NASELJE":"Kamen","BUFF_DIST":700,"ORIG_FID":1838,"Shape_Leng":4398.22971503},"geometry":{"type":"Polygon","coordinates":[[[16.502846362133898,43.52143557294773],[16.502856230859415,43.52122284967114],[16.50287596695232,43.5210104902885],[16.502905547790284,43.52079873710071],[16.502944939518965,43.520587831714536],[16.50299409709132,43.52037801476671],[16.503052964319398,43.52016952564982],[16.503121473939,43.51996260223899],[16.503199547686677,43.51975748062043],[16.503281348739137,43.51956772758607],[16.505687577147658,43.51968865563678],[16.505969975163335,43.51972286056185],[16.506238115339542,43.51979564445852],[16.506482074120544,43.519904313698135],[16.506692822745016,43.52004484656858],[16.506862561367136,43.52021204209292],[16.506985007725184,43.520399712490125],[16.50724841239555,43.52093024567232],[16.511059305965826,43.523489870370284],[16.511244339681177,43.52363968289595],[16.511387826410935,43.523811787309704],[16.51148478305827,43.52400020710879],[16.511531842227498,43.52419839916385],[16.511527369216505,43.52439948092549],[16.511471518850986,43.524596469425965],[16.51136623017786,43.524782523777276],[16.51121515919239,43.52495118274459],[16.511023551926407,43.52509658914323],[16.507686981427593,43.52719629618856],[16.507560756244455,43.5271512553346],[16.507302617010073,43.52705113624326],[16.507049273200124,43.52694473001918],[16.506801013936645,43.52683215810624],[16.506558122533864,43.5267135489847],[16.506320876174744,43.52658903802448],[16.50608954559456,43.52645876733036],[16.505864394771827,43.52632288557992],[16.505645680626984,43.52618154785353],[16.50543365272918,43.52603491545733],[16.505228553011317,43.52588315573902],[16.505030615494192,43.52572644189668],[16.50484006601932,43.52556495278099],[16.50465712199131,43.52539887269104],[16.50448199212999,43.52522839116388],[16.50431487623218,43.52505370275792],[16.504155964943966,43.524875006831024],[16.504005439543374,43.52469250731263],[16.503863471733574,43.524506412471155],[16.503730223447345,43.524316934676015],[16.50360584666244,43.524124290155164],[16.503490483228532,43.52392869874842],[16.503384264705616,43.52373038365628],[16.503287312214262,43.52352957118524],[16.503199736297788,43.52332649048942],[16.503121636796344,43.52312137330904],[16.503053102733613,43.522914453705745],[16.50299421221551,43.52270596779572],[16.502945032341405,43.52249615347992],[16.502905619128168,43.52228525017277],[16.50287601744664,43.522073498528634],[16.50285626097089,43.521861140167694],[16.502846372140148,43.5216484173997],[16.502846362133898,43.52143557294773]]]}},{"type":"Feature","properties":{"OBJECTID":1831,"Shape.STArea()":785191.1731645174,"Shape.STLength()":3141.3856510815594,"OZNAKA":"EKZ-1838","HTRS96_X":499227,"HTRS96_Y":4821423,"POLUMJER__":500,"ŽUPANIJA":"SPLITSKO-DALMATINSKA","GRAD_OPĆI":"SOLIN","NASELJE":"Solin","BUFF_DIST":500,"ORIG_FID":1831,"Shape_Leng":3141.59265359},"geometry":{"type":"Polygon","coordinates":[[[16.48839046357586,43.529366562963624],[16.48840681354507,43.529156926873206],[16.488478844003147,43.52895355412517],[16.48875696111343,43.528399059264004],[16.488974834460706,43.52835716787676],[16.489214954508142,43.52831835795311],[16.489457005039185,43.52828652413996],[16.489700603403417,43.52826171676208],[16.489945364505026,43.528243975036645],[16.49019090141151,43.5282333270107],[16.49043682596453,43.52822978951725],[16.490682749393454,43.52823336814867],[16.49092828292945,43.52824405724754],[16.49117303841956,43.52826183991604],[16.49141662894003,43.52828668804228],[16.491658669407535,43.528318562344786],[16.491898777187494,43.5283574124347],[16.492136572698726,43.528403176895324],[16.492371680012923,43.528455783378995],[16.4926037274489,43.528515148721645],[16.492832348159503,43.52858117907395],[16.493057180711467,43.528653770049765],[16.493277869656513,43.528732806891036],[16.493494066092932,43.52881816464889],[16.493705428216938,43.52890970838143],[16.49391162186294,43.52900729336658],[16.49411232103147,43.5291107653309],[16.494307208404692,43.52921996069348],[16.494495975847762,43.52933470682414],[16.49467832489591,43.52945482231634],[16.49485396722643,43.52958011727384],[16.495022625114405,43.5297103936108],[16.495184031871883,43.52984544536468],[16.49533793226956,43.52998505902179],[16.49548408294042,43.5301290138547],[16.495622252764754,43.53027708227108],[16.495625051271,43.53028035399234],[16.48992108990981,43.53040109856765],[16.4896321533397,43.53038677202579],[16.489352512539014,43.53033215158891],[16.489092753906142,43.53023930503769],[16.488862711045286,43.53011174727645],[16.488671092459214,43.52995430725031],[16.48852515186316,43.52977294511338],[16.488430413603798,43.52957452657402],[16.48839046357586,43.529366562963624]]]}}]}