{
 "type": "FeatureCollection",
 "features": [
  {
   "type": "Feature",
   "properties": {
    "oznaka": "vrboran",
    "naziv": "Split-Vrboran",
    "mreza": "Neverin.hr",
    "lat": 43.515261,
    "lon": 16.496216,
    "visina": 74.0,
    "podrijetlo": "api.neverin.hr, polja lat/lon/alt postaje; Neverinova vlastita postaja",
    "odKvartaKm": 1.1,
    "azimutOdKvarta": 193,
    "odPloheKm": 1.4,
    "azimutOdPlohe": 241
   },
   "geometry": {
    "type": "Point",
    "coordinates": [
     16.496216,
     43.515261
    ]
   }
  },
  {
   "type": "Feature",
   "properties": {
    "oznaka": "pujanke",
    "naziv": "Split-Pujanke",
    "mreza": "Neverin.hr",
    "lat": 43.516,
    "lon": 16.473,
    "visina": 82.0,
    "podrijetlo": "api.neverin.hr, polja lat/lon/alt postaje",
    "odKvartaKm": 2.3,
    "azimutOdKvarta": 245,
    "odPloheKm": 3.2,
    "azimutOdPlohe": 259
   },
   "geometry": {
    "type": "Point",
    "coordinates": [
     16.473,
     43.516
    ]
   }
  },
  {
   "type": "Feature",
   "properties": {
    "oznaka": "solin",
    "naziv": "Solin",
    "mreza": "Neverin.hr",
    "lat": 43.544,
    "lon": 16.484,
    "visina": 63.0,
    "podrijetlo": "api.neverin.hr, polja lat/lon/alt postaje",
    "odKvartaKm": 2.4,
    "azimutOdKvarta": 330,
    "odPloheKm": 3.4,
    "azimutOdPlohe": 318
   },
   "geometry": {
    "type": "Point",
    "coordinates": [
     16.484,
     43.544
    ]
   }
  },
  {
   "type": "Feature",
   "properties": {
    "oznaka": "split3",
    "naziv": "Split-3",
    "mreza": "AZO, državna mreža",
    "lat": 43.50421139510805,
    "lon": 16.453605895567744,
    "visina": null,
    "podrijetlo": "nađeno na terenu; AZO-ov popis daje 43,504167 / 16,453333 (22 m)",
    "odKvartaKm": 4.3,
    "azimutOdKvarta": 238,
    "odPloheKm": 5.0,
    "azimutOdPlohe": 248
   },
   "geometry": {
    "type": "Point",
    "coordinates": [
     16.453605895567744,
     43.50421139510805
    ]
   }
  },
  {
   "type": "Feature",
   "properties": {
    "oznaka": "split2",
    "naziv": "Split-2",
    "mreza": "AZO, državna mreža",
    "lat": 43.5184711569566,
    "lon": 16.44246833781461,
    "visina": null,
    "podrijetlo": "nađeno na terenu; AZO-ov popis daje 43,518333 / 16,442222 (25 m)",
    "odKvartaKm": 4.6,
    "azimutOdKvarta": 261,
    "odPloheKm": 5.6,
    "azimutOdPlohe": 267
   },
   "geometry": {
    "type": "Point",
    "coordinates": [
     16.44246833781461,
     43.5184711569566
    ]
   }
  },
  {
   "type": "Feature",
   "properties": {
    "oznaka": "zrnovnica",
    "naziv": "Žrnovnica",
    "mreza": "Neverin.hr",
    "lat": 43.519,
    "lon": 16.56,
    "visina": 32.0,
    "podrijetlo": "api.neverin.hr, polja lat/lon/alt postaje; niz stoji od 2. 2. 2025.",
    "odKvartaKm": 4.9,
    "azimutOdKvarta": 98,
    "odPloheKm": 3.9,
    "azimutOdPlohe": 94
   },
   "geometry": {
    "type": "Point",
    "coordinates": [
     16.56,
     43.519
    ]
   }
  },
  {
   "type": "Feature",
   "properties": {
    "oznaka": "marjan",
    "naziv": "Split-Marjan",
    "mreza": "DHMZ, glavna meteorološka postaja",
    "lat": 43.508333,
    "lon": 16.426333,
    "visina": 122.0,
    "podrijetlo": "DHMZ-ov popis glavnih postaja, 43° 30′ 30,0″ N / 16° 25′ 34,8″ E",
    "odKvartaKm": 6.2,
    "azimutOdKvarta": 253,
    "odPloheKm": 7.0,
    "azimutOdPlohe": 258
   },
   "geometry": {
    "type": "Point",
    "coordinates": [
     16.426333,
     43.508333
    ]
   }
  },
  {
   "type": "Feature",
   "properties": {
    "oznaka": "aerodrom",
    "naziv": "Split-aerodrom",
    "mreza": "DHMZ, glavna meteorološka postaja",
    "lat": 43.539,
    "lon": 16.301,
    "visina": 16.0,
    "podrijetlo": "Resnik; koordinata iz METAR servisa za LDSP",
    "odKvartaKm": 16.1,
    "azimutOdKvarta": 276,
    "odPloheKm": 17.1,
    "azimutOdPlohe": 277
   },
   "geometry": {
    "type": "Point",
    "coordinates": [
     16.301,
     43.539
    ]
   }
  },
  {
   "type": "Feature",
   "properties": {
    "oznaka": "ldsp",
    "naziv": "LDSP, Zračna luka Split",
    "mreza": "METAR",
    "lat": 43.539,
    "lon": 16.301,
    "visina": 16.0,
    "podrijetlo": "aviationweather.gov, polja lat/lon/elev za LDSP",
    "odKvartaKm": 16.1,
    "azimutOdKvarta": 276,
    "odPloheKm": 17.1,
    "azimutOdPlohe": 277
   },
   "geometry": {
    "type": "Point",
    "coordinates": [
     16.301,
     43.539
    ]
   }
  }
 ]
}
