{"type":"FeatureCollection","features":[{"type":"Feature","id":"way/161760795","properties":{"leisure":"pitch","id":"way/161760795"},"geometry":{"type":"Polygon","coordinates":[[[16.4932493,43.5300867],[16.4932508,43.5300517],[16.4935911,43.5300589],[16.4935897,43.530094],[16.4932493,43.5300867]]]}},{"type":"Feature","id":"way/161760797","properties":{"leisure":"pitch","id":"way/161760797"},"geometry":{"type":"Polygon","coordinates":[[[16.4936313,43.5300459],[16.4932639,43.5300425],[16.4932645,43.5300084],[16.4936319,43.5300118],[16.4936313,43.5300459]]]}},{"type":"Feature","id":"way/163131715","properties":{"leisure":"pitch","lit":"yes","sport":"soccer","surface":"artificial_turf","id":"way/163131715"},"geometry":{"type":"Polygon","coordinates":[[[16.5053062,43.521571],[16.5052172,43.5212317],[16.5058172,43.521149],[16.5059062,43.5214883],[16.5053062,43.521571]]]}},{"type":"Feature","id":"way/164497026","properties":{"leisure":"pitch","sport":"boules","id":"way/164497026"},"geometry":{"type":"Polygon","coordinates":[[[16.4921059,43.5270238],[16.491913,43.5268708],[16.4919344,43.5268566],[16.4921274,43.5270096],[16.4921059,43.5270238]]]}},{"type":"Feature","id":"way/658134291","properties":{"leisure":"pitch","lit":"yes","sport":"soccer","id":"way/658134291"},"geometry":{"type":"Polygon","coordinates":[[[16.5014151,43.5272233],[16.5014138,43.5270804],[16.501576,43.5270814],[16.5016417,43.5271125],[16.5017128,43.5271407],[16.5017168,43.5272224],[16.5014151,43.5272233]]]}},{"type":"Feature","id":"way/658134292","properties":{"access":"yes","hoops":"1","leisure":"pitch","lit":"yes","sport":"basketball","id":"way/658134292"},"geometry":{"type":"Polygon","coordinates":[[[16.5014322,43.5270687],[16.5014286,43.52695],[16.5015092,43.5269475],[16.5015145,43.5269821],[16.5015375,43.5270283],[16.5015711,43.5270694],[16.5014322,43.5270687]]]}},{"type":"Feature","id":"way/658134293","properties":{"leisure":"pitch","lit":"yes","name":"TorcidaBilice","sport":"soccer","id":"way/658134293"},"geometry":{"type":"Polygon","coordinates":[[[16.4965028,43.5248585],[16.4964891,43.5247761],[16.4967197,43.5247559],[16.4967334,43.5248383],[16.4965028,43.5248585]]]}},{"type":"Feature","id":"way/658134294","properties":{"amenity":"place_of_worship","building":"yes","denomination":"roman_catholic","name":"Sveti Križ","religion":"christian","id":"way/658134294"},"geometry":{"type":"Polygon","coordinates":[[[16.4997126,43.5258343],[16.4998294,43.5258339],[16.4998305,43.525975],[16.4997137,43.5259755],[16.4997126,43.5258343]]]}},{"type":"Feature","id":"way/732258609","properties":{"addr:city":"Split","addr:housenumber":"7a","addr:street":"Mostine","facebook":"http://www.facebook.com/NogometniKlubGalaxy/","leisure":"sports_centre","name":"NK Galaxy","id":"way/732258609"},"geometry":{"type":"Polygon","coordinates":[[[16.4955873,43.5244744],[16.4953905,43.5238053],[16.4954025,43.5237148],[16.4954912,43.523686],[16.4956458,43.523703],[16.4957307,43.5237287],[16.4958517,43.52407],[16.4959718,43.5243637],[16.4959747,43.5243913],[16.4959565,43.5244253],[16.4955873,43.5244744]]]}},{"type":"Feature","id":"way/732258611","properties":{"leisure":"pitch","name":"House of Galaxy","sport":"soccer","id":"way/732258611"},"geometry":{"type":"Polygon","coordinates":[[[16.4956191,43.5244593],[16.495463,43.5240185],[16.4957723,43.5239646],[16.4959276,43.5244086],[16.4956191,43.5244593]]]}},{"type":"Feature","id":"way/732258613","properties":{"leisure":"pitch","id":"way/732258613"},"geometry":{"type":"Polygon","coordinates":[[[16.4944417,43.5246857],[16.4943945,43.5245066],[16.4945461,43.5244899],[16.4945903,43.5246704],[16.4944417,43.5246857]]]}},{"type":"Feature","id":"way/1260590915","properties":{"leisure":"playground","id":"way/1260590915"},"geometry":{"type":"Polygon","coordinates":[[[16.4955235,43.523752],[16.4955014,43.5237069],[16.4956526,43.5237122],[16.4956577,43.5237463],[16.4955456,43.5237524],[16.4955235,43.523752]]]}},{"type":"Feature","id":"way/1279448339","properties":{"leisure":"garden","id":"way/1279448339"},"geometry":{"type":"Polygon","coordinates":[[[16.5042387,43.5198657],[16.5043487,43.5195195],[16.5045154,43.5195362],[16.5045332,43.5198928],[16.5042387,43.5198657]]]}}]}