{"type":"FeatureCollection","features":[{"type":"Feature","geometry":{"type":"Point","coordinates":[16.49714168990425,43.52892594155148]},"properties":{"naziv":"BILICE ZATVOR 1"}},{"type":"Feature","geometry":{"type":"Point","coordinates":[16.496678,43.529012]},"properties":{"naziv":"BILICE ZATVOR 2"}},{"type":"Feature","geometry":{"type":"Point","coordinates":[16.496165,43.526888]},"properties":{"naziv":"DRAČEVAC"}},{"type":"Feature","geometry":{"type":"Point","coordinates":[16.501597,43.527598]},"properties":{"naziv":"DRAČEVAC NIRS 1"}},{"type":"Feature","geometry":{"type":"Point","coordinates":[16.502404254406425,43.527432820245416]},"properties":{"naziv":"DRAČEVAC NIRS 2"}},{"type":"Feature","geometry":{"type":"Point","coordinates":[16.4998756,43.5269454]},"properties":{"naziv":"DRAČEVAC SUD 1"}},{"type":"Feature","geometry":{"type":"Point","coordinates":[16.4998761,43.526868]},"properties":{"naziv":"DRAČEVAC SUD 2"}},{"type":"Feature","geometry":{"type":"Point","coordinates":[16.503647,43.52883]},"properties":{"naziv":"MARINUŠA 1"}},{"type":"Feature","geometry":{"type":"Point","coordinates":[16.5035253,43.5288298]},"properties":{"naziv":"MARINUŠA 2"}},{"type":"Feature","geometry":{"type":"Point","coordinates":[16.487624954984497,43.52398259268172]},"properties":{"naziv":"SMOKOVIK 1"}}]}