{"type":"FeatureCollection","features":[{"type":"Feature","id":"way/44852008","properties":{"name":"TS Vrboran","power":"substation","substation":"distribution","voltage":"110000","id":"way/44852008"},"geometry":{"type":"Polygon","coordinates":[[[16.4959692,43.5164939],[16.4959865,43.5166828],[16.4960312,43.5171896],[16.496913,43.5171371],[16.4969508,43.5175509],[16.4969764,43.5179218],[16.4968836,43.5181248],[16.4961641,43.5181816],[16.4952334,43.5182284],[16.4950659,43.5165399],[16.4953548,43.5165261],[16.4959692,43.5164939]]]}},{"type":"Feature","id":"way/119668827","properties":{"landuse":"industrial","name":"TS Meterize","operator":"HEP","operator:wikidata":"Q13636760","operator:wikipedia":"hr:Hrvatska elektroprivreda","power":"substation","voltage":"110000","id":"way/119668827"},"geometry":{"type":"Polygon","coordinates":[[[16.5008774,43.5297168],[16.500739,43.5297202],[16.5005547,43.5296898],[16.5004342,43.52967],[16.5005888,43.5292713],[16.5005949,43.5291066],[16.50066,43.5289723],[16.5007002,43.5288894],[16.5014276,43.5288286],[16.5016462,43.5288064],[16.5017433,43.5288079],[16.502091,43.5288766],[16.5022001,43.5288946],[16.502252,43.528911],[16.5024196,43.5290607],[16.5024442,43.5293749],[16.5021593,43.5296339],[16.5008774,43.5297168]]]}},{"type":"Feature","id":"way/132739236","properties":{"building":"yes","power":"substation","roof:material":"roof_tiles","roof:shape":"gabled","substation":"yes","id":"way/132739236"},"geometry":{"type":"Polygon","coordinates":[[[16.4927432,43.5325213],[16.4927432,43.5324877],[16.4928045,43.5324877],[16.4928045,43.5325213],[16.4927432,43.5325213]]]}},{"type":"Feature","id":"way/150151929","properties":{"name":"TS Visoka","power":"substation","id":"way/150151929"},"geometry":{"type":"Polygon","coordinates":[[[16.480799,43.5119206],[16.4807784,43.51188],[16.4807916,43.5118081],[16.4808452,43.5117908],[16.4811744,43.511845],[16.4811878,43.5118714],[16.4811934,43.5119122],[16.4811707,43.5119447],[16.4811253,43.5119718],[16.480799,43.5119206]]]}},{"type":"Feature","id":"way/160800338","properties":{"building":"yes","power":"substation","roof:material":"roof_tiles","roof:shape":"gabled","id":"way/160800338"},"geometry":{"type":"Polygon","coordinates":[[[16.4904736,43.532461],[16.4905337,43.5324591],[16.4905365,43.5325056],[16.4904764,43.5325075],[16.4904736,43.532461]]]}},{"type":"Feature","id":"way/161106580","properties":{"building":"yes","power":"substation","roof:material":"roof_tiles","roof:shape":"gabled","id":"way/161106580"},"geometry":{"type":"Polygon","coordinates":[[[16.4874143,43.5362731],[16.4873657,43.5362296],[16.4874236,43.5361957],[16.4874722,43.5362392],[16.4874143,43.5362731]]]}},{"type":"Feature","id":"way/164363749","properties":{"building":"yes","power":"substation","roof:material":"roof_tiles","roof:shape":"gabled","id":"way/164363749"},"geometry":{"type":"Polygon","coordinates":[[[16.4700208,43.5240936],[16.470016,43.5240503],[16.4700734,43.5240469],[16.4700783,43.5240903],[16.4700208,43.5240936]]]}},{"type":"Feature","id":"way/164495512","properties":{"building":"yes","note":"pretpostavka da je TS","power":"substation","roof:material":"roof_tiles","roof:shape":"gabled","id":"way/164495512"},"geometry":{"type":"Polygon","coordinates":[[[16.4925924,43.5254479],[16.4925928,43.5254219],[16.4926255,43.5254221],[16.4926251,43.5254481],[16.4925924,43.5254479]]]}},{"type":"Feature","id":"way/377122723","properties":{"building":"yes","name":"TS Kila-1","operator":"HEP","operator:wikidata":"Q13636760","operator:wikipedia":"hr:Hrvatska elektroprivreda","power":"substation","roof:material":"roof_tiles","roof:shape":"gabled","id":"way/377122723"},"geometry":{"type":"Polygon","coordinates":[[[16.5022772,43.5148451],[16.5022885,43.5148771],[16.5022306,43.5148879],[16.5022193,43.5148559],[16.5022772,43.5148451]]]}},{"type":"Feature","id":"way/419193736","properties":{"building":"yes","name":"TS Visoka-1","operator":"HEP ltd.","power":"substation","roof:material":"roof_tiles","roof:shape":"gabled","substation":"yes","id":"way/419193736"},"geometry":{"type":"Polygon","coordinates":[[[16.4745047,43.5133728],[16.4745089,43.5133238],[16.4745716,43.5133266],[16.4745674,43.5133756],[16.4745047,43.5133728]]]}},{"type":"Feature","id":"way/490086972","properties":{"power":"substation","id":"way/490086972"},"geometry":{"type":"Polygon","coordinates":[[[16.4936101,43.5321988],[16.4936088,43.5321561],[16.4936611,43.5321541],[16.4936598,43.5321949],[16.4936101,43.5321988]]]}},{"type":"Feature","id":"way/998010440","properties":{"building":"service","name":"TS Visoka-12","power":"substation","id":"way/998010440"},"geometry":{"type":"Polygon","coordinates":[[[16.4810966,43.5121612],[16.4810431,43.5121532],[16.4810524,43.5121207],[16.4811059,43.5121288],[16.4810966,43.5121612]]]}},{"type":"Feature","id":"way/1086530414","properties":{"building":"service","power":"substation","id":"way/1086530414"},"geometry":{"type":"Polygon","coordinates":[[[16.4934388,43.5181387],[16.4934821,43.5181305],[16.4934973,43.5181728],[16.493454,43.518181],[16.4934388,43.5181387]]]}},{"type":"Feature","id":"way/1237037533","properties":{"building":"service","power":"substation","id":"way/1237037533"},"geometry":{"type":"Polygon","coordinates":[[[16.4865766,43.522808],[16.4865272,43.5228294],[16.4864949,43.5227903],[16.4865443,43.5227689],[16.4865766,43.522808]]]}},{"type":"Feature","id":"way/150134235","properties":{"cables":"6","circuits":"2","name":"DV Meterize - HE Zakučac","power":"line","voltage":"110000","id":"way/150134235"},"geometry":{"type":"LineString","coordinates":[[16.5020064,43.5295066],[16.5021935,43.5299431],[16.5041346,43.5310547],[16.5061725,43.5322274],[16.5080843,43.5327379],[16.5096625,43.5334511],[16.5107404,43.5338931],[16.5106568,43.5355866],[16.5124141,43.5365103],[16.5142434,43.5361603],[16.5177196,43.5355109],[16.5223098,43.5346265],[16.5245809,43.5350665],[16.5285444,43.5358755],[16.5310287,43.5348731],[16.5340059,43.5336325],[16.5353899,43.5330802],[16.5367096,43.5325513],[16.5384168,43.5318611],[16.5421754,43.5303415],[16.544863,43.5292447],[16.5463921,43.5286357],[16.5485054,43.527794],[16.5502244,43.527123],[16.5528,43.5248368],[16.5569742,43.524167],[16.5611103,43.5235151],[16.5651043,43.5228479],[16.5668394,43.5218894],[16.5711459,43.5194202],[16.5726972,43.5185272],[16.5748436,43.5172853],[16.5776736,43.5153778],[16.5812674,43.5129454],[16.5829748,43.5117959],[16.5860082,43.5097358],[16.5869755,43.5090817],[16.5909341,43.5064046],[16.5936745,43.5045558],[16.5964801,43.502601],[16.5980965,43.501538],[16.6007017,43.4997173],[16.6028958,43.4982396],[16.6038017,43.4976942],[16.6071821,43.4956589],[16.6098232,43.4940768],[16.6134691,43.4918833],[16.6166123,43.489972],[16.6193844,43.4882859],[16.6213337,43.4871092],[16.6218677,43.4867869],[16.6227774,43.4862377],[16.6261534,43.4841907],[16.6295619,43.4821614],[16.6305683,43.4800641],[16.6320129,43.4772615],[16.633131,43.4750868],[16.6338512,43.4727638],[16.6372836,43.4701306],[16.6394016,43.4686323],[16.6411528,43.4672654],[16.6429285,43.4668344],[16.6474282,43.4657616],[16.6496282,43.465129],[16.6540007,43.4640718],[16.6609664,43.4622996],[16.6643724,43.4614383],[16.6667375,43.460899],[16.6703309,43.4611115],[16.6734461,43.4613207],[16.6776915,43.4605366],[16.6807373,43.4598834],[16.6821628,43.4587997],[16.6840886,43.4583138],[16.687835,43.457556],[16.689711,43.4574035],[16.6929496,43.4564963],[16.6977166,43.4551347],[16.700904,43.4543952],[16.7019411,43.4547219]]}},{"type":"Feature","id":"way/150153531","properties":{"cables":"3","name":"DV Meterize - Sinj","power":"line","voltage":"110000","id":"way/150153531"},"geometry":{"type":"LineString","coordinates":[[16.5015602,43.5295486],[16.5016824,43.530191],[16.5017919,43.5317222],[16.5017238,43.5340201],[16.5014915,43.5423192],[16.5014636,43.5444038],[16.5039673,43.5462433],[16.5065195,43.5480825],[16.5092398,43.5500816],[16.5113653,43.5502211],[16.515203,43.5503482],[16.5188368,43.5504662],[16.5220469,43.5524163]]}},{"type":"Feature","id":"way/161760792","properties":{"cables":"6","circuits":"2","name":"DV Vrboran - Dujmovača - Meterize","power":"line","ref":"D119","voltage":"110000","id":"way/161760792"},"geometry":{"type":"LineString","coordinates":[[16.4967937,43.5195705],[16.4977194,43.5199912],[16.4984174,43.5214011],[16.4993269,43.5234444],[16.5003492,43.5259308],[16.5011918,43.5276466],[16.5014167,43.5286764],[16.5015418,43.5292381]]}},{"type":"Feature","id":"way/161760793","properties":{"cables":"3","circuits":"1","name":"DV Meterize - HE Zakučac","power":"line","voltage":"110000","id":"way/161760793"},"geometry":{"type":"LineString","coordinates":[[16.5022159,43.5291862],[16.5022759,43.5286092],[16.5023974,43.5278753],[16.5033118,43.5276904],[16.505886,43.5266522],[16.5094676,43.5251824],[16.5126557,43.5238947],[16.5156487,43.5227344],[16.5192279,43.521209],[16.5224503,43.5198824],[16.5262235,43.5197956],[16.5296701,43.5187197],[16.5327416,43.5181643],[16.5351387,43.516506],[16.5366767,43.5140744],[16.5403621,43.5126039],[16.5432978,43.5114673],[16.5467189,43.5102657],[16.5494776,43.5093469],[16.5528108,43.508185],[16.5560235,43.5071251],[16.5594746,43.5059755],[16.5596783,43.5059076],[16.5603105,43.5056946],[16.5628122,43.5048517],[16.5630624,43.5047685],[16.5647304,43.5042138],[16.5691474,43.5027448],[16.5853386,43.4970537],[16.587007,43.4954855],[16.5899628,43.4935008],[16.5929312,43.4914671],[16.6064633,43.4822548],[16.6106794,43.4793867],[16.6126719,43.4780431],[16.6137673,43.4772912],[16.615214,43.4762857],[16.6165438,43.4752835],[16.6222671,43.4715237],[16.6359857,43.4680733],[16.6401134,43.4670751],[16.6404878,43.4669846],[16.66081,43.4619771],[16.6695647,43.459779],[16.6739555,43.4586732],[16.6773833,43.4578048],[16.6807642,43.4575336],[16.6839611,43.4572442],[16.686619,43.4567407],[16.6934632,43.4554081],[16.7008532,43.4540313],[16.7020109,43.4545486]]}},{"type":"Feature","id":"way/163130290","properties":{"cables":"6","circuits":"2","name":"DV Vrboran - Dujmovača - Meterize","power":"line","voltage":"110000","id":"way/163130290"},"geometry":{"type":"LineString","coordinates":[[16.4793991,43.5250888],[16.4808545,43.5240786],[16.4835383,43.523385],[16.4875964,43.5245101],[16.4879865,43.5233242],[16.4900364,43.522835],[16.4915452,43.5216158],[16.4938976,43.5210658],[16.4966195,43.5201593],[16.4967937,43.5195705]]}},{"type":"Feature","id":"way/185197445","properties":{"cables":"6","circuits":"2","name":"DV Konjsko - Vrboran","power":"line","voltage":"110000","id":"way/185197445"},"geometry":{"type":"LineString","coordinates":[[16.508864,43.5929492],[16.5106057,43.5905559],[16.5129145,43.5874258],[16.5145914,43.585155],[16.5168391,43.5821007],[16.5184109,43.5800373],[16.5198722,43.5780569],[16.5207281,43.5768885],[16.525242,43.5718309],[16.527731,43.569258],[16.5301504,43.5670075],[16.529453,43.5647064],[16.5298634,43.563099],[16.5285443,43.5600995],[16.5271779,43.5574668],[16.525415,43.5541114],[16.5262076,43.5522338],[16.5236878,43.5494215],[16.5212034,43.5467377],[16.5189493,43.5441972],[16.518882,43.5441213],[16.5187209,43.5408053],[16.5177227,43.5395791],[16.5149283,43.53824],[16.512958,43.5372119],[16.5103031,43.5358577],[16.5103925,43.5334675],[16.5105595,43.528493],[16.5107544,43.5261132],[16.5086912,43.5251618],[16.5070556,43.5244337],[16.5054183,43.5236507],[16.5031997,43.521942],[16.5002566,43.5196937],[16.4978844,43.5178619],[16.4968397,43.5177136]]}},{"type":"Feature","id":"way/191457113","properties":{"power":"minor_line","id":"way/191457113"},"geometry":{"type":"LineString","coordinates":[[16.4808798,43.5131025],[16.4818258,43.5130536],[16.4822294,43.5130407],[16.4825186,43.51322],[16.4828079,43.5134136]]}},{"type":"Feature","id":"way/198467635","properties":{"cables":"3","power":"line","voltage":"110000","id":"way/198467635"},"geometry":{"type":"LineString","coordinates":[[16.4958787,43.5180537],[16.4956459,43.5189047]]}},{"type":"Feature","id":"way/198467665","properties":{"power":"line","id":"way/198467665"},"geometry":{"type":"LineString","coordinates":[[16.4956459,43.5189047],[16.4950148,43.5178937],[16.4953576,43.5178541]]}},{"type":"Feature","id":"way/737619353","properties":{"cables":"6","circuits":"2","name":"DV Vrboran - Dujmovača - Meterize","power":"line","voltage":"110000","id":"way/737619353"},"geometry":{"type":"LineString","coordinates":[[16.4956459,43.5189047],[16.4967937,43.5195705]]}},{"type":"Feature","id":"way/737619354","properties":{"cables":"3","circuits":"1","power":"line","voltage":"110000","id":"way/737619354"},"geometry":{"type":"LineString","coordinates":[[16.4956459,43.5189047],[16.4950007,43.5179022],[16.4953253,43.5179139]]}},{"type":"Feature","id":"node/568607529","properties":{"power":"tower","id":"node/568607529"},"geometry":{"type":"Point","coordinates":[16.4879865,43.5233242]}},{"type":"Feature","id":"node/568607533","properties":{"power":"tower","id":"node/568607533"},"geometry":{"type":"Point","coordinates":[16.4938976,43.5210658]}},{"type":"Feature","id":"node/568607557","properties":{"power":"tower","id":"node/568607557"},"geometry":{"type":"Point","coordinates":[16.4978844,43.5178619]}},{"type":"Feature","id":"node/568607562","properties":{"power":"tower","id":"node/568607562"},"geometry":{"type":"Point","coordinates":[16.4991866,43.5196063]}},{"type":"Feature","id":"node/568607564","properties":{"power":"tower","id":"node/568607564"},"geometry":{"type":"Point","coordinates":[16.4984174,43.5214011]}},{"type":"Feature","id":"node/568607589","properties":{"power":"tower","id":"node/568607589"},"geometry":{"type":"Point","coordinates":[16.4993269,43.5234444]}},{"type":"Feature","id":"node/568607600","properties":{"power":"tower","id":"node/568607600"},"geometry":{"type":"Point","coordinates":[16.5107544,43.5261132]}},{"type":"Feature","id":"node/568607602","properties":{"power":"tower","id":"node/568607602"},"geometry":{"type":"Point","coordinates":[16.5094676,43.5251824]}},{"type":"Feature","id":"node/568607607","properties":{"power":"tower","id":"node/568607607"},"geometry":{"type":"Point","coordinates":[16.5126557,43.5238947]}},{"type":"Feature","id":"node/568607608","properties":{"power":"tower","id":"node/568607608"},"geometry":{"type":"Point","coordinates":[16.4997873,43.5327477]}},{"type":"Feature","id":"node/568607612","properties":{"power":"tower","id":"node/568607612"},"geometry":{"type":"Point","coordinates":[16.5105595,43.528493]}},{"type":"Feature","id":"node/568607615","properties":{"power":"tower","id":"node/568607615"},"geometry":{"type":"Point","coordinates":[16.5103925,43.5334675]}},{"type":"Feature","id":"node/569653128","properties":{"power":"tower","id":"node/569653128"},"geometry":{"type":"Point","coordinates":[16.5103031,43.5358577]}},{"type":"Feature","id":"node/569653129","properties":{"power":"tower","id":"node/569653129"},"geometry":{"type":"Point","coordinates":[16.512958,43.5372119]}},{"type":"Feature","id":"node/569653152","properties":{"power":"tower","id":"node/569653152"},"geometry":{"type":"Point","coordinates":[16.5098605,43.5394949]}},{"type":"Feature","id":"node/1279867593","properties":{"power":"tower","id":"node/1279867593"},"geometry":{"type":"Point","coordinates":[16.5177227,43.5395791]}},{"type":"Feature","id":"node/1279867611","properties":{"power":"tower","id":"node/1279867611"},"geometry":{"type":"Point","coordinates":[16.5031997,43.521942]}},{"type":"Feature","id":"node/1279867647","properties":{"power":"tower","id":"node/1279867647"},"geometry":{"type":"Point","coordinates":[16.5149283,43.53824]}},{"type":"Feature","id":"node/1279867655","properties":{"power":"tower","id":"node/1279867655"},"geometry":{"type":"Point","coordinates":[16.5054183,43.5236507]}},{"type":"Feature","id":"node/1279867670","properties":{"power":"tower","id":"node/1279867670"},"geometry":{"type":"Point","coordinates":[16.5002566,43.5196937]}},{"type":"Feature","id":"node/1279867672","properties":{"power":"tower","id":"node/1279867672"},"geometry":{"type":"Point","coordinates":[16.5086912,43.5251618]}},{"type":"Feature","id":"node/1419177793","properties":{"power":"tower","id":"node/1419177793"},"geometry":{"type":"Point","coordinates":[16.5070556,43.5244337]}},{"type":"Feature","id":"node/1607404508","properties":{"name":"TS-Merkator","power":"substation","id":"node/1607404508"},"geometry":{"type":"Point","coordinates":[16.490833,43.5294428]}},{"type":"Feature","id":"node/1630539844","properties":{"power":"tower","id":"node/1630539844"},"geometry":{"type":"Point","coordinates":[16.5061725,43.5322274]}},{"type":"Feature","id":"node/1630539847","properties":{"power":"tower","id":"node/1630539847"},"geometry":{"type":"Point","coordinates":[16.5096625,43.5334511]}},{"type":"Feature","id":"node/1630539850","properties":{"power":"tower","id":"node/1630539850"},"geometry":{"type":"Point","coordinates":[16.5021935,43.5299431]}},{"type":"Feature","id":"node/1630539855","properties":{"power":"tower","id":"node/1630539855"},"geometry":{"type":"Point","coordinates":[16.5107404,43.5338931]}},{"type":"Feature","id":"node/1630539858","properties":{"power":"tower","id":"node/1630539858"},"geometry":{"type":"Point","coordinates":[16.5177196,43.5355109]}},{"type":"Feature","id":"node/1630539861","properties":{"power":"tower","id":"node/1630539861"},"geometry":{"type":"Point","coordinates":[16.5041346,43.5310547]}},{"type":"Feature","id":"node/1630539867","properties":{"power":"tower","id":"node/1630539867"},"geometry":{"type":"Point","coordinates":[16.5080843,43.5327379]}},{"type":"Feature","id":"node/1630549600","properties":{"power":"tower","id":"node/1630549600"},"geometry":{"type":"Point","coordinates":[16.5124141,43.5365103]}},{"type":"Feature","id":"node/1630549605","properties":{"power":"tower","id":"node/1630549605"},"geometry":{"type":"Point","coordinates":[16.5106568,43.5355866]}},{"type":"Feature","id":"node/1630549607","properties":{"power":"tower","id":"node/1630549607"},"geometry":{"type":"Point","coordinates":[16.5142434,43.5361603]}},{"type":"Feature","id":"node/1630762515","properties":{"power":"tower","id":"node/1630762515"},"geometry":{"type":"Point","coordinates":[16.5017919,43.5317222]}},{"type":"Feature","id":"node/1630762517","properties":{"power":"tower","id":"node/1630762517"},"geometry":{"type":"Point","coordinates":[16.5017238,43.5340201]}},{"type":"Feature","id":"node/1737228863","properties":{"power":"tower","id":"node/1737228863"},"geometry":{"type":"Point","coordinates":[16.505886,43.5266522]}},{"type":"Feature","id":"node/1737229279","properties":{"power":"tower","id":"node/1737229279"},"geometry":{"type":"Point","coordinates":[16.5011918,43.5276466]}},{"type":"Feature","id":"node/1737229318","properties":{"power":"tower","id":"node/1737229318"},"geometry":{"type":"Point","coordinates":[16.5033118,43.5276904]}},{"type":"Feature","id":"node/1737229491","properties":{"power":"tower","id":"node/1737229491"},"geometry":{"type":"Point","coordinates":[16.5023974,43.5278753]}},{"type":"Feature","id":"node/1737229907","properties":{"power":"tower","id":"node/1737229907"},"geometry":{"type":"Point","coordinates":[16.5022759,43.5286092]}},{"type":"Feature","id":"node/1737229933","properties":{"power":"tower","id":"node/1737229933"},"geometry":{"type":"Point","coordinates":[16.5014167,43.5286764]}},{"type":"Feature","id":"node/1737230290","properties":{"power":"tower","id":"node/1737230290"},"geometry":{"type":"Point","coordinates":[16.5016824,43.530191]}},{"type":"Feature","id":"node/1748941854","properties":{"power":"tower","id":"node/1748941854"},"geometry":{"type":"Point","coordinates":[16.4966195,43.5201593]}},{"type":"Feature","id":"node/1748941934","properties":{"power":"tower","id":"node/1748941934"},"geometry":{"type":"Point","coordinates":[16.4915452,43.5216158]}},{"type":"Feature","id":"node/1748941968","properties":{"power":"tower","id":"node/1748941968"},"geometry":{"type":"Point","coordinates":[16.4900364,43.522835]}},{"type":"Feature","id":"node/1748954454","properties":{"power":"tower","id":"node/1748954454"},"geometry":{"type":"Point","coordinates":[16.4977194,43.5199912]}},{"type":"Feature","id":"node/1760047774","properties":{"power":"tower","id":"node/1760047774"},"geometry":{"type":"Point","coordinates":[16.4835383,43.523385]}},{"type":"Feature","id":"node/1760047796","properties":{"power":"tower","id":"node/1760047796"},"geometry":{"type":"Point","coordinates":[16.4808545,43.5240786]}},{"type":"Feature","id":"node/1760047838","properties":{"power":"tower","id":"node/1760047838"},"geometry":{"type":"Point","coordinates":[16.4793991,43.5250888]}},{"type":"Feature","id":"node/1761258378","properties":{"power":"tower","id":"node/1761258378"},"geometry":{"type":"Point","coordinates":[16.4875964,43.5245101]}},{"type":"Feature","id":"node/1761281160","properties":{"power":"tower","id":"node/1761281160"},"geometry":{"type":"Point","coordinates":[16.5156487,43.5227344]}},{"type":"Feature","id":"node/1887597455","properties":{"power":"tower","id":"node/1887597455"},"geometry":{"type":"Point","coordinates":[16.5003492,43.5259308]}},{"type":"Feature","id":"node/1931267918","properties":{"power":"tower","id":"node/1931267918"},"geometry":{"type":"Point","coordinates":[16.5192279,43.521209]}},{"type":"Feature","id":"node/2020306137","properties":{"power":"pole","id":"node/2020306137"},"geometry":{"type":"Point","coordinates":[16.4822294,43.5130407]}},{"type":"Feature","id":"node/2020306138","properties":{"power":"pole","id":"node/2020306138"},"geometry":{"type":"Point","coordinates":[16.4818258,43.5130536]}},{"type":"Feature","id":"node/2020306141","properties":{"power":"pole","id":"node/2020306141"},"geometry":{"type":"Point","coordinates":[16.4808798,43.5131025]}},{"type":"Feature","id":"node/2020306152","properties":{"power":"pole","id":"node/2020306152"},"geometry":{"type":"Point","coordinates":[16.4825186,43.51322]}},{"type":"Feature","id":"node/2020306185","properties":{"power":"pole","id":"node/2020306185"},"geometry":{"type":"Point","coordinates":[16.4828079,43.5134136]}},{"type":"Feature","id":"node/2085937008","properties":{"power":"tower","id":"node/2085937008"},"geometry":{"type":"Point","coordinates":[16.4950148,43.5178937]}},{"type":"Feature","id":"node/2085937009","properties":{"power":"pole","id":"node/2085937009"},"geometry":{"type":"Point","coordinates":[16.496816,43.5180698]}},{"type":"Feature","id":"node/2085937014","properties":{"power":"tower","id":"node/2085937014"},"geometry":{"type":"Point","coordinates":[16.4956459,43.5189047]}},{"type":"Feature","id":"node/2085937015","properties":{"power":"tower","id":"node/2085937015"},"geometry":{"type":"Point","coordinates":[16.4967937,43.5195705]}},{"type":"Feature","id":"node/2411790965","properties":{"name":"TS Ravne njive 7","power":"substation","id":"node/2411790965"},"geometry":{"type":"Point","coordinates":[16.4708877,43.5209053]}},{"type":"Feature","id":"node/6906206935","properties":{"power":"tower","id":"node/6906206935"},"geometry":{"type":"Point","coordinates":[16.4950007,43.5179022]}},{"type":"Feature","id":"node/13585140668","properties":{"name":"TS Dračevac-4","power":"substation","id":"node/13585140668"},"geometry":{"type":"Point","coordinates":[16.501894,43.5277772]}}]}