{"type": "FeatureCollection", "features": [{"type": "Feature", "geometry": {"type": "LineString", "coordinates": [[16.4901653, 43.5240891], [16.4900169, 43.524143], [16.4899674, 43.524071], [16.4895963, 43.524071], [16.4895468, 43.524107], [16.4895468, 43.524161], [16.4894973, 43.524179], [16.4891014, 43.524179], [16.488953, 43.524233], [16.4889282, 43.524269], [16.488854, 43.524251], [16.4887056, 43.524287], [16.4885571, 43.5242509], [16.4884827, 43.5242672]]}, "properties": {"sliv_ha": 232.48, "rang": 3, "izvor": "izvedeno iz DGU DMR 1 m (LiDAR), D8 analiza"}}, {"type": "Feature", "geometry": {"type": "LineString", "coordinates": [[16.4910313, 43.5238371], [16.4910065, 43.5239991], [16.4909076, 43.5239631], [16.4907839, 43.5239991], [16.4907097, 43.5239811], [16.4906602, 43.5240171], [16.4903385, 43.523981], [16.4901653, 43.5240891]]}, "properties": {"sliv_ha": 221.54, "rang": 3, "izvor": "izvedeno iz DGU DMR 1 m (LiDAR), D8 analiza"}}, {"type": "Feature", "geometry": {"type": "LineString", "coordinates": [[16.4914024, 43.5238911], [16.4910313, 43.5238371]]}, "properties": {"sliv_ha": 150.35, "rang": 3, "izvor": "izvedeno iz DGU DMR 1 m (LiDAR), D8 analiza"}}, {"type": "Feature", "geometry": {"type": "LineString", "coordinates": [[16.4933817, 43.5238912], [16.4933323, 43.5236752], [16.4932333, 43.5236032], [16.4928869, 43.5235852], [16.4927632, 43.5236392], [16.4925405, 43.5236392], [16.4923921, 43.5236932], [16.4923673, 43.5237652], [16.4923179, 43.5237652], [16.4922189, 43.5236931], [16.4921447, 43.5236931], [16.4919715, 43.5237831], [16.4918725, 43.5237831], [16.491823, 43.5237471], [16.4916993, 43.5237651], [16.4916498, 43.5238551], [16.4914519, 43.5238371], [16.4914024, 43.5238911]]}, "properties": {"sliv_ha": 147.54, "rang": 3, "izvor": "izvedeno iz DGU DMR 1 m (LiDAR), D8 analiza"}}, {"type": "Feature", "geometry": {"type": "LineString", "coordinates": [[16.4947672, 43.5245574], [16.4946929, 43.5245394], [16.4946682, 43.5244674], [16.4945692, 43.5244674], [16.4943466, 43.5242874], [16.4940497, 43.5242153], [16.4939013, 43.5242153], [16.4938023, 43.5241613], [16.4938023, 43.5241253], [16.4934807, 43.5239993], [16.4933817, 43.5238912]]}, "properties": {"sliv_ha": 116.8, "rang": 3, "izvor": "izvedeno iz DGU DMR 1 m (LiDAR), D8 analiza"}}, {"type": "Feature", "geometry": {"type": "LineString", "coordinates": [[16.4950146, 43.5245574], [16.4947672, 43.5245574]]}, "properties": {"sliv_ha": 113.58, "rang": 3, "izvor": "izvedeno iz DGU DMR 1 m (LiDAR), D8 analiza"}}, {"type": "Feature", "geometry": {"type": "LineString", "coordinates": [[16.4949898, 43.5248095], [16.4950393, 43.5246655], [16.4950146, 43.5245574]]}, "properties": {"sliv_ha": 112.29, "rang": 3, "izvor": "izvedeno iz DGU DMR 1 m (LiDAR), D8 analiza"}}, {"type": "Feature", "geometry": {"type": "LineString", "coordinates": [[16.4958558, 43.5249355], [16.4957815, 43.5249535], [16.4957073, 43.5248995], [16.4956084, 43.5248995], [16.4955589, 43.5248095], [16.4949898, 43.5248095]]}, "properties": {"sliv_ha": 110.73, "rang": 3, "izvor": "izvedeno iz DGU DMR 1 m (LiDAR), D8 analiza"}}, {"type": "Feature", "geometry": {"type": "LineString", "coordinates": [[16.4968702, 43.5249716], [16.4962764, 43.5249716], [16.4961774, 43.5250436], [16.4959795, 43.5250436], [16.49593, 43.5250256], [16.49593, 43.5249355], [16.4958558, 43.5249355]]}, "properties": {"sliv_ha": 108.6, "rang": 3, "izvor": "izvedeno iz DGU DMR 1 m (LiDAR), D8 analiza"}}, {"type": "Feature", "geometry": {"type": "LineString", "coordinates": [[16.4970681, 43.5251156], [16.4970681, 43.5250796], [16.4968702, 43.5249716]]}, "properties": {"sliv_ha": 107.22, "rang": 3, "izvor": "izvedeno iz DGU DMR 1 m (LiDAR), D8 analiza"}}, {"type": "Feature", "geometry": {"type": "LineString", "coordinates": [[16.4971918, 43.5253317], [16.4970681, 43.5252056], [16.4970681, 43.5251156]]}, "properties": {"sliv_ha": 98.31, "rang": 3, "izvor": "izvedeno iz DGU DMR 1 m (LiDAR), D8 analiza"}}, {"type": "Feature", "geometry": {"type": "LineString", "coordinates": [[16.497167, 43.5257637], [16.497167, 43.5257097], [16.4971176, 43.5256917], [16.4971423, 43.5256017], [16.4970928, 43.5255837], [16.4970928, 43.5255477], [16.4971918, 43.5254937], [16.4971918, 43.5253317]]}, "properties": {"sliv_ha": 96.16, "rang": 3, "izvor": "izvedeno iz DGU DMR 1 m (LiDAR), D8 analiza"}}, {"type": "Feature", "geometry": {"type": "LineString", "coordinates": [[16.5012495, 43.527456], [16.5007794, 43.527348], [16.5005072, 43.52715], [16.5004825, 43.527042], [16.5002598, 43.52688], [16.5001361, 43.526916], [16.4999629, 43.526916], [16.4999381, 43.526862], [16.4996907, 43.52688], [16.499666, 43.526844], [16.4991464, 43.526862], [16.498899, 43.5268259], [16.4988, 43.5268619], [16.4985031, 43.5268439], [16.4984536, 43.5268799], [16.4983794, 43.5268259], [16.4981567, 43.5268259], [16.4980082, 43.5268619], [16.4973402, 43.5268439], [16.4971917, 43.5266999], [16.4971917, 43.5265559], [16.497266, 43.5262858], [16.4972413, 43.5259078], [16.4971423, 43.5258357], [16.497167, 43.5257637]]}, "properties": {"sliv_ha": 93.91, "rang": 3, "izvor": "izvedeno iz DGU DMR 1 m (LiDAR), D8 analiza"}}, {"type": "Feature", "geometry": {"type": "LineString", "coordinates": [[16.4905605, 43.5284278], [16.4903625, 43.5283558]]}, "properties": {"sliv_ha": 93.86, "rang": 3, "izvor": "izvedeno iz DGU DMR 1 m (LiDAR), D8 analiza"}}, {"type": "Feature", "geometry": {"type": "LineString", "coordinates": [[16.5038722, 43.5271319], [16.5038475, 43.52724], [16.5032289, 43.527384], [16.5031052, 43.527348], [16.5028825, 43.527402], [16.5025856, 43.52742], [16.5024372, 43.527474], [16.501967, 43.527474], [16.5019176, 43.52751], [16.5013237, 43.5275101], [16.5012495, 43.527456]]}, "properties": {"sliv_ha": 90.46, "rang": 3, "izvor": "izvedeno iz DGU DMR 1 m (LiDAR), D8 analiza"}}, {"type": "Feature", "geometry": {"type": "LineString", "coordinates": [[16.5040207, 43.5270239], [16.5038722, 43.5271319]]}, "properties": {"sliv_ha": 85.57, "rang": 3, "izvor": "izvedeno iz DGU DMR 1 m (LiDAR), D8 analiza"}}, {"type": "Feature", "geometry": {"type": "LineString", "coordinates": [[16.504565, 43.5268799], [16.5043671, 43.5270239], [16.5040207, 43.5270239]]}, "properties": {"sliv_ha": 83.92, "rang": 3, "izvor": "izvedeno iz DGU DMR 1 m (LiDAR), D8 analiza"}}, {"type": "Feature", "geometry": {"type": "LineString", "coordinates": [[16.5046392, 43.5268619], [16.504565, 43.5268799]]}, "properties": {"sliv_ha": 80.41, "rang": 3, "izvor": "izvedeno iz DGU DMR 1 m (LiDAR), D8 analiza"}}, {"type": "Feature", "geometry": {"type": "LineString", "coordinates": [[16.506, 43.5268078], [16.5058268, 43.5267538], [16.5057774, 43.5267898], [16.5056289, 43.5268078], [16.5055547, 43.5268618], [16.5055547, 43.5268978], [16.505431, 43.5269518], [16.5053567, 43.5269158], [16.5051588, 43.5269158], [16.5051093, 43.5268798], [16.5050103, 43.5268979], [16.5047382, 43.5268078], [16.5046392, 43.5268619]]}, "properties": {"sliv_ha": 76.85, "rang": 3, "izvor": "izvedeno iz DGU DMR 1 m (LiDAR), D8 analiza"}}, {"type": "Feature", "geometry": {"type": "LineString", "coordinates": [[16.4904615, 43.5286079], [16.4905605, 43.5285539], [16.490511, 43.5284998], [16.4905605, 43.5284278]]}, "properties": {"sliv_ha": 75.87, "rang": 3, "izvor": "izvedeno iz DGU DMR 1 m (LiDAR), D8 analiza"}}, {"type": "Feature", "geometry": {"type": "LineString", "coordinates": [[16.4899209, 43.5292362], [16.4902883, 43.5287519], [16.4904615, 43.5286079]]}, "properties": {"sliv_ha": 72.36, "rang": 3, "izvor": "izvedeno iz DGU DMR 1 m (LiDAR), D8 analiza"}}, {"type": "Feature", "geometry": {"type": "LineString", "coordinates": [[16.5060231, 43.5268145], [16.506, 43.5268078]]}, "properties": {"sliv_ha": 71.39, "rang": 3, "izvor": "izvedeno iz DGU DMR 1 m (LiDAR), D8 analiza"}}, {"type": "Feature", "geometry": {"type": "MultiLineString", "coordinates": [[[16.4925653, 43.5234951], [16.4922684, 43.5234771], [16.4921447, 43.5235491], [16.4920457, 43.5235491], [16.4919962, 43.5235851], [16.4918231, 43.5235131], [16.4917488, 43.5235131], [16.4916746, 43.5235851], [16.4916048, 43.5235342]], [[16.491592, 43.5235371], [16.4915509, 43.5235671], [16.4914826, 43.5235621]], [[16.4911957, 43.5236275], [16.4911798, 43.5236391], [16.4911055, 43.5237291], [16.4911055, 43.5237831], [16.4910561, 43.5237831], [16.4910313, 43.5238371]]]}, "properties": {"sliv_ha": 69.82, "rang": 3, "izvor": "izvedeno iz DGU DMR 1 m (LiDAR), D8 analiza"}}, {"type": "Feature", "geometry": {"type": "LineString", "coordinates": [[16.492777, 43.5232671], [16.492689, 43.5233151], [16.492689, 43.5233871], [16.4926148, 43.5234051], [16.4926148, 43.5234771], [16.4925653, 43.5234951]]}, "properties": {"sliv_ha": 65.92, "rang": 3, "izvor": "izvedeno iz DGU DMR 1 m (LiDAR), D8 analiza"}}, {"type": "Feature", "geometry": {"type": "LineString", "coordinates": [[16.4953858, 43.5232432], [16.4953116, 43.5233152], [16.4952126, 43.5232792], [16.4951136, 43.5233692], [16.4951384, 43.5234053], [16.4949652, 43.5234413], [16.494693, 43.5235673], [16.4941487, 43.5237113], [16.4938271, 43.5237472], [16.4933817, 43.5238912]]}, "properties": {"sliv_ha": 29.96, "rang": 3, "izvor": "izvedeno iz DGU DMR 1 m (LiDAR), D8 analiza"}}, {"type": "Feature", "geometry": {"type": "LineString", "coordinates": [[16.4966971, 43.5230452], [16.4966476, 43.5230452], [16.4964992, 43.5229552], [16.4960044, 43.5229732], [16.4959301, 43.5229912], [16.4958312, 43.5230812], [16.4957075, 43.5230992], [16.4953858, 43.5232432]]}, "properties": {"sliv_ha": 27.86, "rang": 3, "izvor": "izvedeno iz DGU DMR 1 m (LiDAR), D8 analiza"}}, {"type": "Feature", "geometry": {"type": "LineString", "coordinates": [[16.4914513, 43.5284819], [16.4913275, 43.5285179], [16.4910059, 43.5285359], [16.4907584, 43.5284999], [16.4905605, 43.5284278]]}, "properties": {"sliv_ha": 17.61, "rang": 2, "izvor": "izvedeno iz DGU DMR 1 m (LiDAR), D8 analiza"}}, {"type": "Feature", "geometry": {"type": "LineString", "coordinates": [[16.4966971, 43.5230092], [16.4966971, 43.5230452]]}, "properties": {"sliv_ha": 14.97, "rang": 2, "izvor": "izvedeno iz DGU DMR 1 m (LiDAR), D8 analiza"}}, {"type": "Feature", "geometry": {"type": "LineString", "coordinates": [[16.4943462, 43.528194], [16.4941978, 43.5283021], [16.4939998, 43.528302], [16.4934307, 43.5285181], [16.4929111, 43.528626], [16.4923172, 43.528626], [16.4920203, 43.528572], [16.4919461, 43.528572], [16.4918966, 43.528608], [16.4916739, 43.528608], [16.491575, 43.5285899], [16.4914513, 43.5284819]]}, "properties": {"sliv_ha": 14.16, "rang": 2, "izvor": "izvedeno iz DGU DMR 1 m (LiDAR), D8 analiza"}}, {"type": "Feature", "geometry": {"type": "LineString", "coordinates": [[16.4971919, 43.5226492], [16.4970187, 43.5227212], [16.4969445, 43.5228292], [16.4966724, 43.5229372], [16.4966971, 43.5230092]]}, "properties": {"sliv_ha": 13.26, "rang": 2, "izvor": "izvedeno iz DGU DMR 1 m (LiDAR), D8 analiza"}}, {"type": "Feature", "geometry": {"type": "LineString", "coordinates": [[16.5015711, 43.5237114], [16.5013731, 43.5236394], [16.5009031, 43.5235854], [16.5008536, 43.5235494], [16.5008041, 43.5235854], [16.5006556, 43.5235674], [16.5004577, 43.5236214], [16.5000866, 43.5236394], [16.5000371, 43.5236754], [16.4992701, 43.5236754], [16.4992207, 43.5237114], [16.4990969, 43.5236754], [16.4990969, 43.5235854], [16.4989238, 43.5235494], [16.4988495, 43.5235674], [16.4987258, 43.5234594], [16.4986516, 43.5232973], [16.4985032, 43.5232973], [16.4984289, 43.5232433], [16.4983052, 43.5232613], [16.4982558, 43.5232253], [16.4981568, 43.5232253], [16.4980578, 43.5231533], [16.4979589, 43.5231533], [16.4979341, 43.5231893], [16.4978846, 43.5231893], [16.4977857, 43.5231173], [16.4974146, 43.5230813], [16.4972661, 43.5230993], [16.4968455, 43.5230272], [16.4966971, 43.5230452]]}, "properties": {"sliv_ha": 11.83, "rang": 2, "izvor": "izvedeno iz DGU DMR 1 m (LiDAR), D8 analiza"}}, {"type": "Feature", "geometry": {"type": "LineString", "coordinates": [[16.5000866, 43.5217131], [16.5000371, 43.5216591], [16.4999876, 43.5216771], [16.4998392, 43.521605], [16.4998887, 43.521497], [16.4998144, 43.521497], [16.4996907, 43.521533], [16.499567, 43.5216591], [16.4994186, 43.5216771], [16.4993444, 43.5217311], [16.4990228, 43.5217491], [16.4989238, 43.5217131], [16.4987011, 43.5217671], [16.4985774, 43.5217491], [16.49833, 43.5217851], [16.4978847, 43.5219471], [16.4974146, 43.5222891], [16.4974146, 43.5223431], [16.4972167, 43.5224692], [16.4971919, 43.5225592], [16.4972414, 43.5226312], [16.4971919, 43.5226492]]}, "properties": {"sliv_ha": 11.52, "rang": 2, "izvor": "izvedeno iz DGU DMR 1 m (LiDAR), D8 analiza"}}, {"type": "Feature", "geometry": {"type": "LineString", "coordinates": [[16.4946679, 43.52796], [16.4943462, 43.528194]]}, "properties": {"sliv_ha": 9.58, "rang": 2, "izvor": "izvedeno iz DGU DMR 1 m (LiDAR), D8 analiza"}}, {"type": "Feature", "geometry": {"type": "LineString", "coordinates": [[16.4976619, 43.5252236], [16.4975629, 43.5252597], [16.4974392, 43.5252056], [16.4973403, 43.5252236], [16.4972908, 43.5251876], [16.4971671, 43.5251876], [16.4970681, 43.5251156]]}, "properties": {"sliv_ha": 8.77, "rang": 2, "izvor": "izvedeno iz DGU DMR 1 m (LiDAR), D8 analiza"}}, {"type": "Feature", "geometry": {"type": "LineString", "coordinates": [[16.4900646, 43.5238852], [16.4900416, 43.523927], [16.4900911, 43.523945], [16.4901653, 43.5240891]]}, "properties": {"sliv_ha": 8.69, "rang": 2, "izvor": "izvedeno iz DGU DMR 1 m (LiDAR), D8 analiza"}}, {"type": "Feature", "geometry": {"type": "LineString", "coordinates": [[16.5029741, 43.5285965], [16.5029568, 43.5285902], [16.5029541, 43.5285982]]}, "properties": {"sliv_ha": 7.73, "rang": 2, "izvor": "izvedeno iz DGU DMR 1 m (LiDAR), D8 analiza"}}, {"type": "Feature", "geometry": {"type": "LineString", "coordinates": [[16.5011257, 43.521677], [16.5010267, 43.5217311], [16.5008535, 43.5217311], [16.5007793, 43.5216951], [16.5006061, 43.5216951], [16.5004577, 43.521641], [16.5004082, 43.5216951], [16.500334, 43.5217131], [16.5000866, 43.5217131]]}, "properties": {"sliv_ha": 6.87, "rang": 2, "izvor": "izvedeno iz DGU DMR 1 m (LiDAR), D8 analiza"}}, {"type": "Feature", "geometry": {"type": "LineString", "coordinates": [[16.5066182, 43.5228651], [16.5068161, 43.5229731], [16.5068161, 43.5230631], [16.5067172, 43.5231351], [16.5066182, 43.5230811], [16.5064945, 43.5230991], [16.5063461, 43.5232612], [16.5062471, 43.5232072], [16.5062224, 43.5233512], [16.505975, 43.5233872], [16.5059502, 43.5234232], [16.5059997, 43.5234952], [16.5059997, 43.5235852], [16.505876, 43.5236212], [16.5057771, 43.5236933], [16.5056781, 43.5236393], [16.5055544, 43.5236393], [16.5054802, 43.5235312], [16.5052822, 43.5235673], [16.5051833, 43.5236573], [16.5045895, 43.5236573], [16.5045895, 43.5237653], [16.5043668, 43.5237833], [16.5042679, 43.5238374], [16.5041936, 43.5238374], [16.5040699, 43.5237833], [16.5039215, 43.5237834], [16.5038225, 43.5237293], [16.5035256, 43.5237294], [16.5034761, 43.5237834], [16.5030803, 43.5237834], [16.5030308, 43.5238374], [16.5029813, 43.5238374], [16.5029566, 43.5237294], [16.5027834, 43.5237294], [16.5026349, 43.5236934], [16.502437, 43.5236934], [16.5019669, 43.5237834], [16.5018432, 43.5237834], [16.5015711, 43.5237114]]}, "properties": {"sliv_ha": 6.57, "rang": 2, "izvor": "izvedeno iz DGU DMR 1 m (LiDAR), D8 analiza"}}, {"type": "Feature", "geometry": {"type": "LineString", "coordinates": [[16.4996165, 43.5259078], [16.499468, 43.5259978], [16.4993691, 43.5259618], [16.4992948, 43.5260158], [16.4992206, 43.5259618], [16.4990227, 43.5259438], [16.4988248, 43.5257818], [16.498701, 43.5257818], [16.4986268, 43.5257277], [16.4985031, 43.5257097], [16.4984041, 43.5256377], [16.4981567, 43.5256377], [16.4978351, 43.5253137], [16.4976619, 43.5252236]]}, "properties": {"sliv_ha": 5.94, "rang": 2, "izvor": "izvedeno iz DGU DMR 1 m (LiDAR), D8 analiza"}}, {"type": "Feature", "geometry": {"type": "LineString", "coordinates": [[16.4968453, 43.5278161], [16.4960783, 43.5278521], [16.4958556, 43.5278881], [16.4949648, 43.527888], [16.4946679, 43.52796]]}, "properties": {"sliv_ha": 5.07, "rang": 2, "izvor": "izvedeno iz DGU DMR 1 m (LiDAR), D8 analiza"}}, {"type": "Feature", "geometry": {"type": "MultiLineString", "coordinates": [[[16.5084986, 43.5239991], [16.5083749, 43.5240892], [16.5083502, 43.5241612], [16.5082512, 43.5241612], [16.5082018, 43.5242152], [16.5082265, 43.5243772], [16.5080286, 43.5246113], [16.5080286, 43.5247373], [16.5079544, 43.5248093], [16.5078802, 43.5250434], [16.5078555, 43.5250614], [16.5077813, 43.5250254], [16.5076081, 43.5251334], [16.5075339, 43.5251334], [16.5075339, 43.5252234], [16.5073607, 43.5253315], [16.5072617, 43.5254575], [16.507237, 43.5255655], [16.5069896, 43.5257816], [16.5069896, 43.5258356], [16.5069401, 43.5258716], [16.5069402, 43.5260156], [16.5068907, 43.5260696], [16.5068165, 43.5260696], [16.5066928, 43.5261956], [16.5067917, 43.5262316], [16.5067917, 43.5263308]], [[16.506463, 43.5265377], [16.5064206, 43.5265377], [16.50628, 43.5266529]], [[16.5062147, 43.5266939], [16.5061732, 43.5266638], [16.506, 43.5266818], [16.506, 43.5268078]]]}, "properties": {"sliv_ha": 4.88, "rang": 1, "izvor": "izvedeno iz DGU DMR 1 m (LiDAR), D8 analiza"}}, {"type": "Feature", "geometry": {"type": "LineString", "coordinates": [[16.5033772, 43.5251336], [16.5029319, 43.5252596], [16.5028824, 43.5252056], [16.5027587, 43.5251696], [16.502734, 43.5250796], [16.5026102, 43.5250076], [16.5025113, 43.5250436], [16.5024371, 43.5249356], [16.5023628, 43.5249896], [16.5022639, 43.5249896], [16.5022391, 43.5249536], [16.5021896, 43.5249716], [16.5022391, 43.5252597], [16.5021896, 43.5252777], [16.5021402, 43.5254037], [16.5020165, 43.5254217], [16.5019175, 43.5254757], [16.5019422, 43.5256197], [16.5018928, 43.5256737], [16.5017443, 43.5256737], [16.5016453, 43.5257277], [16.5014227, 43.5256737], [16.501299, 43.5257278], [16.5011505, 43.5257458], [16.5002845, 43.5257638], [16.5001856, 43.5258178], [16.5001361, 43.5258178], [16.5000371, 43.5257278], [16.4999629, 43.5257638], [16.4997897, 43.5257278], [16.4996165, 43.5257998], [16.4996165, 43.5259078]]}, "properties": {"sliv_ha": 4.37, "rang": 1, "izvor": "izvedeno iz DGU DMR 1 m (LiDAR), D8 analiza"}}, {"type": "Feature", "geometry": {"type": "LineString", "coordinates": [[16.5049109, 43.5212089], [16.5047625, 43.5212449], [16.5047625, 43.5213349], [16.5045398, 43.5213529], [16.5042677, 43.5214789], [16.504045, 43.5214249], [16.5039708, 43.5214429], [16.5039461, 43.521497], [16.5038224, 43.521551], [16.5036244, 43.521479], [16.503377, 43.521497], [16.5033276, 43.521461], [16.5028822, 43.521443], [16.5025111, 43.521551], [16.502239, 43.521533], [16.50214, 43.521641], [16.5017937, 43.521569], [16.5014473, 43.521587], [16.5013978, 43.521623], [16.5012741, 43.521623], [16.5011257, 43.521677]]}, "properties": {"sliv_ha": 4.06, "rang": 1, "izvor": "izvedeno iz DGU DMR 1 m (LiDAR), D8 analiza"}}, {"type": "Feature", "geometry": {"type": "LineString", "coordinates": [[16.4989484, 43.5279421], [16.4980329, 43.5279421], [16.4975381, 43.5280141], [16.4972906, 43.5280141], [16.4972659, 43.5279781], [16.4971669, 43.5279781], [16.4971175, 43.5279421], [16.4967958, 43.5279421], [16.4967463, 43.5279061], [16.4961772, 43.5279241], [16.4959545, 43.5279601], [16.4946679, 43.52796]]}, "properties": {"sliv_ha": 3.74, "rang": 1, "izvor": "izvedeno iz DGU DMR 1 m (LiDAR), D8 analiza"}}, {"type": "Feature", "geometry": {"type": "MultiLineString", "coordinates": [[[16.491699, 43.5258895], [16.4916001, 43.5258715], [16.4915258, 43.5259255], [16.4914764, 43.5259255], [16.4911794, 43.5261415], [16.4909077, 43.5262262]], [[16.4909077, 43.5267219], [16.4909319, 43.5267356], [16.4909566, 43.5268076], [16.4909566, 43.5268616], [16.4909077, 43.5268681]]]}, "properties": {"sliv_ha": 3.67, "rang": 1, "izvor": "izvedeno iz DGU DMR 1 m (LiDAR), D8 analiza"}}, {"type": "Feature", "geometry": {"type": "LineString", "coordinates": [[16.5078554, 43.5242512], [16.5079296, 43.5242872], [16.5079296, 43.5243412], [16.5077564, 43.5243773], [16.5077565, 43.5245213], [16.5077317, 43.5245753], [16.5076575, 43.5246113], [16.5076822, 43.5246293], [16.5076328, 43.5246653], [16.5075091, 43.5246473], [16.5073111, 43.5247554], [16.5071874, 43.5247554], [16.5071874, 43.5248274], [16.5071132, 43.5249354], [16.507039, 43.5249894], [16.5069153, 43.5250074], [16.5069401, 43.5252235], [16.5067421, 43.5253495], [16.5067422, 43.5254035], [16.5066679, 43.5254755], [16.5066927, 43.5255295], [16.5066185, 43.5255295], [16.506569, 43.5255655], [16.506668, 43.5257096], [16.5065443, 43.5257816], [16.5065195, 43.5258536], [16.5062474, 43.5259796], [16.5061732, 43.5260877], [16.5060742, 43.5261057], [16.506, 43.5261597], [16.5058268, 43.5261777], [16.5058515, 43.5263037], [16.5059505, 43.5264297], [16.505901, 43.5265017], [16.5058268, 43.5264837], [16.5057031, 43.5265558], [16.5056784, 43.5266998], [16.5055052, 43.5267718], [16.5053567, 43.5266638], [16.505233, 43.5266998], [16.505134, 43.5266638], [16.5050351, 43.5267178], [16.5050103, 43.5268078], [16.5048371, 43.5268078], [16.5047382, 43.5267718], [16.5046392, 43.5268619]]}, "properties": {"sliv_ha": 3.56, "rang": 1, "izvor": "izvedeno iz DGU DMR 1 m (LiDAR), D8 analiza"}}, {"type": "Feature", "geometry": {"type": "LineString", "coordinates": [[16.5049608, 43.5263938], [16.5049113, 43.5264478], [16.5048124, 43.5264658], [16.5048619, 43.5265738], [16.5047134, 43.5266458], [16.5047134, 43.5266998], [16.504565, 43.5268799]]}, "properties": {"sliv_ha": 3.42, "rang": 1, "izvor": "izvedeno iz DGU DMR 1 m (LiDAR), D8 analiza"}}, {"type": "Feature", "geometry": {"type": "LineString", "coordinates": [[16.4906538, 43.529306], [16.4906099, 43.529274], [16.4906099, 43.5289859], [16.4905604, 43.5289679], [16.4905852, 43.5288419], [16.490511, 43.5287879], [16.4905357, 43.5287159], [16.4904368, 43.5286799], [16.4904615, 43.5286079]]}, "properties": {"sliv_ha": 3.24, "rang": 1, "izvor": "izvedeno iz DGU DMR 1 m (LiDAR), D8 analiza"}}, {"type": "Feature", "geometry": {"type": "LineString", "coordinates": [[16.4964493, 43.5290043], [16.4963998, 43.5290403], [16.495905, 43.5290943], [16.495905, 43.5291856]]}, "properties": {"sliv_ha": 3.22, "rang": 1, "izvor": "izvedeno iz DGU DMR 1 m (LiDAR), D8 analiza"}}, {"type": "Feature", "geometry": {"type": "LineString", "coordinates": [[16.4923669, 43.5275458], [16.4921442, 43.5275638], [16.4920947, 43.5274198], [16.4919215, 43.5272217], [16.4915257, 43.5270057], [16.491303, 43.5269516], [16.4909077, 43.5269516]]}, "properties": {"sliv_ha": 2.92, "rang": 1, "izvor": "izvedeno iz DGU DMR 1 m (LiDAR), D8 analiza"}}, {"type": "Feature", "geometry": {"type": "MultiLineString", "coordinates": [[[16.4944704, 43.5230452], [16.4943263, 43.522914]], [[16.4940753, 43.5229712], [16.4937777, 43.5231711], [16.4936787, 43.5231711], [16.4937034, 43.5232612], [16.4936539, 43.5233872], [16.4934807, 43.5233872], [16.4934313, 43.5233332], [16.4933818, 43.5233332], [16.4933075, 43.5234232], [16.4930107, 43.5234051], [16.4929859, 43.5234411], [16.4928375, 43.5234231], [16.492689, 43.5235131], [16.4925653, 43.5234951]]]}, "properties": {"sliv_ha": 2.71, "rang": 1, "izvor": "izvedeno iz DGU DMR 1 m (LiDAR), D8 analiza"}}, {"type": "Feature", "geometry": {"type": "LineString", "coordinates": [[16.5011257, 43.5223252], [16.5011504, 43.5222712], [16.5009278, 43.5220551], [16.5009772, 43.5220011], [16.500903, 43.5219471], [16.5006556, 43.5219471], [16.5004082, 43.5218031], [16.5001856, 43.5217491], [16.5001361, 43.5217671], [16.5000866, 43.5217131]]}, "properties": {"sliv_ha": 2.68, "rang": 1, "izvor": "izvedeno iz DGU DMR 1 m (LiDAR), D8 analiza"}}, {"type": "Feature", "geometry": {"type": "LineString", "coordinates": [[16.4962268, 43.5260518], [16.4963258, 43.5260157], [16.4965732, 43.5258357], [16.4967959, 43.5258357], [16.4968207, 43.5257457], [16.4969196, 43.5256377], [16.4969196, 43.5255117], [16.4970186, 43.5254937], [16.4970186, 43.5254577], [16.4971918, 43.5253317]]}, "properties": {"sliv_ha": 2.12, "rang": 1, "izvor": "izvedeno iz DGU DMR 1 m (LiDAR), D8 analiza"}}, {"type": "Feature", "geometry": {"type": "LineString", "coordinates": [[16.4921194, 43.5282119], [16.4919956, 43.5283019], [16.4918967, 43.5282659], [16.4917729, 43.5283559], [16.4914513, 43.5284819]]}, "properties": {"sliv_ha": 2.02, "rang": 1, "izvor": "izvedeno iz DGU DMR 1 m (LiDAR), D8 analiza"}}, {"type": "Feature", "geometry": {"type": "LineString", "coordinates": [[16.4925405, 43.5238552], [16.4924168, 43.5238912], [16.4921941, 43.5238732], [16.4917488, 43.5239812], [16.4915756, 43.5239811], [16.4914024, 43.5238911]]}, "properties": {"sliv_ha": 2.01, "rang": 1, "izvor": "izvedeno iz DGU DMR 1 m (LiDAR), D8 analiza"}}, {"type": "Feature", "geometry": {"type": "LineString", "coordinates": [[16.4990722, 43.5254217], [16.4988495, 43.5252417], [16.4987505, 43.5252597], [16.4987505, 43.5254037], [16.4981815, 43.5254397], [16.498033, 43.5254217], [16.4977609, 43.5252236], [16.4976619, 43.5252236]]}, "properties": {"sliv_ha": 1.94, "rang": 1, "izvor": "izvedeno iz DGU DMR 1 m (LiDAR), D8 analiza"}}, {"type": "Feature", "geometry": {"type": "LineString", "coordinates": [[16.5020163, 43.521407], [16.5019916, 43.521425], [16.5019174, 43.521389], [16.5018184, 43.521425], [16.5015957, 43.521425], [16.5014473, 43.521515], [16.5012989, 43.521515], [16.5011257, 43.521587], [16.5011257, 43.521677]]}, "properties": {"sliv_ha": 1.94, "rang": 1, "izvor": "izvedeno iz DGU DMR 1 m (LiDAR), D8 analiza"}}, {"type": "Feature", "geometry": {"type": "LineString", "coordinates": [[16.5056535, 43.5257276], [16.505703, 43.5257636], [16.5057278, 43.5258536], [16.5056783, 43.5259437], [16.5056783, 43.5260877], [16.5056288, 43.5261417], [16.5056536, 43.5261597], [16.5054804, 43.5262857], [16.5054062, 43.5262677], [16.5053072, 43.5263037], [16.5052577, 43.5262677], [16.5051588, 43.5263578], [16.5049608, 43.5263938]]}, "properties": {"sliv_ha": 1.93, "rang": 1, "izvor": "izvedeno iz DGU DMR 1 m (LiDAR), D8 analiza"}}, {"type": "Feature", "geometry": {"type": "LineString", "coordinates": [[16.4996412, 43.5278701], [16.4980329, 43.5277981], [16.4968453, 43.5278161]]}, "properties": {"sliv_ha": 1.89, "rang": 1, "izvor": "izvedeno iz DGU DMR 1 m (LiDAR), D8 analiza"}}, {"type": "Feature", "geometry": {"type": "LineString", "coordinates": [[16.4991711, 43.5260698], [16.4983546, 43.5260698], [16.4982062, 43.5260338], [16.4975134, 43.5260518], [16.4974392, 43.5260338], [16.4973155, 43.5259438], [16.4973402, 43.5259258], [16.4971918, 43.5258537], [16.497167, 43.5257637]]}, "properties": {"sliv_ha": 1.84, "rang": 1, "izvor": "izvedeno iz DGU DMR 1 m (LiDAR), D8 analiza"}}, {"type": "Feature", "geometry": {"type": "LineString", "coordinates": [[16.4977608, 43.527258], [16.4976618, 43.527222], [16.4973402, 43.527222], [16.4973154, 43.527276], [16.4972165, 43.527312], [16.4971422, 43.527474], [16.4968948, 43.527582], [16.4970185, 43.5276541], [16.4970185, 43.5277081], [16.4968453, 43.5278161]]}, "properties": {"sliv_ha": 1.82, "rang": 1, "izvor": "izvedeno iz DGU DMR 1 m (LiDAR), D8 analiza"}}, {"type": "Feature", "geometry": {"type": "LineString", "coordinates": [[16.4977856, 43.5243775], [16.4977114, 43.5243775], [16.4975877, 43.5244495], [16.4974887, 43.5244495], [16.4973898, 43.5245395], [16.4972413, 43.5245215], [16.4970929, 43.5246655], [16.4970929, 43.5248276], [16.4967465, 43.5248456], [16.4964991, 43.5247375], [16.4963754, 43.5247915], [16.4963011, 43.5247915], [16.4962764, 43.5248275], [16.4962022, 43.5248095], [16.4960784, 43.5248815], [16.4958558, 43.5249355]]}, "properties": {"sliv_ha": 1.79, "rang": 1, "izvor": "izvedeno iz DGU DMR 1 m (LiDAR), D8 analiza"}}, {"type": "Feature", "geometry": {"type": "LineString", "coordinates": [[16.5034019, 43.5229012], [16.5033276, 43.5229732], [16.5032039, 43.5229732], [16.5031297, 43.5230272], [16.5028328, 43.5230813], [16.5027339, 43.5231353], [16.5027339, 43.5231893], [16.502437, 43.5232073], [16.5024617, 43.5233693], [16.5024123, 43.5234233], [16.5021896, 43.5234593], [16.5020411, 43.5235494], [16.5019917, 43.5236214], [16.501868, 43.5236214], [16.501769, 43.5237114], [16.5015711, 43.5237114]]}, "properties": {"sliv_ha": 1.75, "rang": 1, "izvor": "izvedeno iz DGU DMR 1 m (LiDAR), D8 analiza"}}, {"type": "Feature", "geometry": {"type": "LineString", "coordinates": [[16.4975383, 43.5229553], [16.4969198, 43.5229732], [16.4966971, 43.5230092]]}, "properties": {"sliv_ha": 1.69, "rang": 1, "izvor": "izvedeno iz DGU DMR 1 m (LiDAR), D8 analiza"}}, {"type": "Feature", "geometry": {"type": "LineString", "coordinates": [[16.4889777, 43.524539], [16.4889282, 43.524521], [16.4888787, 43.524557], [16.4888501, 43.524557]]}, "properties": {"sliv_ha": 1.6, "rang": 1, "izvor": "izvedeno iz DGU DMR 1 m (LiDAR), D8 analiza"}}, {"type": "Feature", "geometry": {"type": "LineString", "coordinates": [[16.4940246, 43.5275099], [16.4939751, 43.5275819], [16.4940988, 43.5276719], [16.4940493, 43.52778], [16.4940741, 43.527852], [16.4942473, 43.528014], [16.4943462, 43.52805], [16.4943462, 43.528194]]}, "properties": {"sliv_ha": 1.51, "rang": 1, "izvor": "izvedeno iz DGU DMR 1 m (LiDAR), D8 analiza"}}, {"type": "Feature", "geometry": {"type": "LineString", "coordinates": [[16.4954104, 43.5251876], [16.4954599, 43.5249355], [16.4954104, 43.5248995], [16.4950146, 43.5248995], [16.4949651, 43.5248455], [16.4949898, 43.5248095]]}, "properties": {"sliv_ha": 1.45, "rang": 1, "izvor": "izvedeno iz DGU DMR 1 m (LiDAR), D8 analiza"}}, {"type": "Feature", "geometry": {"type": "LineString", "coordinates": [[16.4983548, 43.5221811], [16.4982311, 43.5221811], [16.4980331, 43.5222351], [16.4978105, 43.5223612], [16.4974641, 43.5224872], [16.4973651, 43.5225952], [16.4971919, 43.5226492]]}, "properties": {"sliv_ha": 1.44, "rang": 1, "izvor": "izvedeno iz DGU DMR 1 m (LiDAR), D8 analiza"}}, {"type": "Feature", "geometry": {"type": "LineString", "coordinates": [[16.5041691, 43.5269339], [16.5040207, 43.5270239]]}, "properties": {"sliv_ha": 1.37, "rang": 1, "izvor": "izvedeno iz DGU DMR 1 m (LiDAR), D8 analiza"}}, {"type": "Feature", "geometry": {"type": "LineString", "coordinates": [[16.5049608, 43.5258717], [16.5048618, 43.5259437], [16.5047876, 43.5260697], [16.5049113, 43.5261777], [16.5049113, 43.5262317], [16.5048618, 43.5262677], [16.5049113, 43.5263038], [16.5049856, 43.5263037], [16.5049608, 43.5263938]]}, "properties": {"sliv_ha": 1.28, "rang": 1, "izvor": "izvedeno iz DGU DMR 1 m (LiDAR), D8 analiza"}}, {"type": "Feature", "geometry": {"type": "LineString", "coordinates": [[16.495163, 43.5245394], [16.4950393, 43.5245214], [16.4950146, 43.5245574]]}, "properties": {"sliv_ha": 1.25, "rang": 1, "izvor": "izvedeno iz DGU DMR 1 m (LiDAR), D8 analiza"}}, {"type": "Feature", "geometry": {"type": "LineString", "coordinates": [[16.5013732, 43.527456], [16.5012495, 43.527456]]}, "properties": {"sliv_ha": 1.13, "rang": 1, "izvor": "izvedeno iz DGU DMR 1 m (LiDAR), D8 analiza"}}, {"type": "Feature", "geometry": {"type": "LineString", "coordinates": [[16.4949403, 43.5251695], [16.4949403, 43.5250795], [16.4948414, 43.5250255], [16.4948414, 43.5249355], [16.4947919, 43.5248995], [16.4947919, 43.5248455], [16.4948414, 43.5248095], [16.4948414, 43.5247015], [16.4947672, 43.5245574]]}, "properties": {"sliv_ha": 1.11, "rang": 1, "izvor": "izvedeno iz DGU DMR 1 m (LiDAR), D8 analiza"}}, {"type": "Feature", "geometry": {"type": "LineString", "coordinates": [[16.4998639, 43.5259078], [16.4998639, 43.5258358], [16.4997897, 43.5257998], [16.4996412, 43.5258358], [16.4996165, 43.5259078]]}, "properties": {"sliv_ha": 1.08, "rang": 1, "izvor": "izvedeno iz DGU DMR 1 m (LiDAR), D8 analiza"}}, {"type": "Feature", "geometry": {"type": "LineString", "coordinates": [[16.4955343, 43.5232432], [16.4953858, 43.5232432]]}, "properties": {"sliv_ha": 1.06, "rang": 1, "izvor": "izvedeno iz DGU DMR 1 m (LiDAR), D8 analiza"}}, {"type": "Feature", "geometry": {"type": "LineString", "coordinates": [[16.4972908, 43.5248816], [16.4971918, 43.5249716], [16.4968702, 43.5249716]]}, "properties": {"sliv_ha": 1.06, "rang": 1, "izvor": "izvedeno iz DGU DMR 1 m (LiDAR), D8 analiza"}}, {"type": "Feature", "geometry": {"type": "LineString", "coordinates": [[16.503798, 43.5269159], [16.5038227, 43.5270959], [16.5038722, 43.5271319]]}, "properties": {"sliv_ha": 1.05, "rang": 1, "izvor": "izvedeno iz DGU DMR 1 m (LiDAR), D8 analiza"}}]}