{"type": "FeatureCollection", "features": [{"type": "Feature", "geometry": {"type": "LineString", "coordinates": [[16.5173339, 43.5333598], [16.5170865, 43.5335398], [16.5169876, 43.5335398], [16.5168886, 43.5334498], [16.5168143, 43.5335039], [16.5166906, 43.5334859], [16.5166164, 43.5335399], [16.5163442, 43.5335399], [16.5162947, 43.5335039], [16.5161957, 43.53354], [16.516072, 43.533486], [16.5157503, 43.533522], [16.5156761, 43.533468], [16.5154533, 43.533414], [16.5153544, 43.5334321], [16.5152801, 43.5334861], [16.5150822, 43.5334141], [16.5148842, 43.5334141], [16.514711, 43.5333241], [16.5146367, 43.5332161], [16.5144882, 43.5331621], [16.514414, 43.5330541], [16.5142902, 43.5329641], [16.5141417, 43.5329101], [16.514018, 43.5328021], [16.5139437, 43.5326761], [16.5139684, 43.5326401], [16.5138694, 43.5325501], [16.5138694, 43.5325141], [16.5139437, 43.5324601], [16.5139189, 43.5323521], [16.5138446, 43.5322801], [16.5136467, 43.5321901], [16.5136466, 43.532082], [16.5137209, 43.532046], [16.5136714, 43.531956], [16.5133744, 43.531884], [16.5131517, 43.531704], [16.5129042, 43.53156], [16.5129042, 43.531506], [16.5127804, 43.531398], [16.5127062, 43.531416], [16.5124093, 43.5313441], [16.5120381, 43.5315601], [16.5118897, 43.5315962], [16.5118402, 43.5315782], [16.5118402, 43.5315241], [16.5115679, 43.5310381], [16.5115926, 43.5309661], [16.5114689, 43.5308761], [16.5112956, 43.530624], [16.5111224, 43.530444], [16.5111224, 43.53039], [16.5110234, 43.530282], [16.5110729, 43.530228], [16.5109244, 43.530156], [16.5108996, 43.530084], [16.5108007, 43.530102], [16.5101077, 43.52958], [16.5100088, 43.529562], [16.5098355, 43.529454], [16.5098108, 43.529382], [16.5098603, 43.529346], [16.5098602, 43.5291299], [16.5097118, 43.5291119], [16.5097118, 43.5290579], [16.509786, 43.5290039], [16.5097612, 43.5289679], [16.509588, 43.5288959], [16.5094891, 43.5289139], [16.5094643, 43.5288059], [16.5093901, 43.5287879], [16.5093901, 43.5287339], [16.5093158, 43.5286799], [16.5091674, 43.5286799], [16.5091179, 43.5285899], [16.5089446, 43.5285719], [16.5087467, 43.5284279], [16.5086725, 43.5284279], [16.508524, 43.5283199], [16.5085239, 43.5277798], [16.5084249, 43.5277258], [16.5084249, 43.5276358], [16.5083507, 43.5275458], [16.5082022, 43.5275638], [16.5081527, 43.5275278], [16.5080785, 43.5272757], [16.508029, 43.5272757], [16.5079547, 43.5272037], [16.5076826, 43.5271677], [16.5073361, 43.5269337], [16.5070887, 43.5269337], [16.5070392, 43.5268797], [16.5070392, 43.5268077], [16.506866, 43.5268077], [16.5067423, 43.5268618], [16.5066681, 43.5269518], [16.5064702, 43.5269518], [16.5063217, 43.5268798], [16.5062475, 43.5269338], [16.5060248, 43.5268078]]}, "properties": {"tok": 1, "dionica": "izvan kvarta", "duljina_m": 1496, "sliv_ha": 232.2, "izvor": "izvedeno iz DGU DMR 1 m (LiDAR), D8 analiza"}}, {"type": "Feature", "geometry": {"type": "LineString", "coordinates": [[16.5060248, 43.5268078], [16.5058268, 43.5267538], [16.5057774, 43.5267898], [16.5056289, 43.5268078], [16.5055547, 43.5268618], [16.5055547, 43.5268978], [16.505431, 43.5269518], [16.5053567, 43.5269158], [16.5051588, 43.5269158], [16.5051093, 43.5268798], [16.5050103, 43.5268979], [16.5047382, 43.5268078], [16.504664, 43.5268619], [16.504565, 43.5268799], [16.5043671, 43.5270239], [16.5040207, 43.5270239], [16.5038475, 43.5271499], [16.5038475, 43.52724], [16.5035011, 43.52733], [16.5033031, 43.527348], [16.5032289, 43.527384], [16.5031052, 43.527348], [16.5028825, 43.527402], [16.5026846, 43.527402], [16.5024372, 43.527474], [16.501967, 43.527474], [16.5019176, 43.52751], [16.5013237, 43.5275101], [16.5012495, 43.527456], [16.5007794, 43.527348], [16.5005072, 43.52715], [16.5004825, 43.527042], [16.5002598, 43.52688], [16.5001361, 43.526916], [16.4999629, 43.526916], [16.4999381, 43.526862], [16.4996907, 43.52688], [16.499666, 43.526844], [16.4991464, 43.526862], [16.498899, 43.5268259], [16.4988, 43.5268619], [16.4985031, 43.5268439], [16.4984536, 43.5268799], [16.4983794, 43.5268259], [16.4981567, 43.5268259], [16.4980082, 43.5268619], [16.4973402, 43.5268439], [16.4971917, 43.5266999], [16.4971917, 43.5265559], [16.497266, 43.5263398], [16.4972413, 43.5259078], [16.4971423, 43.5258357], [16.497167, 43.5257097], [16.4971176, 43.5256917], [16.4971423, 43.5256017], [16.4970928, 43.5255837], [16.4970928, 43.5255477], [16.4971918, 43.5254937], [16.4972165, 43.5253497], [16.4970681, 43.5252056], [16.4970681, 43.5250796], [16.4968702, 43.5249716], [16.4962764, 43.5249716], [16.4961774, 43.5250436], [16.4959795, 43.5250436], [16.49593, 43.5250256], [16.49593, 43.5249355], [16.4957815, 43.5249535], [16.4957073, 43.5248995], [16.4956084, 43.5248995], [16.4955589, 43.5248095], [16.4949898, 43.5248095], [16.4950393, 43.5246655], [16.4950146, 43.5245574], [16.4947177, 43.5245574], [16.4946682, 43.5244674], [16.4945692, 43.5244674], [16.4943466, 43.5242874], [16.4940497, 43.5242153], [16.4939013, 43.5242153], [16.4938023, 43.5241613], [16.4938023, 43.5241253], [16.4934807, 43.5239993], [16.493357, 43.5238732], [16.4933323, 43.5236752], [16.4932333, 43.5236032], [16.4928869, 43.5235852], [16.4927632, 43.5236392], [16.4925405, 43.5236392], [16.4923921, 43.5236932], [16.4923673, 43.5237652], [16.4923179, 43.5237652], [16.4922189, 43.5236931], [16.4921447, 43.5236931], [16.4919715, 43.5237831], [16.4917736, 43.5237471], [16.4916746, 43.5237831], [16.4916993, 43.5238011], [16.4916498, 43.5238551], [16.4914519, 43.5238371], [16.4914272, 43.5238911], [16.4910313, 43.5238371], [16.4910065, 43.5239991], [16.4909076, 43.5239631], [16.4907839, 43.5239991], [16.4907097, 43.5239811], [16.4906602, 43.5240171], [16.4903385, 43.523981], [16.4900664, 43.5241431], [16.4900169, 43.524143], [16.4899674, 43.524071], [16.4895963, 43.524071], [16.4895468, 43.524107], [16.4895468, 43.524161], [16.4894973, 43.524179], [16.4892499, 43.524161], [16.4890272, 43.524197], [16.4889282, 43.524269], [16.4884829, 43.5242689]]}, "properties": {"tok": 1, "dionica": "u kvartu", "duljina_m": 1897, "sliv_ha": 232.2, "izvor": "izvedeno iz DGU DMR 1 m (LiDAR), D8 analiza"}}, {"type": "Feature", "geometry": {"type": "LineString", "coordinates": [[16.4884829, 43.5242689], [16.4883097, 43.5243049], [16.4881612, 43.5244129], [16.4881612, 43.5244849], [16.487988, 43.5245389], [16.48779, 43.5247369], [16.4877653, 43.5248089], [16.4878395, 43.524827], [16.4879632, 43.524971], [16.4878889, 43.524971], [16.4878395, 43.525007], [16.4878642, 43.525115], [16.4876909, 43.525313], [16.4877404, 43.525367], [16.4876909, 43.525457], [16.4876167, 43.525493], [16.4875177, 43.525493], [16.4875177, 43.525529], [16.4874435, 43.525565], [16.487394, 43.525637], [16.4872208, 43.525673], [16.4871713, 43.525709], [16.4870971, 43.525673], [16.4869734, 43.525691], [16.4869239, 43.525745], [16.4867754, 43.525763], [16.4866764, 43.525817], [16.4866022, 43.525817], [16.486528, 43.525709], [16.4864043, 43.5257089], [16.4858104, 43.5258529], [16.4857362, 43.5257989], [16.4856867, 43.5257989], [16.485662, 43.5257449], [16.485563, 43.5257448], [16.4854888, 43.5258349], [16.4854888, 43.5259429], [16.4850434, 43.5259428], [16.4844495, 43.5263748], [16.4844, 43.5263748], [16.4840535, 43.5266628], [16.4840041, 43.5266448], [16.4838556, 43.5267348], [16.4837566, 43.5267348], [16.4831134, 43.5262486], [16.4824948, 43.5266086], [16.4817276, 43.5271845], [16.4816286, 43.5271665], [16.4814307, 43.5272205], [16.4813812, 43.5272565], [16.4813811, 43.5273645], [16.4813069, 43.5274365], [16.4807624, 43.5278685], [16.4806139, 43.5279585], [16.4804902, 43.5279585], [16.4803912, 43.5280305], [16.4803912, 43.5280665], [16.4800447, 43.5283185], [16.4800942, 43.5283725], [16.4800695, 43.5283905], [16.4798468, 43.5283544], [16.4783129, 43.5279401], [16.4781644, 43.5279581], [16.4764572, 43.5276517], [16.4764078, 43.5276517], [16.476383, 43.5276877], [16.4761851, 43.5276876], [16.475814, 43.5274535], [16.4757645, 43.5274535], [16.4756408, 43.5275615], [16.4756407, 43.5276515], [16.4751706, 43.5276514], [16.4749479, 43.5277594], [16.4747747, 43.5277593], [16.4745025, 43.5278853], [16.474354, 43.5278132], [16.4742551, 43.5278132], [16.4738591, 43.5279211], [16.4736612, 43.5279211], [16.4736117, 43.5279571], [16.4736117, 43.5280111], [16.4734632, 43.5281011], [16.4733147, 43.5281191], [16.4732652, 43.528083]]}, "properties": {"tok": 1, "dionica": "izvan kvarta", "duljina_m": 1648, "sliv_ha": 232.2, "izvor": "izvedeno iz DGU DMR 1 m (LiDAR), D8 analiza"}}, {"type": "Feature", "geometry": {"type": "LineString", "coordinates": [[16.5111976, 43.5357009], [16.5109749, 43.5356649], [16.5108511, 43.5355749], [16.5108759, 43.5354849], [16.5107521, 43.5353949], [16.5107521, 43.5353409], [16.5106283, 43.5351969], [16.5105046, 43.5351969], [16.5101829, 43.535341], [16.5100097, 43.535359], [16.5098612, 43.535305], [16.509886, 43.535269], [16.5097375, 43.535143], [16.5098117, 43.5350529], [16.5098117, 43.5349989], [16.5097622, 43.5349629], [16.5098612, 43.5349089], [16.5098859, 43.5348189], [16.5100344, 43.5346929], [16.5100591, 43.5346028], [16.5100096, 43.5345668], [16.5100838, 43.5345128], [16.5102075, 43.5344948], [16.5102323, 43.5344408], [16.5103807, 43.5343508], [16.5104055, 43.5342428], [16.510455, 43.5342427], [16.5105044, 43.5341887], [16.5104797, 43.5341167], [16.5103559, 43.5340447], [16.5103559, 43.5340087], [16.510257, 43.5339907], [16.510158, 43.5339187], [16.510158, 43.5338647], [16.5101085, 43.5338287], [16.5101332, 43.5337387], [16.5107271, 43.5337386], [16.5109992, 43.5335406], [16.5110487, 43.5334686], [16.5110239, 43.5332525], [16.5109497, 43.5331985], [16.5108507, 43.5331985], [16.5107022, 43.5331085], [16.5105043, 43.5330905], [16.5103558, 43.5330005], [16.5103558, 43.5329645], [16.5102568, 43.5328925], [16.5102815, 43.5327845], [16.510232, 43.5326405], [16.510034, 43.5325325], [16.510034, 43.5324425], [16.5098113, 43.5322445], [16.5097865, 43.5318844], [16.5095637, 43.5317764], [16.50944, 43.5317764], [16.509242, 43.5317224], [16.5089698, 43.5315064], [16.5089451, 43.5313624], [16.5088213, 43.5311824], [16.5086728, 43.5310924], [16.5082522, 43.5310744], [16.5075346, 43.5307684], [16.5074603, 43.5307684], [16.5072129, 43.5308764], [16.5070892, 43.5308764], [16.5068912, 43.5307504], [16.5066933, 43.5307144], [16.5065201, 43.5307144], [16.5063469, 43.5307865], [16.5061984, 43.5307865], [16.5059262, 43.5309125], [16.5057035, 43.5309125], [16.5056045, 43.5308585], [16.5055056, 43.5308585], [16.5054808, 43.5308225], [16.5052086, 43.5307865], [16.5050107, 43.5306965], [16.5048374, 43.5305525], [16.5048374, 43.5303004], [16.5047879, 43.5302644], [16.5046147, 43.5302644], [16.5045157, 43.5301924], [16.5044168, 43.5302104], [16.504293, 43.5300844], [16.5041198, 43.5300484], [16.5041198, 43.5299944], [16.5040456, 43.5299224], [16.5039714, 43.5299224], [16.5038971, 43.5299764], [16.5037982, 43.5299404], [16.5036497, 43.5299764], [16.503427, 43.5299224], [16.5032785, 43.5298504], [16.5031301, 43.5298324], [16.5028826, 43.5297064], [16.5027589, 43.5297064], [16.5022888, 43.5296164], [16.5017692, 43.5299585], [16.501497, 43.5300125], [16.5012248, 43.5300125], [16.5011506, 43.5298505], [16.5010269, 43.5298325], [16.5010021, 43.5297965], [16.5007299, 43.5297605], [16.5006062, 43.5297605], [16.5005567, 43.5297965], [16.5002846, 43.5297965], [16.5002598, 43.5297244], [16.5001113, 43.5296164], [16.4999876, 43.5295984], [16.4990226, 43.5295984], [16.4987999, 43.5295624], [16.4986762, 43.5296524], [16.4951379, 43.5296523], [16.4943955, 43.5301924], [16.4942223, 43.5302284], [16.4938759, 43.5302464], [16.4937769, 43.5301744], [16.4935295, 43.5302464], [16.4933563, 43.5302103], [16.4929356, 43.5302283], [16.4928367, 43.5301563], [16.4923913, 43.5301383], [16.4922428, 43.5302463], [16.4921686, 43.5302103], [16.4921191, 43.5302823], [16.4920201, 43.5303363], [16.4909561, 43.5303362], [16.490585, 43.5303002], [16.490288, 43.5303361], [16.4897684, 43.5303361], [16.4896694, 43.5303181], [16.48962, 43.5302641], [16.48962, 43.5302101], [16.4895458, 43.53012], [16.4895458, 43.53003], [16.4894468, 43.529922], [16.4896696, 43.5295259], [16.4899418, 43.5292019]]}, "properties": {"tok": 2, "dionica": "izvan kvarta", "duljina_m": 2711, "sliv_ha": 93.6, "izvor": "izvedeno iz DGU DMR 1 m (LiDAR), D8 analiza"}}, {"type": "Feature", "geometry": {"type": "LineString", "coordinates": [[16.4899418, 43.5292019], [16.4902883, 43.5287519], [16.4905605, 43.5285539], [16.490511, 43.5284998], [16.4905605, 43.5284278], [16.4904121, 43.5283918], [16.4903378, 43.5283378]]}, "properties": {"tok": 2, "dionica": "u kvartu", "duljina_m": 126, "sliv_ha": 93.6, "izvor": "izvedeno iz DGU DMR 1 m (LiDAR), D8 analiza"}}, {"type": "Feature", "geometry": {"type": "LineString", "coordinates": [[16.4903378, 43.5283378], [16.4901894, 43.5282838], [16.4902141, 43.5282658], [16.4901152, 43.5280857], [16.489942, 43.5279597], [16.4898678, 43.5279597], [16.4897441, 43.5278697], [16.4896946, 43.5278697], [16.4896204, 43.5279237], [16.4896203, 43.5280317], [16.4895214, 43.5280677], [16.4894719, 43.5280317], [16.4892245, 43.5280316], [16.489175, 43.5278876], [16.4890265, 43.5278336], [16.4869976, 43.5278334], [16.4864534, 43.5274373], [16.4863544, 43.5274372], [16.4863297, 43.5273652], [16.4862555, 43.5273292], [16.486107, 43.5274552], [16.4856616, 43.5274552], [16.4854142, 43.5274911], [16.4849193, 43.5274911], [16.4848204, 43.527455], [16.4846224, 43.527545], [16.4844492, 43.527401], [16.4844245, 43.527347], [16.484474, 43.527311], [16.4843503, 43.5271669], [16.4845483, 43.5270049], [16.4845731, 43.5269329], [16.4844246, 43.5269149], [16.4841029, 43.5270769], [16.4840534, 43.5270409], [16.4840287, 43.5269329], [16.4832866, 43.5263927], [16.4831382, 43.5262486], [16.4824948, 43.5266086], [16.4817276, 43.5271845], [16.4816286, 43.5271665], [16.4814307, 43.5272205], [16.4813812, 43.5272565], [16.4813811, 43.5273645], [16.4813069, 43.5274365], [16.4807624, 43.5278685], [16.4806139, 43.5279585], [16.4804902, 43.5279585], [16.4803912, 43.5280305], [16.4803912, 43.5280665], [16.4800447, 43.5283185], [16.4800942, 43.5283725], [16.4800695, 43.5283905], [16.4798468, 43.5283544], [16.4783129, 43.5279401], [16.4781644, 43.5279581], [16.4764572, 43.5276517], [16.4764078, 43.5276517], [16.476383, 43.5276877], [16.4761851, 43.5276876], [16.475814, 43.5274535], [16.4757645, 43.5274535], [16.4756408, 43.5275615], [16.4756407, 43.5276515], [16.4751706, 43.5276514], [16.4749479, 43.5277594], [16.4747747, 43.5277593], [16.4745025, 43.5278853], [16.474354, 43.5278132], [16.4742551, 43.5278132], [16.4738591, 43.5279211], [16.4736612, 43.5279211], [16.4736117, 43.5279571], [16.4736117, 43.5280111], [16.4734632, 43.5281011], [16.4733147, 43.5281191], [16.4732652, 43.528083]]}, "properties": {"tok": 2, "dionica": "izvan kvarta", "duljina_m": 1790, "sliv_ha": 93.6, "izvor": "izvedeno iz DGU DMR 1 m (LiDAR), D8 analiza"}}]}