{"type":"FeatureCollection","features":[{"type":"Feature","id":"nippimenovanomjesto.251026","geometry":{"type":"Point","coordinates":[16.48343757,43.51428027]},"geometry_name":"geom","properties":{"identifikator":"HRRGIM68","vrstaobiljezja":"rudina","geografskoime":"Dragovod","jezik":"Hrvatski","status":"službeno"}},{"type":"Feature","id":"nippimenovanomjesto.251088","geometry":{"type":"Point","coordinates":[16.49630441,43.51645064]},"geometry_name":"geom","properties":{"identifikator":"HRRGIM129","vrstaobiljezja":"trafostanica","geografskoime":"Trafostanica Vrboran","jezik":"Hrvatski","status":"službeno"}},{"type":"Feature","id":"nippimenovanomjesto.255146","geometry":{"type":"Point","coordinates":[16.48720313,43.51024321]},"geometry_name":"geom","properties":{"identifikator":"HRRGIM4169","vrstaobiljezja":"grad (jls)","geografskoime":"Split","jezik":"Hrvatski","status":"službeno"}},{"type":"Feature","id":"nippimenovanomjesto.255197","geometry":{"type":"Point","coordinates":[16.48093548,43.53152189]},"geometry_name":"geom","properties":{"identifikator":"HRRGIM4220","vrstaobiljezja":"županijska cesta","geografskoime":"ŽC 6138 ","jezik":"Hrvatski","status":"ostalo"}},{"type":"Feature","id":"nippimenovanomjesto.255261","geometry":{"type":"Point","coordinates":[16.51045529,43.53612411]},"geometry_name":"geom","properties":{"identifikator":"HRRGIM4284","vrstaobiljezja":"županijska cesta","geografskoime":"ŽC 6270 ","jezik":"Hrvatski","status":"ostalo"}},{"type":"Feature","id":"nippimenovanomjesto.255334","geometry":{"type":"Point","coordinates":[16.48446464,43.5300396]},"geometry_name":"geom","properties":{"identifikator":"HRRGIM4357","vrstaobiljezja":"županijska cesta","geografskoime":"ŽC 6139 ","jezik":"Hrvatski","status":"ostalo"}},{"type":"Feature","id":"nippimenovanomjesto.257190","geometry":{"type":"Point","coordinates":[16.49094444,43.53891174]},"geometry_name":"geom","properties":{"identifikator":"HRRGIM6190","vrstaobiljezja":"biblioteka, knjižnica","geografskoime":"Gradska knjižnica Solin","jezik":"Hrvatski","status":"službeno"}},{"type":"Feature","id":"nippimenovanomjesto.270748","geometry":{"type":"Point","coordinates":[16.51573643,43.51250962]},"geometry_name":"geom","properties":{"identifikator":"HRRGIM19688","vrstaobiljezja":"naselje","geografskoime":"Kamen","jezik":"Hrvatski","status":"službeno"}},{"type":"Feature","id":"nippimenovanomjesto.278766","geometry":{"type":"Point","coordinates":[16.51809357,43.53193816]},"geometry_name":"geom","properties":{"identifikator":"HRRGIM27671","vrstaobiljezja":"naselje","geografskoime":"Mravince","jezik":"Hrvatski","status":"službeno"}},{"type":"Feature","id":"nippimenovanomjesto.281720","geometry":{"type":"Point","coordinates":[16.49035532,43.53507009]},"geometry_name":"geom","properties":{"identifikator":"HRRGIM30616","vrstaobiljezja":"svetište","geografskoime":"Svetište Gospe od Otoka","jezik":"Hrvatski","status":"službeno"}},{"type":"Feature","id":"nippimenovanomjesto.296226","geometry":{"type":"Point","coordinates":[16.48723705,43.51602199]},"geometry_name":"geom","properties":{"identifikator":"HRRGIM45081","vrstaobiljezja":"dječji vrtić","geografskoime":"Dječji vrtić Bajka","jezik":"Hrvatski","status":"službeno"}},{"type":"Feature","id":"nippimenovanomjesto.297195","geometry":{"type":"Point","coordinates":[16.49926904,43.53360738]},"geometry_name":"geom","properties":{"identifikator":"HRRGIM46049","vrstaobiljezja":"dječji vrtić","geografskoime":"Dječji vrtić Šareni leptirić","jezik":"Hrvatski","status":"službeno"}},{"type":"Feature","id":"nippimenovanomjesto.299516","geometry":{"type":"Point","coordinates":[16.47254517,43.51625539]},"geometry_name":"geom","properties":{"identifikator":"HRRGIM48369","vrstaobiljezja":"dječji vrtić","geografskoime":"Dječji vrtić Disneyland","jezik":"Hrvatski","status":"službeno"}},{"type":"Feature","id":"nippimenovanomjesto.307666","geometry":{"type":"Point","coordinates":[16.49078166,43.53770338]},"geometry_name":"geom","properties":{"identifikator":"HRRGIM56517","vrstaobiljezja":"dječji vrtić","geografskoime":"Dječji vrtić Cvrčak","jezik":"Hrvatski","status":"službeno"}},{"type":"Feature","id":"nippimenovanomjesto.326437","geometry":{"type":"Point","coordinates":[16.47220709,43.53692579]},"geometry_name":"geom","properties":{"identifikator":"HRRGIM75262","vrstaobiljezja":"željeznička postaja","geografskoime":"Solin","jezik":"Hrvatski","status":"službeno"}},{"type":"Feature","id":"nippimenovanomjesto.326438","geometry":{"type":"Point","coordinates":[16.47437819,43.52417854]},"geometry_name":"geom","properties":{"identifikator":"HRRGIM75263","vrstaobiljezja":"željeznički tunel","geografskoime":"Dujmovac","jezik":"Hrvatski","status":"službeno"}},{"type":"Feature","id":"nippimenovanomjesto.327050","geometry":{"type":"Point","coordinates":[16.51718037,43.53616219]},"geometry_name":"geom","properties":{"identifikator":"HRRGIM75874","vrstaobiljezja":"cestovni tunel","geografskoime":"Mravince","jezik":"Hrvatski","status":"službeno"}},{"type":"Feature","id":"nippimenovanomjesto.330774","geometry":{"type":"Point","coordinates":[16.51763869,43.51339276]},"geometry_name":"geom","properties":{"identifikator":"HRRGIM79592","vrstaobiljezja":"crkva","geografskoime":"Svetog Mihovila","jezik":"Hrvatski","status":"službeno"}},{"type":"Feature","id":"nippimenovanomjesto.330776","geometry":{"type":"Point","coordinates":[16.51644299,43.51656582]},"geometry_name":"geom","properties":{"identifikator":"HRRGIM79594","vrstaobiljezja":"groblje, krematorij","geografskoime":"Kamen","jezik":"Hrvatski","status":"službeno"}},{"type":"Feature","id":"nippimenovanomjesto.331202","geometry":{"type":"Point","coordinates":[16.50631033,43.53437328]},"geometry_name":"geom","properties":{"identifikator":"HRRGIM80020","vrstaobiljezja":"groblje, krematorij","geografskoime":"Solin","jezik":"Hrvatski","status":"službeno"}},{"type":"Feature","id":"nippimenovanomjesto.331272","geometry":{"type":"Point","coordinates":[16.48344726,43.53962751]},"geometry_name":"geom","properties":{"identifikator":"HRRGIM80090","vrstaobiljezja":"arheološko nalazište, ruševina, iskopina","geografskoime":"Ilirska Salona","jezik":"Hrvatski","status":"službeno"}},{"type":"Feature","id":"nippimenovanomjesto.331274","geometry":{"type":"Point","coordinates":[16.47432709,43.53847193]},"geometry_name":"geom","properties":{"identifikator":"HRRGIM80092","vrstaobiljezja":"arheološko nalazište, ruševina, iskopina","geografskoime":"Amfiteatar Salone","jezik":"Hrvatski","status":"službeno"}},{"type":"Feature","id":"nippimenovanomjesto.331275","geometry":{"type":"Point","coordinates":[16.494527,43.5398657]},"geometry_name":"geom","properties":{"identifikator":"HRRGIM80093","vrstaobiljezja":"vodenica, mlinica","geografskoime":"Gašpina mlinica","jezik":"Hrvatski","status":"službeno"}},{"type":"Feature","id":"nippimenovanomjesto.331281","geometry":{"type":"Point","coordinates":[16.51740217,43.5334752]},"geometry_name":"geom","properties":{"identifikator":"HRRGIM80099","vrstaobiljezja":"groblje, krematorij","geografskoime":"Mravince","jezik":"Hrvatski","status":"službeno"}},{"type":"Feature","id":"nippimenovanomjesto.331282","geometry":{"type":"Point","coordinates":[16.51667446,43.53271918]},"geometry_name":"geom","properties":{"identifikator":"HRRGIM80100","vrstaobiljezja":"crkva","geografskoime":"Svetog Ivana","jezik":"Hrvatski","status":"službeno"}},{"type":"Feature","id":"nippimenovanomjesto.331319","geometry":{"type":"Point","coordinates":[16.49460889,43.53918729]},"geometry_name":"geom","properties":{"identifikator":"HRRGIM80137","vrstaobiljezja":"arheološko nalazište, ruševina, iskopina","geografskoime":"Dvorine","jezik":"Hrvatski","status":"službeno"}},{"type":"Feature","id":"nippimenovanomjesto.331338","geometry":{"type":"Point","coordinates":[16.49454787,43.51213541]},"geometry_name":"geom","properties":{"identifikator":"HRRGIM80156","vrstaobiljezja":"groblje, krematorij","geografskoime":"Lovrinac","jezik":"Hrvatski","status":"službeno"}},{"type":"Feature","id":"nippimenovanomjesto.331387","geometry":{"type":"Point","coordinates":[16.47518086,43.51313502]},"geometry_name":"geom","properties":{"identifikator":"HRRGIM80205","vrstaobiljezja":"crkva","geografskoime":"Presvetog Srca Isusova","jezik":"Hrvatski","status":"službeno"}},{"type":"Feature","id":"nippimenovanomjesto.331388","geometry":{"type":"Point","coordinates":[16.49017289,43.51812639]},"geometry_name":"geom","properties":{"identifikator":"HRRGIM80206","vrstaobiljezja":"crkva","geografskoime":"Svetog Spasa","jezik":"Hrvatski","status":"službeno"}},{"type":"Feature","id":"nippimenovanomjesto.331409","geometry":{"type":"Point","coordinates":[16.47248408,43.51666049]},"geometry_name":"geom","properties":{"identifikator":"HRRGIM80227","vrstaobiljezja":"crkva","geografskoime":"Svetog Pavla","jezik":"Hrvatski","status":"službeno"}},{"type":"Feature","id":"nippimenovanomjesto.331423","geometry":{"type":"Point","coordinates":[16.48081619,43.52632017]},"geometry_name":"geom","properties":{"identifikator":"HRRGIM80241","vrstaobiljezja":"crkva","geografskoime":"Svetog Dujma","jezik":"Hrvatski","status":"službeno"}},{"type":"Feature","id":"nippimenovanomjesto.339800","geometry":{"type":"Point","coordinates":[16.49418035,43.53477962]},"geometry_name":"geom","properties":{"identifikator":"HRRGIM88605","vrstaobiljezja":"škola","geografskoime":"Osnovna škola Kraljice Jelene","jezik":"Hrvatski","status":"službeno"}},{"type":"Feature","id":"nippimenovanomjesto.341175","geometry":{"type":"Point","coordinates":[16.47383485,43.52105194]},"geometry_name":"geom","properties":{"identifikator":"HRRGIM89978","vrstaobiljezja":"škola","geografskoime":"Osnovna škola Ravne njive","jezik":"Hrvatski","status":"službeno"}},{"type":"Feature","id":"nippimenovanomjesto.341176","geometry":{"type":"Point","coordinates":[16.48916181,43.51712064]},"geometry_name":"geom","properties":{"identifikator":"HRRGIM89979","vrstaobiljezja":"škola","geografskoime":"Osnovna škola Mejaši","jezik":"Hrvatski","status":"službeno"}},{"type":"Feature","id":"nippimenovanomjesto.341296","geometry":{"type":"Point","coordinates":[16.47614129,43.51637286]},"geometry_name":"geom","properties":{"identifikator":"HRRGIM90098","vrstaobiljezja":"škola","geografskoime":"Osnovna škola Pujanki","jezik":"Hrvatski","status":"službeno"}},{"type":"Feature","id":"nippimenovanomjesto.341297","geometry":{"type":"Point","coordinates":[16.47692051,43.51255959]},"geometry_name":"geom","properties":{"identifikator":"HRRGIM90099","vrstaobiljezja":"škola","geografskoime":"Osnovna škola Visoka ","jezik":"Hrvatski","status":"službeno"}},{"type":"Feature","id":"nippimenovanomjesto.341765","geometry":{"type":"Point","coordinates":[16.51760747,43.53239191]},"geometry_name":"geom","properties":{"identifikator":"HRRGIM90566","vrstaobiljezja":"škola","geografskoime":"Osnovna škola Kraljice Jelene - Područna škola Mravince","jezik":"Hrvatski","status":"službeno"}},{"type":"Feature","id":"nippimenovanomjesto.342050","geometry":{"type":"Point","coordinates":[16.49805455,43.52841549]},"geometry_name":"geom","properties":{"identifikator":"HRRGIM90851","vrstaobiljezja":"zatvor, kaznionica i odgojni zavod","geografskoime":"Zatvor u Splitu","jezik":"Hrvatski","status":"službeno"}},{"type":"Feature","id":"nippimenovanomjesto.346608","geometry":{"type":"Point","coordinates":[16.47805589,43.51471479]},"geometry_name":"geom","properties":{"identifikator":"HRRGIM95397","vrstaobiljezja":"dječji vrtić","geografskoime":"Dječji vrtić Calimero","jezik":"Hrvatski","status":"službeno"}},{"type":"Feature","id":"nippimenovanomjesto.350084","geometry":{"type":"Point","coordinates":[16.49189328,43.53500271]},"geometry_name":"geom","properties":{"identifikator":"HRRGIM98868","vrstaobiljezja":"hotel","geografskoime":"Hotel President Solin","jezik":"Hrvatski","status":"službeno"}},{"type":"Feature","id":"nippimenovanomjesto.355547","geometry":{"type":"Point","coordinates":[16.5198642,43.53702361]},"geometry_name":"geom","properties":{"identifikator":"HRRGIM104322","vrstaobiljezja":"cestovni vijadukt","geografskoime":"Majdan","jezik":"Hrvatski","status":"službeno"}},{"type":"Feature","id":"nippimenovanomjesto.356191","geometry":{"type":"Point","coordinates":[16.50367672,43.53590893]},"geometry_name":"geom","properties":{"identifikator":"HRRGIM104966","vrstaobiljezja":"ostalo","geografskoime":"Tvornica","jezik":"Hrvatski","status":"službeno"}},{"type":"Feature","id":"nippimenovanomjesto.356192","geometry":{"type":"Point","coordinates":[16.50083582,43.53321212]},"geometry_name":"geom","properties":{"identifikator":"HRRGIM104967","vrstaobiljezja":"dio gradskog naselja, gradska četvrt","geografskoime":"Rapovac","jezik":"Hrvatski","status":"službeno"}},{"type":"Feature","id":"nippimenovanomjesto.356193","geometry":{"type":"Point","coordinates":[16.49744064,43.53689193]},"geometry_name":"geom","properties":{"identifikator":"HRRGIM104968","vrstaobiljezja":"dio gradskog naselja, gradska četvrt","geografskoime":"Kunćevi","jezik":"Hrvatski","status":"službeno"}},{"type":"Feature","id":"nippimenovanomjesto.356194","geometry":{"type":"Point","coordinates":[16.49042483,43.5351594]},"geometry_name":"geom","properties":{"identifikator":"HRRGIM104969","vrstaobiljezja":"crkva","geografskoime":"Gospe od Otoka","jezik":"Hrvatski","status":"službeno"}},{"type":"Feature","id":"nippimenovanomjesto.356195","geometry":{"type":"Point","coordinates":[16.49142841,43.53717519]},"geometry_name":"geom","properties":{"identifikator":"HRRGIM104970","vrstaobiljezja":"arheološko nalazište, ruševina, iskopina","geografskoime":"Gradina Solin","jezik":"Hrvatski","status":"službeno"}},{"type":"Feature","id":"nippimenovanomjesto.356196","geometry":{"type":"Point","coordinates":[16.49230162,43.53701331]},"geometry_name":"geom","properties":{"identifikator":"HRRGIM104971","vrstaobiljezja":"ribnjak","geografskoime":"Ribnjak","jezik":"Hrvatski","status":"službeno"}},{"type":"Feature","id":"nippimenovanomjesto.356197","geometry":{"type":"Point","coordinates":[16.4930117,43.53828618]},"geometry_name":"geom","properties":{"identifikator":"HRRGIM104972","vrstaobiljezja":"stadion","geografskoime":"Solin","jezik":"Hrvatski","status":"službeno"}},{"type":"Feature","id":"nippimenovanomjesto.356198","geometry":{"type":"Point","coordinates":[16.49013647,43.53591676]},"geometry_name":"geom","properties":{"identifikator":"HRRGIM104973","vrstaobiljezja":"cestovni most","geografskoime":"Franje Tuđmana","jezik":"Hrvatski","status":"službeno"}},{"type":"Feature","id":"nippimenovanomjesto.356199","geometry":{"type":"Point","coordinates":[16.48713167,43.53354284]},"geometry_name":"geom","properties":{"identifikator":"HRRGIM104974","vrstaobiljezja":"cestovni most","geografskoime":"Jadro I","jezik":"Hrvatski","status":"službeno"}},{"type":"Feature","id":"nippimenovanomjesto.356220","geometry":{"type":"Point","coordinates":[16.50586847,43.5373697]},"geometry_name":"geom","properties":{"identifikator":"HRRGIM104995","vrstaobiljezja":"brežuljak, gorica","geografskoime":"Kunčeva greda","jezik":"Hrvatski","status":"službeno"}},{"type":"Feature","id":"nippimenovanomjesto.356221","geometry":{"type":"Point","coordinates":[16.50731476,43.53472788]},"geometry_name":"geom","properties":{"identifikator":"HRRGIM104996","vrstaobiljezja":"brežuljak, gorica","geografskoime":"Sutikva","jezik":"Hrvatski","status":"službeno"}},{"type":"Feature","id":"nippimenovanomjesto.356222","geometry":{"type":"Point","coordinates":[16.51823857,43.53771204]},"geometry_name":"geom","properties":{"identifikator":"HRRGIM104997","vrstaobiljezja":"crnogorična šuma","geografskoime":"Vilobonja","jezik":"Hrvatski","status":"službeno"}},{"type":"Feature","id":"nippimenovanomjesto.356886","geometry":{"type":"Point","coordinates":[16.51873999,43.52859841]},"geometry_name":"geom","properties":{"identifikator":"HRRGIM105661","vrstaobiljezja":"rudina","geografskoime":"Mrke njive","jezik":"Hrvatski","status":"službeno"}},{"type":"Feature","id":"nippimenovanomjesto.356904","geometry":{"type":"Point","coordinates":[16.50082904,43.53010698]},"geometry_name":"geom","properties":{"identifikator":"HRRGIM105679","vrstaobiljezja":"dio gradskog naselja, gradska četvrt","geografskoime":"Bašini","jezik":"Hrvatski","status":"službeno"}},{"type":"Feature","id":"nippimenovanomjesto.356905","geometry":{"type":"Point","coordinates":[16.49352887,43.52777287]},"geometry_name":"geom","properties":{"identifikator":"HRRGIM105680","vrstaobiljezja":"dio gradskog naselja, gradska četvrt","geografskoime":"Bilice","jezik":"Hrvatski","status":"službeno"}},{"type":"Feature","id":"nippimenovanomjesto.356906","geometry":{"type":"Point","coordinates":[16.48999498,43.53145246]},"geometry_name":"geom","properties":{"identifikator":"HRRGIM105681","vrstaobiljezja":"dio gradskog naselja, gradska četvrt","geografskoime":"Meterize","jezik":"Hrvatski","status":"službeno"}},{"type":"Feature","id":"nippimenovanomjesto.356915","geometry":{"type":"Point","coordinates":[16.51538737,43.53223194]},"geometry_name":"geom","properties":{"identifikator":"HRRGIM105690","vrstaobiljezja":"dio naselja","geografskoime":"Bućani","jezik":"Hrvatski","status":"službeno"}},{"type":"Feature","id":"nippimenovanomjesto.356943","geometry":{"type":"Point","coordinates":[16.51376693,43.52493244]},"geometry_name":"geom","properties":{"identifikator":"HRRGIM105718","vrstaobiljezja":"brežuljak, gorica","geografskoime":"Ploča","jezik":"Hrvatski","status":"službeno"}},{"type":"Feature","id":"nippimenovanomjesto.356944","geometry":{"type":"Point","coordinates":[16.49918176,43.52462292]},"geometry_name":"geom","properties":{"identifikator":"HRRGIM105719","vrstaobiljezja":"rudina","geografskoime":"Karepovac","jezik":"Hrvatski","status":"službeno"}},{"type":"Feature","id":"nippimenovanomjesto.356945","geometry":{"type":"Point","coordinates":[16.48945604,43.52493386]},"geometry_name":"geom","properties":{"identifikator":"HRRGIM105720","vrstaobiljezja":"rudina","geografskoime":"Mostine","jezik":"Hrvatski","status":"službeno"}},{"type":"Feature","id":"nippimenovanomjesto.356946","geometry":{"type":"Point","coordinates":[16.47832719,43.52798211]},"geometry_name":"geom","properties":{"identifikator":"HRRGIM105721","vrstaobiljezja":"rudina","geografskoime":"Dujmovača","jezik":"Hrvatski","status":"službeno"}},{"type":"Feature","id":"nippimenovanomjesto.357037","geometry":{"type":"Point","coordinates":[16.48620981,43.52231325]},"geometry_name":"geom","properties":{"identifikator":"HRRGIM105812","vrstaobiljezja":"rudina","geografskoime":"Smokovik","jezik":"Hrvatski","status":"službeno"}},{"type":"Feature","id":"nippimenovanomjesto.357041","geometry":{"type":"Point","coordinates":[16.51027956,43.52149256]},"geometry_name":"geom","properties":{"identifikator":"HRRGIM105816","vrstaobiljezja":"deponija ","geografskoime":"Karepovac","jezik":"Hrvatski","status":"službeno"}},{"type":"Feature","id":"nippimenovanomjesto.357042","geometry":{"type":"Point","coordinates":[16.50274605,43.51693288]},"geometry_name":"geom","properties":{"identifikator":"HRRGIM105817","vrstaobiljezja":"vrh","geografskoime":"Kila","jezik":"Hrvatski","status":"službeno"}},{"type":"Feature","id":"nippimenovanomjesto.357043","geometry":{"type":"Point","coordinates":[16.48659025,43.51688234]},"geometry_name":"geom","properties":{"identifikator":"HRRGIM105818","vrstaobiljezja":"dio gradskog naselja, gradska četvrt","geografskoime":"Mejaši","jezik":"Hrvatski","status":"službeno"}},{"type":"Feature","id":"nippimenovanomjesto.357045","geometry":{"type":"Point","coordinates":[16.48038131,43.51982596]},"geometry_name":"geom","properties":{"identifikator":"HRRGIM105820","vrstaobiljezja":"dio gradskog naselja, gradska četvrt","geografskoime":"Neslanovac","jezik":"Hrvatski","status":"službeno"}},{"type":"Feature","id":"nippimenovanomjesto.357046","geometry":{"type":"Point","coordinates":[16.47248612,43.51609407]},"geometry_name":"geom","properties":{"identifikator":"HRRGIM105821","vrstaobiljezja":"dio gradskog naselja, gradska četvrt","geografskoime":"Pujanke","jezik":"Hrvatski","status":"službeno"}},{"type":"Feature","id":"nippimenovanomjesto.357059","geometry":{"type":"Point","coordinates":[16.5199733,43.5161268]},"geometry_name":"geom","properties":{"identifikator":"HRRGIM105834","vrstaobiljezja":"rudina","geografskoime":"Vidovača","jezik":"Hrvatski","status":"službeno"}},{"type":"Feature","id":"nippimenovanomjesto.357060","geometry":{"type":"Point","coordinates":[16.50164625,43.51977972]},"geometry_name":"geom","properties":{"identifikator":"HRRGIM105835","vrstaobiljezja":"rudina","geografskoime":"Turnjevac","jezik":"Hrvatski","status":"službeno"}},{"type":"Feature","id":"nippimenovanomjesto.357086","geometry":{"type":"Point","coordinates":[16.50272975,43.51472882]},"geometry_name":"geom","properties":{"identifikator":"HRRGIM105861","vrstaobiljezja":"trgovački centar","geografskoime":"City Center","jezik":"Hrvatski","status":"službeno"}},{"type":"Feature","id":"nippimenovanomjesto.357087","geometry":{"type":"Point","coordinates":[16.49804179,43.52204093]},"geometry_name":"geom","properties":{"identifikator":"HRRGIM105862","vrstaobiljezja":"tvornica","geografskoime":"Cestar","jezik":"Hrvatski","status":"službeno"}},{"type":"Feature","id":"nippimenovanomjesto.357089","geometry":{"type":"Point","coordinates":[16.47536794,43.51203338]},"geometry_name":"geom","properties":{"identifikator":"HRRGIM105864","vrstaobiljezja":"dio gradskog naselja, gradska četvrt","geografskoime":"Visoka","jezik":"Hrvatski","status":"službeno"}},{"type":"Feature","id":"nippimenovanomjesto.357111","geometry":{"type":"Point","coordinates":[16.49184858,43.51232671]},"geometry_name":"geom","properties":{"identifikator":"HRRGIM105886","vrstaobiljezja":"rudina","geografskoime":"Lovrinac","jezik":"Hrvatski","status":"službeno"}},{"type":"Feature","id":"nippimenovanomjesto.363751","geometry":{"type":"Point","coordinates":[16.47571365,43.53464505]},"geometry_name":"geom","properties":{"identifikator":"HRRGIM112522","vrstaobiljezja":"ušće","geografskoime":"Jadro","jezik":"Hrvatski","status":"službeno"}},{"type":"Feature","id":"nippimenovanomjesto.364146","geometry":{"type":"Point","coordinates":[16.48673466,43.5321111]},"geometry_name":"geom","properties":{"identifikator":"HRRGIM112917","vrstaobiljezja":"benzinska crpka","geografskoime":"Solin Meterize","jezik":"Hrvatski","status":"službeno"}},{"type":"Feature","id":"nippimenovanomjesto.364181","geometry":{"type":"Point","coordinates":[16.48710881,43.52333326]},"geometry_name":"geom","properties":{"identifikator":"HRRGIM112952","vrstaobiljezja":"benzinska crpka","geografskoime":"Split Smokovik","jezik":"Hrvatski","status":"službeno"}},{"type":"Feature","id":"nippimenovanomjesto.366775","geometry":{"type":"Point","coordinates":[16.47536498,43.52594426]},"geometry_name":"geom","properties":{"identifikator":"HRRGIM115543","vrstaobiljezja":"benzinska crpka","geografskoime":"Dujmovača","jezik":"Hrvatski","status":"službeno"}},{"type":"Feature","id":"nippimenovanomjesto.369946","geometry":{"type":"Point","coordinates":[16.48677665,43.51559031]},"geometry_name":"geom","properties":{"identifikator":"HRRGIM118710","vrstaobiljezja":"dječji vrtić","geografskoime":"Dječji vrtić Školjkica","jezik":"Hrvatski","status":"službeno"}},{"type":"Feature","id":"nippimenovanomjesto.371245","geometry":{"type":"Point","coordinates":[16.48824861,43.51080683]},"geometry_name":"geom","properties":{"identifikator":"HRRGIM120006","vrstaobiljezja":"benzinska crpka","geografskoime":"INA Visoka","jezik":"Hrvatski","status":"službeno"}},{"type":"Feature","id":"nippimenovanomjesto.371252","geometry":{"type":"Point","coordinates":[16.49600688,43.5363097]},"geometry_name":"geom","properties":{"identifikator":"HRRGIM120013","vrstaobiljezja":"tvornica","geografskoime":"Punionica Solin","jezik":"Hrvatski","status":"službeno"}},{"type":"Feature","id":"nippimenovanomjesto.371488","geometry":{"type":"Point","coordinates":[16.50185105,43.52902507]},"geometry_name":"geom","properties":{"identifikator":"HRRGIM120243","vrstaobiljezja":"trafostanica","geografskoime":"Trafostanica Meterize","jezik":"Hrvatski","status":"službeno"}},{"type":"Feature","id":"nippimenovanomjesto.372968","geometry":{"type":"Point","coordinates":[16.51936355,43.53259642]},"geometry_name":"geom","properties":{"identifikator":"HRRGIM121719","vrstaobiljezja":"pošta","geografskoime":"Pošta Mravince","jezik":"Hrvatski","status":"službeno"}},{"type":"Feature","id":"nippimenovanomjesto.372973","geometry":{"type":"Point","coordinates":[16.48953974,43.53629154]},"geometry_name":"geom","properties":{"identifikator":"HRRGIM121724","vrstaobiljezja":"pošta","geografskoime":"Pošta Solin","jezik":"Hrvatski","status":"službeno"}},{"type":"Feature","id":"nippimenovanomjesto.374180","geometry":{"type":"Point","coordinates":[16.48925068,43.5367332]},"geometry_name":"geom","properties":{"identifikator":"HRRGIM122922","vrstaobiljezja":"dječji vrtić","geografskoime":"Dječji vrtić Pipi Duga Čarapa","jezik":"Hrvatski","status":"službeno"}},{"type":"Feature","id":"nippimenovanomjesto.374195","geometry":{"type":"Point","coordinates":[16.47738691,43.51663893]},"geometry_name":"geom","properties":{"identifikator":"HRRGIM122937","vrstaobiljezja":"dječji vrtić","geografskoime":"Dječji vrtić Pčelica Maja","jezik":"Hrvatski","status":"službeno"}},{"type":"Feature","id":"nippimenovanomjesto.374207","geometry":{"type":"Point","coordinates":[16.47238279,43.51651505]},"geometry_name":"geom","properties":{"identifikator":"HRRGIM122949","vrstaobiljezja":"dječji vrtić","geografskoime":"Dječji vrtić svetog Pavla Apostola","jezik":"Hrvatski","status":"službeno"}},{"type":"Feature","id":"nippimenovanomjesto.376104","geometry":{"type":"Point","coordinates":[16.47312972,43.51650661]},"geometry_name":"geom","properties":{"identifikator":"HRRGIM124855","vrstaobiljezja":"pošta","geografskoime":"Pošta Split","jezik":"Hrvatski","status":"službeno"}},{"type":"Feature","id":"nippimenovanomjesto.376105","geometry":{"type":"Point","coordinates":[16.50246503,43.51394854]},"geometry_name":"geom","properties":{"identifikator":"HRRGIM124856","vrstaobiljezja":"pošta","geografskoime":"Pošta Split","jezik":"Hrvatski","status":"službeno"}},{"type":"Feature","id":"nippimenovanomjesto.376130","geometry":{"type":"Point","coordinates":[16.48322977,43.51868314]},"geometry_name":"geom","properties":{"identifikator":"HRRGIM124881","vrstaobiljezja":"pošta","geografskoime":"Pošta Split","jezik":"Hrvatski","status":"službeno"}},{"type":"Feature","id":"nippimenovanomjesto.376131","geometry":{"type":"Point","coordinates":[16.49029642,43.53020131]},"geometry_name":"geom","properties":{"identifikator":"HRRGIM124882","vrstaobiljezja":"pošta","geografskoime":"Pošta Solin","jezik":"Hrvatski","status":"službeno"}},{"type":"Feature","id":"nippimenovanomjesto.376678","geometry":{"type":"Point","coordinates":[16.47464562,43.51605316]},"geometry_name":"geom","properties":{"identifikator":"HRRGIM125454","vrstaobiljezja":"kazalište, teatar","geografskoime":"Kazališna družina Čarobna komedija","jezik":"Hrvatski","status":"službeno"}}],"totalFeatures":92,"numberMatched":92,"numberReturned":92,"timeStamp":"2026-07-08T16:50:32.606Z","crs":{"type":"name","properties":{"name":"urn:ogc:def:crs:EPSG::4326"}}}