{"type":"FeatureCollection","features":[{"type":"Feature","properties":{"highway":"trunk_link","lanes":"2","maxspeed":"50","oneway":"yes","placement":"middle_of:2","surface":"asphalt","id":"way/25551618"},"geometry":{"type":"LineString","coordinates":[[16.4900982,43.5272992],[16.4901429,43.5271733],[16.4901738,43.5270323],[16.4901741,43.526906]]}},{"type":"Feature","properties":{"highway":"trunk_link","lanes":"1","maxspeed":"40","oneway":"yes","surface":"asphalt","id":"way/25551626"},"geometry":{"type":"LineString","coordinates":[[16.4907893,43.5285405],[16.4906696,43.5285541],[16.4905627,43.5285593],[16.4904717,43.5285706],[16.4903403,43.5286193],[16.490224,43.5286799],[16.4900809,43.5288285]]}},{"type":"Feature","properties":{"highway":"trunk_link","lanes":"2","maxspeed":"40","oneway":"yes","surface":"asphalt","id":"way/25551681"},"geometry":{"type":"LineString","coordinates":[[16.4892532,43.5252547],[16.4893788,43.5252592],[16.4898721,43.5256068],[16.490121,43.525805],[16.4902433,43.5259185],[16.4903978,43.5261011],[16.4905098,43.5262675],[16.4906466,43.5264878],[16.490751,43.5266501],[16.4908565,43.5267525],[16.4909673,43.5268112],[16.49114,43.5268569],[16.4913107,43.5269029],[16.4915265,43.5269908]]}},{"type":"Feature","properties":{"highway":"residential","id":"way/42710974"},"geometry":{"type":"LineString","coordinates":[[16.5039984,43.5290444],[16.5042611,43.5282119],[16.5042851,43.5281358],[16.5043795,43.5279935],[16.5044329,43.5279392],[16.504503,43.5278865],[16.5046931,43.5278084],[16.5049329,43.5277355]]}},{"type":"Feature","properties":{"highway":"residential","id":"way/42710975"},"geometry":{"type":"LineString","coordinates":[[16.5049329,43.5277355],[16.5047672,43.5274745],[16.5046042,43.5273323],[16.5043807,43.527235],[16.5041486,43.5271966],[16.5038779,43.5271975],[16.503645,43.527264],[16.503289,43.5273851],[16.5029749,43.5274669],[16.5025846,43.5274795],[16.502396,43.5274603],[16.5020631,43.5274265],[16.5020165,43.5274278],[16.5015513,43.5274383],[16.5011757,43.5274498],[16.5011611,43.5274498],[16.5009778,43.5274193]]}},{"type":"Feature","properties":{"abandoned:railway":"rail","description":"nekadašnja uskotračna Željeznica (Split-)Salona-Sinj","gauge":"760","gauge:1903-09-12-1962-10-01":"760","highway":"residential","lanes":"2","lanes:backward":"1","name":"Dračevac","old_name":"Sinjska rera","railway":"abandoned","id":"way/42710976"},"geometry":{"type":"LineString","coordinates":[[16.4955275,43.5291406],[16.4965349,43.5290009],[16.4968397,43.528964],[16.4971283,43.5289361],[16.4974567,43.5289258],[16.499029,43.5289165],[16.4995516,43.528843],[16.5003219,43.528681],[16.5010526,43.5285096],[16.5015599,43.5283905],[16.5017849,43.5283494]]}},{"type":"Feature","properties":{"highway":"residential","name":"Dračevac","id":"way/42710978"},"geometry":{"type":"LineString","coordinates":[[16.5020631,43.5274265],[16.502055,43.5272966],[16.5019806,43.5272119],[16.5017151,43.5270887],[16.5015875,43.5269953],[16.5015771,43.5268423],[16.5020952,43.5267583],[16.5032338,43.5265266],[16.5033267,43.5264647],[16.5033718,43.5262494],[16.5033506,43.5260954],[16.5034459,43.5259883],[16.5036773,43.5258289],[16.5041435,43.5256451],[16.5045977,43.5254711],[16.5048694,43.5253719],[16.5051372,43.5252273],[16.5051615,43.5249961],[16.5053622,43.5249784],[16.5056612,43.5249242],[16.5057172,43.5248474],[16.5059,43.5244626],[16.5059851,43.5242422],[16.5059896,43.5240729],[16.5059602,43.5239803],[16.5058313,43.5234796],[16.5057573,43.5231015],[16.5057334,43.5229446],[16.5057662,43.5228077],[16.5057602,43.5227533],[16.5057583,43.5226847],[16.5056861,43.5223002],[16.5057421,43.5220427],[16.5058392,43.5217292],[16.5058792,43.5216001],[16.5059708,43.5215042],[16.5059845,43.5214898],[16.5060681,43.5214022],[16.506147,43.5212794],[16.506228,43.5209328],[16.5062092,43.5208394]]}},{"type":"Feature","properties":{"highway":"trunk_link","lanes":"1","oneway":"yes","surface":"asphalt","id":"way/42710979"},"geometry":{"type":"LineString","coordinates":[[16.4988074,43.5277855],[16.4997497,43.5277771],[16.5000439,43.5277639],[16.5002956,43.5277375],[16.5004842,43.5277069],[16.5007029,43.527652],[16.5008303,43.5275971],[16.5009124,43.5275189],[16.5009778,43.5274193]]}},{"type":"Feature","properties":{"highway":"residential","id":"way/42710980"},"geometry":{"type":"LineString","coordinates":[[16.5009778,43.5274193],[16.5008569,43.5273792],[16.5007442,43.5273362],[16.5006063,43.527245],[16.5004456,43.5270712],[16.5003853,43.5269306]]}},{"type":"Feature","properties":{"highway":"residential","id":"way/42710981"},"geometry":{"type":"LineString","coordinates":[[16.5003853,43.5269306],[16.5000334,43.5269191],[16.499947,43.5269163],[16.4993189,43.5268958],[16.4971249,43.5268833]]}},{"type":"Feature","properties":{"highway":"residential","id":"way/42710982"},"geometry":{"type":"LineString","coordinates":[[16.4973023,43.5246315],[16.4972997,43.52497],[16.4972931,43.5258506],[16.4972914,43.5260744],[16.4971249,43.5268833]]}},{"type":"Feature","properties":{"bridge":"yes","highway":"trunk","int_ref":"E 71","lanes":"2","layer":"1","maxspeed":"80","motorroad":"yes","oneway":"yes","ref":"D1","surface":"asphalt","id":"way/42710983"},"geometry":{"type":"LineString","coordinates":[[16.5044104,43.5285654],[16.5040006,43.5284971]]}},{"type":"Feature","properties":{"foot":"no","highway":"trunk","lanes":"2","maxspeed":"60","name":"Ulica Zbora narodne garde","oneway":"yes","ref":"D8","reg_name":"Jadranska magistrala","shoulder":"no","sidewalk":"no","surface":"asphalt","id":"way/42710987"},"geometry":{"type":"LineString","coordinates":[[16.4902221,43.5281464],[16.4903358,43.5279167],[16.4904147,43.5276871],[16.4904484,43.5275088],[16.4904631,43.5272688]]}},{"type":"Feature","properties":{"bridge":"yes","highway":"trunk","lanes":"2","layer":"1","maxspeed":"60","name":"Ulica Zbora narodne garde","oneway":"yes","ref":"D8","reg_name":"Jadranska magistrala","shoulder":"no","sidewalk":"no","surface":"asphalt","id":"way/42710988"},"geometry":{"type":"LineString","coordinates":[[16.4904631,43.5272688],[16.4904583,43.5271515],[16.4904413,43.5269879],[16.4904205,43.526896],[16.4903948,43.5267996]]}},{"type":"Feature","properties":{"bridge":"yes","highway":"trunk","lanes":"2","layer":"1","maxspeed":"60","name":"Ulica Zbora narodne garde","oneway":"yes","ref":"D8","reg_name":"Jadranska magistrala","shoulder":"no","surface":"asphalt","id":"way/42710989"},"geometry":{"type":"LineString","coordinates":[[16.4903429,43.5281831],[16.4902127,43.5284026],[16.4900205,43.5286799]]}},{"type":"Feature","properties":{"highway":"trunk","lanes":"2","maxspeed":"60","name":"Ulica Zbora narodne garde","oneway":"yes","ref":"D8","reg_name":"Jadranska magistrala","shoulder":"no","surface":"asphalt","id":"way/42710990"},"geometry":{"type":"LineString","coordinates":[[16.4905838,43.5275198],[16.4905461,43.5276948],[16.4904671,43.5279388],[16.4903429,43.5281831]]}},{"type":"Feature","properties":{"bridge":"yes","highway":"trunk","lanes":"2","layer":"1","maxspeed":"60","name":"Ulica Zbora narodne garde","oneway":"yes","ref":"D8","reg_name":"Jadranska magistrala","shoulder":"no","surface":"asphalt","id":"way/42710991"},"geometry":{"type":"LineString","coordinates":[[16.4905239,43.5267576],[16.4905515,43.5268765],[16.4905701,43.5269705],[16.4905909,43.5271357],[16.4905894,43.5272235]]}},{"type":"Feature","properties":{"highway":"trunk","lanes":"2","maxspeed":"60","oneway":"yes","ref":"D8","reg_name":"Jadranska magistrala","shoulder":"no","surface":"asphalt","id":"way/42710992"},"geometry":{"type":"LineString","coordinates":[[16.4900205,43.5286799],[16.4897416,43.5290486],[16.4896873,43.5291204],[16.4894471,43.5294292],[16.4892617,43.5296851],[16.48915,43.5298506],[16.4889101,43.530195],[16.488818736126902,43.53040109856765]]}},{"type":"Feature","properties":{"highway":"trunk","lanes":"3","maxspeed":"70","name":"Ulica Zbora narodne garde","oneway":"yes","placement":"right_of:1","ref":"D8","reg_name":"Jadranska magistrala","shoulder":"no","surface":"asphalt","id":"way/44649987"},"geometry":{"type":"LineString","coordinates":[[16.4878668,43.5243432],[16.4873142,43.5239089],[16.486975858925536,43.52365843904757]]}},{"type":"Feature","properties":{"bridge":"yes","highway":"trunk","lanes":"3","layer":"1","maxspeed":"70","name":"Ulica Zbora narodne garde","oneway":"yes","placement":"right_of:1","ref":"D8","reg_name":"Jadranska magistrala","shoulder":"no","sidewalk":"no","surface":"asphalt","id":"way/44649988"},"geometry":{"type":"LineString","coordinates":[[16.4889401,43.5251472],[16.4878668,43.5243432]]}},{"type":"Feature","properties":{"bridge":"yes","highway":"trunk","lanes":"3","layer":"1","name":"Ulica Zbora narodne garde","oneway":"yes","placement":"right_of:1","ref":"D8","reg_name":"Jadranska magistrala","shoulder":"no","surface":"asphalt","turn:lanes":"through|through;slight_right|slight_right","id":"way/44649991"},"geometry":{"type":"LineString","coordinates":[[16.4879976,43.5242529],[16.4890375,43.5250768]]}},{"type":"Feature","properties":{"highway":"trunk","lanes":"3","maxspeed":"70","name":"Ulica Zbora narodne garde","oneway":"yes","placement":"right_of:1","ref":"D8","reg_name":"Jadranska magistrala","shoulder":"no","surface":"asphalt","id":"way/44649994"},"geometry":{"type":"LineString","coordinates":[[16.486975858925536,43.52347764205797],[16.4873322,43.5237584]]}},{"type":"Feature","properties":{"highway":"residential","lit":"no","surface":"paved","id":"way/44650025"},"geometry":{"type":"LineString","coordinates":[[16.4955345,43.522569],[16.4955832,43.5227476],[16.4955671,43.5228628],[16.4954201,43.5232946],[16.4953392,43.5234758],[16.495354,43.5236439],[16.4953486,43.5236697],[16.4952413,43.5238479],[16.4952143,43.5240034],[16.495192,43.5240672],[16.4951481,43.5241847],[16.4950703,43.5242997],[16.4950378,43.5244565],[16.494928,43.524917],[16.4949423,43.5251654],[16.4948835,43.5254798],[16.4947311,43.5258548]]}},{"type":"Feature","properties":{"bridge":"yes","highway":"service","layer":"1","name":"Bilice I","id":"way/44650027"},"geometry":{"type":"LineString","coordinates":[[16.4876627,43.5248549],[16.4877269,43.5248881]]}},{"type":"Feature","properties":{"bicycle":"no","destination":"Mravince;Solin","foot":"no","highway":"trunk_link","horse":"no","lanes":"1","maxspeed":"50","oneway":"yes","surface":"asphalt","id":"way/44650036"},"geometry":{"type":"LineString","coordinates":[[16.4986877,43.5278751],[16.4980505,43.5279212],[16.4976554,43.5279724],[16.4971765,43.5280545],[16.4967378,43.5281704],[16.4963908,43.5282932],[16.4958779,43.5285454],[16.4954996,43.5287908],[16.4947413,43.5293145]]}},{"type":"Feature","properties":{"highway":"service","service":"alley","id":"way/44852006"},"geometry":{"type":"LineString","coordinates":[[16.4912282,43.5254297],[16.4911944,43.5253006],[16.4911666,43.5252678],[16.4904988,43.5247932]]}},{"type":"Feature","properties":{"highway":"trunk_link","lanes":"1","oneway":"yes","surface":"asphalt","id":"way/74139003"},"geometry":{"type":"LineString","coordinates":[[16.489757,43.5293547],[16.4896474,43.5295348],[16.4894981,43.52979],[16.4894264,43.5299305],[16.4893965,43.53003],[16.4893832,43.5301492],[16.4894095,43.5302628],[16.4894502,43.5303694],[16.489478367049376,43.53040109856765]]}},{"type":"Feature","properties":{"covered":"yes","highway":"service","layer":"-1","oneway":"yes","tunnel":"yes","id":"way/74139013"},"geometry":{"type":"LineString","coordinates":[[16.490795,43.5302041],[16.4907924,43.5302562],[16.490785903189224,43.53040109856765]]}},{"type":"Feature","properties":{"highway":"unclassified","name":"Bilice I","id":"way/76354841"},"geometry":{"type":"LineString","coordinates":[[16.486975858925536,43.52725297630875],[16.4872151,43.5272317],[16.4881905,43.5272399],[16.4885355,43.5272556],[16.4890047,43.5272481],[16.4891492,43.5272325],[16.4895603,43.5272626],[16.4898956,43.5272595],[16.4899623,43.5271903],[16.4900203,43.5270717],[16.4900362,43.5269942],[16.4900448,43.5268748],[16.4900222,43.5267765],[16.4899517,43.526721]]}},{"type":"Feature","properties":{"highway":"unclassified","name":"Bilice II","id":"way/76355343"},"geometry":{"type":"LineString","coordinates":[[16.4893225,43.5256562],[16.4891375,43.5254357],[16.4889469,43.5253419],[16.4888254,43.5252657],[16.4888124,43.5251773],[16.489073,43.5249539],[16.489146,43.5249596],[16.4893233,43.5250901],[16.4895047,43.5252234],[16.4900105,43.5255838],[16.4900597,43.5256037],[16.4901089,43.5255987]]}},{"type":"Feature","properties":{"highway":"residential","name":"Bilice II","id":"way/76355365"},"geometry":{"type":"LineString","coordinates":[[16.4912282,43.5254297],[16.4916188,43.5254359],[16.4919212,43.5254534],[16.4922246,43.5254959],[16.4925951,43.5255144],[16.4929907,43.5254813],[16.4933266,43.5255046],[16.4934581,43.5255727],[16.4935403,43.525685],[16.4936552,43.5257479],[16.4945961,43.5261587]]}},{"type":"Feature","properties":{"highway":"service","name":"Bilice II","id":"way/76355373"},"geometry":{"type":"LineString","coordinates":[[16.4923562,43.526043],[16.4922918,43.5258797],[16.4922246,43.5254959]]}},{"type":"Feature","properties":{"highway":"service","name":"Bilice II","id":"way/76355374"},"geometry":{"type":"LineString","coordinates":[[16.4928605,43.5263231],[16.4933854,43.5261572]]}},{"type":"Feature","properties":{"highway":"service","name":"Bilice II","id":"way/76355376"},"geometry":{"type":"LineString","coordinates":[[16.4930977,43.5283735],[16.4929944,43.5283642],[16.4928887,43.5283366],[16.4928721,43.5283134]]}},{"type":"Feature","properties":{"highway":"residential","name":"Bilice II","id":"way/76355378"},"geometry":{"type":"LineString","coordinates":[[16.4938179,43.5278033],[16.4939981,43.5275387],[16.4942636,43.5272071],[16.4943386,43.5270808],[16.4944161,43.5268987],[16.4945286,43.5265637],[16.4945987,43.5262313],[16.4945961,43.5261587]]}},{"type":"Feature","properties":{"highway":"service","name":"Dračevac","id":"way/76355424"},"geometry":{"type":"LineString","coordinates":[[16.4937987,43.5246733],[16.4939298,43.5246599],[16.4940694,43.5246767],[16.4941375,43.5247768],[16.4942335,43.5247822],[16.4943516,43.5247796],[16.4945087,43.5248072],[16.494614,43.5248877],[16.4947245,43.5249062],[16.494928,43.524917]]}},{"type":"Feature","properties":{"highway":"residential","name":"Dračevac","id":"way/76355450"},"geometry":{"type":"LineString","coordinates":[[16.5015771,43.5268423],[16.5014328,43.5268131],[16.5013299,43.5267552],[16.5012701,43.5266523],[16.5013144,43.5265804],[16.5015723,43.5264475],[16.5017439,43.5262997],[16.5018941,43.526183],[16.5019907,43.5259886],[16.5020392,43.5258952],[16.5020226,43.5258179],[16.5020014,43.5257085],[16.5019229,43.5255249],[16.5019352,43.5254351],[16.5020689,43.5254302],[16.5022381,43.5254273],[16.5022369,43.5252439]]}},{"type":"Feature","properties":{"highway":"service","name":"Dračevac","id":"way/76355451"},"geometry":{"type":"LineString","coordinates":[[16.5032338,43.5265266],[16.5034276,43.5265569],[16.5041086,43.526455]]}},{"type":"Feature","properties":{"cycleway:both":"no","highway":"residential","lane_markings":"no","maxspeed":"40","name":"Put sv. Ižidora","oneway":"no","surface":"asphalt","width":"4","id":"way/76565133"},"geometry":{"type":"LineString","coordinates":[[16.5061663,43.5208024],[16.5062211,43.5207673],[16.5063296,43.5207476],[16.5066503,43.5206598],[16.5068853,43.5205417],[16.5068909,43.5204866],[16.5069006,43.5203919],[16.5067983,43.5200094],[16.5066829,43.5196871],[16.5066163,43.5195207],[16.506604180197563,43.519470826252316]]}},{"type":"Feature","properties":{"highway":"track","tracktype":"grade2","id":"way/77730361"},"geometry":{"type":"LineString","coordinates":[[16.4969192,43.5245204],[16.4970947,43.524452],[16.4976808,43.5242236],[16.4983486,43.5239866],[16.4990309,43.5237179],[16.4998588,43.5235157],[16.5005132,43.5233601],[16.5007578,43.5232594],[16.5009931,43.5231888],[16.501682,43.5230394],[16.5020358,43.5229446],[16.5021833,43.5229105],[16.5023217,43.5229067],[16.5023739,43.5231128],[16.502423,43.5233212],[16.5025195,43.5234845],[16.5025544,43.5236455],[16.5026188,43.5239421],[16.5026417,43.5242474]]}},{"type":"Feature","properties":{"highway":"track","tracktype":"grade2","id":"way/77730381"},"geometry":{"type":"LineString","coordinates":[[16.5045086,43.5222649],[16.5047675,43.5222861],[16.5050236,43.5223586],[16.5050803,43.5223676],[16.5054592,43.5223565],[16.505524,43.5223404],[16.5056861,43.5223002]]}},{"type":"Feature","properties":{"highway":"track","tracktype":"grade2","id":"way/77730419"},"geometry":{"type":"LineString","coordinates":[[16.5043549,43.5205807],[16.5044829,43.5205205],[16.5048369,43.520396],[16.5049228,43.5203338],[16.5047404,43.5201704],[16.5046438,43.5200148],[16.5045902,43.5198437],[16.5046009,43.5196025],[16.504580719635054,43.519470826252316]]}},{"type":"Feature","properties":{"highway":"residential","name":"Mostine","surface":"asphalt","id":"way/77866329"},"geometry":{"type":"LineString","coordinates":[[16.4931771,43.5228493],[16.4932784,43.5226788],[16.4933535,43.522461],[16.4934425,43.5223779],[16.4933494,43.5221683],[16.4931626,43.5217479]]}},{"type":"Feature","properties":{"highway":"track","tracktype":"grade3","id":"way/77866378"},"geometry":{"type":"LineString","coordinates":[[16.4952834,43.5225456],[16.495671,43.5224688],[16.4957425,43.52241],[16.4957611,43.5222303],[16.4958059,43.5220549],[16.4959499,43.5218386],[16.4962289,43.5217219],[16.4962289,43.5216752],[16.4967224,43.5215741],[16.4966902,43.5210529],[16.4968297,43.521014],[16.4968619,43.5207806],[16.4969374,43.5206445],[16.4971837,43.5205083]]}},{"type":"Feature","properties":{"highway":"track","tracktype":"grade3","id":"way/78309226"},"geometry":{"type":"LineString","coordinates":[[16.5050582,43.5228581],[16.5050639,43.5228012],[16.5050688,43.5227112],[16.5051653,43.5226101],[16.505337,43.5225323],[16.5054872,43.5224778],[16.505524,43.5223404]]}},{"type":"Feature","properties":{"highway":"service","id":"way/78309282"},"geometry":{"type":"LineString","coordinates":[[16.5051615,43.5249961],[16.5048802,43.5249649],[16.5046634,43.5249317],[16.5045296,43.5249262],[16.5043865,43.5249318],[16.5040925,43.524975],[16.5038028,43.5250605],[16.5037599,43.5249439],[16.5036848,43.5247805],[16.5036418,43.5245705],[16.5035989,43.5243526]]}},{"type":"Feature","properties":{"highway":"track","id":"way/78309367"},"geometry":{"type":"LineString","coordinates":[[16.5047684,43.5231002],[16.5047147,43.5229368],[16.5050582,43.5228581],[16.5051224,43.5228434],[16.5056986,43.5227745],[16.5057602,43.5227533]]}},{"type":"Feature","properties":{"highway":"residential","id":"way/78309405"},"geometry":{"type":"LineString","coordinates":[[16.5059,43.5244626],[16.506014,43.5244646],[16.5062874,43.5244698],[16.5064122,43.524526],[16.506367,43.5247883],[16.5063455,43.5250917]]}},{"type":"Feature","properties":{"highway":"service","id":"way/78309513"},"geometry":{"type":"LineString","coordinates":[[16.5045977,43.5254711],[16.5046825,43.5256984],[16.5046289,43.5258696],[16.5045645,43.526103],[16.504586,43.5263519]]}},{"type":"Feature","properties":{"highway":"service","id":"way/78309554"},"geometry":{"type":"LineString","coordinates":[[16.5003692,43.5209912],[16.5004017,43.521163],[16.5004545,43.5213993],[16.5004661,43.5214509],[16.5005519,43.5217076],[16.5005734,43.5219177],[16.5005761,43.5219527],[16.5007451,43.5219332],[16.5008738,43.5219099],[16.5010133,43.5221588],[16.5012493,43.5226645],[16.5010455,43.5227656],[16.5007772,43.5228357],[16.500391,43.5229212],[16.5000048,43.5230301],[16.4998726,43.5228071],[16.499817,43.5226113],[16.4998726,43.5223868],[16.5003146,43.5222774],[16.5006348,43.5221393],[16.5005819,43.5219915],[16.5005761,43.5219527]]}},{"type":"Feature","properties":{"highway":"track","tracktype":"grade3","id":"way/78309588"},"geometry":{"type":"LineString","coordinates":[[16.5004545,43.5213993],[16.5004876,43.5213964],[16.5006163,43.5213731],[16.5007987,43.5212097],[16.5009274,43.5210853],[16.50126,43.5209374],[16.50126,43.5210464]]}},{"type":"Feature","properties":{"highway":"track","surface":"ground","tracktype":"grade3","id":"way/78309702"},"geometry":{"type":"LineString","coordinates":[[16.495354,43.5236439],[16.4956596,43.5236914],[16.496078,43.5236214],[16.496314,43.5236603],[16.4965715,43.5236292],[16.4968398,43.5236214],[16.4970329,43.5235514],[16.4970865,43.5235047]]}},{"type":"Feature","properties":{"highway":"track","tracktype":"grade2","id":"way/78309864"},"geometry":{"type":"LineString","coordinates":[[16.4998895,43.5211181],[16.4998643,43.5210546],[16.4997784,43.5209369],[16.499658,43.5207355],[16.4999082,43.5206185]]}},{"type":"Feature","properties":{"highway":"track","tracktype":"grade4","id":"way/78313814"},"geometry":{"type":"LineString","coordinates":[[16.5092831,43.5265083],[16.5091008,43.5264485],[16.5087859,43.5264124],[16.5085139,43.5264199],[16.5083877,43.5263764],[16.5082644,43.5262506],[16.5081896,43.5262105],[16.5080235,43.5262318],[16.5078197,43.5262863],[16.5075085,43.5264108],[16.5073154,43.5266052],[16.5071116,43.5267141],[16.5068863,43.5268153],[16.5065858,43.5269708],[16.5063453,43.5272581]]}},{"type":"Feature","properties":{"highway":"unclassified","id":"way/78313970"},"geometry":{"type":"LineString","coordinates":[[16.500132565702998,43.53040109856765],[16.500197,43.5303891],[16.5003483,43.5303038],[16.5004275,43.5302224],[16.5005241,43.5300668],[16.5005736,43.5298023],[16.5006035,43.5296728],[16.5006723,43.5295468],[16.5007601,43.5294367],[16.5009854,43.5292422],[16.5013073,43.5291489],[16.5015755,43.52911],[16.5018115,43.5290867]]}},{"type":"Feature","properties":{"highway":"service","id":"way/78314027"},"geometry":{"type":"LineString","coordinates":[[16.49767808359642,43.53040109856765],[16.4977249,43.5302948],[16.4976788,43.5301701],[16.4976595,43.5300746],[16.4976595,43.5298645],[16.4978633,43.5298412],[16.4981959,43.529849],[16.4983756,43.5298752],[16.4984212,43.5298976],[16.4984346,43.5299968],[16.4984319,43.5301912],[16.4983997,43.5303701],[16.498409578236203,43.53040109856765]]}},{"type":"Feature","properties":{"highway":"residential","id":"way/78314067"},"geometry":{"type":"LineString","coordinates":[[16.4905792,43.5293974],[16.4907486,43.5293969],[16.4911396,43.5293936],[16.4919052,43.5293973],[16.4930227,43.5293834],[16.4935953,43.529377],[16.4940392,43.5293746],[16.4941241,43.5293778],[16.4941979,43.5293848],[16.4942622,43.5294035]]}},{"type":"Feature","properties":{"highway":"residential","id":"way/78314915"},"geometry":{"type":"LineString","coordinates":[[16.4908843,43.5235604],[16.4909326,43.5237592],[16.491426,43.5237137],[16.4920817,43.5236422],[16.4925072,43.5235868],[16.4928637,43.5235402],[16.4931379,43.5235077],[16.4934325,43.5234678],[16.4938304,43.5234129]]}},{"type":"Feature","properties":{"highway":"track","tracktype":"grade3","id":"way/78315005"},"geometry":{"type":"LineString","coordinates":[[16.5063453,43.5272581],[16.5065537,43.5271575],[16.5068648,43.5270253],[16.5071867,43.5269864]]}},{"type":"Feature","properties":{"highway":"trunk","int_ref":"E 71","lanes":"2","maxspeed":"80","motorroad":"yes","oneway":"yes","ref":"D1","surface":"asphalt","id":"way/78440036"},"geometry":{"type":"LineString","coordinates":[[16.5044472,43.5284735],[16.5051591,43.5285845]]}},{"type":"Feature","properties":{"bicycle":"no","foot":"no","highway":"trunk_link","horse":"no","lanes":"1","maxspeed":"30","oneway":"yes","surface":"asphalt","id":"way/78489727"},"geometry":{"type":"LineString","coordinates":[[16.4947413,43.5293145],[16.4950167,43.5290305],[16.4953221,43.5287453],[16.4955194,43.5285355],[16.4956697,43.5283372],[16.49568,43.5282326],[16.4956434,43.5281537],[16.49558,43.5281041],[16.4954837,43.5280684],[16.4953667,43.5280551],[16.4953058,43.528055],[16.4948683,43.5280975]]}},{"type":"Feature","properties":{"highway":"service","id":"way/78489729"},"geometry":{"type":"LineString","coordinates":[[16.4935953,43.529377],[16.493559,43.5290736],[16.4936019,43.5288091],[16.4938916,43.5287858],[16.4939452,43.5288169]]}},{"type":"Feature","properties":{"highway":"service","id":"way/78489738"},"geometry":{"type":"LineString","coordinates":[[16.4935447,43.5276498],[16.4938062,43.5271155]]}},{"type":"Feature","properties":{"bridge":"yes","highway":"trunk","int_ref":"E 71","lanes":"2","layer":"1","maxspeed":"80","motorroad":"yes","oneway":"yes","ref":"D1","surface":"asphalt","id":"way/84660048"},"geometry":{"type":"LineString","coordinates":[[16.5040086,43.5284078],[16.5044472,43.5284735]]}},{"type":"Feature","properties":{"highway":"residential","name":"Zoranićeva","id":"way/101508505"},"geometry":{"type":"LineString","coordinates":[[16.4989366,43.5291771],[16.4982599,43.5291675],[16.4978545,43.529159],[16.4975112,43.5291823],[16.4971679,43.5291979],[16.4968514,43.5292134],[16.496433,43.529264],[16.4961004,43.5293029],[16.4958657,43.5293327],[16.4957442,43.5293314],[16.4956373,43.5293084],[16.4955403,43.5292492],[16.4954527,43.5291793]]}},{"type":"Feature","properties":{"highway":"unclassified","lanes":"2","lit":"no","maxspeed":"50","name":"Put Mostina","surface":"asphalt","id":"way/102549144"},"geometry":{"type":"LineString","coordinates":[[16.486975858925536,43.52510803767251],[16.4870114,43.5251016],[16.4874593,43.5250088],[16.4875499,43.5249662],[16.487637,43.5248898],[16.4876627,43.5248549],[16.4877305,43.5247234],[16.4878188,43.52462],[16.488039,43.5244076]]}},{"type":"Feature","properties":{"highway":"residential","maxspeed":"40","name":"Karepovac","width":"4","id":"way/104129754"},"geometry":{"type":"LineString","coordinates":[[16.4958547,43.5225731],[16.4961377,43.5225413],[16.4962412,43.5225156],[16.4964057,43.5224787],[16.4965458,43.522428],[16.4967277,43.5223498],[16.4968712,43.5222531],[16.4969299,43.5221773],[16.4970914,43.5220367],[16.4974647,43.5219097],[16.4978579,43.5217862],[16.4981827,43.5216841],[16.4985087,43.5215599],[16.4987157,43.5214789],[16.4989756,43.5213963],[16.4994108,43.5212668],[16.4998895,43.5211181],[16.5003692,43.5209912],[16.5005878,43.520935],[16.501242,43.5207592],[16.5014905,43.5206855],[16.501736,43.5206358],[16.5020661,43.520591],[16.5022422,43.5205809],[16.5024114,43.5205792],[16.5027157,43.5205992],[16.5031018,43.5206513],[16.5037223,43.5206778],[16.5043549,43.5205807],[16.504951,43.5204484],[16.5051858,43.5204628],[16.5054083,43.5205322],[16.505786,43.5206737],[16.5061663,43.5208024],[16.5062092,43.5208394]]}},{"type":"Feature","properties":{"highway":"service","name":"Bilice II","id":"way/104242690"},"geometry":{"type":"LineString","coordinates":[[16.4931823,43.5264864],[16.4933854,43.5261572]]}},{"type":"Feature","properties":{"highway":"track","tracktype":"grade4","id":"way/104242691"},"geometry":{"type":"LineString","coordinates":[[16.4954815,43.5256873],[16.4954786,43.5249034]]}},{"type":"Feature","properties":{"highway":"residential","name":"Dračevac","id":"way/104242697"},"geometry":{"type":"LineString","coordinates":[[16.5022369,43.5252439],[16.5021838,43.5250162]]}},{"type":"Feature","properties":{"highway":"residential","id":"way/104242711"},"geometry":{"type":"LineString","coordinates":[[16.503546386845716,43.53040109856765],[16.5038589,43.5294904],[16.5039984,43.5290444]]}},{"type":"Feature","properties":{"highway":"service","name":"Dračevac","id":"way/104242719"},"geometry":{"type":"LineString","coordinates":[[16.5013899,43.5249073],[16.5021838,43.5250162]]}},{"type":"Feature","properties":{"highway":"service","id":"way/104242720"},"geometry":{"type":"LineString","coordinates":[[16.4945475,43.5297242],[16.4946789,43.530163],[16.4946246,43.5302375],[16.494588,43.5303415],[16.4944422,43.5303768],[16.4943695,43.5302656],[16.4941726,43.530199]]}},{"type":"Feature","properties":{"highway":"residential","name":"Bilice II","id":"way/104242726"},"geometry":{"type":"LineString","coordinates":[[16.4928721,43.5283134],[16.492756,43.5283025],[16.492635,43.5282839],[16.4925351,43.5282576],[16.4924803,43.5282348],[16.4924424,43.5281928],[16.4924246,43.5281583],[16.4924208,43.5281247],[16.4924343,43.5280503],[16.4924728,43.5278842],[16.49251,43.5277653],[16.4925137,43.527673],[16.4925082,43.5275757],[16.4926633,43.5275584],[16.4930643,43.5275988],[16.4934827,43.527661],[16.4935447,43.5276498],[16.4938179,43.5278033]]}},{"type":"Feature","properties":{"highway":"residential","name":"Dračevac","id":"way/104242727"},"geometry":{"type":"LineString","coordinates":[[16.5021838,43.5250162],[16.5021409,43.5247964],[16.5021695,43.5247567],[16.5021972,43.5247026],[16.5021944,43.5246062],[16.5024194,43.5245319]]}},{"type":"Feature","properties":{"highway":"service","name":"Dračevac","id":"way/104242736"},"geometry":{"type":"LineString","coordinates":[[16.501465,43.5251484],[16.5022369,43.5252439]]}},{"type":"Feature","properties":{"highway":"service","name":"Bilice II","id":"way/104242740"},"geometry":{"type":"LineString","coordinates":[[16.4933854,43.5261572],[16.4935459,43.5258665],[16.4936552,43.5257479]]}},{"type":"Feature","properties":{"highway":"residential","name":"Bilice II","id":"way/104242748"},"geometry":{"type":"LineString","coordinates":[[16.4930717,43.5283012],[16.4928721,43.5283134]]}},{"type":"Feature","properties":{"highway":"track","tracktype":"grade4","id":"way/104242749"},"geometry":{"type":"LineString","coordinates":[[16.4952991,43.5257651],[16.4954815,43.5256873]]}},{"type":"Feature","properties":{"highway":"residential","lanes":"2","lanes:backward":"1","name":"Zoranićeva","id":"way/105453076"},"geometry":{"type":"LineString","coordinates":[[16.495494211184813,43.53040109856765],[16.495406,43.5300515],[16.4952542,43.5295504],[16.4952593,43.5294468],[16.4953075,43.5293331],[16.4953693,43.5292475],[16.4954022,43.5292179],[16.4954527,43.5291793],[16.4955275,43.5291406]]}},{"type":"Feature","properties":{"highway":"trunk","int_ref":"E 71","lanes":"2","maxspeed":"80","motorroad":"yes","oneway":"yes","ref":"D1","surface":"asphalt","tunnel":"yes","id":"way/122390737"},"geometry":{"type":"LineString","coordinates":[[16.4940403,43.5282317],[16.4943806,43.5281291]]}},{"type":"Feature","properties":{"highway":"trunk","int_ref":"E 71","lanes":"3","maxspeed":"50","motorroad":"yes","oneway":"yes","placement":"right_of:1","ref":"D1","surface":"asphalt","tunnel":"yes","turn:lanes":"none|none|merge_to_left","id":"way/122390738"},"geometry":{"type":"LineString","coordinates":[[16.4944331,43.5282182],[16.4940833,43.5283372]]}},{"type":"Feature","properties":{"highway":"trunk","int_ref":"E 71","lanes":"3","maxspeed":"50","motorroad":"yes","oneway":"yes","placement":"right_of:1","ref":"D1","surface":"asphalt","turn:lanes":"none|none|merge_to_left","id":"way/122390739"},"geometry":{"type":"LineString","coordinates":[[16.4940833,43.5283372],[16.493713,43.5284584],[16.4934466,43.5285504]]}},{"type":"Feature","properties":{"highway":"trunk","int_ref":"E 71","lanes":"2","maxspeed":"80","motorroad":"yes","oneway":"yes","ref":"D1","surface":"asphalt","id":"way/122390740"},"geometry":{"type":"LineString","coordinates":[[16.4943806,43.5281291],[16.4948601,43.527999],[16.4952291,43.527916],[16.495542,43.5278681],[16.4957878,43.5278358],[16.4960239,43.5278188],[16.4965046,43.5277946]]}},{"type":"Feature","properties":{"highway":"service","id":"way/122390742"},"geometry":{"type":"LineString","coordinates":[[16.493567,43.5302801],[16.4932776,43.5301619]]}},{"type":"Feature","properties":{"highway":"service","oneway":"yes","surface":"asphalt","id":"way/122390743"},"geometry":{"type":"MultiLineString","coordinates":[[[16.4932776,43.5301619],[16.493053315944458,43.53040109856765]],[[16.49213927431328,43.53040109856765],[16.4921348,43.5303282],[16.4923273,43.5301174],[16.4929927,43.5301174],[16.4931998,43.5301174],[16.4932776,43.5301619]]]}},{"type":"Feature","properties":{"highway":"residential","name":"Bilice II","id":"way/128403268"},"geometry":{"type":"LineString","coordinates":[[16.4902167,43.5257436],[16.4903783,43.5258854],[16.4905645,43.5260275],[16.4906452,43.5261302],[16.4908005,43.5263231],[16.4909185,43.5264397],[16.4909936,43.5265253],[16.4911009,43.5264553],[16.4913155,43.5263775],[16.4915788,43.5262225],[16.4917566,43.5261486]]}},{"type":"Feature","properties":{"highway":"residential","name":"Bilice II","id":"way/128403269"},"geometry":{"type":"LineString","coordinates":[[16.4942636,43.5272071],[16.4944193,43.5272654],[16.4946284,43.527321],[16.4948719,43.5273575],[16.4950995,43.5273613],[16.4952197,43.5273622],[16.4953712,43.5273708]]}},{"type":"Feature","properties":{"highway":"residential","name":"Dračevac","id":"way/128403270"},"geometry":{"type":"LineString","coordinates":[[16.5059602,43.5239803],[16.5057012,43.5240266],[16.5055246,43.5240659],[16.5053531,43.5240944],[16.505185,43.5241123],[16.5049935,43.5241281],[16.5048925,43.5241502],[16.5048328,43.5241607],[16.5047603,43.5241735],[16.5043146,43.5241683],[16.5041278,43.5241609],[16.5038194,43.5241436],[16.503515,43.5241404],[16.5032661,43.5241714],[16.5029935,43.5242336],[16.5027181,43.5242574],[16.5026417,43.5242474]]}},{"type":"Feature","properties":{"highway":"track","id":"way/128403272"},"geometry":{"type":"LineString","coordinates":[[16.5045086,43.5222649],[16.5043187,43.522264],[16.5041899,43.5223242]]}},{"type":"Feature","properties":{"highway":"track","id":"way/128403273"},"geometry":{"type":"LineString","coordinates":[[16.5064122,43.524526],[16.5065496,43.524496],[16.5066661,43.5244442],[16.506791,43.5244227],[16.5068926,43.5244319],[16.50699,43.524435],[16.5070556,43.5244337],[16.5071276,43.524372],[16.5071297,43.524326],[16.5070895,43.5242753],[16.5070387,43.5242277],[16.5069752,43.5241848],[16.5069011,43.5241464],[16.5068418,43.5241049],[16.50681,43.5240558],[16.50681,43.5239898],[16.5068609,43.523976],[16.50699,43.5239929],[16.5071276,43.523999],[16.5071827,43.5240113],[16.5072164,43.5240246],[16.5072288,43.5239258],[16.5072219,43.523854],[16.5071777,43.5237796],[16.5070608,43.5237025],[16.5067515,43.5234874],[16.5065987,43.5233474],[16.5064459,43.5231961],[16.5062948,43.5230916],[16.5061952,43.5230481],[16.5060594,43.522954],[16.5059082,43.5228699],[16.5058238,43.5228277],[16.5057662,43.5228077]]}},{"type":"Feature","properties":{"highway":"track","id":"way/128403276"},"geometry":{"type":"LineString","coordinates":[[16.5050803,43.5223676],[16.5048691,43.5223684],[16.5046828,43.5223463],[16.5045202,43.5223524],[16.5044728,43.5223831]]}},{"type":"Feature","properties":{"highway":"trunk","int_ref":"E 71","lanes":"2","lit":"yes","maxspeed":"40","motorroad":"yes","oneway":"yes","ref":"D1","surface":"asphalt","id":"way/143731211"},"geometry":{"type":"LineString","coordinates":[[16.4921865,43.5278235],[16.4921822,43.5280225],[16.4921451,43.5282119],[16.4921414,43.528324],[16.492175,43.5284074],[16.4922528,43.5284861],[16.4923525,43.5285456],[16.4924684,43.5285756],[16.4926013,43.5285832],[16.4927759,43.5285789],[16.4929718,43.5285555],[16.4931377,43.5285237],[16.4933741,43.5284631]]}},{"type":"Feature","properties":{"bridge":"yes","highway":"trunk","lanes":"2","layer":"1","maxspeed":"60","name":"Ulica Zbora narodne garde","oneway":"yes","ref":"D8","reg_name":"Jadranska magistrala","shoulder":"no","sidewalk":"no","surface":"asphalt","id":"way/143731212"},"geometry":{"type":"LineString","coordinates":[[16.4899125,43.5286295],[16.4901039,43.5283469],[16.4902221,43.5281464]]}},{"type":"Feature","properties":{"highway":"trunk","lanes":"2","maxspeed":"60","name":"Ulica Zbora narodne garde","oneway":"yes","ref":"D8","reg_name":"Jadranska magistrala","shoulder":"no","surface":"asphalt","id":"way/143731219"},"geometry":{"type":"LineString","coordinates":[[16.4892532,43.5252547],[16.4895711,43.5255131],[16.489977,43.5258578],[16.4901424,43.5260432],[16.4902713,43.526228],[16.490409,43.5264594],[16.4905239,43.5267576]]}},{"type":"Feature","properties":{"foot":"no","highway":"trunk","lanes":"2","maxspeed":"60","name":"Ulica Zbora narodne garde","oneway":"yes","ref":"D8","reg_name":"Jadranska magistrala","shoulder":"no","sidewalk":"no","surface":"asphalt","id":"way/143731221"},"geometry":{"type":"LineString","coordinates":[[16.4903948,43.5267996],[16.4903517,43.5266684],[16.4902865,43.526511],[16.4901691,43.5262876],[16.4900346,43.5261012],[16.4898919,43.5259223],[16.4897775,43.5257956],[16.4895868,43.5256295],[16.4889401,43.5251472]]}},{"type":"Feature","properties":{"highway":"trunk","int_ref":"E 71","junction":"circular","lanes":"4","maxspeed":"40","oneway":"yes","placement":"right_of:1","ref":"D1","sidewalk":"no","surface":"asphalt","turn:lanes":"through|through|slight_right|slight_right","id":"way/143731225"},"geometry":{"type":"LineString","coordinates":[[16.4915265,43.5269908],[16.4916646,43.527045],[16.4917911,43.5271124],[16.4919036,43.5271918],[16.4919998,43.5272818],[16.4920781,43.5273805],[16.4921368,43.5274861],[16.4921748,43.5275965],[16.4921915,43.5277097],[16.4921865,43.5278235]]}},{"type":"Feature","properties":{"highway":"trunk","int_ref":"E 71","lanes":"2","maxspeed":"80","motorroad":"yes","oneway":"yes","ref":"D1","surface":"asphalt","id":"way/145625264"},"geometry":{"type":"LineString","coordinates":[[16.5040006,43.5284971],[16.502373,43.5282481],[16.5008263,43.5280227]]}},{"type":"Feature","properties":{"highway":"service","id":"way/151436685"},"geometry":{"type":"LineString","coordinates":[[16.4971249,43.5268833],[16.4968663,43.5272256]]}},{"type":"Feature","properties":{"access":"no","highway":"service","id":"way/151436686"},"geometry":{"type":"LineString","coordinates":[[16.4968663,43.5272256],[16.4966187,43.5275598],[16.4964988,43.5277208],[16.4965046,43.5277946]]}},{"type":"Feature","properties":{"highway":"residential","id":"way/151436688"},"geometry":{"type":"LineString","coordinates":[[16.5003853,43.5269306],[16.50021,43.5264887],[16.5000298,43.526085],[16.4994706,43.5260725],[16.4993419,43.5260726],[16.4990067,43.526073],[16.4982156,43.5260736],[16.4972914,43.5260744]]}},{"type":"Feature","properties":{"highway":"trunk","int_ref":"E 71","junction":"circular","lanes":"2","maxspeed":"50","oneway":"yes","ref":"D1","surface":"asphalt","id":"way/151470379"},"geometry":{"type":"LineString","coordinates":[[16.4900982,43.5272992],[16.4901948,43.5272045],[16.4903091,43.5271208],[16.4904386,43.5270498],[16.4905809,43.5269929],[16.4907328,43.5269513],[16.4908914,43.5269259],[16.4910533,43.5269171],[16.4912154,43.5269252],[16.4913742,43.5269499],[16.4915265,43.5269908]]}},{"type":"Feature","properties":{"highway":"trunk","int_ref":"E 71","lanes":"3","maxspeed":"50","motorroad":"yes","oneway":"yes","placement":"right_of:1","ref":"D1","surface":"asphalt","turn:lanes":"none|none|merge_to_left","id":"way/151470380"},"geometry":{"type":"LineString","coordinates":[[16.4948683,43.5280975],[16.4944331,43.5282182]]}},{"type":"Feature","properties":{"highway":"trunk_link","lanes":"2","maxspeed":"40","oneway":"yes","surface":"asphalt","id":"way/151470382"},"geometry":{"type":"LineString","coordinates":[[16.4898101,43.5291773],[16.4896913,43.5293204],[16.4892736,43.5297983],[16.48915,43.5298506]]}},{"type":"Feature","properties":{"highway":"trunk","int_ref":"E 71","junction":"circular","lanes":"3","maxspeed":"40","oneway":"yes","placement":"right_of:1","ref":"D1","surface":"asphalt","turn:lanes":"through|through;slight_right|slight_right","id":"way/151501133"},"geometry":{"type":"LineString","coordinates":[[16.4913029,43.528545],[16.4911816,43.5285587],[16.4910716,43.5285605],[16.4909844,43.528562],[16.4907893,43.5285405]]}},{"type":"Feature","properties":{"highway":"trunk","int_ref":"E 71","lanes":"2","maxspeed":"80","motorroad":"yes","oneway":"yes","ref":"D1","surface":"asphalt","id":"way/151590096"},"geometry":{"type":"LineString","coordinates":[[16.4988074,43.5277855],[16.4995072,43.5278284],[16.5001581,43.5278603],[16.5009054,43.5279418],[16.5023242,43.528149],[16.5030034,43.5282534],[16.5040086,43.5284078]]}},{"type":"Feature","properties":{"highway":"trunk","int_ref":"E 71","junction":"circular","lanes":"2","maxspeed":"40","maxspeed:type":"HR:trunk","oneway":"yes","surface":"asphalt","id":"way/151590098"},"geometry":{"type":"LineString","coordinates":[[16.4921865,43.5278235],[16.492128,43.5280136],[16.4920095,43.5281883],[16.4918377,43.5283381],[16.4916222,43.5284543],[16.4916058,43.5284606],[16.4914824,43.5285075],[16.4913029,43.528545]]}},{"type":"Feature","properties":{"highway":"service","id":"way/156359243"},"geometry":{"type":"LineString","coordinates":[[16.4971249,43.5268833],[16.4961512,43.5268803],[16.4956222,43.5268786],[16.4956222,43.5271822],[16.4968663,43.5272256]]}},{"type":"Feature","properties":{"highway":"service","service":"parking_aisle","id":"way/156980640"},"geometry":{"type":"LineString","coordinates":[[16.4940009,43.5301212],[16.494225,43.5298628]]}},{"type":"Feature","properties":{"highway":"service","id":"way/156980641"},"geometry":{"type":"LineString","coordinates":[[16.4941726,43.530199],[16.4940009,43.5301212],[16.4938333,43.5300378]]}},{"type":"Feature","properties":{"abandoned:railway":"rail","description":"nekadašnja uskotračna Željeznica (Split-)Salona-Sinj","gauge":"760","gauge:1903-09-12-1962-10-01":"760","highway":"service","old_name":"Sinjska rera","railway":"abandoned","id":"way/161760650"},"geometry":{"type":"LineString","coordinates":[[16.486975858925536,43.52920146457309],[16.4887678,43.5292464]]}},{"type":"Feature","properties":{"access":"no","highway":"service","id":"way/161760656"},"geometry":{"type":"LineString","coordinates":[[16.4974567,43.5289258],[16.4974708,43.5287358],[16.4974729,43.5286591],[16.4974732,43.5286494],[16.4974786,43.5284638],[16.497477,43.5284223],[16.4974693,43.5283696],[16.4974701,43.5282443]]}},{"type":"Feature","properties":{"highway":"service","id":"way/161760658"},"geometry":{"type":"LineString","coordinates":[[16.5025846,43.5274795],[16.5025958,43.5270325]]}},{"type":"Feature","properties":{"highway":"service","id":"way/161760662"},"geometry":{"type":"LineString","coordinates":[[16.4907486,43.5293969],[16.490746,43.5295252]]}},{"type":"Feature","properties":{"highway":"service","id":"way/161760666"},"geometry":{"type":"LineString","coordinates":[[16.503289,43.5273851],[16.5031264,43.5270792]]}},{"type":"Feature","properties":{"highway":"service","id":"way/161760669"},"geometry":{"type":"LineString","coordinates":[[16.50021,43.5264887],[16.5000298,43.5265365]]}},{"type":"Feature","properties":{"highway":"service","oneway":"yes","id":"way/161760690"},"geometry":{"type":"LineString","coordinates":[[16.4898244,43.5295111],[16.4899261,43.5295127],[16.4904383,43.5295205],[16.490746,43.5295252],[16.4918932,43.5295462],[16.4919052,43.5293973]]}},{"type":"Feature","properties":{"highway":"service","id":"way/161760696"},"geometry":{"type":"LineString","coordinates":[[16.4875204,43.5289604],[16.4890221,43.5290032],[16.4891007,43.5290054],[16.4892589,43.5287735],[16.4892824,43.5283716]]}},{"type":"Feature","properties":{"highway":"service","id":"way/161760706"},"geometry":{"type":"LineString","coordinates":[[16.5020165,43.5274278],[16.5020287,43.5276141],[16.5020407,43.5278432],[16.5019654,43.5278846],[16.501401,43.5278048],[16.5013087,43.5277997],[16.5013242,43.527588]]}},{"type":"Feature","properties":{"highway":"service","id":"way/161760721"},"geometry":{"type":"LineString","coordinates":[[16.5021211,43.5283522],[16.5021222,43.5285417],[16.5021072,43.5286376],[16.5020586,43.5286607],[16.5016997,43.5286573],[16.5013577,43.5285703],[16.5011115,43.5285552],[16.5010526,43.5285096]]}},{"type":"Feature","properties":{"highway":"service","id":"way/161760736"},"geometry":{"type":"LineString","coordinates":[[16.5020407,43.5278432],[16.5020778,43.5279269],[16.5021703,43.5279692],[16.5022509,43.5279471],[16.5022932,43.5278894],[16.502272,43.5278278],[16.5022218,43.5277999]]}},{"type":"Feature","properties":{"highway":"service","oneway":"yes","id":"way/161760746"},"geometry":{"type":"LineString","coordinates":[[16.4905829,43.528872],[16.4905736,43.5293605],[16.4905792,43.5293974],[16.490443,43.5293984],[16.4900106,43.5293941],[16.4899841,43.5293489],[16.4903437,43.5288537],[16.4904072,43.5288229],[16.4905288,43.5288258],[16.4905829,43.528872]]}},{"type":"Feature","properties":{"highway":"service","id":"way/161760751"},"geometry":{"type":"LineString","coordinates":[[16.4906818,43.5302968],[16.4899119,43.5303233],[16.489816,43.5303211],[16.4897316,43.5303192],[16.4896616,43.5302817],[16.4896021,43.5301893],[16.4895427,43.5299912],[16.4895771,43.5298268],[16.489708,43.5295758],[16.4897741,43.5295229],[16.4898244,43.5295111]]}},{"type":"Feature","properties":{"highway":"service","id":"way/161760755"},"geometry":{"type":"LineString","coordinates":[[16.4875741,43.5281397],[16.4891713,43.5282373],[16.4892824,43.5283716],[16.4895374,43.5286562],[16.4886133,43.5299698],[16.4884877,43.5300919],[16.4884322,43.5303112],[16.4883621,43.5303785],[16.4870826,43.5303354]]}},{"type":"Feature","properties":{"highway":"service","service":"parking_aisle","id":"way/161760790"},"geometry":{"type":"LineString","coordinates":[[16.5000298,43.5265365],[16.4999042,43.5263009]]}},{"type":"Feature","properties":{"highway":"service","id":"way/161762219"},"geometry":{"type":"LineString","coordinates":[[16.505645,43.5275815],[16.5063453,43.5272581]]}},{"type":"Feature","properties":{"highway":"service","id":"way/162828095"},"geometry":{"type":"LineString","coordinates":[[16.4990067,43.526073],[16.4990102,43.5256918]]}},{"type":"Feature","properties":{"highway":"service","service":"parking_aisle","id":"way/162828096"},"geometry":{"type":"LineString","coordinates":[[16.4990102,43.5256918],[16.4982281,43.525688],[16.4979416,43.5256866],[16.4979432,43.5255157],[16.4990117,43.5255204],[16.4990102,43.5256918]]}},{"type":"Feature","properties":{"highway":"service","id":"way/162957821"},"geometry":{"type":"LineString","coordinates":[[16.4993278,43.5265492],[16.4997922,43.5265518]]}},{"type":"Feature","properties":{"highway":"service","service":"parking_aisle","id":"way/162957822"},"geometry":{"type":"LineString","coordinates":[[16.4979432,43.5255157],[16.4979025,43.5255157],[16.4979013,43.5250625]]}},{"type":"Feature","properties":{"highway":"service","id":"way/162957823"},"geometry":{"type":"LineString","coordinates":[[16.4993419,43.5260726],[16.4993278,43.5265492],[16.4993189,43.5268958]]}},{"type":"Feature","properties":{"highway":"residential","id":"way/162959481"},"geometry":{"type":"LineString","coordinates":[[16.5042611,43.5282119],[16.5039149,43.5282204],[16.5035902,43.5282274],[16.5034206,43.5282133],[16.5032292,43.528187],[16.5029917,43.5281395],[16.502919,43.5280921],[16.5029045,43.5280253],[16.5029238,43.5278075]]}},{"type":"Feature","properties":{"highway":"service","id":"way/162959483"},"geometry":{"type":"LineString","coordinates":[[16.5034206,43.5282133],[16.5034348,43.5281658],[16.5034695,43.5281295],[16.5035076,43.5281145],[16.5036138,43.5281257],[16.5037235,43.5281456],[16.5037783,43.5281555],[16.5038468,43.5281493]]}},{"type":"Feature","properties":{"highway":"service","id":"way/163130283"},"geometry":{"type":"LineString","coordinates":[[16.491888,43.5225001],[16.4911347,43.5227309],[16.4906325,43.5228001]]}},{"type":"Feature","properties":{"highway":"service","id":"way/163130288"},"geometry":{"type":"LineString","coordinates":[[16.4931626,43.5217479],[16.4931065,43.5216554],[16.4929496,43.5216309],[16.4916608,43.5219308],[16.4916396,43.5219962],[16.491888,43.5225001],[16.4919832,43.522529],[16.493244,43.5221905],[16.4933494,43.5221683]]}},{"type":"Feature","properties":{"highway":"service","name":"Bilice I","id":"way/164495507"},"geometry":{"type":"LineString","coordinates":[[16.4877269,43.5248881],[16.4878225,43.524958],[16.488046,43.5254313],[16.4881813,43.5259003],[16.488293,43.5261647],[16.4885602,43.5262598],[16.4885831,43.5262894],[16.4885968,43.5263212],[16.4886119,43.5263926],[16.488623,43.5264736],[16.488628,43.5265601],[16.4886072,43.5267154],[16.4885728,43.5269626],[16.4885355,43.5272556]]}},{"type":"Feature","properties":{"highway":"unclassified","name":"Dračevac","id":"way/164495508"},"geometry":{"type":"LineString","coordinates":[[16.494928,43.524917],[16.495017,43.5249228],[16.495253,43.524915],[16.4954786,43.5249034],[16.4955534,43.5248995],[16.4956392,43.5248995],[16.4959075,43.5248061],[16.4963259,43.5246894],[16.4967443,43.524565],[16.4969192,43.5245204]]}},{"type":"Feature","properties":{"highway":"residential","id":"way/164495532"},"geometry":{"type":"LineString","coordinates":[[16.4902167,43.5257436],[16.490121,43.525805]]}},{"type":"Feature","properties":{"highway":"service","id":"way/164495535"},"geometry":{"type":"LineString","coordinates":[[16.486975858925536,43.52383256350669],[16.4871918,43.523992]]}},{"type":"Feature","properties":{"highway":"track","id":"way/164497019"},"geometry":{"type":"LineString","coordinates":[[16.5072164,43.5240246],[16.5073438,43.5240516],[16.5075176,43.5240897],[16.5077344,43.5242141],[16.5078952,43.5242671],[16.5080288,43.5243154],[16.5081157,43.5244018],[16.5082456,43.5244439],[16.508383,43.5244473],[16.508569,43.5244228],[16.508925,43.5243929]]}},{"type":"Feature","properties":{"highway":"service","id":"way/164497024"},"geometry":{"type":"LineString","coordinates":[[16.4925082,43.5275757],[16.4924489,43.5275203],[16.49239,43.5273326],[16.492234,43.5271272],[16.492448,43.5270667]]}},{"type":"Feature","properties":{"highway":"service","id":"way/164736058"},"geometry":{"type":"LineString","coordinates":[[16.4995516,43.528843],[16.4995457,43.5287818],[16.4995265,43.5286553],[16.4996402,43.5280956]]}},{"type":"Feature","properties":{"highway":"service","id":"way/164736060"},"geometry":{"type":"LineString","coordinates":[[16.4995457,43.5287818],[16.4993917,43.528787],[16.499315,43.5287659],[16.4992648,43.5287284],[16.4992846,43.5285581],[16.4993586,43.5282244]]}},{"type":"Feature","properties":{"highway":"track","id":"way/198843434"},"geometry":{"type":"LineString","coordinates":[[16.4954258,43.5277613],[16.4953653,43.5277346],[16.4953802,43.527617],[16.4953712,43.5273708]]}},{"type":"Feature","properties":{"highway":"track","tracktype":"grade3","id":"way/200691032"},"geometry":{"type":"LineString","coordinates":[[16.4904988,43.5247932],[16.4906747,43.5247805],[16.4910093,43.5248425],[16.4913874,43.5248933],[16.4917601,43.5249042],[16.4917982,43.5247979],[16.4923335,43.5247098],[16.492507,43.5246743],[16.4926537,43.5246365],[16.4928637,43.5246173],[16.4930388,43.5246203],[16.4932251,43.5246492],[16.4934832,43.5246259],[16.4937532,43.5245216]]}},{"type":"Feature","properties":{"highway":"trunk","int_ref":"E 71","lanes":"2","maxspeed":"60","motorroad":"yes","oneway":"yes","ref":"D1","surface":"asphalt","id":"way/211955985"},"geometry":{"type":"LineString","coordinates":[[16.4970498,43.5278631],[16.4960752,43.5279086],[16.4958265,43.5279321],[16.4955718,43.5279618],[16.4952848,43.5280048],[16.4950057,43.528063],[16.4948683,43.5280975]]}},{"type":"Feature","properties":{"highway":"trunk","int_ref":"E 71","lanes":"2","maxheight":"4.6","maxspeed":"80","motorroad":"yes","oneway":"yes","ref":"D1","surface":"asphalt","id":"way/235194005"},"geometry":{"type":"LineString","coordinates":[[16.4933741,43.5284631],[16.4936807,43.5283574],[16.4940403,43.5282317]]}},{"type":"Feature","properties":{"access":"private","highway":"service","id":"way/269444723"},"geometry":{"type":"LineString","coordinates":[[16.4983906,43.5284858],[16.4983852,43.5286619],[16.4974729,43.5286591]]}},{"type":"Feature","properties":{"access":"private","highway":"service","id":"way/269444726"},"geometry":{"type":"LineString","coordinates":[[16.4983581,43.5282143],[16.4976209,43.5282025],[16.4975722,43.528202],[16.4975196,43.5282121],[16.497491,43.5282272],[16.4974701,43.5282443]]}},{"type":"Feature","properties":{"highway":"service","id":"way/269445191"},"geometry":{"type":"LineString","coordinates":[[16.4965349,43.5290009],[16.4965422,43.52883],[16.4965783,43.5285718],[16.4966345,43.528536],[16.4967227,43.5285259],[16.4970399,43.5285338]]}},{"type":"Feature","properties":{"highway":"trunk_link","lanes":"1","maxspeed":"50","oneway":"yes","surface":"asphalt","id":"way/279086076"},"geometry":{"type":"LineString","coordinates":[[16.4898932,43.5261712],[16.48985,43.5261026],[16.4897384,43.5259551],[16.4894469,43.525632],[16.4893478,43.5255354],[16.4892673,43.5254654],[16.4890513,43.5252981],[16.48899,43.5252247],[16.4889401,43.5251472]]}},{"type":"Feature","properties":{"highway":"trunk","int_ref":"E 71","junction":"circular","lanes":"3","maxspeed":"40","oneway":"yes","placement":"right_of:1","ref":"D1","surface":"asphalt","turn:lanes":"through|through|slight_right","id":"way/279086077"},"geometry":{"type":"LineString","coordinates":[[16.4899619,43.5279585],[16.4899234,43.5277895],[16.4899339,43.5276184],[16.489993,43.5274525],[16.4900982,43.5272992]]}},{"type":"Feature","properties":{"highway":"trunk","int_ref":"E 71","junction":"circular","lanes":"2","maxspeed":"40","oneway":"yes","ref":"D1","surface":"asphalt","id":"way/279086078"},"geometry":{"type":"LineString","coordinates":[[16.4907893,43.5285405],[16.4905621,43.5284814],[16.4903573,43.5283889],[16.490184,43.528267],[16.4900502,43.5281214],[16.4899619,43.5279585]]}},{"type":"Feature","properties":{"highway":"trunk_link","lanes":"2","oneway":"yes","id":"way/279086079"},"geometry":{"type":"LineString","coordinates":[[16.4890892,43.5296782],[16.4890995,43.5295791],[16.4892897,43.5292655],[16.4895388,43.5288906],[16.4898602,43.5284593],[16.489929,43.5283192],[16.489967,43.5281778],[16.4899757,43.5280835],[16.4899619,43.5279585]]}},{"type":"Feature","properties":{"highway":"residential","maxspeed":"50","name":"Mostine","id":"way/320745082"},"geometry":{"type":"LineString","coordinates":[[16.4895355,43.5240763],[16.4897687,43.5239881],[16.4898624,43.5239176],[16.4900168,43.5238016],[16.4901372,43.5236943],[16.4902954,43.5236575],[16.4904986,43.5236199],[16.4908843,43.5235604],[16.4909909,43.5235506],[16.4911155,43.5235246],[16.4914502,43.5234618],[16.4915259,43.5234367],[16.4919923,43.5232819],[16.4923733,43.5231428],[16.4931771,43.5228493],[16.4932879,43.5228088],[16.4943078,43.5225823],[16.4950337,43.5225223],[16.4952834,43.5225456],[16.4955345,43.522569],[16.4958547,43.5225731]]}},{"type":"Feature","properties":{"highway":"trunk","int_ref":"E 71","lanes":"3","maxspeed":"80","motorroad":"yes","oneway":"yes","placement":"right_of:1","ref":"D1","surface":"asphalt","turn:lanes":"through|through|slight_right","id":"way/336543462"},"geometry":{"type":"LineString","coordinates":[[16.5051591,43.5285845],[16.5060812,43.528727]]}},{"type":"Feature","properties":{"highway":"trunk","int_ref":"E 71","lanes":"3","maxspeed":"80","motorroad":"yes","oneway":"yes","placement":"right_of:1","ref":"D1","surface":"asphalt","turn:lanes":"none|none|slight_right","id":"way/336543469"},"geometry":{"type":"LineString","coordinates":[[16.4965046,43.5277946],[16.4976413,43.5277578],[16.4988074,43.5277855]]}},{"type":"Feature","properties":{"highway":"trunk","int_ref":"E 71","lanes":"3","maxspeed":"80","motorroad":"yes","oneway":"yes","placement":"right_of:1","ref":"D1","surface":"asphalt","turn:lanes":"through|through|slight_right","id":"way/336543476"},"geometry":{"type":"LineString","coordinates":[[16.5008263,43.5280227],[16.5001977,43.5279664],[16.4994744,43.5279183],[16.4986877,43.5278751]]}},{"type":"Feature","properties":{"highway":"trunk","int_ref":"E 71","lanes":"2","maxspeed":"80","motorroad":"yes","oneway":"yes","ref":"D1","surface":"asphalt","id":"way/336543481"},"geometry":{"type":"LineString","coordinates":[[16.4986877,43.5278751],[16.4983201,43.5278618],[16.497711,43.527862],[16.4974232,43.5278625],[16.4970498,43.5278631]]}},{"type":"Feature","properties":{"highway":"trunk","int_ref":"E 71","lanes":"2","lit":"yes","maxspeed":"50","motorroad":"yes","oneway":"yes","ref":"D1","surface":"asphalt","turn:lanes":"through|slight_right","id":"way/336543493"},"geometry":{"type":"LineString","coordinates":[[16.4934466,43.5285504],[16.4932918,43.5285917],[16.493137,43.5286219],[16.4929435,43.528649],[16.4927702,43.5286666],[16.4926068,43.5286704],[16.492478,43.5286696],[16.4923284,43.5286591],[16.4920408,43.5286147],[16.4917847,43.528582],[16.4917732,43.5285789],[16.4915272,43.528553],[16.4913029,43.528545]]}},{"type":"Feature","properties":{"highway":"trunk","lanes":"3","oneway":"yes","placement":"right_of:1","ref":"D8","reg_name":"Jadranska magistrala","shoulder":"no","surface":"asphalt","id":"way/336543556"},"geometry":{"type":"LineString","coordinates":[[16.4887823,43.5301583],[16.4889537,43.5298905]]}},{"type":"Feature","properties":{"highway":"trunk","lanes":"4","oneway":"yes","placement":"right_of:1","ref":"D8","reg_name":"Jadranska magistrala","shoulder":"no","surface":"asphalt","id":"way/336543559"},"geometry":{"type":"LineString","coordinates":[[16.4889537,43.5298905],[16.4890892,43.5296782]]}},{"type":"Feature","properties":{"highway":"trunk","lanes":"2","oneway":"yes","ref":"D8","reg_name":"Jadranska magistrala","shoulder":"no","sidewalk":"no","surface":"asphalt","id":"way/336543610"},"geometry":{"type":"LineString","coordinates":[[16.4890892,43.5296782],[16.4891839,43.5295678],[16.4895709,43.5290644],[16.4899125,43.5286295]]}},{"type":"Feature","properties":{"highway":"primary","lanes":"3","lanes:backward":"2","ref":"D432","surface":"asphalt","turn:lanes:backward":"left;through|through;right","id":"way/336543703"},"geometry":{"type":"LineString","coordinates":[[16.493567,43.5302801],[16.4938333,43.5300378]]}},{"type":"Feature","properties":{"highway":"trunk_link","lanes":"3","maxspeed":"40","oneway":"yes","surface":"asphalt","id":"way/336543709"},"geometry":{"type":"LineString","coordinates":[[16.4900809,43.5288285],[16.4898101,43.5291773]]}},{"type":"Feature","properties":{"highway":"primary","lanes":"3","lanes:backward":"2","ref":"D432","surface":"asphalt","turn:lanes:backward":"through|through;right","id":"way/336543711"},"geometry":{"type":"LineString","coordinates":[[16.4938333,43.5300378],[16.49414,43.5297634]]}},{"type":"Feature","properties":{"highway":"primary","lanes":"4","lanes:backward":"2","ref":"D432","surface":"asphalt","turn:lanes:backward":"left;through|slight_right","turn:lanes:forward":"left;through|right","id":"way/336543712"},"geometry":{"type":"LineString","coordinates":[[16.493437157957796,43.53040109856765],[16.493567,43.5302801]]}},{"type":"Feature","properties":{"highway":"primary","lanes":"2","ref":"D432","surface":"asphalt","id":"way/336543718"},"geometry":{"type":"LineString","coordinates":[[16.4943137,43.5296338],[16.4945357,43.529468],[16.4947413,43.5293145]]}},{"type":"Feature","properties":{"highway":"service","id":"way/336543722"},"geometry":{"type":"LineString","coordinates":[[16.493815225759196,43.53040109856765],[16.4937488,43.530371],[16.493567,43.5302801]]}},{"type":"Feature","properties":{"highway":"trunk_link","lanes":"2","maxspeed":"50","oneway":"yes","placement":"middle_of:2","surface":"asphalt","turn:lanes":"merge_to_right|none","id":"way/336543735"},"geometry":{"type":"LineString","coordinates":[[16.4901741,43.526906],[16.4901538,43.5267769],[16.4900889,43.5265789],[16.4900073,43.5263826],[16.4898932,43.5261712]]}},{"type":"Feature","properties":{"highway":"trunk","lanes":"3","maxspeed":"70","name":"Ulica Zbora narodne garde","oneway":"yes","ref":"D8","reg_name":"Jadranska magistrala","shoulder":"no","surface":"asphalt","turn:lanes":"through|through;slight_right|slight_right","id":"way/336543765"},"geometry":{"type":"LineString","coordinates":[[16.4878393,43.5241371],[16.4879976,43.5242529]]}},{"type":"Feature","properties":{"highway":"trunk","lanes":"3","name":"Ulica Zbora narodne garde","oneway":"yes","placement":"right_of:1","ref":"D8","reg_name":"Jadranska magistrala","shoulder":"no","surface":"asphalt","turn:lanes":"through|through;slight_right|slight_right","id":"way/336543768"},"geometry":{"type":"LineString","coordinates":[[16.4890375,43.5250768],[16.4892532,43.5252547]]}},{"type":"Feature","properties":{"highway":"trunk","lanes":"4","maxspeed":"70","name":"Ulica Zbora narodne garde","oneway":"yes","placement":"right_of:1","ref":"D8","reg_name":"Jadranska magistrala","shoulder":"no","surface":"asphalt","turn:lanes":"none|none|none|merge_to_left","id":"way/336543769"},"geometry":{"type":"LineString","coordinates":[[16.4873322,43.5237584],[16.4875285,43.5239043],[16.4878393,43.5241371]]}},{"type":"Feature","properties":{"highway":"track","id":"way/488449694"},"geometry":{"type":"LineString","coordinates":[[16.5025544,43.5236455],[16.5025162,43.5236762],[16.502362,43.5237163],[16.502275,43.5237278],[16.502107,43.5237607],[16.5019429,43.5237751],[16.50184,43.5237751],[16.5016759,43.5237966]]}},{"type":"Feature","properties":{"highway":"service","id":"way/488449698"},"geometry":{"type":"LineString","coordinates":[[16.5059845,43.5214898],[16.5060942,43.5215185],[16.5062207,43.5215428],[16.5062625,43.5214039],[16.5063841,43.5210499],[16.5064159,43.5209293]]}},{"type":"Feature","properties":{"highway":"track","id":"way/488449699"},"geometry":{"type":"LineString","coordinates":[[16.5058392,43.5217292],[16.5055235,43.5217716],[16.5053535,43.5218017],[16.5052922,43.5217903],[16.5052507,43.5217387],[16.5052269,43.5216713],[16.5051755,43.5216096],[16.5050905,43.5215853],[16.5050134,43.5215609],[16.5049716,43.5214944],[16.504962,43.5214792],[16.5049304,43.5213903],[16.5049304,43.5213229],[16.50496,43.5212885],[16.5049936,43.5212785],[16.505049,43.5212942],[16.5050806,43.5213215],[16.5050272,43.5214075],[16.5049936,43.5214548],[16.5049716,43.5214944]]}},{"type":"Feature","properties":{"highway":"track","id":"way/488449700"},"geometry":{"type":"LineString","coordinates":[[16.5050905,43.5215853],[16.5050332,43.5216154],[16.5048513,43.5216469],[16.5045903,43.5216828],[16.5042878,43.5217387],[16.5042206,43.521753],[16.5041237,43.5217358],[16.5040663,43.5217387],[16.5039556,43.5217774],[16.503839,43.521829],[16.5037105,43.521882],[16.503663,43.521882],[16.5036136,43.5218663],[16.5035681,43.5218333],[16.5035365,43.5217702],[16.5035345,43.5217329],[16.5034099,43.5216053],[16.5033407,43.5215035]]}},{"type":"Feature","properties":{"highway":"residential","id":"way/488449704"},"geometry":{"type":"LineString","coordinates":[[16.4972997,43.52497],[16.4970937,43.5249756],[16.4970433,43.524977],[16.4970074,43.5249774],[16.4962845,43.5249864]]}},{"type":"Feature","properties":{"highway":"residential","id":"way/488449705"},"geometry":{"type":"LineString","coordinates":[[16.4970074,43.5249774],[16.4970042,43.5253052]]}},{"type":"Feature","properties":{"highway":"service","service":"parking_aisle","id":"way/488449708"},"geometry":{"type":"LineString","coordinates":[[16.4970042,43.5253052],[16.4970346,43.525303],[16.4970089,43.5258105],[16.4971711,43.5258119],[16.4971908,43.5253073],[16.4970346,43.525303]]}},{"type":"Feature","properties":{"highway":"residential","id":"way/488449709"},"geometry":{"type":"LineString","coordinates":[[16.4972931,43.5258506],[16.4966748,43.5258477]]}},{"type":"Feature","properties":{"highway":"track","id":"way/488449718"},"geometry":{"type":"LineString","coordinates":[[16.5045296,43.5249262],[16.5044858,43.5248296],[16.5044858,43.5247264],[16.5045273,43.524606],[16.5045352,43.524507],[16.5045155,43.524401]]}},{"type":"Feature","properties":{"highway":"service","id":"way/488449719"},"geometry":{"type":"LineString","coordinates":[[16.5048328,43.5241607],[16.5048517,43.5244824]]}},{"type":"Feature","properties":{"highway":"service","id":"way/516468470"},"geometry":{"type":"LineString","coordinates":[[16.4950288,43.5292697],[16.4952682,43.5292212],[16.4954022,43.5292179]]}},{"type":"Feature","properties":{"highway":"residential","surface":"asphalt","id":"way/658134295"},"geometry":{"type":"LineString","coordinates":[[16.5007868,43.5268994],[16.5009666,43.5268604],[16.5011954,43.5268062],[16.5013299,43.5267552]]}},{"type":"Feature","properties":{"highway":"service","oneway":"yes","id":"way/671910754"},"geometry":{"type":"LineString","coordinates":[[16.491014749629553,43.53040109856765],[16.4909938,43.5303827],[16.4909578,43.5303662],[16.4909166,43.5303586],[16.4908741,43.5303605],[16.4908345,43.530372],[16.4908018,43.5303917],[16.490793625766834,43.53040109856765]]}},{"type":"Feature","properties":{"highway":"service","oneway":"yes","id":"way/671910755"},"geometry":{"type":"LineString","coordinates":[[16.490663495203467,43.53040109856765],[16.4906593,43.5303956],[16.4906282,43.5303745],[16.4905896,43.5303614],[16.4905474,43.5303576],[16.4905056,43.5303635],[16.4904684,43.5303785],[16.490439401837968,43.53040109856765]]}},{"type":"Feature","properties":{"covered":"yes","highway":"service","layer":"-1","oneway":"yes","tunnel":"yes","id":"way/671910756"},"geometry":{"type":"LineString","coordinates":[[16.490676096613246,43.53040109856765],[16.4906818,43.5302968],[16.4906841,43.5302549],[16.4906876,43.530203]]}},{"type":"Feature","properties":{"highway":"residential","lanes":"1","oneway":"yes","surface":"asphalt","id":"way/685964802"},"geometry":{"type":"LineString","coordinates":[[16.4943137,43.5296338],[16.4943458,43.5295665],[16.4943407,43.5295123],[16.4943263,43.5294706],[16.4942622,43.5294035]]}},{"type":"Feature","properties":{"highway":"service","id":"way/725338712"},"geometry":{"type":"LineString","coordinates":[[16.4930227,43.5293834],[16.4930356,43.52954],[16.4931768,43.5296578],[16.4931647,43.529932]]}},{"type":"Feature","properties":{"highway":"track","id":"way/732258610"},"geometry":{"type":"LineString","coordinates":[[16.4953486,43.5236697],[16.4954323,43.5237171],[16.4955179,43.5238431]]}},{"type":"Feature","properties":{"highway":"track","id":"way/868986172"},"geometry":{"type":"LineString","coordinates":[[16.4957611,43.5222303],[16.495612,43.5221879],[16.4953945,43.5221658],[16.4953193,43.5221216],[16.4952583,43.5220494],[16.4950815,43.5219388],[16.4949636,43.521871],[16.494927,43.5218239],[16.494927,43.5217384]]}},{"type":"Feature","properties":{"highway":"track","id":"way/868986173"},"geometry":{"type":"LineString","coordinates":[[16.4958059,43.5220549],[16.4959962,43.5220155],[16.4961263,43.5219624],[16.4962218,43.5219064],[16.4962645,43.5218651],[16.4962686,43.5218268],[16.4962462,43.5217811],[16.496232,43.5217428],[16.4962289,43.5217219]]}},{"type":"Feature","properties":{"highway":"residential","lanes":"2","lanes:backward":"1","name":"Zoranićeva","id":"way/912886335"},"geometry":{"type":"LineString","coordinates":[[16.5017849,43.5283494],[16.5019671,43.5283428],[16.5021211,43.5283522],[16.5022909,43.528366],[16.5024971,43.5284019],[16.5027842,43.5284726],[16.5030509,43.5285877],[16.503563,43.5288365],[16.5039984,43.5290444]]}},{"type":"Feature","properties":{"highway":"residential","name":"Zoranićeva","id":"way/912886337"},"geometry":{"type":"LineString","coordinates":[[16.5039984,43.5290444],[16.5046947,43.5292171]]}},{"type":"Feature","properties":{"access":"permissive","highway":"service","surface":"asphalt","id":"way/1031462983"},"geometry":{"type":"LineString","coordinates":[[16.5062092,43.5208394],[16.5063015,43.5208835],[16.5064159,43.5209293]]}},{"type":"Feature","properties":{"highway":"service","id":"way/1031462985"},"geometry":{"type":"MultiLineString","coordinates":[[[16.5064159,43.5209293],[16.5064593,43.5208601],[16.5065792,43.5208011],[16.5068211,43.5207186],[16.5068943,43.5206906],[16.5069837,43.5206036],[16.5071687,43.5205078],[16.507557,43.520409],[16.5083599,43.5202395],[16.5092197,43.5200479],[16.510228,43.519843],[16.5110533,43.5196632],[16.511531842227498,43.51958427531283]],[[16.511531842227498,43.52319571058802],[16.511232,43.523286],[16.5109542,43.5233571],[16.510723,43.5233943],[16.5104848,43.5233977],[16.510235,43.5233621],[16.5096653,43.5232724],[16.5091352,43.5231928],[16.508785,43.5231014],[16.5084978,43.5229947],[16.5082012,43.5228187],[16.5076572,43.5224885],[16.5073536,43.5223192],[16.5071224,43.522177],[16.5070104,43.5220466],[16.5069427,43.5218908],[16.506903,43.5217266],[16.5068843,43.5214845],[16.5068796,43.521371],[16.5068423,43.5212119],[16.5068212,43.5210443],[16.5068259,43.5208902]]]}},{"type":"Feature","properties":{"highway":"service","id":"way/1031462986"},"geometry":{"type":"LineString","coordinates":[[16.5068943,43.5206906],[16.5069985,43.5208377],[16.5071702,43.5211625],[16.5073847,43.5214795],[16.5076047,43.5217246],[16.5079239,43.5219755],[16.5082913,43.522205],[16.5085113,43.5223022],[16.5087339,43.5223314],[16.5089458,43.5223119],[16.5091952,43.5222614],[16.5094366,43.5221622]]}},{"type":"Feature","properties":{"highway":"service","service":"driveway","id":"way/1031462990"},"geometry":{"type":"LineString","coordinates":[[16.5058392,43.5217292],[16.5058701,43.5218086],[16.5059498,43.5218753],[16.5060701,43.5219074],[16.5061285,43.5218971],[16.5062152,43.5218817],[16.5064205,43.5218625],[16.5066965,43.5219151],[16.5068647,43.5220101]]}},{"type":"Feature","properties":{"highway":"service","service":"driveway","id":"way/1031462991"},"geometry":{"type":"LineString","coordinates":[[16.5061285,43.5218971],[16.5061869,43.5219972],[16.5062648,43.5221371],[16.5063621,43.5222526],[16.5064276,43.5223052]]}},{"type":"Feature","properties":{"highway":"service","id":"way/1031462992"},"geometry":{"type":"LineString","coordinates":[[16.5068909,43.5204866],[16.5070381,43.5204228],[16.5072734,43.5203407],[16.5075406,43.5202649],[16.50793,43.5202085],[16.5081175,43.520188],[16.5084485,43.5200904],[16.508775,43.5200059],[16.5090711,43.5199231],[16.509386,43.5198479],[16.5098408,43.5197209]]}},{"type":"Feature","properties":{"highway":"service","id":"way/1034468068"},"geometry":{"type":"LineString","coordinates":[[16.4904383,43.5295205],[16.490443,43.5293984]]}},{"type":"Feature","properties":{"highway":"service","layer":"-1","tunnel":"yes","id":"way/1034468075"},"geometry":{"type":"LineString","coordinates":[[16.4899261,43.5295127],[16.4899262,43.5295683],[16.4899142,43.5301943],[16.4899119,43.5303233]]}},{"type":"Feature","properties":{"highway":"service","layer":"-1","tunnel":"yes","id":"way/1034468076"},"geometry":{"type":"LineString","coordinates":[[16.4918932,43.5295462],[16.4918674,43.5301858],[16.4907921,43.5301711],[16.490795,43.5302041]]}},{"type":"Feature","properties":{"highway":"service","layer":"-1","tunnel":"yes","id":"way/1034468077"},"geometry":{"type":"LineString","coordinates":[[16.4906876,43.530203],[16.490746,43.5295252]]}},{"type":"Feature","properties":{"highway":"trunk","int_ref":"E 71","lanes":"2","maxspeed":"80","motorroad":"yes","oneway":"yes","ref":"D1","surface":"asphalt","id":"way/1036912594"},"geometry":{"type":"LineString","coordinates":[[16.5096856,43.5296606],[16.5092905,43.5294733],[16.5089277,43.5293348],[16.5086349,43.5292557],[16.508067,43.5291417],[16.5069796,43.5289662],[16.505825,43.5287843],[16.5051409,43.528677],[16.5044104,43.5285654]]}},{"type":"Feature","properties":{"highway":"service","oneway":"no","id":"way/1096318947"},"geometry":{"type":"LineString","coordinates":[[16.498519453336254,43.53040109856765],[16.4985211,43.530277],[16.4985165,43.5299408],[16.4985165,43.529788],[16.4985176,43.5297474],[16.4985282,43.529722],[16.4985445,43.5297034],[16.4985935,43.5296915],[16.4986624,43.5296873],[16.4987354,43.5296866],[16.4991259,43.5296831]]}},{"type":"Feature","properties":{"highway":"service","service":"parking_aisle","id":"way/1096318954"},"geometry":{"type":"LineString","coordinates":[[16.4987354,43.5296866],[16.4987631,43.5295149],[16.4987708,43.5294412],[16.4990835,43.5294646],[16.4994656,43.5294579],[16.4998106,43.5294568]]}},{"type":"Feature","properties":{"highway":"service","service":"parking_aisle","id":"way/1096318955"},"geometry":{"type":"LineString","coordinates":[[16.4987708,43.5294412],[16.4987708,43.5293954],[16.4987708,43.5293529],[16.4990989,43.5293529],[16.4993993,43.529344]]}},{"type":"Feature","properties":{"highway":"service","service":"parking_aisle","id":"way/1096318956"},"geometry":{"type":"LineString","coordinates":[[16.4987708,43.5293954],[16.4984242,43.529344]]}},{"type":"Feature","properties":{"highway":"service","service":"driveway","id":"way/1096723761"},"geometry":{"type":"LineString","coordinates":[[16.4909326,43.5237592],[16.4908063,43.5237989],[16.4907647,43.5238057],[16.4906655,43.5238086]]}},{"type":"Feature","properties":{"highway":"service","service":"driveway","id":"way/1096723763"},"geometry":{"type":"LineString","coordinates":[[16.4938304,43.5234129],[16.4939097,43.5234065]]}},{"type":"Feature","properties":{"access":"destination","highway":"track","id":"way/1158945978"},"geometry":{"type":"LineString","coordinates":[[16.4899517,43.526721],[16.4899654,43.5266109],[16.4898944,43.5264014],[16.4898234,43.5263103]]}},{"type":"Feature","properties":{"bridge":"yes","highway":"trunk_link","lanes":"1","layer":"1","oneway":"yes","surface":"asphalt","id":"way/1220819673"},"geometry":{"type":"LineString","coordinates":[[16.4905191,43.5281034],[16.4903067,43.5285242],[16.4899669,43.5290733],[16.489757,43.5293547]]}},{"type":"Feature","properties":{"highway":"trunk_link","lanes":"1","oneway":"yes","surface":"asphalt","id":"way/1220819674"},"geometry":{"type":"LineString","coordinates":[[16.4905838,43.5275198],[16.4906217,43.5277749],[16.4905191,43.5281034]]}},{"type":"Feature","properties":{"highway":"residential","id":"way/1235072632"},"geometry":{"type":"LineString","coordinates":[[16.5049329,43.5277355],[16.5051827,43.5276874],[16.505645,43.5275815],[16.5057846,43.5276515],[16.5059903,43.5279736],[16.5060999,43.5281755],[16.5061531,43.5282597],[16.506191,43.5282998]]}},{"type":"Feature","properties":{"highway":"service","service":"parking_aisle","id":"way/1298040196"},"geometry":{"type":"LineString","coordinates":[[16.5012597,43.5273106],[16.502055,43.5272966]]}},{"type":"Feature","properties":{"highway":"service","service":"parking_aisle","id":"way/1298040197"},"geometry":{"type":"LineString","coordinates":[[16.5008569,43.5273792],[16.5009123,43.5273291],[16.5009807,43.5273125],[16.5012597,43.5273106]]}},{"type":"Feature","properties":{"highway":"service","id":"way/1298040198"},"geometry":{"type":"LineString","coordinates":[[16.5012597,43.5273106],[16.5012892,43.5272532],[16.5012959,43.5271871],[16.5012945,43.5270996],[16.501324,43.5270208],[16.5013723,43.5269693]]}},{"type":"Feature","properties":{"highway":"service","id":"way/1298040199"},"geometry":{"type":"LineString","coordinates":[[16.5011611,43.5274498],[16.5012597,43.5273106]]}},{"type":"Feature","properties":{"highway":"service","service":"driveway","id":"way/1307982081"},"geometry":{"type":"LineString","coordinates":[[16.4875285,43.5239043],[16.4876567,43.523847],[16.4877103,43.5238231],[16.4881803,43.5237323]]}},{"type":"Feature","properties":{"highway":"trunk","lanes":"2","maxspeed":"60","name":"Ulica Zbora narodne garde","oneway":"yes","ref":"D8","reg_name":"Jadranska magistrala","shoulder":"no","surface":"asphalt","id":"way/1313449205"},"geometry":{"type":"LineString","coordinates":[[16.4905894,43.5272235],[16.4905838,43.5275198]]}},{"type":"Feature","properties":{"highway":"service","service":"driveway","id":"way/1426710662"},"geometry":{"type":"LineString","coordinates":[[16.4900329,43.5240643],[16.4900759,43.5241232],[16.4901541,43.5242137],[16.4901775,43.5242408],[16.4902288,43.5242247]]}},{"type":"Feature","properties":{"highway":"service","service":"driveway","id":"way/1426710663"},"geometry":{"type":"LineString","coordinates":[[16.4898624,43.5239176],[16.4899901,43.5240258]]}},{"type":"Feature","properties":{"bridge":"yes","highway":"service","layer":"1","service":"driveway","id":"way/1426710664"},"geometry":{"type":"LineString","coordinates":[[16.4899901,43.5240258],[16.4900329,43.5240643]]}},{"type":"Feature","properties":{"highway":"service","service":"driveway","id":"way/1426710665"},"geometry":{"type":"LineString","coordinates":[[16.4901372,43.5236943],[16.4900209,43.5234757],[16.4899917,43.5234309],[16.4899462,43.523303],[16.4897162,43.5233301]]}},{"type":"Feature","properties":{"highway":"service","service":"driveway","id":"way/1426710666"},"geometry":{"type":"LineString","coordinates":[[16.4904986,43.5236199],[16.4904397,43.5233201],[16.4904025,43.523159],[16.4903371,43.5230711]]}},{"type":"Feature","properties":{"highway":"service","service":"driveway","id":"way/1426710669"},"geometry":{"type":"LineString","coordinates":[[16.4911155,43.5235246],[16.4911103,43.5234646],[16.4909692,43.5232371],[16.4909481,43.5231946],[16.4909481,43.5231696],[16.4909767,43.5231489],[16.4911403,43.5231064],[16.4913535,43.523039],[16.4914991,43.5229856],[16.4916087,43.5229257]]}},{"type":"Feature","properties":{"highway":"service","id":"way/1461929240"},"geometry":{"type":"LineString","coordinates":[[16.4967277,43.5223498],[16.496999,43.5222804],[16.497186,43.5222406],[16.4974116,43.5221714],[16.4975641,43.5224043],[16.4976007,43.5224087],[16.4978222,43.5223247],[16.4981007,43.5222126],[16.4983263,43.5221419],[16.4985804,43.5220417],[16.4988061,43.5219414],[16.4989325,43.5218886],[16.4990201,43.5218636],[16.4990944,43.521861],[16.4991289,43.5218649],[16.4991449,43.5218899]]}},{"type":"Feature","properties":{"highway":"service","id":"way/1461929241"},"geometry":{"type":"LineString","coordinates":[[16.4975641,43.5224043],[16.4974832,43.5224829],[16.4972319,43.5225457],[16.4969187,43.5226317]]}},{"type":"Feature","properties":{"highway":"service","id":"way/1461929242"},"geometry":{"type":"LineString","coordinates":[[16.4974116,43.5221714],[16.4975168,43.5221095],[16.4977504,43.522103],[16.4978442,43.5221351]]}},{"type":"Feature","properties":{"highway":"service","oneway":"yes","surface":"asphalt","id":"way/1478794393"},"geometry":{"type":"LineString","coordinates":[[16.4872798,43.5235896],[16.4872857,43.5236334],[16.4873322,43.5237584]]}},{"type":"Feature","properties":{"highway":"residential","maxspeed":"50","name":"Mostine","id":"way/1478801989"},"geometry":{"type":"LineString","coordinates":[[16.488039,43.5244076],[16.4883272,43.5242711],[16.4887976,43.5241731]]}},{"type":"Feature","properties":{"highway":"residential","maxspeed":"50","name":"Mostine","id":"way/1478801990"},"geometry":{"type":"LineString","coordinates":[[16.4887976,43.5241731],[16.4891975,43.5241304],[16.4895355,43.5240763]]}},{"type":"Feature","properties":{"highway":"track","tracktype":"grade3","id":"way/1478801991"},"geometry":{"type":"LineString","coordinates":[[16.4895355,43.5240763],[16.4895781,43.5241368],[16.4901356,43.5245268],[16.4903182,43.5246611],[16.4904988,43.5247932]]}},{"type":"Feature","properties":{"highway":"residential","name":"Bilice II","id":"way/1478801992"},"geometry":{"type":"LineString","coordinates":[[16.4902167,43.5257436],[16.4901089,43.5255987],[16.4902847,43.5255042],[16.4905719,43.5254215],[16.4912282,43.5254297]]}},{"type":"Feature","properties":{"highway":"residential","name":"Bilice II","id":"way/1478801993"},"geometry":{"type":"LineString","coordinates":[[16.4945961,43.5261587],[16.494689,43.5262087],[16.4950599,43.5262842],[16.495417,43.5263748],[16.4954241,43.5269293]]}},{"type":"Feature","properties":{"highway":"residential","name":"Bilice II","id":"way/1478801994"},"geometry":{"type":"LineString","coordinates":[[16.4945961,43.5261587],[16.4947311,43.5258548]]}},{"type":"Feature","properties":{"highway":"residential","name":"Bilice II","id":"way/1478802588"},"geometry":{"type":"LineString","coordinates":[[16.4938179,43.5278033],[16.4940024,43.5279231]]}},{"type":"Feature","properties":{"highway":"residential","lanes":"1","oneway":"yes","surface":"asphalt","id":"way/1478802589"},"geometry":{"type":"LineString","coordinates":[[16.4942622,43.5294035],[16.4943541,43.5294343],[16.4944112,43.529465],[16.4944754,43.5294762],[16.4945357,43.529468]]}},{"type":"Feature","properties":{"highway":"primary","lanes":"2","ref":"D432","surface":"asphalt","id":"way/1478802590"},"geometry":{"type":"LineString","coordinates":[[16.49414,43.5297634],[16.4943137,43.5296338]]}},{"type":"Feature","properties":{"highway":"service","id":"way/1481049700"},"geometry":{"type":"LineString","coordinates":[[16.5000334,43.5269191],[16.5000254,43.5269949],[16.5002069,43.5270224],[16.5002712,43.5270774],[16.5002861,43.5271581],[16.5002142,43.5271636]]}},{"type":"Feature","properties":{"highway":"service","service":"parking_aisle","id":"way/1481049701"},"geometry":{"type":"LineString","coordinates":[[16.5000438,43.5275602],[16.5000196,43.5271731],[16.5000151,43.5271007]]}},{"type":"Feature","properties":{"highway":"service","service":"parking_aisle","id":"way/1481049702"},"geometry":{"type":"LineString","coordinates":[[16.5000196,43.5271731],[16.5002142,43.5271636]]}}]}