{"type": "FeatureCollection", "features": [{"type": "Feature", "geometry": {"type": "LineString", "coordinates": [[16.4937776, 43.5237742], [16.4933322, 43.5238822], [16.4925776, 43.5238192], [16.4916498, 43.5239812], [16.4910313, 43.5238281], [16.4908334, 43.5238281], [16.4903138, 43.52399], [16.48972, 43.524035]]}, "properties": {"duljina_m": 339, "pad_promila": 16.6, "izvor": "HOK 1:5000, DGU \u2014 vektorizirano iz rastera"}}, {"type": "Feature", "geometry": {"type": "LineString", "coordinates": [[16.5004206, 43.5297154], [16.5, 43.5295984], [16.4991958, 43.5295894], [16.4985278, 43.5294544], [16.4982803, 43.5294364], [16.4978721, 43.5294814]]}, "properties": {"duljina_m": 211, "pad_promila": 17.8, "izvor": "HOK 1:5000, DGU \u2014 vektorizirano iz rastera"}}, {"type": "Feature", "geometry": {"type": "LineString", "coordinates": [[16.5010392, 43.5274831], [16.5011629, 43.5275461], [16.5013856, 43.5275731], [16.5020413, 43.527393], [16.5029691, 43.527456], [16.5031918, 43.527429], [16.5033155, 43.527357]]}, "properties": {"duljina_m": 193, "pad_promila": 29.4, "izvor": "HOK 1:5000, DGU \u2014 vektorizirano iz rastera"}}, {"type": "Feature", "geometry": {"type": "LineString", "coordinates": [[16.4961524, 43.5297784], [16.4965483, 43.5296704], [16.497204, 43.5296434], [16.4976989, 43.5295264]]}, "properties": {"duljina_m": 129, "pad_promila": 25.3, "izvor": "HOK 1:5000, DGU \u2014 vektorizirano iz rastera"}}, {"type": "Feature", "geometry": {"type": "LineString", "coordinates": [[16.493542, 43.5286621], [16.4932575, 43.5285901], [16.4919832, 43.528599]]}, "properties": {"duljina_m": 127, "pad_promila": 49.7, "izvor": "HOK 1:5000, DGU \u2014 vektorizirano iz rastera"}}, {"type": "Feature", "geometry": {"type": "LineString", "coordinates": [[16.5204112, 43.527365], [16.520598, 43.5267071], [16.5206341, 43.5266446]]}, "properties": {"duljina_m": 82, "pad_promila": 37.5, "izvor": "HOK 1:5000, DGU \u2014 vektorizirano iz rastera"}}, {"type": "Feature", "geometry": {"type": "LineString", "coordinates": [[16.4947297, 43.5291842], [16.4947049, 43.5290132], [16.4946183, 43.5289502], [16.494507, 43.5287071], [16.494408, 43.5286171], [16.4943214, 43.5286351]]}, "properties": {"duljina_m": 78, "pad_promila": 85.7, "izvor": "HOK 1:5000, DGU \u2014 vektorizirano iz rastera"}}]}