{"type":"FeatureCollection","features":[{"type":"Feature","id":"way/128403312","properties":{"natural":"grassland","id":"way/128403312"},"geometry":{"type":"Polygon","coordinates":[[[16.4892528,43.5241613],[16.4893638,43.5241574],[16.4895022,43.5241699],[16.4895592,43.5241587],[16.4897186,43.52432],[16.4898297,43.5244084],[16.4895405,43.5245292],[16.489514,43.524487],[16.4893595,43.5245184],[16.4892528,43.5241613]]]}},{"type":"Feature","id":"way/131322208","properties":{"landuse":"grass","id":"way/131322208"},"geometry":{"type":"Polygon","coordinates":[[[16.490141,43.5281175],[16.4900694,43.5280016],[16.4900217,43.5278771],[16.490005,43.5277509],[16.4900074,43.5276143],[16.4900456,43.5275174],[16.4901219,43.5273791],[16.490234,43.5272476],[16.49037,43.5271491],[16.4903724,43.5273601],[16.4903676,43.5275174],[16.4903342,43.5276817],[16.4903032,43.527782],[16.4902436,43.5279186],[16.490141,43.5281175]]]}},{"type":"Feature","id":"way/131322210","properties":{"landuse":"grass","id":"way/131322210"},"geometry":{"type":"Polygon","coordinates":[[[16.4904485,43.5283906],[16.4903417,43.5283378],[16.4904056,43.5282238],[16.490482,43.5280661],[16.4905411,43.5278904],[16.4905945,43.5277645],[16.4906423,43.5275514],[16.4906537,43.5273937],[16.4906556,43.5272319],[16.4906442,43.5270354],[16.4906938,43.5270188],[16.4908102,43.5269939],[16.4909399,43.5269759],[16.4911231,43.5269787],[16.4912872,43.5269939],[16.4914666,43.5270299],[16.4916059,43.5270838],[16.4917394,43.5271461],[16.4918654,43.5272332],[16.491955,43.5273218],[16.4920256,43.5274117],[16.4920791,43.5275086],[16.4921077,43.5275957],[16.4921262,43.5277341],[16.4921172,43.5278378],[16.4920905,43.5279319],[16.4920447,43.5280426],[16.491976,43.5281297],[16.4918711,43.5282473],[16.4917379,43.5283366],[16.4915851,43.5284177],[16.49141,43.5284852],[16.4912572,43.5285176],[16.4910485,43.5285338],[16.4908621,43.528523],[16.4906609,43.5284825],[16.4904485,43.5283906]]]}},{"type":"Feature","id":"way/162957826","properties":{"landuse":"grass","id":"way/162957826"},"geometry":{"type":"Polygon","coordinates":[[[16.4982738,43.5260132],[16.4982792,43.5257673],[16.4989728,43.5257752],[16.4989674,43.5260211],[16.4982738,43.5260132]]]}},{"type":"Feature","id":"way/162959484","properties":{"landuse":"grass","id":"way/162959484"},"geometry":{"type":"Polygon","coordinates":[[[16.4990342,43.526017],[16.499039,43.5258132],[16.4994908,43.5258141],[16.4994921,43.5257596],[16.4995622,43.5257615],[16.4995674,43.5256853],[16.4998878,43.5256844],[16.4998953,43.5255628],[16.5000881,43.5260292],[16.4990342,43.526017]]]}},{"type":"Feature","id":"way/162959487","properties":{"barrier":"fence","natural":"scrub","id":"way/162959487"},"geometry":{"type":"Polygon","coordinates":[[[16.4996942,43.5250113],[16.4999467,43.5245733],[16.5008211,43.5247425],[16.5009767,43.5249759],[16.5003544,43.5251879],[16.500687,43.5253182],[16.5009767,43.5254757],[16.500113,43.5254913],[16.5003034,43.5260494],[16.5001125,43.5260521],[16.5000091,43.5257638],[16.4999065,43.5255188],[16.4997676,43.525183],[16.4996942,43.5250113]]]}},{"type":"Feature","id":"way/269428917","properties":{"landuse":"grass","id":"way/269428917"},"geometry":{"type":"Polygon","coordinates":[[[16.4975977,43.5284361],[16.4975607,43.5284343],[16.4975339,43.5284229],[16.4975118,43.5284087],[16.4975,43.5283889],[16.4975013,43.5283615],[16.4975968,43.5283661],[16.4975977,43.5284361]]]}},{"type":"Feature","id":"way/269428918","properties":{"landuse":"grass","id":"way/269428918"},"geometry":{"type":"Polygon","coordinates":[[[16.4975912,43.5283246],[16.4975,43.5283218],[16.4975,43.5282935],[16.4975078,43.5282708],[16.4975196,43.5282519],[16.4975482,43.5282378],[16.4975756,43.5282311],[16.4975957,43.5282299],[16.4975912,43.5283246]]]}},{"type":"Feature","id":"way/269428919","properties":{"landuse":"grass","id":"way/269428919"},"geometry":{"type":"Polygon","coordinates":[[[16.4975867,43.5284787],[16.4975815,43.5286118],[16.4975515,43.528609],[16.4975307,43.5286033],[16.4975033,43.5285826],[16.4975007,43.5285287],[16.4975098,43.528506],[16.4975255,43.5284909],[16.4975541,43.5284787],[16.4975867,43.5284787]]]}},{"type":"Feature","id":"way/269428920","properties":{"natural":"grassland","id":"way/269428920"},"geometry":{"type":"Polygon","coordinates":[[[16.4962334,43.5289953],[16.4961681,43.5289935],[16.4961318,43.5289821],[16.4961109,43.5289424],[16.496064,43.5289141],[16.496051,43.5286874],[16.4959755,43.5286081],[16.4962647,43.5284626],[16.4964497,43.5285004],[16.4965278,43.5285873],[16.496507,43.5288574],[16.496494,43.5289179],[16.4964575,43.5289481],[16.4963897,43.528967],[16.4962334,43.5289953]]]}},{"type":"Feature","id":"way/269428921","properties":{"natural":"grassland","id":"way/269428921"},"geometry":{"type":"Polygon","coordinates":[[[16.4966822,43.5289135],[16.4966582,43.5289026],[16.4966386,43.5288794],[16.4966514,43.5286],[16.4966628,43.5285871],[16.4966797,43.5285815],[16.4967304,43.5285815],[16.4967304,43.5286193],[16.4971186,43.5286079],[16.4972218,43.5286062],[16.4972226,43.5285406],[16.49741,43.5285436],[16.497408,43.5287794],[16.4974041,43.5288571],[16.4973773,43.528872],[16.4972987,43.528883],[16.4970819,43.5288903],[16.4967659,43.5289186],[16.4967093,43.5289196],[16.4966822,43.5289135]]]}},{"type":"Feature","id":"way/269444519","properties":{"landuse":"grass","id":"way/269444519"},"geometry":{"type":"Polygon","coordinates":[[[16.4979167,43.5287054],[16.4984397,43.5287063],[16.4984461,43.528471],[16.4984995,43.5284714],[16.4985046,43.5282606],[16.498434,43.5282593],[16.4984376,43.5281731],[16.4974062,43.5281605],[16.497407,43.528276],[16.4972211,43.5282721],[16.4972227,43.528153],[16.4974595,43.528115],[16.4977145,43.5280823],[16.4979584,43.5280634],[16.4982007,43.5280523],[16.499045,43.5280834],[16.4988615,43.5288538],[16.4975197,43.5288571],[16.4975202,43.5287832],[16.4977073,43.5287827],[16.4977078,43.5288029],[16.4979147,43.5288046],[16.4979167,43.5287054]]]}},{"type":"Feature","id":"way/325413168","properties":{"landuse":"grass","id":"way/325413168"},"geometry":{"type":"Polygon","coordinates":[[[16.4916799,43.5285166],[16.491935,43.5283647],[16.4920556,43.5282701],[16.4920833,43.5284063],[16.49219,43.5285238],[16.4923502,43.5285926],[16.492453,43.5286227],[16.4922948,43.5286112],[16.4920615,43.5285811],[16.4916799,43.5285166]]]}},{"type":"Feature","properties":{"natural":"scrub","id":"way/624358841"},"geometry":{"type":"Polygon","coordinates":[[[16.4991176,43.5227109],[16.4991529,43.5226719],[16.4991881,43.5227433],[16.499747,43.522609],[16.4999348,43.5230995],[16.5013705,43.5227205],[16.5012151,43.5223007],[16.5010133,43.5219169],[16.5007989,43.5215372],[16.5008802,43.52155],[16.5009837,43.5215269],[16.5008776,43.521277],[16.5009744,43.5211409],[16.5011816,43.5211062],[16.5017425,43.5208754],[16.5016762,43.521119],[16.5016385,43.5212256],[16.5016184,43.5215947],[16.5016119,43.5217149],[16.5018244,43.5217457],[16.5019055,43.5214897],[16.5019147,43.5214606],[16.5023025,43.521476],[16.502349,43.5215811],[16.5024101,43.5217399],[16.5023535,43.5218827],[16.5024685,43.5221636],[16.5026729,43.5220937],[16.5025948,43.5218915],[16.5027067,43.5218858],[16.5027041,43.5219075],[16.5029452,43.5218747],[16.5028676,43.5215001],[16.5029413,43.5215022],[16.5032376,43.5215107],[16.5035776,43.5219537],[16.5032216,43.5220693],[16.5033066,43.5223235],[16.5037795,43.5221925],[16.5040876,43.5230439],[16.5046188,43.5229399],[16.5044807,43.522755],[16.5049482,43.522651],[16.5050279,43.5228282],[16.5046826,43.5228975],[16.504741,43.5234715],[16.5041013,43.5235022],[16.503418,43.5235506],[16.5029786,43.5235645],[16.5026372,43.5235562],[16.5025894,43.523379],[16.5029335,43.5233367],[16.5035616,43.5232596],[16.5032482,43.5228282],[16.5024566,43.5229822],[16.502391,43.5228896],[16.5023644,43.522852],[16.5012298,43.5231213],[16.5006817,43.5232486],[16.5004031,43.5233614],[16.5000967,43.5234452],[16.4998144,43.5234825],[16.4996885,43.523304],[16.4993666,43.5231951],[16.4993449,43.5231428],[16.4992116,43.5228843],[16.499172,43.5228397],[16.499159,43.5227714],[16.4991176,43.5227109]]]}},{"type":"Feature","id":"way/624358843","properties":{"natural":"scrub","id":"way/624358843"},"geometry":{"type":"Polygon","coordinates":[[[16.5013881,43.5206463],[16.5012924,43.5202408],[16.5013881,43.5198859],[16.5024882,43.5198619],[16.50254,43.5200083],[16.5027347,43.5205582],[16.5024256,43.5205129],[16.5013881,43.5206463]]]}},{"type":"Feature","properties":{"natural":"scrub","id":"way/624358847"},"geometry":{"type":"Polygon","coordinates":[[[16.498142629242533,43.52047750221796],[16.50009143605125,43.51976300780261],[16.5002286,43.5197818],[16.5003751,43.5200575],[16.5002165,43.5200761],[16.4992731,43.520242],[16.4985767,43.5203655],[16.4981528,43.5205018],[16.498142629242533,43.52047750221796]]]}},{"type":"Feature","properties":{"natural":"scrub","id":"way/624369923"},"geometry":{"type":"Polygon","coordinates":[[[16.500131,43.5203435],[16.5002722,43.5202842],[16.5002165,43.5200761],[16.5003751,43.5200575],[16.5006683,43.5200801],[16.5007328,43.5196401],[16.5012492,43.5196339],[16.501232491233072,43.51947260695359],[16.501353204352995,43.519470826252316],[16.503363513426894,43.519571856876325],[16.5036198,43.5199454],[16.50254,43.5200083],[16.5024882,43.5198619],[16.502521,43.5196606],[16.5013376,43.5196731],[16.5013881,43.5198859],[16.5012924,43.5202408],[16.5013881,43.5206463],[16.5004159,43.5209096],[16.500131,43.5203435]]]}},{"type":"Feature","id":"way/624369924","properties":{"natural":"scrub","id":"way/624369924"},"geometry":{"type":"Polygon","coordinates":[[[16.5039927,43.5205781],[16.5036772,43.5199415],[16.503957,43.5199225],[16.5045349,43.5199259],[16.504655,43.5201186],[16.5047586,43.5202847],[16.504849,43.5203378],[16.504324,43.52055],[16.5039927,43.5205781]]]}},{"type":"Feature","id":"way/624369925","properties":{"natural":"scrub","id":"way/624369925"},"geometry":{"type":"Polygon","coordinates":[[[16.5036613,43.52182],[16.5033773,43.5214362],[16.5032783,43.521068],[16.5033785,43.5210526],[16.5039066,43.5209712],[16.5039013,43.5209042],[16.5038894,43.5207528],[16.5042379,43.5207153],[16.5046941,43.5212895],[16.5048576,43.5213176],[16.5049738,43.5216047],[16.5042595,43.5216951],[16.5040615,43.5216951],[16.5036613,43.52182]]]}},{"type":"Feature","id":"way/671544324","properties":{"natural":"scrub","id":"way/671544324"},"geometry":{"type":"Polygon","coordinates":[[[16.5058213,43.5255244],[16.5062129,43.5254484],[16.5065315,43.5254057],[16.5064658,43.5251866],[16.5065305,43.5251648],[16.5066569,43.5254615],[16.5067199,43.5256071],[16.506839,43.5257578],[16.5069067,43.5258712],[16.5069354,43.525934],[16.507009,43.5259463],[16.5070586,43.5259282],[16.5071316,43.5259015],[16.50727,43.5258509],[16.5076434,43.5257737],[16.5080953,43.5256507],[16.5074971,43.5263334],[16.507237,43.5265998],[16.5066683,43.5268565],[16.5063411,43.5266931],[16.5065181,43.5261058],[16.5059079,43.5259405],[16.5058181,43.5257849],[16.505769,43.5257864],[16.505776,43.5256289],[16.5056917,43.5255935],[16.5055941,43.525581],[16.505526,43.5255309],[16.505515,43.5254419],[16.5058209,43.5254437],[16.5058213,43.5255244]]]}},{"type":"Feature","id":"way/671544325","properties":{"natural":"scrub","id":"way/671544325"},"geometry":{"type":"Polygon","coordinates":[[[16.5046859,43.526338],[16.504654,43.5260883],[16.5047801,43.5257052],[16.5046969,43.525536],[16.5049356,43.5254932],[16.5050233,43.5257721],[16.5050476,43.5258495],[16.5052668,43.5257818],[16.505484,43.5256397],[16.5054703,43.5257956],[16.5055901,43.5259094],[16.5053406,43.5259425],[16.5052736,43.5261797],[16.5046859,43.526338]]]}},{"type":"Feature","id":"way/868986179","properties":{"natural":"scrub","id":"way/868986179"},"geometry":{"type":"Polygon","coordinates":[[[16.4940735,43.522327],[16.4940104,43.522231],[16.4939873,43.5221959],[16.493812,43.5219294],[16.4941067,43.5218395],[16.4947829,43.5217153],[16.4949415,43.5218952],[16.4952179,43.5220632],[16.4953013,43.5221546],[16.4954009,43.5221958],[16.4956062,43.5222165],[16.4957261,43.5222474],[16.4957119,43.5223934],[16.4956712,43.5224273],[16.4956184,43.5224523],[16.4954842,43.5224626],[16.4953297,43.5225186],[16.4952748,43.5225245],[16.4950167,43.5224995],[16.4948703,43.5225098],[16.4947036,43.5224803],[16.4945837,43.5224965],[16.4941568,43.5225437],[16.4940735,43.522327]]]}},{"type":"Feature","id":"way/869019138","properties":{"natural":"wood","id":"way/869019138"},"geometry":{"type":"Polygon","coordinates":[[[16.486686,43.5228955],[16.4867114,43.5228653],[16.4867755,43.52283],[16.486934,43.522911],[16.4874168,43.52332],[16.4874353,43.5235115],[16.4873539,43.5233178],[16.4869345,43.522988],[16.486686,43.5228955]]]}},{"type":"Feature","properties":{"natural":"scrub","id":"way/870795160"},"geometry":{"type":"Polygon","coordinates":[[[16.48890185465091,43.52811017836104],[16.489234644383004,43.52744668018176],[16.4894592,43.5274631],[16.4894565,43.5276615],[16.4898132,43.5276984],[16.4898239,43.5278754],[16.4898749,43.5280368],[16.4898856,43.5281165],[16.4898883,43.5281924],[16.4898695,43.5282994],[16.4896255,43.528665],[16.48984,43.5281379],[16.4890166,43.5281127],[16.48890185465091,43.52811017836104]]]}},{"type":"Feature","id":"way/870795164","properties":{"natural":"scrub","id":"way/870795164"},"geometry":{"type":"Polygon","coordinates":[[[16.488602,43.5272209],[16.4885776,43.5271958],[16.4886081,43.526991],[16.4886487,43.526683],[16.4886752,43.5265046],[16.4886386,43.5263307],[16.4886914,43.5263381],[16.4888154,43.5263233],[16.4888967,43.5261833],[16.4888703,43.5260521],[16.4889414,43.5259799],[16.4892585,43.5259224],[16.4892464,43.5258768],[16.4892037,43.525781],[16.4892931,43.5257102],[16.4893907,43.5256911],[16.4895411,43.5258591],[16.4896976,43.5260492],[16.4897993,43.5262054],[16.4897891,43.5263174],[16.4896244,43.526372],[16.4896488,43.5264265],[16.4895309,43.5264884],[16.4895716,43.5267905],[16.4899253,43.5268421],[16.4899659,43.5268672],[16.4899822,43.5269674],[16.4899639,43.5270897],[16.4899111,43.5271885],[16.489848,43.5272371],[16.489724,43.5272371],[16.4894557,43.5272283],[16.4893561,43.5272121],[16.4891508,43.5272017],[16.4889963,43.5272239],[16.4886934,43.5272297],[16.488602,43.5272209]]]}},{"type":"Feature","id":"way/870804700","properties":{"natural":"scrub","id":"way/870804700"},"geometry":{"type":"Polygon","coordinates":[[[16.487704,43.5249273],[16.4877528,43.5249745],[16.4879175,43.5252855],[16.4880049,43.5255007],[16.4880373,43.5255928],[16.4880801,43.5257144],[16.4881836,43.5260452],[16.4882,43.5260976],[16.4882488,43.5261875],[16.4885151,43.5262759],[16.4885639,43.5263334],[16.4885984,43.5265486],[16.4885374,43.5270158],[16.488507,43.5272],[16.4884744,43.5272207],[16.4884216,43.527228],[16.4877508,43.5272148],[16.4871023,43.5272104],[16.4870657,43.5269259],[16.4868076,43.5269259],[16.4867547,43.5267815],[16.4869865,43.5266429],[16.4869133,43.5264145],[16.4867852,43.5264189],[16.4867283,43.5263629],[16.4865372,43.5264101],[16.4865962,43.5265427],[16.4865179,43.5265774],[16.4862201,43.5267093],[16.4860108,43.5267328],[16.4856794,43.5267358],[16.4856306,43.5267107],[16.4856997,43.5263113],[16.4857018,43.5262273],[16.4857404,43.5261389],[16.4857668,43.5259841],[16.4858858,43.5259541],[16.485932,43.5258983],[16.485932,43.5258547],[16.4863665,43.5257509],[16.4866299,43.5257207],[16.4866977,43.5256727],[16.4868702,43.5255911],[16.4869103,43.5255029],[16.487704,43.5249273]]]}},{"type":"Feature","id":"way/892745606","properties":{"natural":"scrub","id":"way/892745606"},"geometry":{"type":"Polygon","coordinates":[[[16.4875761,43.52335],[16.4875028,43.5232891],[16.4870532,43.5229154],[16.4868696,43.5227792],[16.4872786,43.5227705],[16.487276,43.5228755],[16.4876139,43.5229008],[16.4876863,43.5227899],[16.4877871,43.5229404],[16.4880227,43.5232284],[16.4880469,43.523258],[16.4878768,43.5233175],[16.4875761,43.52335]]]}},{"type":"Feature","id":"way/1031462984","properties":{"natural":"scrub","id":"way/1031462984"},"geometry":{"type":"Polygon","coordinates":[[[16.5058315,43.5227568],[16.505732,43.5223028],[16.5057856,43.522225],[16.5061424,43.5221161],[16.5062201,43.522402],[16.5067298,43.5225712],[16.5068558,43.52247],[16.5067459,43.5223125],[16.5063811,43.5220947],[16.5063462,43.5220422],[16.506416,43.5220188],[16.5067271,43.5221958],[16.5073762,43.5225537],[16.5072179,43.5228337],[16.5073729,43.5229262],[16.5072873,43.5230903],[16.5071106,43.5230554],[16.5069497,43.5230885],[16.5068075,43.5234255],[16.5062818,43.5230202],[16.5059629,43.5228269],[16.5058315,43.5227568]]]}},{"type":"Feature","id":"way/1031496562","properties":{"natural":"wood","id":"way/1031496562"},"geometry":{"type":"Polygon","coordinates":[[[16.5053487,43.528156],[16.5054707,43.5281516],[16.505611,43.5281988],[16.5056882,43.5283034],[16.505735,43.5284714],[16.5056415,43.528582],[16.5054036,43.5285407],[16.5053325,43.5283462],[16.5053487,43.528156]]]}},{"type":"Feature","id":"way/1031496563","properties":{"natural":"scrub","id":"way/1031496563"},"geometry":{"type":"Polygon","coordinates":[[[16.5056415,43.528582],[16.505735,43.5284714],[16.5056882,43.5283034],[16.505611,43.5281988],[16.5054707,43.5281516],[16.505611,43.5281782],[16.505739,43.5282474],[16.5058773,43.5283388],[16.5060033,43.5283639],[16.5060521,43.5282577],[16.5061517,43.528383],[16.5062045,43.5284788],[16.5062939,43.5285526],[16.5062953,43.5286234],[16.5063573,43.5286734],[16.506298,43.5286851],[16.5059078,43.5286203],[16.5056415,43.528582]]]}},{"type":"Feature","id":"way/1090799085","properties":{"natural":"wood","id":"way/1090799085"},"geometry":{"type":"Polygon","coordinates":[[[16.5061689,43.5274634],[16.5062487,43.5274048],[16.5063437,43.5273352],[16.5064921,43.5273499],[16.5065266,43.5272688],[16.5066892,43.5272968],[16.5066811,43.5273705],[16.506738,43.5274413],[16.5068519,43.5273882],[16.5070653,43.5273926],[16.507137,43.527388],[16.5072238,43.5273823],[16.5073645,43.5274716],[16.5074026,43.5276747],[16.5072305,43.5276915],[16.5067614,43.5275981],[16.5066913,43.5275209],[16.5065393,43.5275603],[16.5063381,43.5275309],[16.5062908,43.5274929],[16.5062095,43.5275061],[16.5061689,43.5274634]]]}},{"type":"Feature","id":"way/1090799086","properties":{"natural":"grassland","id":"way/1090799086"},"geometry":{"type":"Polygon","coordinates":[[[16.5065393,43.5275603],[16.5066913,43.5275209],[16.5067614,43.5275981],[16.5066613,43.5275781],[16.5065393,43.5275603]]]}},{"type":"Feature","id":"way/1090799087","properties":{"natural":"grassland","id":"way/1090799087"},"geometry":{"type":"Polygon","coordinates":[[[16.505958,43.5275368],[16.5062487,43.5274048],[16.5061689,43.5274634],[16.5062095,43.5275061],[16.5062908,43.5274929],[16.5063381,43.5275309],[16.505958,43.5275368]]]}},{"type":"Feature","id":"way/1090799088","properties":{"natural":"grassland","id":"way/1090799088"},"geometry":{"type":"Polygon","coordinates":[[[16.5063437,43.5273352],[16.5064636,43.5272703],[16.5065266,43.5272688],[16.5064921,43.5273499],[16.5063437,43.5273352]]]}},{"type":"Feature","id":"way/1090799089","properties":{"natural":"grassland","id":"way/1090799089"},"geometry":{"type":"Polygon","coordinates":[[[16.5066892,43.5272968],[16.5068137,43.5272972],[16.5068199,43.5273251],[16.5069447,43.5273754],[16.5069924,43.5273441],[16.5071172,43.5273619],[16.5071557,43.5273452],[16.507137,43.527388],[16.5070653,43.5273926],[16.5068519,43.5273882],[16.506738,43.5274413],[16.5066811,43.5273705],[16.5066892,43.5272968]]]}},{"type":"Feature","id":"way/1090799090","properties":{"natural":"grassland","id":"way/1090799090"},"geometry":{"type":"Polygon","coordinates":[[[16.5066842,43.5270591],[16.5068289,43.5269965],[16.5070905,43.5269],[16.5073356,43.5269017],[16.5075855,43.5269761],[16.5072841,43.5269769],[16.5070099,43.526982],[16.5068895,43.527],[16.5066842,43.5270591]]]}},{"type":"Feature","id":"way/1096318957","properties":{"natural":"scrub","id":"way/1096318957"},"geometry":{"type":"Polygon","coordinates":[[[16.4987993,43.5295451],[16.4988168,43.5295078],[16.498923,43.5295409],[16.4989943,43.5295679],[16.4991636,43.529579],[16.4993153,43.5295739],[16.4995033,43.5295629],[16.4997718,43.5295637],[16.4998979,43.5295739],[16.4998956,43.5296043],[16.4997765,43.5296018],[16.499529,43.5296018],[16.4992511,43.5296043],[16.4990421,43.52959],[16.4987993,43.5295451]]]}},{"type":"Feature","id":"way/1096318958","properties":{"natural":"scrub","id":"way/1096318958"},"geometry":{"type":"Polygon","coordinates":[[[16.4987141,43.5295307],[16.4986569,43.5295239],[16.4984911,43.5295036],[16.4983498,43.5294892],[16.4981723,43.5294884],[16.4980124,43.5294884],[16.4978735,43.5295053],[16.497856,43.5294757],[16.4979645,43.5294655],[16.4980393,43.529452],[16.4981128,43.5294528],[16.4983171,43.5294579],[16.4984864,43.5294672],[16.49863,43.5294952],[16.4987187,43.5295222],[16.4987141,43.5295307]]]}},{"type":"Feature","id":"way/1096318960","properties":{"natural":"scrub","id":"way/1096318960"},"geometry":{"type":"Polygon","coordinates":[[[16.5002651,43.5296526],[16.5000315,43.5296146],[16.5001006,43.5293003],[16.5001218,43.5291844],[16.5000044,43.5291707],[16.4999213,43.5291918],[16.4997731,43.5292188],[16.4994049,43.5292346],[16.498985,43.5292528],[16.4983505,43.5292446],[16.4983541,43.5292716],[16.498162,43.5292579],[16.4978518,43.5292626],[16.4978216,43.5292071],[16.4982033,43.5292018],[16.4986224,43.5292105],[16.4988269,43.5292232],[16.498973,43.5292096],[16.4989516,43.5289587],[16.4991434,43.5289431],[16.4993835,43.5289062],[16.4996919,43.5288363],[16.4998048,43.528811],[16.5001665,43.5287266],[16.5002993,43.5287219],[16.5003737,43.5289167],[16.5007002,43.5288894],[16.50066,43.5289723],[16.5004192,43.5290267],[16.5003601,43.5290959],[16.5003601,43.5291652],[16.5003174,43.5292418],[16.5003357,43.5292963],[16.5002741,43.5296073],[16.5002651,43.5296526]]]}},{"type":"Feature","id":"way/1096318963","properties":{"natural":"wood","id":"way/1096318963"},"geometry":{"type":"Polygon","coordinates":[[[16.4967619,43.5296741],[16.4968327,43.5296588],[16.4971384,43.5296569],[16.4971757,43.5296475],[16.4973047,43.529682],[16.4971299,43.529738],[16.4972234,43.5298412],[16.4972295,43.5299311],[16.4971685,43.5299282],[16.4970181,43.5297675],[16.4968656,43.5297542],[16.4967619,43.5296741]]]}},{"type":"Feature","id":"way/1096318964","properties":{"natural":"grassland","id":"way/1096318964"},"geometry":{"type":"Polygon","coordinates":[[[16.496299,43.5302114],[16.496307,43.5300096],[16.4961891,43.5299447],[16.4961416,43.5298084],[16.4967619,43.5296741],[16.4968656,43.5297542],[16.4970181,43.5297675],[16.4971685,43.5299282],[16.4972295,43.5299311],[16.4972234,43.5298412],[16.4971299,43.529738],[16.4973047,43.529682],[16.4971757,43.5296475],[16.4975061,43.5295639],[16.4976055,43.5296857],[16.4977478,43.529683],[16.4979474,43.5297343],[16.4976101,43.5297313],[16.4975762,43.5300705],[16.496689,43.5301164],[16.4966991,43.5302785],[16.4965507,43.5302785],[16.4965487,43.5301989],[16.4964196,43.5302101],[16.496299,43.5302114]]]}},{"type":"Feature","id":"way/1096723740","properties":{"natural":"wood","id":"way/1096723740"},"geometry":{"type":"Polygon","coordinates":[[[16.4933044,43.5228405],[16.4935411,43.5227716],[16.4936356,43.5229311],[16.4936713,43.5229942],[16.4933751,43.5229678],[16.4933044,43.5228405]]]}},{"type":"Feature","id":"way/1096723741","properties":{"natural":"grassland","id":"way/1096723741"},"geometry":{"type":"Polygon","coordinates":[[[16.4934684,43.5232212],[16.4936772,43.5232258],[16.4937589,43.5233956],[16.4935583,43.5234244],[16.4934684,43.5232212]]]}},{"type":"Feature","id":"way/1096723742","properties":{"natural":"scrub","id":"way/1096723742"},"geometry":{"type":"Polygon","coordinates":[[[16.4937589,43.5233956],[16.4936772,43.5232258],[16.4934684,43.5232212],[16.4933828,43.5230275],[16.493403,43.5230181],[16.4933751,43.5229678],[16.4936713,43.5229942],[16.4938605,43.5233282],[16.4938744,43.523352],[16.4938343,43.5233766],[16.4938267,43.5233785],[16.4937589,43.5233956]]]}},{"type":"Feature","id":"way/1096723743","properties":{"natural":"scrub","id":"way/1096723743"},"geometry":{"type":"Polygon","coordinates":[[[16.4938744,43.523352],[16.4938605,43.5233282],[16.4940594,43.5232775],[16.4938703,43.5229266],[16.4942962,43.5228323],[16.4943753,43.522982],[16.4945081,43.522949],[16.4945926,43.5231366],[16.4945282,43.5231639],[16.4946315,43.5233486],[16.4952457,43.5232164],[16.4953006,43.523327],[16.4952778,43.5233571],[16.4952845,43.5234252],[16.4952402,43.5234942],[16.4951436,43.5235195],[16.4951343,43.5235098],[16.4952094,43.5234777],[16.4951101,43.5234271],[16.495094,43.5234942],[16.495072,43.5234986],[16.4949335,43.5235259],[16.4949026,43.523504],[16.4949079,43.5234591],[16.4947984,43.5235103],[16.4946496,43.5235724],[16.4947381,43.5237507],[16.4946675,43.5237678],[16.4945813,43.5235952],[16.4943727,43.5236561],[16.4942062,43.5236939],[16.493916,43.5237384],[16.4938144,43.5237655],[16.4938307,43.5238103],[16.4937385,43.5238247],[16.4937035,43.5238052],[16.4936276,43.5238306],[16.4934326,43.5238924],[16.493449,43.5239762],[16.4935059,43.5240075],[16.4935739,43.5240448],[16.4937198,43.524099],[16.4937106,43.5241549],[16.4936825,43.5241568],[16.4936422,43.5241724],[16.4936556,43.5242064],[16.4935832,43.5242317],[16.4934665,43.5242813],[16.4934773,43.5243445],[16.4934665,43.5243688],[16.4935148,43.5245604],[16.4935765,43.5245623],[16.4935698,43.5245789],[16.4934759,43.5245837],[16.4934451,43.5244165],[16.4934169,43.5242405],[16.4933311,43.5242142],[16.4932841,43.524222],[16.4932211,43.5242356],[16.4931809,43.5242308],[16.4932466,43.5241967],[16.4931889,43.5241481],[16.4931876,43.5240839],[16.4930964,43.5240966],[16.4930951,43.5241189],[16.4931272,43.5241471],[16.4930883,43.5241987],[16.4930602,43.5241189],[16.4930535,43.5240781],[16.4932493,43.5240372],[16.4933217,43.5240402],[16.4933257,43.52394],[16.4932949,43.5239244],[16.4930629,43.5239536],[16.4930334,43.5239555],[16.4929583,43.5239604],[16.4929556,43.5238953],[16.492918,43.5238875],[16.492857,43.5239512],[16.4927756,43.5239512],[16.4927243,43.5239833],[16.4926916,43.5239827],[16.4926762,43.5238235],[16.4926037,43.5238342],[16.4924854,43.5238796],[16.4924578,43.5238711],[16.49248,43.523844],[16.4926399,43.5237991],[16.4927216,43.5237932],[16.4928792,43.5238296],[16.4930252,43.5238567],[16.4932809,43.5238635],[16.4934081,43.5238423],[16.4936078,43.5237746],[16.4937303,43.523673],[16.493749,43.5236781],[16.4938646,43.5236501],[16.4939911,43.5235174],[16.4941035,43.5235123],[16.4941256,43.5234873],[16.4941021,43.5233559],[16.4940693,43.5233119],[16.4940123,43.5232998],[16.4939452,43.5233115],[16.4938744,43.523352]]]}},{"type":"Feature","id":"way/1096723752","properties":{"natural":"grassland","id":"way/1096723752"},"geometry":{"type":"Polygon","coordinates":[[[16.4936078,43.5237746],[16.4934944,43.5234892],[16.493666,43.523459],[16.4938426,43.5234464],[16.4938565,43.5234454],[16.4939911,43.5235174],[16.4938646,43.5236501],[16.493749,43.5236781],[16.4937303,43.523673],[16.4936078,43.5237746]]]}},{"type":"Feature","id":"way/1096723764","properties":{"natural":"scrub","id":"way/1096723764"},"geometry":{"type":"Polygon","coordinates":[[[16.4949523,43.5225703],[16.4950552,43.5225921],[16.4952128,43.522584],[16.4953317,43.5225869],[16.4954455,43.5225995],[16.495477,43.5226142],[16.4955065,43.5226761],[16.4955218,43.5227284],[16.4955304,43.5228016],[16.4955024,43.5228804],[16.4954669,43.5229967],[16.4954159,43.5229831],[16.4953208,43.5229995],[16.4951787,43.522631],[16.4949775,43.5226362],[16.4949523,43.5225703]]]}},{"type":"Feature","id":"way/1096723767","properties":{"natural":"scrub","id":"way/1096723767"},"geometry":{"type":"Polygon","coordinates":[[[16.4954982,43.5230934],[16.4955244,43.5230688],[16.4955475,43.5229571],[16.4955876,43.5228655],[16.4956153,43.5227817],[16.4956245,43.5227203],[16.4956091,43.5226834],[16.4955876,43.5226488],[16.4955891,43.5226309],[16.4955999,43.5226131],[16.4956338,43.5226019],[16.4956815,43.5226075],[16.4958125,43.5226041],[16.4959773,43.5225963],[16.4960948,43.5225704],[16.4962757,43.5225335],[16.4964346,43.5224958],[16.4966449,43.5224413],[16.4968648,43.5223528],[16.4969936,43.5223139],[16.4971679,43.5222916],[16.4973289,43.5222313],[16.4973718,43.5222313],[16.4974093,43.5222643],[16.4974308,43.5223061],[16.4973584,43.5223071],[16.4973517,43.5223645],[16.4970781,43.5224355],[16.4968233,43.5224792],[16.4966892,43.5225143],[16.4966275,43.5225716],[16.4966315,43.5226144],[16.4966771,43.5226815],[16.4966757,43.5227574],[16.4966985,43.5228371],[16.496652,43.522874],[16.4965832,43.5229285],[16.4965068,43.5229382],[16.4962847,43.5229319],[16.4961276,43.5229386],[16.4960619,43.5229519],[16.4958842,43.5229878],[16.4957086,43.5230838],[16.4956084,43.5231296],[16.4955668,43.523143],[16.4955345,43.5231497],[16.4955098,43.5231475],[16.4954975,43.5231285],[16.4954982,43.5230934]]]}},{"type":"Feature","id":"way/1193236776","properties":{"natural":"scrub","id":"way/1193236776"},"geometry":{"type":"Polygon","coordinates":[[[16.4888535,43.5306022],[16.4889151,43.5304693],[16.4889998,43.5303487],[16.4890922,43.5302359],[16.4892201,43.5300248],[16.4894789,43.5296462],[16.4895113,43.5296417],[16.4895174,43.5296518],[16.4893849,43.5298729],[16.4893202,43.5300606],[16.4893141,43.5302069],[16.4893757,43.530361],[16.489465,43.5304705],[16.4895467,43.530533],[16.4895883,43.5305687],[16.4895991,43.5305911],[16.4888535,43.5306022]]]}},{"type":"Feature","id":"way/1193236779","properties":{"natural":"scrub","id":"way/1193236779"},"geometry":{"type":"Polygon","coordinates":[[[16.4927611,43.5283216],[16.4928929,43.5283633],[16.4930122,43.5283896],[16.4931512,43.5283981],[16.4931661,43.5284259],[16.4930136,43.5284528],[16.4928003,43.5284829],[16.4926032,43.5284839],[16.4924409,43.5284557],[16.492343,43.528408],[16.4922813,43.528338],[16.4922894,43.5282272],[16.4923122,43.5281144],[16.4923806,43.527953],[16.4924074,43.5277799],[16.4924097,43.5275488],[16.4924772,43.5276194],[16.4924708,43.5277991],[16.4924101,43.5280171],[16.4923806,43.5281329],[16.4923968,43.5281693],[16.4923595,43.5281684],[16.4923279,43.5283538],[16.4924774,43.5284418],[16.4926245,43.528474],[16.4927739,43.5284588],[16.4927611,43.5283216]]]}},{"type":"Feature","id":"way/1193236785","properties":{"natural":"wood","id":"way/1193236785"},"geometry":{"type":"Polygon","coordinates":[[[16.492981,43.5267979],[16.4931483,43.5267307],[16.4932283,43.5268026],[16.4933223,43.526845],[16.4933844,43.5268621],[16.4933699,43.5269039],[16.4933739,43.5269282],[16.4933932,43.5269335],[16.4933693,43.5269724],[16.4931823,43.5268839],[16.493142,43.5268539],[16.4930142,43.5268472],[16.492981,43.5267979]]]}},{"type":"Feature","id":"way/1193236786","properties":{"natural":"scrub","id":"way/1193236786"},"geometry":{"type":"Polygon","coordinates":[[[16.4927085,43.5264427],[16.4929274,43.5268195],[16.492981,43.5267979],[16.4930142,43.5268472],[16.493142,43.5268539],[16.4931823,43.5268839],[16.4930197,43.5271698],[16.492438,43.5265479],[16.4927085,43.5264427]]]}},{"type":"Feature","id":"way/1193236787","properties":{"natural":"grassland","id":"way/1193236787"},"geometry":{"type":"Polygon","coordinates":[[[16.4943441,43.5260941],[16.4945731,43.5261976],[16.4945815,43.5262091],[16.4945448,43.5263432],[16.4943717,43.5262738],[16.4942779,43.526237],[16.4943441,43.5260941]]]}},{"type":"Feature","id":"way/1193236788","properties":{"natural":"grassland","id":"way/1193236788"},"geometry":{"type":"Polygon","coordinates":[[[16.4945704,43.5265287],[16.494612,43.5263354],[16.4946351,43.5262606],[16.4946597,43.5262505],[16.4947214,43.5262394],[16.494766,43.5262483],[16.4949155,43.5262852],[16.4948338,43.5265387],[16.4945704,43.5265287]]]}},{"type":"Feature","properties":{"natural":"scrub","id":"way/1232008607"},"geometry":{"type":"Polygon","coordinates":[[[16.4947829,43.5217153],[16.4949076,43.5216597],[16.4950682,43.5217835],[16.4954626,43.5216184],[16.495382218473825,43.521541612282746],[16.49629852926593,43.5211703177713],[16.4962076,43.5216219],[16.4963723,43.5216264],[16.4966325,43.5215704],[16.4966569,43.5216293],[16.4967402,43.5217428],[16.4972484,43.5215424],[16.4971833,43.5214156],[16.4971331,43.5214401],[16.497104,43.5210605],[16.4976503,43.520964],[16.4977181,43.521179],[16.4978138,43.5213704],[16.4976293,43.521433],[16.4977081,43.5215483],[16.4975289,43.5216205],[16.4976244,43.5217915],[16.4981428,43.5216264],[16.4981576,43.5216496],[16.4977939,43.521774],[16.4974701,43.5218812],[16.4972073,43.5219633],[16.4970587,43.5220088],[16.496949,43.5221243],[16.4968322,43.5222424],[16.4967154,43.52232],[16.4965729,43.5223957],[16.4963163,43.522465],[16.4961164,43.5225131],[16.4958677,43.5225426],[16.495643,43.5225465],[16.4954475,43.5225446],[16.4952748,43.5225245],[16.4953297,43.5225186],[16.4954842,43.5224626],[16.4956184,43.5224523],[16.4956712,43.5224273],[16.4957119,43.5223934],[16.4957261,43.5222474],[16.4956062,43.5222165],[16.4954009,43.5221958],[16.4953013,43.5221546],[16.4952179,43.5220632],[16.4949415,43.5218952],[16.4947829,43.5217153]]]}},{"type":"Feature","id":"way/1232008609","properties":{"landuse":"meadow","id":"way/1232008609"},"geometry":{"type":"Polygon","coordinates":[[[16.5019147,43.5214606],[16.5019736,43.5212742],[16.5022524,43.5212698],[16.5023025,43.521476],[16.5019147,43.5214606]]]}},{"type":"Feature","id":"way/1232008611","properties":{"landuse":"meadow","id":"way/1232008611"},"geometry":{"type":"Polygon","coordinates":[[[16.5026452,43.5215736],[16.5026976,43.5218652],[16.5023535,43.5218827],[16.5024101,43.5217399],[16.502349,43.5215811],[16.5026452,43.5215736]]]}},{"type":"Feature","id":"way/1232008616","properties":{"natural":"scrub","id":"way/1232008616"},"geometry":{"type":"Polygon","coordinates":[[[16.4974779,43.5244317],[16.4974046,43.5243483],[16.4980978,43.5240948],[16.497662,43.5236883],[16.4979356,43.5236533],[16.4983782,43.5235697],[16.4983111,43.5234257],[16.4982601,43.5234049],[16.4986483,43.5233245],[16.4986298,43.523253],[16.4989348,43.5232284],[16.4993449,43.5231428],[16.4993666,43.5231951],[16.4996885,43.523304],[16.4998144,43.5234825],[16.4992321,43.5236317],[16.4990044,43.5236214],[16.4981222,43.5239914],[16.4981852,43.52402],[16.4982421,43.5240459],[16.4984966,43.5239567],[16.4985555,43.5240761],[16.4974779,43.5244317]]]}},{"type":"Feature","id":"way/1232008617","properties":{"natural":"wood","id":"way/1232008617"},"geometry":{"type":"Polygon","coordinates":[[[16.4981852,43.52402],[16.4981222,43.5239914],[16.4990044,43.5236214],[16.4992321,43.5236317],[16.4988398,43.5237497],[16.4985836,43.5238558],[16.4981852,43.52402]]]}},{"type":"Feature","id":"way/1279448339","properties":{"leisure":"garden","id":"way/1279448339"},"geometry":{"type":"Polygon","coordinates":[[[16.5042387,43.5198657],[16.5043487,43.5195195],[16.5045154,43.5195362],[16.5045332,43.5198928],[16.5042387,43.5198657]]]}},{"type":"Feature","id":"way/1340612060","properties":{"natural":"scrub","id":"way/1340612060"},"geometry":{"type":"Polygon","coordinates":[[[16.5045124,43.5272411],[16.5045555,43.5271607],[16.5048097,43.5272199],[16.5048759,43.5270479],[16.5046587,43.5270043],[16.5047527,43.5267876],[16.5047804,43.5266771],[16.5047712,43.5266246],[16.5049421,43.5265278],[16.5048884,43.526472],[16.5047926,43.5264262],[16.5047265,43.5263883],[16.5046859,43.526338],[16.5052736,43.5261797],[16.5053406,43.5259425],[16.5055901,43.5259094],[16.5054703,43.5257956],[16.505769,43.5257864],[16.5058181,43.5257849],[16.5059079,43.5259405],[16.5065181,43.5261058],[16.5063411,43.5266931],[16.5066683,43.5268565],[16.5067028,43.5269575],[16.5065884,43.5270252],[16.5066842,43.5270591],[16.5066302,43.5271108],[16.506561,43.5271439],[16.5064408,43.5271997],[16.5064138,43.5272098],[16.5063615,43.5271981],[16.5062659,43.5272405],[16.506229,43.5272662],[16.506108,43.527322],[16.5060118,43.5273812],[16.5058585,43.5274483],[16.5056844,43.5275136],[16.5055789,43.5275477],[16.5054741,43.5275812],[16.5054233,43.5275856],[16.5053794,43.5276057],[16.5052323,43.5276303],[16.5051437,43.5276443],[16.5050928,43.527642],[16.505005,43.527632],[16.504958,43.5276169],[16.5049172,43.5275862],[16.5048772,43.5275426],[16.5048194,43.5274617],[16.5047401,43.5273863],[16.5046392,43.5273047],[16.5045124,43.5272411]]]}},{"type":"Feature","id":"way/1340612061","properties":{"landuse":"grass","id":"way/1340612061"},"geometry":{"type":"Polygon","coordinates":[[[16.5063615,43.5271981],[16.506417,43.5271203],[16.5064617,43.5270775],[16.5064251,43.5269618],[16.5062665,43.5269125],[16.5063458,43.5267968],[16.50667,43.5269125],[16.5067028,43.5269575],[16.5065884,43.5270252],[16.5066842,43.5270591],[16.5066302,43.5271108],[16.506561,43.5271439],[16.5064408,43.5271997],[16.5064138,43.5272098],[16.5063615,43.5271981]]]}},{"type":"Feature","id":"way/1340612062","properties":{"landuse":"grass","id":"way/1340612062"},"geometry":{"type":"Polygon","coordinates":[[[16.5047926,43.5264262],[16.5046292,43.5264559],[16.5045972,43.5264093],[16.5046448,43.5263515],[16.5046859,43.526338],[16.5047265,43.5263883],[16.5047926,43.5264262]]]}},{"type":"Feature","id":"way/1340612064","properties":{"landuse":"grass","id":"way/1340612064"},"geometry":{"type":"Polygon","coordinates":[[[16.505515,43.5254419],[16.505526,43.5255309],[16.5055941,43.525581],[16.5056917,43.5255935],[16.505776,43.5256289],[16.505484,43.5256397],[16.505515,43.5254419]]]}},{"type":"Feature","id":"way/1340612065","properties":{"landuse":"grass","id":"way/1340612065"},"geometry":{"type":"Polygon","coordinates":[[[16.5064658,43.5251866],[16.5064323,43.5250751],[16.5064321,43.5250349],[16.5066076,43.524997],[16.5067444,43.525313],[16.5068329,43.525489],[16.5069308,43.5256747],[16.5070586,43.5259282],[16.507009,43.5259463],[16.5069354,43.525934],[16.5069067,43.5258712],[16.5069441,43.5258628],[16.5068414,43.5256918],[16.5067153,43.5255242],[16.5066289,43.5252838],[16.5065145,43.5250247],[16.5064748,43.5250366],[16.5065305,43.5251648],[16.5064658,43.5251866]]]}},{"type":"Feature","id":"way/1340612066","properties":{"natural":"scrub","id":"way/1340612066"},"geometry":{"type":"Polygon","coordinates":[[[16.5071316,43.5259015],[16.5069476,43.5253827],[16.5070391,43.5254225],[16.5072252,43.5254352],[16.507242,43.5255986],[16.50727,43.5258509],[16.5071316,43.5259015]]]}},{"type":"Feature","id":"way/1340612070","properties":{"landuse":"grass","id":"way/1340612070"},"geometry":{"type":"Polygon","coordinates":[[[16.5016454,43.5240963],[16.5016392,43.5238615],[16.5017411,43.5239208],[16.5017773,43.5239217],[16.5018068,43.5240327],[16.5018143,43.5240887],[16.5017203,43.5240982],[16.5016454,43.5240963]]]}},{"type":"Feature","id":"way/1426710670","properties":{"natural":"scrub","id":"way/1426710670"},"geometry":{"type":"Polygon","coordinates":[[[16.4901632,43.523602],[16.490452,43.523547],[16.4904677,43.5235953],[16.4903828,43.5236086],[16.4901867,43.523655],[16.4901619,43.5236541],[16.4901305,43.5236143],[16.4900691,43.5234778],[16.4900848,43.5232769],[16.4901214,43.5233035],[16.4901632,43.523602]]]}},{"type":"Feature","id":"way/1426710671","properties":{"landuse":"meadow","id":"way/1426710671"},"geometry":{"type":"Polygon","coordinates":[[[16.4900848,43.5232769],[16.4900913,43.5232002],[16.4903501,43.523149],[16.4903762,43.5231755],[16.4904324,43.5234134],[16.490452,43.523547],[16.4901632,43.523602],[16.4901214,43.5233035],[16.4900848,43.5232769]]]}},{"type":"Feature","id":"way/1426710675","properties":{"natural":"scrub","id":"way/1426710675"},"geometry":{"type":"Polygon","coordinates":[[[16.4892959,43.5236577],[16.48927,43.5236282],[16.4892114,43.5236195],[16.4892614,43.5234732],[16.4892511,43.5232894],[16.4890545,43.5232919],[16.4887367,43.5233378],[16.4885464,43.523326],[16.4883767,43.5233494],[16.4882819,43.5233044],[16.4882284,43.5233506],[16.4882265,43.5233776],[16.4882347,43.5235359],[16.4879637,43.5234982],[16.4878031,43.5234579],[16.4876695,43.5234024],[16.4875761,43.52335],[16.4878768,43.5233175],[16.4880469,43.523258],[16.4880227,43.5232284],[16.488737,43.5232017],[16.489013,43.5232379],[16.4894632,43.5231453],[16.4894924,43.5231405],[16.4894957,43.5232098],[16.4895297,43.5233188],[16.4895114,43.523352],[16.4896185,43.5235244],[16.4896997,43.5235697],[16.4896593,43.5235812],[16.4892959,43.5236577]]]}},{"type":"Feature","id":"way/1426710678","properties":{"natural":"grassland","id":"way/1426710678"},"geometry":{"type":"Polygon","coordinates":[[[16.4873588,43.5235512],[16.4874353,43.5235115],[16.4874168,43.52332],[16.486934,43.522911],[16.4867755,43.52283],[16.4868696,43.5227792],[16.4870532,43.5229154],[16.4875028,43.5232891],[16.4875761,43.52335],[16.4876695,43.5234024],[16.4878031,43.5234579],[16.4879637,43.5234982],[16.4882347,43.5235359],[16.4883222,43.5235461],[16.4883175,43.5236231],[16.4883666,43.5236274],[16.4883666,43.5236347],[16.4880561,43.5236074],[16.4880493,43.5236685],[16.4879096,43.5237181],[16.4878821,43.5235436],[16.4877501,43.5235029],[16.4877396,43.5235529],[16.4875937,43.523574],[16.487526,43.5236011],[16.4874664,43.5236341],[16.4874606,43.523657],[16.4874653,43.5236765],[16.4874898,43.5237103],[16.4875493,43.5237433],[16.4876182,43.5237501],[16.4877443,43.5237349],[16.4877525,43.5237459],[16.4877387,43.5237675],[16.4876227,43.5237823],[16.4875817,43.5237766],[16.4875123,43.5237345],[16.4874233,43.5236582],[16.4873588,43.5235512]]]}},{"type":"Feature","id":"way/1426710679","properties":{"natural":"wood","id":"way/1426710679"},"geometry":{"type":"Polygon","coordinates":[[[16.4877387,43.5237675],[16.4877525,43.5237459],[16.4879113,43.5237289],[16.4879096,43.5237181],[16.4880493,43.5236685],[16.4880827,43.5237156],[16.4879912,43.5237308],[16.4877387,43.5237675]]]}},{"type":"Feature","id":"way/1426710681","properties":{"natural":"wood","id":"way/1426710681"},"geometry":{"type":"Polygon","coordinates":[[[16.4881751,43.5242754],[16.4881267,43.5242401],[16.4881672,43.5242009],[16.4881574,43.5241513],[16.4888288,43.5240499],[16.489252,43.5239859],[16.4893126,43.5240242],[16.4893618,43.5240697],[16.489069,43.5240773],[16.4888129,43.5241124],[16.4885959,43.5241626],[16.48826,43.5242384],[16.4881751,43.5242754]]]}},{"type":"Feature","id":"way/1426710682","properties":{"natural":"wood","id":"way/1426710682"},"geometry":{"type":"Polygon","coordinates":[[[16.4893815,43.5240085],[16.4896158,43.523955],[16.4895788,43.5239066],[16.4898327,43.5238378],[16.4899442,43.5237993],[16.489832,43.5238989],[16.4897149,43.5239685],[16.4896098,43.523986],[16.4894207,43.5240306],[16.4893815,43.5240085]]]}},{"type":"Feature","id":"way/1426710699","properties":{"natural":"grassland","id":"way/1426710699"},"geometry":{"type":"Polygon","coordinates":[[[16.4904271,43.5239636],[16.4904176,43.5239333],[16.4902422,43.5236964],[16.4902646,43.5236925],[16.4905273,43.5236489],[16.4905522,43.5236584],[16.4907077,43.5236195],[16.4908175,43.5235968],[16.4908501,43.5236205],[16.4908697,43.5236527],[16.4908815,43.5237105],[16.4908723,43.5237484],[16.4908397,43.5237692],[16.4907939,43.5237835],[16.4907613,43.5237816],[16.4906737,43.5237389],[16.4904424,43.523774],[16.490479,43.5238915],[16.4907142,43.5238583],[16.49076,43.5238384],[16.4907273,43.5238612],[16.490624,43.5238924],[16.490492,43.5239199],[16.4904933,43.5239512],[16.4904271,43.5239636]]]}},{"type":"Feature","id":"way/1426710709","properties":{"natural":"grassland","id":"way/1426710709"},"geometry":{"type":"Polygon","coordinates":[[[16.4868199,43.52473],[16.4870943,43.5247323],[16.487095,43.524743],[16.4872374,43.524743],[16.4871817,43.5248337],[16.4872864,43.5248725],[16.4873216,43.5249715],[16.4872511,43.524974],[16.4872079,43.525021],[16.4867346,43.5251167],[16.4867414,43.5250573],[16.4867698,43.5250532],[16.4868199,43.52473]]]}},{"type":"Feature","id":"way/1426710712","properties":{"natural":"wood","id":"way/1426710712"},"geometry":{"type":"Polygon","coordinates":[[[16.4877212,43.5245681],[16.4876663,43.5244819],[16.4877839,43.524389],[16.4878754,43.5244601],[16.4877212,43.5245681]]]}},{"type":"Feature","id":"way/1426710713","properties":{"natural":"grassland","id":"way/1426710713"},"geometry":{"type":"Polygon","coordinates":[[[16.4875735,43.5247392],[16.4874611,43.524743],[16.4874665,43.524568],[16.4875295,43.5245621],[16.487555,43.5244347],[16.4875748,43.5244421],[16.4876414,43.5245236],[16.4876689,43.5245084],[16.4876454,43.5244515],[16.4876806,43.5244089],[16.4872441,43.5239825],[16.4872598,43.5239777],[16.4877839,43.524389],[16.4876663,43.5244819],[16.4877212,43.5245681],[16.4876454,43.5245984],[16.4875735,43.5247392]]]}},{"type":"Feature","id":"way/1426710714","properties":{"natural":"scrub","id":"way/1426710714"},"geometry":{"type":"Polygon","coordinates":[[[16.4876728,43.5247358],[16.4875735,43.5247392],[16.4876454,43.5245984],[16.4877212,43.5245681],[16.4878754,43.5244601],[16.4879041,43.5244894],[16.4877761,43.5245908],[16.4877029,43.5246865],[16.4876728,43.5247358]]]}},{"type":"Feature","id":"way/1461929233","properties":{"natural":"grassland","id":"way/1461929233"},"geometry":{"type":"Polygon","coordinates":[[[16.4955345,43.5231497],[16.4955668,43.523143],[16.4956084,43.5231296],[16.4957086,43.5230838],[16.4958842,43.5229878],[16.4960619,43.5229519],[16.4960688,43.5229854],[16.4961042,43.5231116],[16.4961427,43.523316],[16.4961666,43.5234742],[16.4961908,43.5234995],[16.4962645,43.523484],[16.4963034,43.5235024],[16.4963303,43.523519],[16.4963383,43.5236211],[16.4965793,43.5235775],[16.4965971,43.5236592],[16.4962324,43.5236891],[16.4958474,43.5237429],[16.4957586,43.5237099],[16.4954984,43.523673],[16.4954398,43.5236629],[16.4954013,43.5236461],[16.4953966,43.523623],[16.4953946,43.5235743],[16.4953987,43.523424],[16.4954576,43.5232442],[16.4955471,43.5231852],[16.4955345,43.5231497]]]}},{"type":"Feature","id":"way/1461929236","properties":{"natural":"grassland","id":"way/1461929236"},"geometry":{"type":"Polygon","coordinates":[[[16.4976015,43.5226554],[16.4978943,43.5224654],[16.4979736,43.5225509],[16.4980427,43.5226644],[16.4980447,43.5227219],[16.4981016,43.5227145],[16.4980468,43.5226423],[16.4984492,43.5225907],[16.4987155,43.5225362],[16.499057,43.5224831],[16.4991529,43.5226719],[16.4991176,43.5227109],[16.499057,43.522691],[16.498685,43.5227396],[16.4985509,43.5227396],[16.4982338,43.5227794],[16.4982662,43.5228553],[16.4981676,43.5228107],[16.4978996,43.5228218],[16.497838,43.5228531],[16.4976361,43.5228442],[16.4976809,43.5226571],[16.4976015,43.5226554]]]}},{"type":"Feature","id":"way/1461929238","properties":{"natural":"scrub","id":"way/1461929238"},"geometry":{"type":"Polygon","coordinates":[[[16.499057,43.5224831],[16.4987155,43.5225362],[16.4984492,43.5225907],[16.4980468,43.5226423],[16.4981016,43.5227145],[16.4980447,43.5227219],[16.4980427,43.5226644],[16.4979736,43.5225509],[16.4978943,43.5224654],[16.4978496,43.5224168],[16.4978435,43.5223505],[16.4980183,43.5222724],[16.4982338,43.5222031],[16.4982866,43.5222016],[16.4984248,43.5221515],[16.4984919,43.5221043],[16.4985712,43.522097],[16.4987135,43.5220321],[16.4987989,43.5219643],[16.4988517,43.521954],[16.4989005,43.5220203],[16.4989757,43.5222385],[16.4990153,43.5223223],[16.499053,43.5224021],[16.499057,43.5224831]]]}},{"type":"Feature","id":"way/1461929243","properties":{"natural":"wood","id":"way/1461929243"},"geometry":{"type":"Polygon","coordinates":[[[16.4973533,43.522043],[16.4973629,43.5219683],[16.4976018,43.5218952],[16.497738,43.5218695],[16.4979504,43.52179],[16.4981415,43.5217322],[16.4984813,43.5216039],[16.4985724,43.5216818],[16.4985065,43.5216957],[16.4982452,43.5217364],[16.4981705,43.5217661],[16.4980726,43.5218064],[16.4978978,43.5219331],[16.4977092,43.5219811],[16.4974711,43.5220003],[16.4973533,43.522043]]]}},{"type":"Feature","id":"way/1461929244","properties":{"natural":"scrub","id":"way/1461929244"},"geometry":{"type":"Polygon","coordinates":[[[16.4984813,43.5216039],[16.4985635,43.52157],[16.4986654,43.5215253],[16.4988116,43.5215],[16.4988719,43.5214582],[16.4989967,43.5214329],[16.4992475,43.5213561],[16.4996136,43.5212413],[16.4998818,43.5211616],[16.4999797,43.521251],[16.5001594,43.521253],[16.500201,43.5211635],[16.5002533,43.5211207],[16.5002868,43.5211626],[16.5003177,43.5212297],[16.5001071,43.5212948],[16.5000307,43.5213084],[16.5000883,43.5214251],[16.5000776,43.521465],[16.5000803,43.5215068],[16.5001835,43.5214854],[16.5002519,43.5214932],[16.5002935,43.5214728],[16.5002828,43.5214319],[16.5002721,43.5213775],[16.5002855,43.5212929],[16.5003244,43.5212792],[16.5003552,43.5214105],[16.5003881,43.5215211],[16.5001168,43.5215859],[16.5000241,43.5216674],[16.4995048,43.5218185],[16.4992079,43.5219087],[16.4991181,43.5218449],[16.4993984,43.521811],[16.4994999,43.5217742],[16.4998579,43.5216704],[16.4999786,43.5215613],[16.4999356,43.5214678],[16.4998132,43.5213982],[16.4995816,43.5214006],[16.4993732,43.5215014],[16.4991284,43.5215709],[16.4988142,43.5216309],[16.4985724,43.5216818],[16.4984813,43.5216039]]]}},{"type":"Feature","id":"way/1461929248","properties":{"landuse":"meadow","id":"way/1461929248"},"geometry":{"type":"Polygon","coordinates":[[[16.4996517,43.5222978],[16.4993786,43.5223562],[16.4993482,43.5222787],[16.4992079,43.5219087],[16.4995048,43.5218185],[16.4996517,43.5222978]]]}},{"type":"Feature","id":"way/1461929249","properties":{"natural":"wood","id":"way/1461929249"},"geometry":{"type":"Polygon","coordinates":[[[16.500056,43.5243167],[16.5000093,43.5243539],[16.4998926,43.5243556],[16.4998832,43.5242608],[16.4998132,43.5242591],[16.4997852,43.5241965],[16.4998529,43.5240136],[16.4999274,43.5238267],[16.5000434,43.5237997],[16.5000794,43.5238037],[16.5002218,43.5238799],[16.5002218,43.5239256],[16.5002592,43.5241321],[16.500077,43.5240373],[16.5001051,43.5238951],[16.4999299,43.5239865],[16.4999416,43.5240644],[16.499993,43.5242083],[16.5000444,43.5242422],[16.500056,43.5243167]]]}},{"type":"Feature","id":"way/1461929250","properties":{"natural":"scrub","id":"way/1461929250"},"geometry":{"type":"Polygon","coordinates":[[[16.5022707,43.5231487],[16.5020843,43.5231666],[16.501636,43.523247],[16.5016188,43.5233527],[16.5011615,43.5233828],[16.5008584,43.523412],[16.5008426,43.5232559],[16.5010752,43.5231934],[16.5013679,43.5231353],[16.5015374,43.5230917],[16.5020103,43.5229756],[16.5021798,43.5229342],[16.5022614,43.5229454],[16.5022522,43.5230348],[16.5023246,43.5230638],[16.5023369,43.5231107],[16.5022707,43.5231487]]]}},{"type":"Feature","id":"way/1461929251","properties":{"natural":"scrub","id":"way/1461929251"},"geometry":{"type":"Polygon","coordinates":[[[16.5009783,43.5243119],[16.5010469,43.5242443],[16.5015469,43.5241795],[16.5016303,43.5243637],[16.5014311,43.5243622],[16.5014288,43.5244111],[16.5012331,43.5244072],[16.5009783,43.5243119]]]}},{"type":"Feature","properties":{"natural":"scrub","id":"way/1461929253"},"geometry":{"type":"Polygon","coordinates":[[[16.5004698,43.5210053],[16.5005264,43.5210181],[16.500652,43.5211785],[16.5007352,43.5211349],[16.5007954,43.5210207],[16.5008113,43.5209565],[16.5008803,43.5209154],[16.5011652,43.5208128],[16.5015616,43.520714],[16.5018554,43.5206498],[16.5022482,43.5206101],[16.5026092,43.5206293],[16.5029277,43.5206639],[16.5031277,43.5206999],[16.5034462,43.5207024],[16.5037966,43.5206858],[16.5042337,43.520637],[16.5042379,43.5207153],[16.5038894,43.5207528],[16.5039013,43.5209042],[16.5037575,43.5208196],[16.503434,43.5208665],[16.5032291,43.5208643],[16.5029703,43.520843],[16.5027916,43.5208721],[16.5024819,43.520833],[16.5021492,43.5208151],[16.5022278,43.5210743],[16.5020537,43.5210776],[16.5020937,43.5208721],[16.5018503,43.5208598],[16.5017425,43.5208754],[16.5011816,43.5211062],[16.5009744,43.5211409],[16.5008776,43.521277],[16.5007972,43.5212837],[16.5006945,43.521344],[16.5005813,43.5213299],[16.5005459,43.5212709],[16.5004698,43.5210053]]]}}]}