{"type":"FeatureCollection","features":[{"type":"Feature","properties":{"segment":1,"source":"GUP Split 2024. — nacrt","width_m":23.3},"geometry":{"type":"Polygon","coordinates":[[[16.495225,43.529148],[16.495175,43.529202],[16.495014,43.529229],[16.494742,43.529256],[16.494668,43.529058],[16.494668,43.52895],[16.494779,43.528842],[16.494891,43.528689],[16.494952,43.528743],[16.494952,43.528869],[16.495051,43.528869],[16.495088,43.528914],[16.495126,43.528977],[16.495225,43.529148]]]}},{"type":"Feature","properties":{"segment":2,"source":"GUP Split 2024. — nacrt","width_m":26.9},"geometry":{"type":"Polygon","coordinates":[[[16.494346,43.528428],[16.494309,43.528428],[16.49426,43.528311],[16.494161,43.52814],[16.494433,43.528068],[16.494519,43.528032],[16.49468,43.528005],[16.494767,43.528095],[16.494792,43.528194],[16.494643,43.528257],[16.494581,43.528284],[16.494445,43.528374],[16.494433,43.528383],[16.49442,43.528392],[16.494383,43.52841],[16.494346,43.528428]]]}},{"type":"Feature","properties":{"segment":3,"source":"GUP Split 2024. — nacrt","width_m":22.7},"geometry":{"type":"Polygon","coordinates":[[[16.500148,43.527996],[16.50026,43.527987],[16.50026,43.528203],[16.500099,43.528239],[16.499876,43.52823],[16.499852,43.528194],[16.499616,43.528212],[16.499616,43.528167],[16.49948,43.528158],[16.499419,43.528095],[16.499443,43.528077],[16.499542,43.528068],[16.499641,43.528059],[16.499802,43.528041],[16.500087,43.528005],[16.500148,43.527996]]]}},{"type":"Feature","properties":{"segment":4,"source":"GUP Split 2024. — nacrt","width_m":20},"geometry":{"type":"Polygon","coordinates":[[[16.499443,43.528077],[16.499431,43.528032],[16.499443,43.527969],[16.499468,43.527861],[16.499555,43.527834],[16.499728,43.527843],[16.499728,43.527897],[16.500099,43.527942],[16.500111,43.527888],[16.50026,43.527897],[16.50026,43.527978],[16.500148,43.527996],[16.500087,43.528005],[16.499802,43.528041],[16.499641,43.528059],[16.499542,43.528068],[16.499443,43.528077]]]}},{"type":"Feature","properties":{"segment":5,"source":"GUP Split 2024. — nacrt","width_m":25.5},"geometry":{"type":"Polygon","coordinates":[[[16.499122,43.527879],[16.499171,43.527816],[16.499456,43.527852],[16.499443,43.527969],[16.499431,43.528032],[16.499443,43.528077],[16.499419,43.528095],[16.499406,43.528158],[16.499258,43.528176],[16.499097,43.528176],[16.499072,43.528095],[16.499085,43.528041],[16.499097,43.527987],[16.499109,43.527933],[16.499122,43.527879]]]}},{"type":"Feature","properties":{"segment":6,"source":"GUP Split 2024. — nacrt","width_m":33.5},"geometry":{"type":"Polygon","coordinates":[[[16.498441,43.52814],[16.498206,43.52814],[16.498033,43.528158],[16.497798,43.528158],[16.497588,43.528176],[16.497315,43.528221],[16.497167,43.528266],[16.496907,43.52832],[16.496821,43.528293],[16.497093,43.528248],[16.497365,43.528149],[16.497476,43.528095],[16.497427,43.528014],[16.497291,43.528014],[16.497056,43.528131],[16.496981,43.528185],[16.496981,43.528257],[16.496821,43.528284],[16.496821,43.528158],[16.496882,43.528122],[16.49692,43.528032],[16.497031,43.528005],[16.497056,43.527996],[16.49708,43.527987],[16.497105,43.527978],[16.49713,43.527969],[16.497241,43.527897],[16.497254,43.527888],[16.497266,43.527879],[16.497328,43.527834],[16.497377,43.52778],[16.497402,43.527753],[16.497414,43.527735],[16.497526,43.527753],[16.497909,43.527753],[16.497909,43.527717],[16.498082,43.527717],[16.49812,43.527762],[16.498416,43.527762],[16.498577,43.527735],[16.498627,43.527771],[16.49901,43.527798],[16.499134,43.52778],[16.499109,43.527843],[16.499085,43.527852],[16.499047,43.52787],[16.49901,43.527888],[16.498973,43.527906],[16.498924,43.527933],[16.498887,43.527951],[16.498849,43.527969],[16.498837,43.527978],[16.4988,43.527996],[16.498763,43.528014],[16.498738,43.528023],[16.498713,43.528032],[16.498652,43.528059],[16.498627,43.528068],[16.498602,43.528077],[16.498577,43.528086],[16.498553,43.528095],[16.498528,43.528104],[16.498466,43.528131],[16.498441,43.52814]]]}}]}
