{"type":"FeatureCollection","name":"AR_V_HOUSENUMBERS_PT_HTRS","crs":{"type":"name","properties":{"name":"urn:ogc:def:crs:OGC:1.3:CRS84"}},"xy_coordinate_resolution":0.000001,"features":[{"type":"Feature","properties":{"broj":1,"ulica":"MOSTINE","popisni_krug":"002","statisticki_krug":"0110701"},"geometry":{"type":"Point","coordinates":[16.490424,43.524582]}},{"type":"Feature","properties":{"broj":1,"ulica":"KAREPOVAC","popisni_krug":"002","statisticki_krug":"0110701"},"geometry":{"type":"Point","coordinates":[16.496877,43.522444]}},{"type":"Feature","properties":{"broj":1,"ulica":"DRAČEVAC","popisni_krug":"002","statisticki_krug":"0110701"},"geometry":{"type":"Point","coordinates":[16.49944,43.52851]}},{"type":"Feature","properties":{"broj":1,"ulica":"DRAČEVAC","popisni_krug":"002","statisticki_krug":"0110701"},"geometry":{"type":"Point","coordinates":[16.499501,43.528212]}},{"type":"Feature","properties":{"broj":1,"ulica":"DRAČEVAC","popisni_krug":"002","statisticki_krug":"0110701"},"geometry":{"type":"Point","coordinates":[16.499526,43.528137]}},{"type":"Feature","properties":{"broj":1,"ulica":"MOSTINE","popisni_krug":"002","statisticki_krug":"0110701"},"geometry":{"type":"Point","coordinates":[16.490251,43.524344]}},{"type":"Feature","properties":{"broj":1,"ulica":"DRAČEVAC","popisni_krug":"002","statisticki_krug":"0110701"},"geometry":{"type":"Point","coordinates":[16.499763,43.528186]}},{"type":"Feature","properties":{"broj":1,"ulica":"DRAČEVAC","popisni_krug":"002","statisticki_krug":"0110701"},"geometry":{"type":"Point","coordinates":[16.499691,43.528398]}},{"type":"Feature","properties":{"broj":1,"ulica":"DRAČEVAC","popisni_krug":"002","statisticki_krug":"0110701"},"geometry":{"type":"Point","coordinates":[16.499298,43.528136]}},{"type":"Feature","properties":{"broj":1,"ulica":"BILICE I","popisni_krug":"001","statisticki_krug":"0110663"},"geometry":{"type":"Point","coordinates":[16.490048,43.527511]}},{"type":"Feature","properties":{"broj":1,"ulica":"MOSTINE","popisni_krug":"002","statisticki_krug":"0110701"},"geometry":{"type":"Point","coordinates":[16.490814,43.524731]}},{"type":"Feature","properties":{"broj":1,"ulica":"BILICE II","popisni_krug":"003","statisticki_krug":"0110701"},"geometry":{"type":"Point","coordinates":[16.491065,43.526425]}},{"type":"Feature","properties":{"broj":1,"ulica":"KAREPOVAC","popisni_krug":"002","statisticki_krug":"0110701"},"geometry":{"type":"Point","coordinates":[16.497142,43.522389]}},{"type":"Feature","properties":{"broj":1,"ulica":"DRAČEVAC","popisni_krug":"002","statisticki_krug":"0110701"},"geometry":{"type":"Point","coordinates":[16.499108,43.528695]}},{"type":"Feature","properties":{"broj":1,"ulica":"MOSTINE","popisni_krug":"002","statisticki_krug":"0110701"},"geometry":{"type":"Point","coordinates":[16.491103,43.525082]}},{"type":"Feature","properties":{"broj":1,"ulica":"DRAČEVAC","popisni_krug":"002","statisticki_krug":"0110701"},"geometry":{"type":"Point","coordinates":[16.496816,43.528422]}},{"type":"Feature","properties":{"broj":1,"ulica":"DRAČEVAC","popisni_krug":"002","statisticki_krug":"0110701"},"geometry":{"type":"Point","coordinates":[16.497003,43.52842]}},{"type":"Feature","properties":{"broj":1,"ulica":"DRAČEVAC","popisni_krug":"002","statisticki_krug":"0110701"},"geometry":{"type":"Point","coordinates":[16.49806,43.528585]}},{"type":"Feature","properties":{"broj":1,"ulica":"DRAČEVAC","popisni_krug":"002","statisticki_krug":"0110701"},"geometry":{"type":"Point","coordinates":[16.498353,43.528684]}},{"type":"Feature","properties":{"broj":1,"ulica":"MOSTINE","popisni_krug":"002","statisticki_krug":"0110701"},"geometry":{"type":"Point","coordinates":[16.492442,43.524644]}},{"type":"Feature","properties":{"broj":1,"ulica":"KAREPOVAC","popisni_krug":"001","statisticki_krug":"0110701"},"geometry":{"type":"Point","coordinates":[16.49821,43.521244]}},{"type":"Feature","properties":{"broj":1,"ulica":"DRAČEVAC","popisni_krug":"002","statisticki_krug":"0110701"},"geometry":{"type":"Point","coordinates":[16.500645,43.526976]}},{"type":"Feature","properties":{"broj":1,"ulica":"DRAČEVAC","popisni_krug":"002","statisticki_krug":"0110701"},"geometry":{"type":"Point","coordinates":[16.499542,43.526276]}},{"type":"Feature","properties":{"broj":1,"ulica":"MOSTINE","popisni_krug":"002","statisticki_krug":"0110701"},"geometry":{"type":"Point","coordinates":[16.492907,43.524964]}},{"type":"Feature","properties":{"broj":1,"ulica":"BILICE I","popisni_krug":"001","statisticki_krug":"0110663"},"geometry":{"type":"Point","coordinates":[16.489815,43.527597]}},{"type":"Feature","properties":{"broj":1,"ulica":"BILICE I","popisni_krug":"001","statisticki_krug":"0110663"},"geometry":{"type":"Point","coordinates":[16.489908,43.52753]}},{"type":"Feature","properties":{"broj":1,"ulica":"MOSTINE","popisni_krug":"002","statisticki_krug":"0110701"},"geometry":{"type":"Point","coordinates":[16.492589,43.524573]}},{"type":"Feature","properties":{"broj":1,"ulica":"BILICE II","popisni_krug":"003","statisticki_krug":"0110701"},"geometry":{"type":"Point","coordinates":[16.491158,43.526633]}},{"type":"Feature","properties":{"broj":1,"ulica":"DRAČEVAC","popisni_krug":"002","statisticki_krug":"0110701"},"geometry":{"type":"Point","coordinates":[16.501173,43.527013]}},{"type":"Feature","properties":{"broj":1,"ulica":"DRAČEVAC","popisni_krug":"002","statisticki_krug":"0110701"},"geometry":{"type":"Point","coordinates":[16.501063,43.527064]}},{"type":"Feature","properties":{"broj":1,"ulica":"DRAČEVAC","popisni_krug":"002","statisticki_krug":"0110701"},"geometry":{"type":"Point","coordinates":[16.501502,43.527616]}},{"type":"Feature","properties":{"broj":1,"ulica":"MOSTINE","popisni_krug":"002","statisticki_krug":"0110701"},"geometry":{"type":"Point","coordinates":[16.492875,43.5246]}},{"type":"Feature","properties":{"broj":1,"ulica":"DRAČEVAC","popisni_krug":"002","statisticki_krug":"0110701"},"geometry":{"type":"Point","coordinates":[16.500738,43.526969]}},{"type":"Feature","properties":{"broj":1,"ulica":"BILICE I","popisni_krug":"001","statisticki_krug":"0110663"},"geometry":{"type":"Point","coordinates":[16.489717,43.527529]}},{"type":"Feature","properties":{"broj":1,"ulica":"MOSTINE","popisni_krug":"002","statisticki_krug":"0110701"},"geometry":{"type":"Point","coordinates":[16.493466,43.524689]}},{"type":"Feature","properties":{"broj":1,"ulica":"BILICE II","popisni_krug":"003","statisticki_krug":"0110701"},"geometry":{"type":"Point","coordinates":[16.491844,43.526057]}},{"type":"Feature","properties":{"broj":1,"ulica":"DRAČEVAC","popisni_krug":"002","statisticki_krug":"0110701"},"geometry":{"type":"Point","coordinates":[16.502438,43.527727]}},{"type":"Feature","properties":{"broj":1,"ulica":"DRAČEVAC","popisni_krug":"002","statisticki_krug":"0110701"},"geometry":{"type":"Point","coordinates":[16.502812,43.527642]}},{"type":"Feature","properties":{"broj":1,"ulica":"DRAČEVAC","popisni_krug":"002","statisticki_krug":"0110701"},"geometry":{"type":"Point","coordinates":[16.502796,43.527767]}},{"type":"Feature","properties":{"broj":1,"ulica":"DRAČEVAC","popisni_krug":"002","statisticki_krug":"0110701"},"geometry":{"type":"Point","coordinates":[16.503077,43.527924]}},{"type":"Feature","properties":{"broj":1,"ulica":"MOSTINE","popisni_krug":"002","statisticki_krug":"0110701"},"geometry":{"type":"Point","coordinates":[16.49374,43.524882]}},{"type":"Feature","properties":{"broj":1,"ulica":"BILICE II","popisni_krug":"003","statisticki_krug":"0110701"},"geometry":{"type":"Point","coordinates":[16.492467,43.527648]}},{"type":"Feature","properties":{"broj":1,"ulica":"DRAČEVAC","popisni_krug":"002","statisticki_krug":"0110701"},"geometry":{"type":"Point","coordinates":[16.504028,43.528093]}},{"type":"Feature","properties":{"broj":1,"ulica":"DRAČEVAC","popisni_krug":"002","statisticki_krug":"0110701"},"geometry":{"type":"Point","coordinates":[16.5039,43.527743]}},{"type":"Feature","properties":{"broj":1,"ulica":"MOSTINE","popisni_krug":"002","statisticki_krug":"0110701"},"geometry":{"type":"Point","coordinates":[16.495252,43.523629]}},{"type":"Feature","properties":{"broj":1,"ulica":"DRAČEVAC","popisni_krug":"002","statisticki_krug":"0110701"},"geometry":{"type":"Point","coordinates":[16.504028,43.527747]}},{"type":"Feature","properties":{"broj":1,"ulica":"MOSTINE","popisni_krug":"002","statisticki_krug":"0110701"},"geometry":{"type":"Point","coordinates":[16.49412,43.52444]}},{"type":"Feature","properties":{"broj":1,"ulica":"DRAČEVAC","popisni_krug":"002","statisticki_krug":"0110701"},"geometry":{"type":"Point","coordinates":[16.503445,43.528037]}},{"type":"Feature","properties":{"broj":1,"ulica":"BILICE I","popisni_krug":"001","statisticki_krug":"0110663"},"geometry":{"type":"Point","coordinates":[16.4895,43.527669]}},{"type":"Feature","properties":{"broj":1,"ulica":"BILICE II","popisni_krug":"003","statisticki_krug":"0110701"},"geometry":{"type":"Point","coordinates":[16.491916,43.52628]}},{"type":"Feature","properties":{"broj":1,"ulica":"DRAČEVAC","popisni_krug":"002","statisticki_krug":"0110701"},"geometry":{"type":"Point","coordinates":[16.502467,43.5242]}},{"type":"Feature","properties":{"broj":1,"ulica":"DRAČEVAC","popisni_krug":"002","statisticki_krug":"0110701"},"geometry":{"type":"Point","coordinates":[16.501605,43.526636]}},{"type":"Feature","properties":{"broj":1,"ulica":"DRAČEVAC","popisni_krug":"002","statisticki_krug":"0110701"},"geometry":{"type":"Point","coordinates":[16.501549,43.526568]}},{"type":"Feature","properties":{"broj":1,"ulica":"DRAČEVAC","popisni_krug":"002","statisticki_krug":"0110701"},"geometry":{"type":"Point","coordinates":[16.502019,43.526266]}},{"type":"Feature","properties":{"broj":1,"ulica":"DRAČEVAC","popisni_krug":"002","statisticki_krug":"0110701"},"geometry":{"type":"Point","coordinates":[16.502088,43.526205]}},{"type":"Feature","properties":{"broj":1,"ulica":"DRAČEVAC","popisni_krug":"002","statisticki_krug":"0110701"},"geometry":{"type":"Point","coordinates":[16.502466,43.525591]}},{"type":"Feature","properties":{"broj":1,"ulica":"DRAČEVAC","popisni_krug":"002","statisticki_krug":"0110701"},"geometry":{"type":"Point","coordinates":[16.502453,43.525819]}},{"type":"Feature","properties":{"broj":1,"ulica":"MOSTINE","popisni_krug":"001","statisticki_krug":"0110701"},"geometry":{"type":"Point","coordinates":[16.491562,43.522865]}},{"type":"Feature","properties":{"broj":1,"ulica":"BILICE II","popisni_krug":"003","statisticki_krug":"0110701"},"geometry":{"type":"Point","coordinates":[16.492576,43.527659]}},{"type":"Feature","properties":{"broj":1,"ulica":"DRAČEVAC","popisni_krug":"002","statisticki_krug":"0110701"},"geometry":{"type":"Point","coordinates":[16.504147,43.52741]}},{"type":"Feature","properties":{"broj":1,"ulica":"DRAČEVAC","popisni_krug":"002","statisticki_krug":"0110701"},"geometry":{"type":"Point","coordinates":[16.504031,43.526874]}},{"type":"Feature","properties":{"broj":1,"ulica":"DRAČEVAC","popisni_krug":"002","statisticki_krug":"0110701"},"geometry":{"type":"Point","coordinates":[16.504305,43.52677]}},{"type":"Feature","properties":{"broj":1,"ulica":"DRAČEVAC","popisni_krug":"002","statisticki_krug":"0110701"},"geometry":{"type":"Point","coordinates":[16.503695,43.526933]}},{"type":"Feature","properties":{"broj":1,"ulica":"DRAČEVAC","popisni_krug":"002","statisticki_krug":"0110701"},"geometry":{"type":"Point","coordinates":[16.503941,43.526999]}},{"type":"Feature","properties":{"broj":1,"ulica":"BILICE I","popisni_krug":"001","statisticki_krug":"0110663"},"geometry":{"type":"Point","coordinates":[16.489318,43.527346]}},{"type":"Feature","properties":{"broj":1,"ulica":"MOSTINE","popisni_krug":"001","statisticki_krug":"0110701"},"geometry":{"type":"Point","coordinates":[16.491825,43.522981]}},{"type":"Feature","properties":{"broj":1,"ulica":"BILICE II","popisni_krug":"002","statisticki_krug":"0110701"},"geometry":{"type":"Point","coordinates":[16.492302,43.526007]}},{"type":"Feature","properties":{"broj":1,"ulica":"DRAČEVAC","popisni_krug":"002","statisticki_krug":"0110701"},"geometry":{"type":"Point","coordinates":[16.5004,43.526333]}},{"type":"Feature","properties":{"broj":1,"ulica":"DRAČEVAC","popisni_krug":"002","statisticki_krug":"0110701"},"geometry":{"type":"Point","coordinates":[16.501044,43.52666]}},{"type":"Feature","properties":{"broj":1,"ulica":"DRAČEVAC","popisni_krug":"002","statisticki_krug":"0110701"},"geometry":{"type":"Point","coordinates":[16.500871,43.526472]}},{"type":"Feature","properties":{"broj":1,"ulica":"DRAČEVAC","popisni_krug":"002","statisticki_krug":"0110701"},"geometry":{"type":"Point","coordinates":[16.501335,43.526432]}},{"type":"Feature","properties":{"broj":1,"ulica":"DRAČEVAC","popisni_krug":"002","statisticki_krug":"0110701"},"geometry":{"type":"Point","coordinates":[16.501457,43.526362]}},{"type":"Feature","properties":{"broj":1,"ulica":"DRAČEVAC","popisni_krug":"002","statisticki_krug":"0110701"},"geometry":{"type":"Point","coordinates":[16.501674,43.526203]}},{"type":"Feature","properties":{"broj":1,"ulica":"MOSTINE","popisni_krug":"002","statisticki_krug":"0110701"},"geometry":{"type":"Point","coordinates":[16.493198,43.523071]}},{"type":"Feature","properties":{"broj":1,"ulica":"BILICE II","popisni_krug":"003","statisticki_krug":"0110701"},"geometry":{"type":"Point","coordinates":[16.493282,43.528238]}},{"type":"Feature","properties":{"broj":1,"ulica":"DRAČEVAC","popisni_krug":"002","statisticki_krug":"0110701"},"geometry":{"type":"Point","coordinates":[16.502387,43.526886]}},{"type":"Feature","properties":{"broj":2,"ulica":"MOSTINE","popisni_krug":"001","statisticki_krug":"0110701"},"geometry":{"type":"Point","coordinates":[16.492706,43.522603]}},{"type":"Feature","properties":{"broj":2,"ulica":"PUT MOSTINA","popisni_krug":"001","statisticki_krug":"0110701"},"geometry":{"type":"Point","coordinates":[16.492104,43.522946]}},{"type":"Feature","properties":{"broj":1,"ulica":"MOSTINE","popisni_krug":"002","statisticki_krug":"0110701"},"geometry":{"type":"Point","coordinates":[16.493813,43.522831]}},{"type":"Feature","properties":{"broj":1,"ulica":"BILICE II","popisni_krug":"002","statisticki_krug":"0110701"},"geometry":{"type":"Point","coordinates":[16.492059,43.525623]}},{"type":"Feature","properties":{"broj":1,"ulica":"KAREPOVAC","popisni_krug":"001","statisticki_krug":"0110701"},"geometry":{"type":"Point","coordinates":[16.500107,43.520502]}},{"type":"Feature","properties":{"broj":1,"ulica":"DRAČEVAC","popisni_krug":"002","statisticki_krug":"0110701"},"geometry":{"type":"Point","coordinates":[16.502862,43.523668]}},{"type":"Feature","properties":{"broj":1,"ulica":"DRAČEVAC","popisni_krug":"002","statisticki_krug":"0110701"},"geometry":{"type":"Point","coordinates":[16.502368,43.523608]}},{"type":"Feature","properties":{"broj":1,"ulica":"BILICE II","popisni_krug":"003","statisticki_krug":"0110701"},"geometry":{"type":"Point","coordinates":[16.490753,43.525539]}},{"type":"Feature","properties":{"broj":1,"ulica":"DRAČEVAC","popisni_krug":"002","statisticki_krug":"0110701"},"geometry":{"type":"Point","coordinates":[16.502365,43.523493]}},{"type":"Feature","properties":{"broj":1,"ulica":"BILICE II","popisni_krug":"003","statisticki_krug":"0110701"},"geometry":{"type":"Point","coordinates":[16.491193,43.525635]}},{"type":"Feature","properties":{"broj":1,"ulica":"DRAČEVAC","popisni_krug":"002","statisticki_krug":"0110701"},"geometry":{"type":"Point","coordinates":[16.502415,43.52319]}},{"type":"Feature","properties":{"broj":1,"ulica":"BILICE II","popisni_krug":"003","statisticki_krug":"0110701"},"geometry":{"type":"Point","coordinates":[16.490525,43.525725]}},{"type":"Feature","properties":{"broj":3,"ulica":"MAGISTRALA-SOLIN","popisni_krug":"001","statisticki_krug":"0110663"},"geometry":{"type":"Point","coordinates":[16.489164,43.525648]}},{"type":"Feature","properties":{"broj":1,"ulica":"MOSTINE","popisni_krug":"001","statisticki_krug":"0110701"},"geometry":{"type":"Point","coordinates":[16.493853,43.522511]}},{"type":"Feature","properties":{"broj":1,"ulica":"BILICE II","popisni_krug":"003","statisticki_krug":"0110701"},"geometry":{"type":"Point","coordinates":[16.493365,43.527885]}},{"type":"Feature","properties":{"broj":1,"ulica":"DRAČEVAC","popisni_krug":"002","statisticki_krug":"0110701"},"geometry":{"type":"Point","coordinates":[16.50279,43.52683]}},{"type":"Feature","properties":{"broj":3,"ulica":"BILICE II","popisni_krug":"003","statisticki_krug":"0110701"},"geometry":{"type":"Point","coordinates":[16.493094,43.527892]}},{"type":"Feature","properties":{"broj":1,"ulica":"BILICE II","popisni_krug":"003","statisticki_krug":"0110701"},"geometry":{"type":"Point","coordinates":[16.49292,43.527935]}},{"type":"Feature","properties":{"broj":1,"ulica":"DRAČEVAC","popisni_krug":"002","statisticki_krug":"0110701"},"geometry":{"type":"Point","coordinates":[16.501829,43.524838]}},{"type":"Feature","properties":{"broj":1,"ulica":"BILICE II","popisni_krug":"002","statisticki_krug":"0110701"},"geometry":{"type":"Point","coordinates":[16.492397,43.525449]}},{"type":"Feature","properties":{"broj":1,"ulica":"DRAČEVAC","popisni_krug":"002","statisticki_krug":"0110701"},"geometry":{"type":"Point","coordinates":[16.502102,43.525291]}},{"type":"Feature","properties":{"broj":1,"ulica":"DRAČEVAC","popisni_krug":"002","statisticki_krug":"0110701"},"geometry":{"type":"Point","coordinates":[16.50188,43.525282]}},{"type":"Feature","properties":{"broj":1,"ulica":"BILICE II","popisni_krug":"002","statisticki_krug":"0110701"},"geometry":{"type":"Point","coordinates":[16.491734,43.525399]}},{"type":"Feature","properties":{"broj":1,"ulica":"DRAČEVAC","popisni_krug":"002","statisticki_krug":"0110701"},"geometry":{"type":"Point","coordinates":[16.501368,43.525213]}},{"type":"Feature","properties":{"broj":1,"ulica":"DRAČEVAC","popisni_krug":"002","statisticki_krug":"0110701"},"geometry":{"type":"Point","coordinates":[16.501191,43.525145]}},{"type":"Feature","properties":{"broj":1,"ulica":"DRAČEVAC","popisni_krug":"002","statisticki_krug":"0110701"},"geometry":{"type":"Point","coordinates":[16.501347,43.524993]}},{"type":"Feature","properties":{"broj":1,"ulica":"DRAČEVAC","popisni_krug":"002","statisticki_krug":"0110701"},"geometry":{"type":"Point","coordinates":[16.50156,43.525034]}},{"type":"Feature","properties":{"broj":1,"ulica":"DRAČEVAC","popisni_krug":"002","statisticki_krug":"0110701"},"geometry":{"type":"Point","coordinates":[16.501834,43.525062]}},{"type":"Feature","properties":{"broj":1,"ulica":"DRAČEVAC","popisni_krug":"002","statisticki_krug":"0110701"},"geometry":{"type":"Point","coordinates":[16.502049,43.525102]}},{"type":"Feature","properties":{"broj":1,"ulica":"DRAČEVAC","popisni_krug":"002","statisticki_krug":"0110701"},"geometry":{"type":"Point","coordinates":[16.501045,43.524796]}},{"type":"Feature","properties":{"broj":1,"ulica":"DRAČEVAC","popisni_krug":"002","statisticki_krug":"0110701"},"geometry":{"type":"Point","coordinates":[16.501867,43.524732]}},{"type":"Feature","properties":{"broj":1,"ulica":"DRAČEVAC","popisni_krug":"002","statisticki_krug":"0110701"},"geometry":{"type":"Point","coordinates":[16.501771,43.524829]}},{"type":"Feature","properties":{"broj":1,"ulica":"DRAČEVAC","popisni_krug":"002","statisticki_krug":"0110701"},"geometry":{"type":"Point","coordinates":[16.502006,43.524859]}},{"type":"Feature","properties":{"broj":1,"ulica":"DRAČEVAC","popisni_krug":"002","statisticki_krug":"0110701"},"geometry":{"type":"Point","coordinates":[16.502264,43.524453]}},{"type":"Feature","properties":{"broj":1,"ulica":"DRAČEVAC","popisni_krug":"002","statisticki_krug":"0110701"},"geometry":{"type":"Point","coordinates":[16.502534,43.524442]}},{"type":"Feature","properties":{"broj":1,"ulica":"DRAČEVAC","popisni_krug":"002","statisticki_krug":"0110701"},"geometry":{"type":"Point","coordinates":[16.501657,43.524296]}},{"type":"Feature","properties":{"broj":1,"ulica":"DRAČEVAC","popisni_krug":"002","statisticki_krug":"0110701"},"geometry":{"type":"Point","coordinates":[16.502356,43.52468]}},{"type":"Feature","properties":{"broj":1,"ulica":"DRAČEVAC","popisni_krug":"002","statisticki_krug":"0110701"},"geometry":{"type":"Point","coordinates":[16.502567,43.524633]}},{"type":"Feature","properties":{"broj":1,"ulica":"BILICE II","popisni_krug":"003","statisticki_krug":"0110701"},"geometry":{"type":"Point","coordinates":[16.493589,43.527852]}},{"type":"Feature","properties":{"broj":1,"ulica":"DRAČEVAC","popisni_krug":"002","statisticki_krug":"0110701"},"geometry":{"type":"Point","coordinates":[16.503161,43.52692]}},{"type":"Feature","properties":{"broj":1,"ulica":"BILICE II","popisni_krug":"002","statisticki_krug":"0110701"},"geometry":{"type":"Point","coordinates":[16.492984,43.525593]}},{"type":"Feature","properties":{"broj":1,"ulica":"DRAČEVAC","popisni_krug":"002","statisticki_krug":"0110701"},"geometry":{"type":"Point","coordinates":[16.502166,43.526674]}},{"type":"Feature","properties":{"broj":1,"ulica":"DRAČEVAC","popisni_krug":"002","statisticki_krug":"0110701"},"geometry":{"type":"Point","coordinates":[16.502348,43.526624]}},{"type":"Feature","properties":{"broj":1,"ulica":"BILICE II","popisni_krug":"002","statisticki_krug":"0110701"},"geometry":{"type":"Point","coordinates":[16.492689,43.525821]}},{"type":"Feature","properties":{"broj":1,"ulica":"DRAČEVAC","popisni_krug":"002","statisticki_krug":"0110701"},"geometry":{"type":"Point","coordinates":[16.502502,43.526575]}},{"type":"Feature","properties":{"broj":1,"ulica":"BILICE II","popisni_krug":"002","statisticki_krug":"0110701"},"geometry":{"type":"Point","coordinates":[16.493192,43.525931]}},{"type":"Feature","properties":{"broj":1,"ulica":"PUT MOSTINA","popisni_krug":"002","statisticki_krug":"0110701"},"geometry":{"type":"Point","coordinates":[16.491869,43.523924]}},{"type":"Feature","properties":{"broj":1,"ulica":"BILICE II","popisni_krug":"003","statisticki_krug":"0110701"},"geometry":{"type":"Point","coordinates":[16.493862,43.528103]}},{"type":"Feature","properties":{"broj":1,"ulica":"DRAČEVAC","popisni_krug":"002","statisticki_krug":"0110701"},"geometry":{"type":"Point","coordinates":[16.503148,43.526697]}},{"type":"Feature","properties":{"broj":1,"ulica":"BILICE II","popisni_krug":"002","statisticki_krug":"0110701"},"geometry":{"type":"Point","coordinates":[16.492971,43.526429]}},{"type":"Feature","properties":{"broj":1,"ulica":"DRAČEVAC","popisni_krug":"002","statisticki_krug":"0110701"},"geometry":{"type":"Point","coordinates":[16.502679,43.526476]}},{"type":"Feature","properties":{"broj":1,"ulica":"BILICE II","popisni_krug":"002","statisticki_krug":"0110701"},"geometry":{"type":"Point","coordinates":[16.492761,43.526377]}},{"type":"Feature","properties":{"broj":1,"ulica":"DRAČEVAC","popisni_krug":"002","statisticki_krug":"0110701"},"geometry":{"type":"Point","coordinates":[16.502708,43.526307]}},{"type":"Feature","properties":{"broj":1,"ulica":"DRAČEVAC","popisni_krug":"002","statisticki_krug":"0110701"},"geometry":{"type":"Point","coordinates":[16.502847,43.526282]}},{"type":"Feature","properties":{"broj":1,"ulica":"DRAČEVAC","popisni_krug":"002","statisticki_krug":"0110701"},"geometry":{"type":"Point","coordinates":[16.502958,43.526274]}},{"type":"Feature","properties":{"broj":1,"ulica":"BILICE II","popisni_krug":"003","statisticki_krug":"0110701"},"geometry":{"type":"Point","coordinates":[16.493773,43.528919]}},{"type":"Feature","properties":{"broj":1,"ulica":"DRAČEVAC","popisni_krug":"002","statisticki_krug":"0110701"},"geometry":{"type":"Point","coordinates":[16.503477,43.526704]}},{"type":"Feature","properties":{"broj":1,"ulica":"DRAČEVAC","popisni_krug":"002","statisticki_krug":"0110701"},"geometry":{"type":"Point","coordinates":[16.503717,43.52674]}},{"type":"Feature","properties":{"broj":1,"ulica":"DRAČEVAC","popisni_krug":"002","statisticki_krug":"0110701"},"geometry":{"type":"Point","coordinates":[16.503712,43.526645]}},{"type":"Feature","properties":{"broj":1,"ulica":"DRAČEVAC","popisni_krug":"002","statisticki_krug":"0110701"},"geometry":{"type":"Point","coordinates":[16.503964,43.526625]}},{"type":"Feature","properties":{"broj":1,"ulica":"BILICE II","popisni_krug":"002","statisticki_krug":"0110701"},"geometry":{"type":"Point","coordinates":[16.493259,43.526607]}},{"type":"Feature","properties":{"broj":1,"ulica":"DRAČEVAC","popisni_krug":"002","statisticki_krug":"0110701"},"geometry":{"type":"Point","coordinates":[16.502953,43.52645]}},{"type":"Feature","properties":{"broj":1,"ulica":"BILICE II","popisni_krug":"003","statisticki_krug":"0110701"},"geometry":{"type":"Point","coordinates":[16.494513,43.529188]}},{"type":"Feature","properties":{"broj":1,"ulica":"DRAČEVAC","popisni_krug":"002","statisticki_krug":"0110701"},"geometry":{"type":"Point","coordinates":[16.50425,43.526575]}},{"type":"Feature","properties":{"broj":1,"ulica":"BILICE II","popisni_krug":"003","statisticki_krug":"0110701"},"geometry":{"type":"Point","coordinates":[16.492571,43.529207]}},{"type":"Feature","properties":{"broj":1,"ulica":"DRAČEVAC","popisni_krug":"002","statisticki_krug":"0110701"},"geometry":{"type":"Point","coordinates":[16.504193,43.526311]}},{"type":"Feature","properties":{"broj":1,"ulica":"DRAČEVAC","popisni_krug":"002","statisticki_krug":"0110701"},"geometry":{"type":"Point","coordinates":[16.504066,43.526352]}},{"type":"Feature","properties":{"broj":1,"ulica":"BILICE II","popisni_krug":"003","statisticki_krug":"0110701"},"geometry":{"type":"Point","coordinates":[16.493334,43.529182]}},{"type":"Feature","properties":{"broj":1,"ulica":"DRAČEVAC","popisni_krug":"002","statisticki_krug":"0110701"},"geometry":{"type":"Point","coordinates":[16.50383,43.526381]}},{"type":"Feature","properties":{"broj":1,"ulica":"DRAČEVAC","popisni_krug":"002","statisticki_krug":"0110701"},"geometry":{"type":"Point","coordinates":[16.503578,43.526428]}},{"type":"Feature","properties":{"broj":1,"ulica":"BILICE II","popisni_krug":"003","statisticki_krug":"0110701"},"geometry":{"type":"Point","coordinates":[16.492246,43.529177]}},{"type":"Feature","properties":{"broj":1,"ulica":"BILICE II","popisni_krug":"003","statisticki_krug":"0110701"},"geometry":{"type":"Point","coordinates":[16.490827,43.529032]}},{"type":"Feature","properties":{"broj":1,"ulica":"PUT MOSTINA","popisni_krug":"001","statisticki_krug":"0110701"},"geometry":{"type":"Point","coordinates":[16.489421,43.523892]}},{"type":"Feature","properties":{"broj":1,"ulica":"BILICE II","popisni_krug":"003","statisticki_krug":"0110701"},"geometry":{"type":"Point","coordinates":[16.492665,43.527266]}},{"type":"Feature","properties":{"broj":1,"ulica":"DRAČEVAC","popisni_krug":"002","statisticki_krug":"0110701"},"geometry":{"type":"Point","coordinates":[16.50312,43.526405]}},{"type":"Feature","properties":{"broj":1,"ulica":"BILICE II","popisni_krug":"002","statisticki_krug":"0110701"},"geometry":{"type":"Point","coordinates":[16.494078,43.527705]}},{"type":"Feature","properties":{"broj":1,"ulica":"DRAČEVAC","popisni_krug":"002","statisticki_krug":"0110701"},"geometry":{"type":"Point","coordinates":[16.503576,43.526217]}},{"type":"Feature","properties":{"broj":1,"ulica":"DRAČEVAC","popisni_krug":"002","statisticki_krug":"0110701"},"geometry":{"type":"Point","coordinates":[16.503837,43.526147]}},{"type":"Feature","properties":{"broj":1,"ulica":"BILICE II","popisni_krug":"002","statisticki_krug":"0110701"},"geometry":{"type":"Point","coordinates":[16.494166,43.527555]}},{"type":"Feature","properties":{"broj":1,"ulica":"DRAČEVAC","popisni_krug":"002","statisticki_krug":"0110701"},"geometry":{"type":"Point","coordinates":[16.50418,43.526154]}},{"type":"Feature","properties":{"broj":1,"ulica":"PUT MOSTINA","popisni_krug":"001","statisticki_krug":"0110701"},"geometry":{"type":"Point","coordinates":[16.490605,43.523521]}},{"type":"Feature","properties":{"broj":1,"ulica":"BILICE II","popisni_krug":"003","statisticki_krug":"0110701"},"geometry":{"type":"Point","coordinates":[16.492483,43.526977]}},{"type":"Feature","properties":{"broj":1,"ulica":"BILICE II","popisni_krug":"003","statisticki_krug":"0110701"},"geometry":{"type":"Point","coordinates":[16.492505,43.527004]}},{"type":"Feature","properties":{"broj":1,"ulica":"BILICE II","popisni_krug":"002","statisticki_krug":"0110701"},"geometry":{"type":"Point","coordinates":[16.494246,43.52743]}},{"type":"Feature","properties":{"broj":1,"ulica":"BILICE II","popisni_krug":"002","statisticki_krug":"0110701"},"geometry":{"type":"Point","coordinates":[16.494462,43.527409]}},{"type":"Feature","properties":{"broj":1,"ulica":"BILICE II","popisni_krug":"002","statisticki_krug":"0110701"},"geometry":{"type":"Point","coordinates":[16.494821,43.527471]}},{"type":"Feature","properties":{"broj":1,"ulica":"BILICE II","popisni_krug":"002","statisticki_krug":"0110701"},"geometry":{"type":"Point","coordinates":[16.494584,43.527174]}},{"type":"Feature","properties":{"broj":1,"ulica":"BILICE II","popisni_krug":"002","statisticki_krug":"0110701"},"geometry":{"type":"Point","coordinates":[16.494466,43.527203]}},{"type":"Feature","properties":{"broj":1,"ulica":"BILICE II","popisni_krug":"002","statisticki_krug":"0110701"},"geometry":{"type":"Point","coordinates":[16.494588,43.527525]}},{"type":"Feature","properties":{"broj":1,"ulica":"BILICE II","popisni_krug":"002","statisticki_krug":"0110701"},"geometry":{"type":"Point","coordinates":[16.494543,43.52693]}},{"type":"Feature","properties":{"broj":1,"ulica":"BILICE II","popisni_krug":"002","statisticki_krug":"0110701"},"geometry":{"type":"Point","coordinates":[16.494768,43.527239]}},{"type":"Feature","properties":{"broj":1,"ulica":"BILICE II","popisni_krug":"002","statisticki_krug":"0110701"},"geometry":{"type":"Point","coordinates":[16.494846,43.527078]}},{"type":"Feature","properties":{"broj":1,"ulica":"BILICE II","popisni_krug":"002","statisticki_krug":"0110701"},"geometry":{"type":"Point","coordinates":[16.494956,43.526665]}},{"type":"Feature","properties":{"broj":1,"ulica":"PUT MOSTINA","popisni_krug":"000","statisticki_krug":"0000"},"geometry":{"type":"Point","coordinates":[16.490547,43.523358]}},{"type":"Feature","properties":{"broj":1,"ulica":"BILICE II","popisni_krug":"002","statisticki_krug":"0110701"},"geometry":{"type":"Point","coordinates":[16.494013,43.52713]}},{"type":"Feature","properties":{"broj":1,"ulica":"DRAČEVAC","popisni_krug":"002","statisticki_krug":"0110701"},"geometry":{"type":"Point","coordinates":[16.502991,43.526085]}},{"type":"Feature","properties":{"broj":1,"ulica":"DRAČEVAC","popisni_krug":"002","statisticki_krug":"0110701"},"geometry":{"type":"Point","coordinates":[16.502876,43.52592]}},{"type":"Feature","properties":{"broj":1,"ulica":"DRAČEVAC","popisni_krug":"002","statisticki_krug":"0110701"},"geometry":{"type":"Point","coordinates":[16.502791,43.52578]}},{"type":"Feature","properties":{"broj":1,"ulica":"DRAČEVAC","popisni_krug":"002","statisticki_krug":"0110701"},"geometry":{"type":"Point","coordinates":[16.502633,43.525849]}},{"type":"Feature","properties":{"broj":1,"ulica":"BILICE II","popisni_krug":"002","statisticki_krug":"0110701"},"geometry":{"type":"Point","coordinates":[16.495051,43.527287]}},{"type":"Feature","properties":{"broj":1,"ulica":"DRAČEVAC","popisni_krug":"002","statisticki_krug":"0110701"},"geometry":{"type":"Point","coordinates":[16.503727,43.52597]}},{"type":"Feature","properties":{"broj":1,"ulica":"BILICE II","popisni_krug":"002","statisticki_krug":"0110701"},"geometry":{"type":"Point","coordinates":[16.495313,43.527089]}},{"type":"Feature","properties":{"broj":1,"ulica":"BILICE II","popisni_krug":"002","statisticki_krug":"0110701"},"geometry":{"type":"Point","coordinates":[16.495094,43.527081]}},{"type":"Feature","properties":{"broj":1,"ulica":"BILICE II","popisni_krug":"002","statisticki_krug":"0110701"},"geometry":{"type":"Point","coordinates":[16.495293,43.527012]}},{"type":"Feature","properties":{"broj":1,"ulica":"PUT MOSTINA","popisni_krug":"001","statisticki_krug":"0110701"},"geometry":{"type":"Point","coordinates":[16.490244,43.523102]}},{"type":"Feature","properties":{"broj":1,"ulica":"BILICE II","popisni_krug":"002","statisticki_krug":"0110701"},"geometry":{"type":"Point","coordinates":[16.493747,43.526992]}},{"type":"Feature","properties":{"broj":1,"ulica":"KAREPOVAC","popisni_krug":"001","statisticki_krug":"0110701"},"geometry":{"type":"Point","coordinates":[16.505054,43.520011]}},{"type":"Feature","properties":{"broj":1,"ulica":"DRAČEVAC","popisni_krug":"002","statisticki_krug":"0110701"},"geometry":{"type":"Point","coordinates":[16.502958,43.525728]}},{"type":"Feature","properties":{"broj":1,"ulica":"DRAČEVAC","popisni_krug":"002","statisticki_krug":"0110701"},"geometry":{"type":"Point","coordinates":[16.503071,43.525681]}},{"type":"Feature","properties":{"broj":1,"ulica":"DRAČEVAC","popisni_krug":"002","statisticki_krug":"0110701"},"geometry":{"type":"Point","coordinates":[16.502918,43.525566]}},{"type":"Feature","properties":{"broj":1,"ulica":"DRAČEVAC","popisni_krug":"002","statisticki_krug":"0110701"},"geometry":{"type":"Point","coordinates":[16.503,43.525547]}},{"type":"Feature","properties":{"broj":1,"ulica":"BILICE II","popisni_krug":"002","statisticki_krug":"0110701"},"geometry":{"type":"Point","coordinates":[16.495334,43.527289]}},{"type":"Feature","properties":{"broj":1,"ulica":"DRAČEVAC","popisni_krug":"002","statisticki_krug":"0110701"},"geometry":{"type":"Point","coordinates":[16.504294,43.525755]}},{"type":"Feature","properties":{"broj":1,"ulica":"DRAČEVAC","popisni_krug":"002","statisticki_krug":"0110701"},"geometry":{"type":"Point","coordinates":[16.504335,43.525954]}},{"type":"Feature","properties":{"broj":1,"ulica":"PUT MOSTINA","popisni_krug":"002","statisticki_krug":"0110701"},"geometry":{"type":"Point","coordinates":[16.490755,43.523478]}},{"type":"Feature","properties":{"broj":1,"ulica":"BILICE II","popisni_krug":"002","statisticki_krug":"0110701"},"geometry":{"type":"Point","coordinates":[16.494239,43.526794]}},{"type":"Feature","properties":{"broj":1,"ulica":"DRAČEVAC","popisni_krug":"002","statisticki_krug":"0110701"},"geometry":{"type":"Point","coordinates":[16.503172,43.526026]}},{"type":"Feature","properties":{"broj":1,"ulica":"BILICE II","popisni_krug":"002","statisticki_krug":"0110701"},"geometry":{"type":"Point","coordinates":[16.495198,43.526848]}},{"type":"Feature","properties":{"broj":1,"ulica":"DRAČEVAC","popisni_krug":"002","statisticki_krug":"0110701"},"geometry":{"type":"Point","coordinates":[16.504425,43.526111]}},{"type":"Feature","properties":{"broj":1,"ulica":"BILICE II","popisni_krug":"002","statisticki_krug":"0110701"},"geometry":{"type":"Point","coordinates":[16.495307,43.526865]}},{"type":"Feature","properties":{"broj":3,"ulica":"KAREPOVAC","popisni_krug":"001","statisticki_krug":"0110701"},"geometry":{"type":"Point","coordinates":[16.497756,43.521443]}},{"type":"Feature","properties":{"broj":1,"ulica":"PUT MOSTINA","popisni_krug":"001","statisticki_krug":"0110701"},"geometry":{"type":"Point","coordinates":[16.49112,43.52323]}},{"type":"Feature","properties":{"broj":1,"ulica":"BILICE II","popisni_krug":"002","statisticki_krug":"0110701"},"geometry":{"type":"Point","coordinates":[16.493785,43.525993]}},{"type":"Feature","properties":{"broj":1,"ulica":"DRAČEVAC","popisni_krug":"002","statisticki_krug":"0110701"},"geometry":{"type":"Point","coordinates":[16.503406,43.525844]}},{"type":"Feature","properties":{"broj":1,"ulica":"BILICE II","popisni_krug":"002","statisticki_krug":"0110701"},"geometry":{"type":"Point","coordinates":[16.493573,43.526062]}},{"type":"Feature","properties":{"broj":3,"ulica":"KAREPOVAC","popisni_krug":"001","statisticki_krug":"0110701"},"geometry":{"type":"Point","coordinates":[16.498414,43.521173]}},{"type":"Feature","properties":{"broj":1,"ulica":"BILICE II","popisni_krug":"002","statisticki_krug":"0110701"},"geometry":{"type":"Point","coordinates":[16.495298,43.526508]}},{"type":"Feature","properties":{"broj":1,"ulica":"DRAČEVAC","popisni_krug":"002","statisticki_krug":"0110701"},"geometry":{"type":"Point","coordinates":[16.504459,43.526187]}},{"type":"Feature","properties":{"broj":1,"ulica":"BILICE II","popisni_krug":"002","statisticki_krug":"0110701"},"geometry":{"type":"Point","coordinates":[16.494857,43.52618]}},{"type":"Feature","properties":{"broj":1,"ulica":"DRAČEVAC","popisni_krug":"002","statisticki_krug":"0110701"},"geometry":{"type":"Point","coordinates":[16.503278,43.525624]}},{"type":"Feature","properties":{"broj":3,"ulica":"KAREPOVAC","popisni_krug":"001","statisticki_krug":"0110701"},"geometry":{"type":"Point","coordinates":[16.505449,43.519897]}},{"type":"Feature","properties":{"broj":1,"ulica":"DRAČEVAC","popisni_krug":"002","statisticki_krug":"0110701"},"geometry":{"type":"Point","coordinates":[16.504544,43.526395]}},{"type":"Feature","properties":{"broj":1,"ulica":"BILICE II","popisni_krug":"002","statisticki_krug":"0110701"},"geometry":{"type":"Point","coordinates":[16.494995,43.525706]}},{"type":"Feature","properties":{"broj":1,"ulica":"DRAČEVAC","popisni_krug":"002","statisticki_krug":"0110701"},"geometry":{"type":"Point","coordinates":[16.503435,43.525531]}},{"type":"Feature","properties":{"broj":3,"ulica":"KAREPOVAC","popisni_krug":"001","statisticki_krug":"0110701"},"geometry":{"type":"Point","coordinates":[16.499215,43.520851]}},{"type":"Feature","properties":{"broj":1,"ulica":"BILICE II","popisni_krug":"002","statisticki_krug":"0110701"},"geometry":{"type":"Point","coordinates":[16.495024,43.525505]}},{"type":"Feature","properties":{"broj":1,"ulica":"DRAČEVAC","popisni_krug":"002","statisticki_krug":"0110701"},"geometry":{"type":"Point","coordinates":[16.503522,43.525679]}},{"type":"Feature","properties":{"broj":3,"ulica":"MAGISTRALA-SOLIN","popisni_krug":"001","statisticki_krug":"0110663"},"geometry":{"type":"Point","coordinates":[16.489475,43.526301]}},{"type":"Feature","properties":{"broj":1,"ulica":"BILICE II","popisni_krug":"002","statisticki_krug":"0110701"},"geometry":{"type":"Point","coordinates":[16.495075,43.525353]}},{"type":"Feature","properties":{"broj":1,"ulica":"DRAČEVAC","popisni_krug":"002","statisticki_krug":"0110701"},"geometry":{"type":"Point","coordinates":[16.503752,43.525669]}},{"type":"Feature","properties":{"broj":1,"ulica":"DRAČEVAC","popisni_krug":"002","statisticki_krug":"0110701"},"geometry":{"type":"Point","coordinates":[16.503676,43.525553]}},{"type":"Feature","properties":{"broj":1,"ulica":"BILICE II","popisni_krug":"002","statisticki_krug":"0110701"},"geometry":{"type":"Point","coordinates":[16.495101,43.525272]}},{"type":"Feature","properties":{"broj":1,"ulica":"DRAČEVAC","popisni_krug":"002","statisticki_krug":"0110701"},"geometry":{"type":"Point","coordinates":[16.503973,43.525631]}},{"type":"Feature","properties":{"broj":1,"ulica":"DRAČEVAC","popisni_krug":"002","statisticki_krug":"0110701"},"geometry":{"type":"Point","coordinates":[16.503838,43.525468]}},{"type":"Feature","properties":{"broj":1,"ulica":"DRAČEVAC","popisni_krug":"002","statisticki_krug":"0110701"},"geometry":{"type":"Point","coordinates":[16.503626,43.525392]}},{"type":"Feature","properties":{"broj":1,"ulica":"DRAČEVAC","popisni_krug":"002","statisticki_krug":"0110701"},"geometry":{"type":"Point","coordinates":[16.503754,43.525303]}},{"type":"Feature","properties":{"broj":3,"ulica":"MAGISTRALA-SOLIN","popisni_krug":"001","statisticki_krug":"0110663"},"geometry":{"type":"Point","coordinates":[16.489799,43.526746]}},{"type":"Feature","properties":{"broj":3,"ulica":"MOSTINE","popisni_krug":"001","statisticki_krug":"0110701"},"geometry":{"type":"Point","coordinates":[16.491939,43.523068]}},{"type":"Feature","properties":{"broj":1,"ulica":"DRAČEVAC","popisni_krug":"002","statisticki_krug":"0110701"},"geometry":{"type":"Point","coordinates":[16.50512,43.525597]}},{"type":"Feature","properties":{"broj":3,"ulica":"MOSTINE","popisni_krug":"002","statisticki_krug":"0110701"},"geometry":{"type":"Point","coordinates":[16.494376,43.522745]}},{"type":"Feature","properties":{"broj":1,"ulica":"BILICE II","popisni_krug":"002","statisticki_krug":"0110701"},"geometry":{"type":"Point","coordinates":[16.495097,43.525074]}},{"type":"Feature","properties":{"broj":1,"ulica":"DRAČEVAC","popisni_krug":"002","statisticki_krug":"0110701"},"geometry":{"type":"Point","coordinates":[16.504143,43.52552]}},{"type":"Feature","properties":{"broj":1,"ulica":"BILICE II","popisni_krug":"002","statisticki_krug":"0110701"},"geometry":{"type":"Point","coordinates":[16.494716,43.525062]}},{"type":"Feature","properties":{"broj":3,"ulica":"MOSTINE","popisni_krug":"002","statisticki_krug":"0110701"},"geometry":{"type":"Point","coordinates":[16.490139,43.524374]}},{"type":"Feature","properties":{"broj":1,"ulica":"PUT MOSTINA","popisni_krug":"001","statisticki_krug":"0110701"},"geometry":{"type":"Point","coordinates":[16.49191,43.522764]}},{"type":"Feature","properties":{"broj":1,"ulica":"BILICE II","popisni_krug":"002","statisticki_krug":"0110701"},"geometry":{"type":"Point","coordinates":[16.495814,43.524748]}},{"type":"Feature","properties":{"broj":1,"ulica":"DRAČEVAC","popisni_krug":"002","statisticki_krug":"0110701"},"geometry":{"type":"Point","coordinates":[16.504057,43.525396]}},{"type":"Feature","properties":{"broj":1,"ulica":"BILICE II","popisni_krug":"002","statisticki_krug":"0110701"},"geometry":{"type":"Point","coordinates":[16.496182,43.524593]}},{"type":"Feature","properties":{"broj":3,"ulica":"MOSTINE","popisni_krug":"002","statisticki_krug":"0110701"},"geometry":{"type":"Point","coordinates":[16.490257,43.524342]}},{"type":"Feature","properties":{"broj":1,"ulica":"DRAČEVAC","popisni_krug":"002","statisticki_krug":"0110701"},"geometry":{"type":"Point","coordinates":[16.505331,43.525298]}},{"type":"Feature","properties":{"broj":3,"ulica":"MOSTINE","popisni_krug":"002","statisticki_krug":"0110701"},"geometry":{"type":"Point","coordinates":[16.493959,43.524797]}},{"type":"Feature","properties":{"broj":1,"ulica":"DRAČEVAC","popisni_krug":"002","statisticki_krug":"0110701"},"geometry":{"type":"Point","coordinates":[16.504017,43.525242]}},{"type":"Feature","properties":{"broj":1,"ulica":"BILICE II","popisni_krug":"002","statisticki_krug":"0110701"},"geometry":{"type":"Point","coordinates":[16.50056,43.524165]}},{"type":"Feature","properties":{"broj":1,"ulica":"DRAČEVAC","popisni_krug":"002","statisticki_krug":"0110701"},"geometry":{"type":"Point","coordinates":[16.505313,43.52511]}},{"type":"Feature","properties":{"broj":1,"ulica":"PUT MOSTINA","popisni_krug":"002","statisticki_krug":"0110701"},"geometry":{"type":"Point","coordinates":[16.50036,43.522731]}},{"type":"Feature","properties":{"broj":1,"ulica":"DRAČEVAC","popisni_krug":"002","statisticki_krug":"0110701"},"geometry":{"type":"Point","coordinates":[16.503909,43.525161]}},{"type":"Feature","properties":{"broj":3,"ulica":"BILICE II","popisni_krug":"002","statisticki_krug":"0110701"},"geometry":{"type":"Point","coordinates":[16.491944,43.525314]}},{"type":"Feature","properties":{"broj":1,"ulica":"DRAČEVAC","popisni_krug":"002","statisticki_krug":"0110701"},"geometry":{"type":"Point","coordinates":[16.505632,43.525158]}},{"type":"Feature","properties":{"broj":3,"ulica":"BILICE II","popisni_krug":"002","statisticki_krug":"0110701"},"geometry":{"type":"Point","coordinates":[16.498539,43.526379]}},{"type":"Feature","properties":{"broj":1,"ulica":"MAGISTRALA-SOLIN","popisni_krug":"001","statisticki_krug":"0110701"},"geometry":{"type":"Point","coordinates":[16.488348,43.523752]}},{"type":"Feature","properties":{"broj":3,"ulica":"BILICE II","popisni_krug":"003","statisticki_krug":"0110701"},"geometry":{"type":"Point","coordinates":[16.492669,43.527405]}},{"type":"Feature","properties":{"broj":1,"ulica":"DRAČEVAC","popisni_krug":"002","statisticki_krug":"0110701"},"geometry":{"type":"Point","coordinates":[16.505468,43.525291]}},{"type":"Feature","properties":{"broj":3,"ulica":"BILICE II","popisni_krug":"003","statisticki_krug":"0110701"},"geometry":{"type":"Point","coordinates":[16.491229,43.529211]}},{"type":"Feature","properties":{"broj":1,"ulica":"DRAČEVAC","popisni_krug":"002","statisticki_krug":"0110701"},"geometry":{"type":"Point","coordinates":[16.504401,43.525415]}},{"type":"Feature","properties":{"broj":1,"ulica":"BILICE II","popisni_krug":"002","statisticki_krug":"0110701"},"geometry":{"type":"Point","coordinates":[16.502778,43.523275]}},{"type":"Feature","properties":{"broj":1,"ulica":"DRAČEVAC","popisni_krug":"002","statisticki_krug":"0110701"},"geometry":{"type":"Point","coordinates":[16.504423,43.525089]}},{"type":"Feature","properties":{"broj":1,"ulica":"DRAČEVAC","popisni_krug":"002","statisticki_krug":"0110701"},"geometry":{"type":"Point","coordinates":[16.505348,43.525491]}},{"type":"Feature","properties":{"broj":3,"ulica":"BILICE II","popisni_krug":"003","statisticki_krug":"0110701"},"geometry":{"type":"Point","coordinates":[16.492836,43.529105]}},{"type":"Feature","properties":{"broj":1,"ulica":"DRAČEVAC","popisni_krug":"002","statisticki_krug":"0110701"},"geometry":{"type":"Point","coordinates":[16.504648,43.525372]}},{"type":"Feature","properties":{"broj":1,"ulica":"MAGISTRALA-SOLIN","popisni_krug":"003","statisticki_krug":"0110701"},"geometry":{"type":"Point","coordinates":[16.489554,43.524616]}},{"type":"Feature","properties":{"broj":1,"ulica":"DRAČEVAC","popisni_krug":"002","statisticki_krug":"0110701"},"geometry":{"type":"Point","coordinates":[16.504588,43.525298]}},{"type":"Feature","properties":{"broj":1,"ulica":"DRAČEVAC","popisni_krug":"002","statisticki_krug":"0110701"},"geometry":{"type":"Point","coordinates":[16.505717,43.525213]}},{"type":"Feature","properties":{"broj":3,"ulica":"BILICE II","popisni_krug":"002","statisticki_krug":"0110701"},"geometry":{"type":"Point","coordinates":[16.493825,43.527575]}},{"type":"Feature","properties":{"broj":1,"ulica":"DRAČEVAC","popisni_krug":"002","statisticki_krug":"0110701"},"geometry":{"type":"Point","coordinates":[16.504865,43.525262]}},{"type":"Feature","properties":{"broj":1,"ulica":"MAGISTRALA-SOLIN","popisni_krug":"003","statisticki_krug":"0110701"},"geometry":{"type":"Point","coordinates":[16.489272,43.524907]}},{"type":"Feature","properties":{"broj":1,"ulica":"MAGISTRALA-SOLIN","popisni_krug":"003","statisticki_krug":"0110701"},"geometry":{"type":"Point","coordinates":[16.489458,43.524874]}},{"type":"Feature","properties":{"broj":1,"ulica":"DRAČEVAC","popisni_krug":"002","statisticki_krug":"0110701"},"geometry":{"type":"Point","coordinates":[16.506006,43.525028]}},{"type":"Feature","properties":{"broj":1,"ulica":"DRAČEVAC","popisni_krug":"002","statisticki_krug":"0110701"},"geometry":{"type":"Point","coordinates":[16.506279,43.524585]}},{"type":"Feature","properties":{"broj":1,"ulica":"MAGISTRALA-SOLIN","popisni_krug":"003","statisticki_krug":"0110701"},"geometry":{"type":"Point","coordinates":[16.489874,43.525059]}},{"type":"Feature","properties":{"broj":1,"ulica":"DRAČEVAC","popisni_krug":"002","statisticki_krug":"0110701"},"geometry":{"type":"Point","coordinates":[16.505867,43.52487]}},{"type":"Feature","properties":{"broj":1,"ulica":"DRAČEVAC","popisni_krug":"002","statisticki_krug":"0110701"},"geometry":{"type":"Point","coordinates":[16.504783,43.525181]}},{"type":"Feature","properties":{"broj":1,"ulica":"BILICE II","popisni_krug":"002","statisticki_krug":"0110701"},"geometry":{"type":"Point","coordinates":[16.495406,43.525969]}},{"type":"Feature","properties":{"broj":3,"ulica":"BILICE II","popisni_krug":"002","statisticki_krug":"0110701"},"geometry":{"type":"Point","coordinates":[16.495253,43.526671]}},{"type":"Feature","properties":{"broj":1,"ulica":"DRAČEVAC","popisni_krug":"002","statisticki_krug":"0110701"},"geometry":{"type":"Point","coordinates":[16.506003,43.524565]}},{"type":"Feature","properties":{"broj":1,"ulica":"DRAČEVAC","popisni_krug":"002","statisticki_krug":"0110701"},"geometry":{"type":"Point","coordinates":[16.506274,43.525179]}},{"type":"Feature","properties":{"broj":2,"ulica":"BILICE II","popisni_krug":"002","statisticki_krug":"0110701"},"geometry":{"type":"Point","coordinates":[16.495208,43.525949]}},{"type":"Feature","properties":{"broj":1,"ulica":"DRAČEVAC","popisni_krug":"002","statisticki_krug":"0110701"},"geometry":{"type":"Point","coordinates":[16.506308,43.525347]}},{"type":"Feature","properties":{"broj":1,"ulica":"DRAČEVAC","popisni_krug":"002","statisticki_krug":"0110701"},"geometry":{"type":"Point","coordinates":[16.50583,43.525143]}},{"type":"Feature","properties":{"broj":3,"ulica":"MOSTINE","popisni_krug":"002","statisticki_krug":"0110701"},"geometry":{"type":"Point","coordinates":[16.497124,43.523535]}},{"type":"Feature","properties":{"broj":1,"ulica":"BILICE II","popisni_krug":"002","statisticki_krug":"0110701"},"geometry":{"type":"Point","coordinates":[16.495212,43.525823]}},{"type":"Feature","properties":{"broj":1,"ulica":"DRAČEVAC","popisni_krug":"002","statisticki_krug":"0110701"},"geometry":{"type":"Point","coordinates":[16.505007,43.525124]}},{"type":"Feature","properties":{"broj":1,"ulica":"DRAČEVAC","popisni_krug":"002","statisticki_krug":"0110701"},"geometry":{"type":"Point","coordinates":[16.50471,43.52505]}},{"type":"Feature","properties":{"broj":1,"ulica":"DRAČEVAC","popisni_krug":"002","statisticki_krug":"0110701"},"geometry":{"type":"Point","coordinates":[16.504082,43.525088]}},{"type":"Feature","properties":{"broj":1,"ulica":"DRAČEVAC","popisni_krug":"002","statisticki_krug":"0110701"},"geometry":{"type":"Point","coordinates":[16.503188,43.525334]}},{"type":"Feature","properties":{"broj":1,"ulica":"DRAČEVAC","popisni_krug":"002","statisticki_krug":"0110701"},"geometry":{"type":"Point","coordinates":[16.506079,43.524368]}},{"type":"Feature","properties":{"broj":1,"ulica":"BILICE II","popisni_krug":"002","statisticki_krug":"0110701"},"geometry":{"type":"Point","coordinates":[16.495372,43.525825]}},{"type":"Feature","properties":{"broj":1,"ulica":"DRAČEVAC","popisni_krug":"002","statisticki_krug":"0110701"},"geometry":{"type":"Point","coordinates":[16.503515,43.5245]}},{"type":"Feature","properties":{"broj":1,"ulica":"DRAČEVAC","popisni_krug":"002","statisticki_krug":"0110701"},"geometry":{"type":"Point","coordinates":[16.503471,43.524306]}},{"type":"Feature","properties":{"broj":1,"ulica":"DRAČEVAC","popisni_krug":"002","statisticki_krug":"0110701"},"geometry":{"type":"Point","coordinates":[16.503855,43.524487]}},{"type":"Feature","properties":{"broj":3,"ulica":"BILICE II","popisni_krug":"002","statisticki_krug":"0110701"},"geometry":{"type":"Point","coordinates":[16.494152,43.526986]}},{"type":"Feature","properties":{"broj":1,"ulica":"DRAČEVAC","popisni_krug":"002","statisticki_krug":"0110701"},"geometry":{"type":"Point","coordinates":[16.503834,43.524324]}},{"type":"Feature","properties":{"broj":1,"ulica":"DRAČEVAC","popisni_krug":"002","statisticki_krug":"0110701"},"geometry":{"type":"Point","coordinates":[16.504699,43.524834]}},{"type":"Feature","properties":{"broj":1,"ulica":"DRAČEVAC","popisni_krug":"002","statisticki_krug":"0110701"},"geometry":{"type":"Point","coordinates":[16.505003,43.524736]}},{"type":"Feature","properties":{"broj":1,"ulica":"DRAČEVAC","popisni_krug":"002","statisticki_krug":"0110701"},"geometry":{"type":"Point","coordinates":[16.504996,43.524876]}},{"type":"Feature","properties":{"broj":1,"ulica":"DRAČEVAC","popisni_krug":"002","statisticki_krug":"0110701"},"geometry":{"type":"Point","coordinates":[16.505244,43.524871]}},{"type":"Feature","properties":{"broj":1,"ulica":"DRAČEVAC","popisni_krug":"002","statisticki_krug":"0110701"},"geometry":{"type":"Point","coordinates":[16.50498,43.524492]}},{"type":"Feature","properties":{"broj":1,"ulica":"BILICE II","popisni_krug":"002","statisticki_krug":"0110701"},"geometry":{"type":"Point","coordinates":[16.496828,43.5244]}},{"type":"Feature","properties":{"broj":1,"ulica":"DRAČEVAC","popisni_krug":"002","statisticki_krug":"0110701"},"geometry":{"type":"Point","coordinates":[16.506738,43.523582]}},{"type":"Feature","properties":{"broj":1,"ulica":"DRAČEVAC","popisni_krug":"002","statisticki_krug":"0110701"},"geometry":{"type":"Point","coordinates":[16.50549,43.524603]}},{"type":"Feature","properties":{"broj":1,"ulica":"DRAČEVAC","popisni_krug":"002","statisticki_krug":"0110701"},"geometry":{"type":"Point","coordinates":[16.506037,43.523051]}},{"type":"Feature","properties":{"broj":1,"ulica":"DRAČEVAC","popisni_krug":"002","statisticki_krug":"0110701"},"geometry":{"type":"Point","coordinates":[16.505663,43.524739]}},{"type":"Feature","properties":{"broj":1,"ulica":"MAGISTRALA-SOLIN","popisni_krug":"002","statisticki_krug":"0110663"},"geometry":{"type":"Point","coordinates":[16.487103,43.524092]}},{"type":"Feature","properties":{"broj":1,"ulica":"DRAČEVAC","popisni_krug":"002","statisticki_krug":"0110701"},"geometry":{"type":"Point","coordinates":[16.505719,43.524497]}},{"type":"Feature","properties":{"broj":1,"ulica":"DRAČEVAC","popisni_krug":"002","statisticki_krug":"0110701"},"geometry":{"type":"Point","coordinates":[16.505784,43.52441]}},{"type":"Feature","properties":{"broj":1,"ulica":"DRAČEVAC","popisni_krug":"002","statisticki_krug":"0110701"},"geometry":{"type":"Point","coordinates":[16.505869,43.524199]}},{"type":"Feature","properties":{"broj":1,"ulica":"DRAČEVAC","popisni_krug":"002","statisticki_krug":"0110701"},"geometry":{"type":"Point","coordinates":[16.505703,43.524176]}},{"type":"Feature","properties":{"broj":1,"ulica":"DRAČEVAC","popisni_krug":"002","statisticki_krug":"0110701"},"geometry":{"type":"Point","coordinates":[16.50538,43.524312]}},{"type":"Feature","properties":{"broj":1,"ulica":"DRAČEVAC","popisni_krug":"002","statisticki_krug":"0110701"},"geometry":{"type":"Point","coordinates":[16.505179,43.52433]}},{"type":"Feature","properties":{"broj":1,"ulica":"DRAČEVAC","popisni_krug":"002","statisticki_krug":"0110701"},"geometry":{"type":"Point","coordinates":[16.505149,43.524499]}},{"type":"Feature","properties":{"broj":1,"ulica":"DRAČEVAC","popisni_krug":"002","statisticki_krug":"0110701"},"geometry":{"type":"Point","coordinates":[16.504794,43.524435]}},{"type":"Feature","properties":{"broj":1,"ulica":"DRAČEVAC","popisni_krug":"002","statisticki_krug":"0110701"},"geometry":{"type":"Point","coordinates":[16.504972,43.524321]}},{"type":"Feature","properties":{"broj":1,"ulica":"DRAČEVAC","popisni_krug":"002","statisticki_krug":"0110701"},"geometry":{"type":"Point","coordinates":[16.502886,43.524128]}},{"type":"Feature","properties":{"broj":1,"ulica":"DRAČEVAC","popisni_krug":"002","statisticki_krug":"0110701"},"geometry":{"type":"Point","coordinates":[16.503573,43.524068]}},{"type":"Feature","properties":{"broj":1,"ulica":"MAGISTRALA-SOLIN","popisni_krug":"001","statisticki_krug":"0110663"},"geometry":{"type":"Point","coordinates":[16.489751,43.526662]}},{"type":"Feature","properties":{"broj":1,"ulica":"MAGISTRALA-SOLIN","popisni_krug":"001","statisticki_krug":"0110663"},"geometry":{"type":"Point","coordinates":[16.489752,43.52651]}},{"type":"Feature","properties":{"broj":1,"ulica":"DRAČEVAC","popisni_krug":"002","statisticki_krug":"0110701"},"geometry":{"type":"Point","coordinates":[16.503822,43.52407]}},{"type":"Feature","properties":{"broj":1,"ulica":"DRAČEVAC","popisni_krug":"002","statisticki_krug":"0110701"},"geometry":{"type":"Point","coordinates":[16.503889,43.524023]}},{"type":"Feature","properties":{"broj":1,"ulica":"DRAČEVAC","popisni_krug":"002","statisticki_krug":"0110701"},"geometry":{"type":"Point","coordinates":[16.504264,43.523926]}},{"type":"Feature","properties":{"broj":1,"ulica":"DRAČEVAC","popisni_krug":"002","statisticki_krug":"0110701"},"geometry":{"type":"Point","coordinates":[16.504514,43.524053]}},{"type":"Feature","properties":{"broj":1,"ulica":"DRAČEVAC","popisni_krug":"002","statisticki_krug":"0110701"},"geometry":{"type":"Point","coordinates":[16.505071,43.524036]}},{"type":"Feature","properties":{"broj":1,"ulica":"DRAČEVAC","popisni_krug":"002","statisticki_krug":"0110701"},"geometry":{"type":"Point","coordinates":[16.504873,43.523886]}},{"type":"Feature","properties":{"broj":1,"ulica":"PUT SV.IŽIDORA","popisni_krug":"001","statisticki_krug":"0110701"},"geometry":{"type":"Point","coordinates":[16.50585,43.519836]}},{"type":"Feature","properties":{"broj":1,"ulica":"DRAČEVAC","popisni_krug":"002","statisticki_krug":"0110701"},"geometry":{"type":"Point","coordinates":[16.50537,43.524006]}},{"type":"Feature","properties":{"broj":1,"ulica":"DRAČEVAC","popisni_krug":"002","statisticki_krug":"0110701"},"geometry":{"type":"Point","coordinates":[16.505615,43.523331]}},{"type":"Feature","properties":{"broj":1,"ulica":"DRAČEVAC","popisni_krug":"002","statisticki_krug":"0110701"},"geometry":{"type":"Point","coordinates":[16.504472,43.522524]}},{"type":"Feature","properties":{"broj":1,"ulica":"DRAČEVAC","popisni_krug":"002","statisticki_krug":"0110701"},"geometry":{"type":"Point","coordinates":[16.504225,43.522511]}},{"type":"Feature","properties":{"broj":1,"ulica":"DRAČEVAC","popisni_krug":"002","statisticki_krug":"0110701"},"geometry":{"type":"Point","coordinates":[16.504653,43.52222]}},{"type":"Feature","properties":{"broj":1,"ulica":"DRAČEVAC","popisni_krug":"002","statisticki_krug":"0110701"},"geometry":{"type":"Point","coordinates":[16.504012,43.522112]}},{"type":"Feature","properties":{"broj":1,"ulica":"DRAČEVAC","popisni_krug":"002","statisticki_krug":"0110701"},"geometry":{"type":"Point","coordinates":[16.505632,43.522143]}},{"type":"Feature","properties":{"broj":1,"ulica":"DRAČEVAC","popisni_krug":"002","statisticki_krug":"0110701"},"geometry":{"type":"Point","coordinates":[16.505447,43.521609]}},{"type":"Feature","properties":{"broj":2,"ulica":"DRAČEVAC","popisni_krug":"002","statisticki_krug":"0110701"},"geometry":{"type":"Point","coordinates":[16.504908,43.521908]}},{"type":"Feature","properties":{"broj":1,"ulica":"DRAČEVAC","popisni_krug":"000","statisticki_krug":"0049271"},"geometry":{"type":"Point","coordinates":[16.50638,43.521387]}},{"type":"Feature","properties":{"broj":3,"ulica":"BILICE II","popisni_krug":"002","statisticki_krug":"0110701"},"geometry":{"type":"Point","coordinates":[16.493835,43.525919]}},{"type":"Feature","properties":{"broj":3,"ulica":"BILICE II","popisni_krug":"002","statisticki_krug":"0110701"},"geometry":{"type":"Point","coordinates":[16.493759,43.526038]}},{"type":"Feature","properties":{"broj":3,"ulica":"BILICE II","popisni_krug":"002","statisticki_krug":"0110701"},"geometry":{"type":"Point","coordinates":[16.493732,43.526109]}},{"type":"Feature","properties":{"broj":1,"ulica":"DRAČEVAC","popisni_krug":"002","statisticki_krug":"0110701"},"geometry":{"type":"Point","coordinates":[16.501886,43.526501]}},{"type":"Feature","properties":{"broj":1,"ulica":"DRAČEVAC","popisni_krug":"002","statisticki_krug":"0110701"},"geometry":{"type":"Point","coordinates":[16.5016,43.525543]}},{"type":"Feature","properties":{"broj":1,"ulica":"BILICE II","popisni_krug":"003","statisticki_krug":"0110701"},"geometry":{"type":"Point","coordinates":[16.494232,43.528838]}}]}