{"type":"FeatureCollection","name":"Dionice_Cesta","crs":{"type":"name","properties":{"name":"urn:ogc:def:crs:OGC:1.3:CRS84"}},"xy_coordinate_resolution":0.000001,"features":[{"type":"Feature","properties":{"naziv":"Dračevac","duljina":17.3},"geometry":{"type":"LineString","coordinates":[[16.500932,43.52742],[16.501142,43.527451]]}},{"type":"Feature","properties":{"naziv":"Dračevac","duljina":27.6},"geometry":{"type":"LineString","coordinates":[[16.504855,43.524992],[16.504728,43.524967],[16.504521,43.524943]]}},{"type":"Feature","properties":{"naziv":"Karepovac","duljina":44.7},"geometry":{"type":"LineString","coordinates":[[16.504477,43.520547],[16.504513,43.520502],[16.504948,43.520353]]}},{"type":"Feature","properties":{"naziv":"Dračevac","duljina":19.9},"geometry":{"type":"LineString","coordinates":[[16.501142,43.527451],[16.501305,43.527317]]}},{"type":"Feature","properties":{"naziv":"Ulica Bilice II","duljina":90.8},"geometry":{"type":"LineString","coordinates":[[16.493663,43.525774],[16.493728,43.525813],[16.494216,43.526017],[16.494627,43.526192]]}},{"type":"Feature","properties":{"naziv":"Mostine ulica","duljina":314.5},"geometry":{"type":"LineString","coordinates":[[16.493249,43.522821],[16.493468,43.522772],[16.493605,43.522733],[16.49381,43.522685],[16.493927,43.522652],[16.494099,43.522629],[16.494288,43.522594],[16.494481,43.522568],[16.494646,43.522553],[16.494833,43.522544],[16.49501,43.522543],[16.495233,43.522551],[16.495398,43.522558],[16.495538,43.522564],[16.495556,43.522654],[16.49557,43.522725],[16.49557,43.522815],[16.495542,43.522906],[16.495513,43.522991],[16.495476,43.523088],[16.495442,43.523178],[16.495399,43.523287],[16.49537,43.523402],[16.495359,43.523507],[16.495358,43.523613],[16.49535,43.52367]]}},{"type":"Feature","properties":{"naziv":"Dračevac","duljina":72.6},"geometry":{"type":"LineString","coordinates":[[16.504855,43.524992],[16.504853,43.524772],[16.504843,43.524534],[16.504821,43.524339]]}},{"type":"Feature","properties":{"naziv":"Ulica Bilice II","duljina":57.3},"geometry":{"type":"LineString","coordinates":[[16.492524,43.527581],[16.492468,43.527545],[16.492427,43.527503],[16.492407,43.527468],[16.492397,43.527377],[16.492372,43.527319],[16.492312,43.527249],[16.492259,43.527189],[16.492235,43.527153],[16.492228,43.527128]]}},{"type":"Feature","properties":{"naziv":"Dračevac","duljina":59.1},"geometry":{"type":"LineString","coordinates":[[16.502169,43.52501],[16.501754,43.524954],[16.501449,43.524921]]}},{"type":"Feature","properties":{"naziv":"Ulica Bilice II","duljina":82.7},"geometry":{"type":"LineString","coordinates":[[16.492249,43.525506],[16.491932,43.525462],[16.491661,43.52544],[16.491369,43.525428],[16.491233,43.525422]]}},{"type":"Feature","properties":{"naziv":"Mostine ulica","duljina":143},"geometry":{"type":"LineString","coordinates":[[16.49535,43.52367],[16.495333,43.52374],[16.495286,43.52382],[16.495242,43.523894],[16.495213,43.523988],[16.495218,43.524064],[16.49518,43.524133],[16.495135,43.524198],[16.495094,43.524291],[16.495055,43.524383],[16.49504,43.524466],[16.495028,43.524548],[16.495013,43.524676],[16.494962,43.524816],[16.494942,43.524911]]}},{"type":"Feature","properties":{"naziv":"Dračevac","duljina":33.2},"geometry":{"type":"LineString","coordinates":[[16.503279,43.526518],[16.503399,43.526554],[16.503514,43.526563],[16.503676,43.526541]]}},{"type":"Feature","properties":{"naziv":"Ulica Bilice II","duljina":292.5},"geometry":{"type":"LineString","coordinates":[[16.491233,43.525422],[16.491082,43.525416],[16.490731,43.525407],[16.490476,43.525434],[16.49027,43.525515],[16.490113,43.525618],[16.490207,43.525721],[16.490392,43.525878],[16.490489,43.525967],[16.49062,43.526128],[16.490761,43.526317],[16.490872,43.526457],[16.490957,43.526515],[16.491016,43.52652],[16.49109,43.526489],[16.491244,43.52641],[16.491427,43.526324],[16.491727,43.52618]]}},{"type":"Feature","properties":{"naziv":"Mostine ulica","duljina":84.9},"geometry":{"type":"LineString","coordinates":[[16.493249,43.522821],[16.493259,43.522706],[16.493311,43.522559],[16.493405,43.52245],[16.493418,43.522378],[16.49339,43.522316],[16.493309,43.522094]]}},{"type":"Feature","properties":{"naziv":"Dračevac","duljina":25.4},"geometry":{"type":"LineString","coordinates":[[16.5042,43.528459],[16.504228,43.528256],[16.504241,43.528233]]}},{"type":"Feature","properties":{"naziv":"Dračevac","duljina":48.2},"geometry":{"type":"LineString","coordinates":[[16.503782,43.525023],[16.503576,43.525052],[16.503415,43.525129],[16.503246,43.525198]]}},{"type":"Feature","properties":{"naziv":"Dračevac","duljina":29.2},"geometry":{"type":"LineString","coordinates":[[16.505083,43.525254],[16.50513,43.525211],[16.505145,43.525097],[16.50514,43.525004]]}},{"type":"Feature","properties":{"naziv":"Dračevac","duljina":88.8},"geometry":{"type":"LineString","coordinates":[[16.504521,43.524943],[16.504518,43.524906],[16.504489,43.524846],[16.504479,43.524769],[16.504483,43.524707],[16.504501,43.524651],[16.504525,43.524573],[16.504528,43.524533],[16.50451,43.524453],[16.50451,43.524405],[16.504534,43.524372],[16.504601,43.524345],[16.504821,43.524339]]}},{"type":"Feature","properties":{"duljina":104.2},"geometry":{"type":"LineString","coordinates":[[16.495538,43.522564],[16.495959,43.52256],[16.496361,43.522485],[16.496773,43.522348]]}},{"type":"Feature","properties":{"naziv":"Dračevac","duljina":239.4},"geometry":{"type":"LineString","coordinates":[[16.50155,43.526895],[16.50143,43.526829],[16.501351,43.526767],[16.501292,43.526721],[16.501275,43.526677],[16.501275,43.526624],[16.501317,43.526578],[16.501418,43.526516],[16.501607,43.526421],[16.501698,43.526366],[16.501778,43.526317],[16.501831,43.526246],[16.501873,43.526176],[16.501965,43.526048],[16.502013,43.525954],[16.502031,43.525898],[16.502027,43.525832],[16.501993,43.52574],[16.501945,43.52563],[16.501933,43.525572],[16.501917,43.525519],[16.50191,43.525479],[16.501921,43.52545],[16.501959,43.525431],[16.502021,43.52542],[16.502086,43.525422],[16.502173,43.525418],[16.50221,43.525393],[16.502237,43.525357],[16.502233,43.525317],[16.502222,43.525228]]}},{"type":"Feature","properties":{"naziv":"Ulica Bilice II","duljina":71},"geometry":{"type":"LineString","coordinates":[[16.493525,43.527672],[16.49356,43.527603],[16.493609,43.527505],[16.493683,43.527362],[16.493833,43.527074]]}},{"type":"Feature","properties":{"naziv":"Dračevac","duljina":77.1},"geometry":{"type":"LineString","coordinates":[[16.500932,43.52742],[16.500786,43.527372],[16.500586,43.527252],[16.500474,43.527173],[16.500363,43.526993],[16.500326,43.52692]]}},{"type":"Feature","properties":{"naziv":"Karepovac","duljina":151.8},"geometry":{"type":"LineString","coordinates":[[16.504477,43.520547],[16.50454,43.520537],[16.504623,43.520523],[16.504851,43.520476],[16.505028,43.520458],[16.505229,43.520494],[16.505525,43.520597],[16.50589,43.520713],[16.506112,43.520782],[16.506231,43.520832]]}},{"type":"Feature","properties":{"naziv":"Karepovac","duljina":53.3},"geometry":{"type":"LineString","coordinates":[[16.504948,43.520353],[16.505209,43.520214],[16.505181,43.519971]]}},{"type":"Feature","properties":{"naziv":"Ulica Bilice II","duljina":145.5},"geometry":{"type":"LineString","coordinates":[[16.494627,43.526192],[16.494627,43.526191],[16.494734,43.525858],[16.494839,43.525561],[16.494905,43.525405],[16.494949,43.525221],[16.494948,43.525028],[16.494942,43.524911]]}},{"type":"Feature","properties":{"naziv":"Mostine ulica","duljina":127.5},"geometry":{"type":"LineString","coordinates":[[16.488013,43.524406],[16.488312,43.524269],[16.488507,43.524219],[16.488815,43.524157],[16.488924,43.524138],[16.489071,43.524127],[16.489232,43.524118],[16.489335,43.524117],[16.489398,43.524106],[16.489501,43.524086]]}},{"type":"Feature","properties":{"naziv":"Dračevac","duljina":19.2},"geometry":{"type":"LineString","coordinates":[[16.504821,43.524339],[16.504817,43.524167]]}},{"type":"Feature","properties":{"naziv":"Dračevac","duljina":127.9},"geometry":{"type":"LineString","coordinates":[[16.502021,43.527441],[16.502027,43.52765],[16.502027,43.527858],[16.501664,43.527852],[16.501474,43.527839],[16.501292,43.527823],[16.501295,43.527624]]}},{"type":"Feature","properties":{"naziv":"Dračevac","duljina":44.4},"geometry":{"type":"LineString","coordinates":[[16.502054,43.527441],[16.502181,43.527453],[16.5026,43.527488]]}},{"type":"Feature","properties":{"naziv":"Dračevac","duljina":285},"geometry":{"type":"LineString","coordinates":[[16.497082,43.526901],[16.497031,43.527036],[16.496963,43.527157],[16.496819,43.527199],[16.496446,43.527202],[16.496121,43.527202],[16.49581,43.527195],[16.495665,43.52718],[16.495617,43.527138],[16.495606,43.527063],[16.495619,43.526958],[16.495641,43.526908],[16.495707,43.526885],[16.497082,43.526901]]}},{"type":"Feature","properties":{"naziv":"Dračevac","duljina":24.5},"geometry":{"type":"LineString","coordinates":[[16.502222,43.525228],[16.502169,43.52501]]}},{"type":"Feature","properties":{"naziv":"Dračevac","duljina":150.9},"geometry":{"type":"LineString","coordinates":[[16.50514,43.525004],[16.505393,43.524967],[16.505559,43.52494],[16.505642,43.524926],[16.505723,43.524826],[16.505777,43.524704],[16.505877,43.524459],[16.505954,43.524297],[16.505989,43.524085],[16.505961,43.523987]]}},{"type":"Feature","properties":{"naziv":"Ulica Bilice II","duljina":274.1},"geometry":{"type":"LineString","coordinates":[[16.494627,43.526192],[16.494778,43.526226],[16.495138,43.526309],[16.495343,43.526368],[16.495436,43.526393],[16.495436,43.526516],[16.495414,43.526719],[16.495395,43.527371],[16.495165,43.527375],[16.494858,43.527371],[16.494631,43.527345],[16.494234,43.52724]]}},{"type":"Feature","properties":{"naziv":"Ulica Bilice II","duljina":121.1},"geometry":{"type":"LineString","coordinates":[[16.494234,43.52724],[16.494268,43.527194],[16.494333,43.527073],[16.494412,43.526853],[16.494519,43.526601],[16.494581,43.526357],[16.494627,43.526192]]}},{"type":"Feature","properties":{"naziv":"Put Mostina","duljina":172.8},"geometry":{"type":"LineString","coordinates":[[16.486975858925536,43.52510858970217],[16.487452,43.525019],[16.487659,43.524861]]}},{"type":"Feature","properties":{"naziv":"Dračevac","duljina":148},"geometry":{"type":"LineString","coordinates":[[16.50155,43.526895],[16.50161,43.526835],[16.501768,43.526788],[16.502002,43.526762],[16.502669,43.526647],[16.503003,43.526573],[16.503192,43.526542],[16.503279,43.526518]]}},{"type":"Feature","properties":{"naziv":"Mostine ulica","duljina":111.7},"geometry":{"type":"LineString","coordinates":[[16.489501,43.524086],[16.489578,43.524142],[16.489672,43.524214],[16.489782,43.524297],[16.489884,43.524361],[16.490118,43.52453],[16.490223,43.52461],[16.490338,43.524684],[16.490418,43.524735],[16.490502,43.524777]]}},{"type":"Feature","properties":{"naziv":"Dračevac","duljina":68.4},"geometry":{"type":"LineString","coordinates":[[16.503782,43.525023],[16.503762,43.524965],[16.503726,43.524883],[16.503619,43.52442]]}},{"type":"Feature","properties":{"naziv":"Karepovac","duljina":187.7},"geometry":{"type":"LineString","coordinates":[[16.498698,43.52148],[16.498408,43.521586],[16.49799,43.52174],[16.497433,43.521908],[16.497162,43.521993],[16.497048,43.522054],[16.496851,43.522253],[16.496773,43.522348]]}},{"type":"Feature","properties":{"naziv":"Mostine ulica","duljina":90},"geometry":{"type":"LineString","coordinates":[[16.491078,43.523525],[16.491109,43.523435],[16.491073,43.523376],[16.49103,43.523319],[16.490982,43.523251],[16.490948,43.523193],[16.490938,43.523172],[16.490953,43.523148],[16.491225,43.52307],[16.491461,43.522994]]}},{"type":"Feature","properties":{"naziv":"Dračevac","duljina":37.6},"geometry":{"type":"LineString","coordinates":[[16.501553,43.526962],[16.501613,43.527043],[16.501724,43.527106],[16.501913,43.52715]]}},{"type":"Feature","properties":{"naziv":"Dračevac","duljina":317},"geometry":{"type":"LineString","coordinates":[[16.497268,43.526074],[16.498105,43.52607],[16.49881,43.526074],[16.498977,43.526074],[16.499374,43.526081],[16.499816,43.526099],[16.499986,43.526096],[16.500033,43.526165],[16.500147,43.526377],[16.500347,43.526772],[16.50035,43.526826],[16.500326,43.52692]]}},{"type":"Feature","properties":{"naziv":"Dračevac","duljina":136.2},"geometry":{"type":"LineString","coordinates":[[16.505961,43.523987],[16.505918,43.523784],[16.505856,43.523557],[16.505788,43.523278],[16.505746,43.522967],[16.505766,43.522851],[16.505744,43.522776]]}},{"type":"Feature","properties":{"naziv":"Dračevac","duljina":53.5},"geometry":{"type":"LineString","coordinates":[[16.501305,43.527317],[16.501324,43.527132],[16.50131,43.527026],[16.501342,43.527014],[16.501516,43.526967],[16.501553,43.526962]]}},{"type":"Feature","properties":{"naziv":"Karepovac","duljina":97},"geometry":{"type":"LineString","coordinates":[[16.498698,43.52148],[16.498645,43.521351],[16.498591,43.521193],[16.498537,43.521094],[16.49847,43.521044],[16.49832,43.521045],[16.49827,43.521049],[16.498179,43.521091],[16.498065,43.521245]]}},{"type":"Feature","properties":{"naziv":"Dračevac","duljina":71.1},"geometry":{"type":"LineString","coordinates":[[16.501142,43.527451],[16.501384,43.527452],[16.501673,43.527441],[16.502021,43.527441]]}},{"type":"Feature","properties":{"naziv":"Ulica Bilice I","duljina":174.5},"geometry":{"type":"LineString","coordinates":[[16.489945,43.526709],[16.490014,43.526781],[16.490035,43.526862],[16.490034,43.526956],[16.490018,43.527026],[16.489999,43.527094],[16.489967,43.527169],[16.489913,43.527231],[16.489879,43.527262],[16.489549,43.527257],[16.489313,43.527237],[16.489149,43.527227],[16.488975,43.527243],[16.488789,43.527249],[16.488543,43.527251]]}},{"type":"Feature","properties":{"naziv":"Mostine ulica","duljina":193},"geometry":{"type":"LineString","coordinates":[[16.491078,43.523525],[16.491172,43.523509],[16.491333,43.523484],[16.491493,43.523447],[16.491662,43.523396],[16.491821,43.523333],[16.49195,43.523273],[16.492148,43.523206],[16.492339,43.523148],[16.49258,43.523069],[16.492749,43.523013],[16.492911,43.522945],[16.49308,43.522875],[16.493249,43.522821]]}},{"type":"Feature","properties":{"naziv":"Put Mostina","duljina":58},"geometry":{"type":"LineString","coordinates":[[16.487659,43.524861],[16.488013,43.524406]]}},{"type":"Feature","properties":{"naziv":"Mostine ulica","duljina":146.4},"geometry":{"type":"LineString","coordinates":[[16.489501,43.524086],[16.489593,43.524056],[16.48968,43.524011],[16.489824,43.523946],[16.48997,43.523862],[16.490077,43.523749],[16.490222,43.523672],[16.490374,43.523635],[16.490472,43.523619],[16.490647,43.523589],[16.490813,43.523561],[16.491004,43.523539],[16.491078,43.523525]]}},{"type":"Feature","properties":{"naziv":"Karepovac","duljina":142.3},"geometry":{"type":"LineString","coordinates":[[16.504948,43.520353],[16.504843,43.520239],[16.504684,43.520126],[16.504584,43.519967],[16.504554,43.519908],[16.504558,43.519823],[16.504553,43.519578],[16.504555724756298,43.519470826252316]]}},{"type":"Feature","properties":{"naziv":"Dračevac","duljina":42},"geometry":{"type":"LineString","coordinates":[[16.503377,43.528227],[16.503392,43.528181],[16.503418,43.528145],[16.503464,43.52812],[16.503504,43.528116],[16.503595,43.528132],[16.503714,43.528164],[16.503793,43.528176]]}},{"type":"Feature","properties":{"naziv":"Ulica Bilice II","duljina":44.6},"geometry":{"type":"LineString","coordinates":[[16.493807,43.527801],[16.493927,43.527879],[16.494019,43.527942],[16.494111,43.528123]]}},{"type":"Feature","properties":{"naziv":"Ulica Bilice II","duljina":733.4},"geometry":{"type":"LineString","coordinates":[[16.494942,43.524911],[16.495166,43.524919],[16.495281,43.524917],[16.495616,43.52491],[16.496023,43.524773],[16.496415,43.524659],[16.496834,43.524535],[16.49753,43.52427],[16.498057,43.524089],[16.49857,43.523896],[16.499041,43.523723],[16.499517,43.523589],[16.49991,43.523509],[16.500121,43.523476],[16.50053,43.523336],[16.500819,43.523234],[16.501143,43.523154],[16.501449,43.523086],[16.501803,43.523002],[16.502109,43.522925],[16.502263,43.522902],[16.502327,43.52289],[16.502358,43.522996],[16.502483,43.523399],[16.502525,43.523535],[16.50254,43.523682]]}},{"type":"Feature","properties":{"naziv":"Ulica Bilice II","duljina":125.8},"geometry":{"type":"LineString","coordinates":[[16.492249,43.525506],[16.492572,43.525518],[16.493063,43.525498],[16.493345,43.525542],[16.493437,43.52559],[16.493538,43.525671],[16.493663,43.525774]]}},{"type":"Feature","properties":{"naziv":"Ulica Bilice II","duljina":68.3},"geometry":{"type":"LineString","coordinates":[[16.50254,43.523682],[16.502558,43.523808],[16.502577,43.523997],[16.502618,43.524295]]}},{"type":"Feature","properties":{"naziv":"Dračevac","duljina":66.9},"geometry":{"type":"LineString","coordinates":[[16.502169,43.52501],[16.502149,43.524908],[16.502138,43.524853],[16.502132,43.52481],[16.502147,43.524747],[16.502187,43.524692],[16.502186,43.524586],[16.502404,43.52453]]}},{"type":"Feature","properties":{"naziv":"Put Svetog Ižidora","duljina":229.9},"geometry":{"type":"LineString","coordinates":[[16.506231,43.520832],[16.506645,43.520693],[16.506827,43.520591],[16.506899,43.520448],[16.506843,43.520159],[16.506696,43.519694],[16.506598,43.519491],[16.50659346090677,43.519470826252316]]}},{"type":"Feature","properties":{"naziv":"Ulica Bilice II","duljina":71.6},"geometry":{"type":"LineString","coordinates":[[16.493807,43.527801],[16.493884,43.527736],[16.493998,43.527544],[16.494104,43.527411],[16.494133,43.527372],[16.494206,43.527279],[16.494234,43.52724]]}},{"type":"Feature","properties":{"naziv":"Dračevac","duljina":170.1},"geometry":{"type":"LineString","coordinates":[[16.503279,43.526518],[16.503327,43.52639],[16.503377,43.526183],[16.503405,43.526073],[16.503626,43.525892],[16.503794,43.525804],[16.504166,43.525646],[16.504616,43.525473]]}},{"type":"Feature","properties":{"naziv":"Ulica Bilice II","duljina":101.3},"geometry":{"type":"LineString","coordinates":[[16.495487,43.524913],[16.495484,43.525028],[16.495491,43.525259],[16.495486,43.525431],[16.495463,43.525634],[16.495433,43.525822]]}},{"type":"Feature","properties":{"naziv":"Dračevac","duljina":60.7},"geometry":{"type":"LineString","coordinates":[[16.505083,43.525254],[16.505169,43.52533],[16.505232,43.525395],[16.50525,43.525414],[16.505489,43.525405],[16.505464,43.525576]]}},{"type":"Feature","properties":{"naziv":"Dračevac","duljina":196.9},"geometry":{"type":"LineString","coordinates":[[16.497268,43.526074],[16.497272,43.525942],[16.497267,43.525778],[16.497263,43.525521],[16.497294,43.52522],[16.497292,43.525045],[16.497268,43.524999],[16.497205,43.524985],[16.496317,43.524982]]}},{"type":"Feature","properties":{"naziv":"Dračevac","duljina":48},"geometry":{"type":"LineString","coordinates":[[16.5026,43.527488],[16.502605,43.527056]]}},{"type":"Feature","properties":{"naziv":"Ulica Bilice II","duljina":27.3},"geometry":{"type":"LineString","coordinates":[[16.493525,43.527672],[16.493608,43.527692],[16.493683,43.527731],[16.493807,43.527801]]}},{"type":"Feature","properties":{"naziv":"Dračevac","duljina":45.7},"geometry":{"type":"LineString","coordinates":[[16.503377,43.528227],[16.503132,43.528197],[16.503006,43.528167],[16.502935,43.52812],[16.50289,43.528065]]}},{"type":"Feature","properties":{"naziv":"Dračevac","duljina":2.7},"geometry":{"type":"LineString","coordinates":[[16.502021,43.527441],[16.502054,43.527441]]}},{"type":"Feature","properties":{"naziv":"Dračevac","duljina":100.8},"geometry":{"type":"LineString","coordinates":[[16.504616,43.525473],[16.504645,43.525573],[16.504663,43.525631],[16.504602,43.525827],[16.504578,43.525966],[16.504566,43.526101],[16.504588,43.526196],[16.504594,43.526369]]}},{"type":"Feature","properties":{"naziv":"Ulica Bilice II","duljina":27.9},"geometry":{"type":"LineString","coordinates":[[16.492524,43.527581],[16.492587,43.52757],[16.492865,43.527594]]}},{"type":"Feature","properties":{"naziv":"Mostine ulica","duljina":85.6},"geometry":{"type":"LineString","coordinates":[[16.49535,43.52367],[16.495453,43.52368],[16.49555,43.523687],[16.49563,43.523691],[16.495697,43.523702],[16.49575,43.523723],[16.495773,43.523747],[16.495838,43.523749],[16.49595,43.523743],[16.496141,43.523706],[16.496374,43.523697]]}},{"type":"Feature","properties":{"naziv":"Karepovac"},"geometry":{"type":"LineString","coordinates":[[16.504476,43.520547],[16.504477,43.520547]]}},{"type":"Feature","properties":{"naziv":"Dračevac","duljina":90},"geometry":{"type":"LineString","coordinates":[[16.501449,43.524921],[16.5014,43.525121],[16.501736,43.525175],[16.502222,43.525228]]}},{"type":"Feature","properties":{"naziv":"Dračevac","duljina":21.8},"geometry":{"type":"LineString","coordinates":[[16.502605,43.527056],[16.502875,43.527047]]}},{"type":"Feature","properties":{"naziv":"Dračevac","duljina":223.4},"geometry":{"type":"LineString","coordinates":[[16.504915,43.527755],[16.504857,43.52764],[16.504783,43.527493],[16.504644,43.527395],[16.504477,43.527288],[16.504277,43.527233],[16.503992,43.527213],[16.503737,43.52724],[16.503545,43.527309],[16.503244,43.527409],[16.502942,43.527484],[16.5026,43.527488]]}},{"type":"Feature","properties":{"naziv":"Dračevac","duljina":92},"geometry":{"type":"LineString","coordinates":[[16.497237,43.526901],[16.497234,43.526781],[16.497245,43.526595],[16.497242,43.52639],[16.497257,43.526174],[16.497268,43.526074]]}},{"type":"Feature","properties":{"naziv":"Dračevac","duljina":66.4},"geometry":{"type":"LineString","coordinates":[[16.504521,43.524943],[16.504402,43.52495],[16.50422,43.524985],[16.503927,43.525051],[16.503836,43.525069],[16.503802,43.525077],[16.503782,43.525023]]}},{"type":"Feature","properties":{"naziv":"Ulica Bilice II","duljina":59.2},"geometry":{"type":"LineString","coordinates":[[16.492249,43.525506],[16.492245,43.525607],[16.492261,43.525716],[16.492291,43.525909],[16.492337,43.525989],[16.492355,43.526029]]}},{"type":"Feature","properties":{"naziv":"Dračevac","duljina":7.5},"geometry":{"type":"LineString","coordinates":[[16.501553,43.526962],[16.50155,43.526895]]}},{"type":"Feature","properties":{"naziv":"Dračevac","duljina":70.2},"geometry":{"type":"LineString","coordinates":[[16.504241,43.528233],[16.504045,43.528236],[16.503797,43.528251],[16.503644,43.528257],[16.503467,43.528245],[16.503377,43.528227]]}},{"type":"Feature","properties":{"naziv":"Dračevac","duljina":23.1},"geometry":{"type":"LineString","coordinates":[[16.50514,43.525004],[16.504855,43.524992]]}},{"type":"Feature","properties":{"naziv":"Ulica Bilice II","duljina":123.3},"geometry":{"type":"LineString","coordinates":[[16.493063,43.528291],[16.492976,43.528301],[16.492854,43.528303],[16.49269,43.528293],[16.492585,43.528276],[16.492487,43.528242],[16.492434,43.528179],[16.492422,43.528124],[16.492465,43.527954],[16.492503,43.52781],[16.492523,43.52772],[16.492514,43.527628],[16.492524,43.527581]]}},{"type":"Feature","properties":{"naziv":"Dračevac","duljina":60.6},"geometry":{"type":"LineString","coordinates":[[16.501305,43.527317],[16.501576,43.527317],[16.501905,43.527304],[16.502047,43.52727]]}},{"type":"Feature","properties":{"naziv":"Dračevac","duljina":45.3},"geometry":{"type":"LineString","coordinates":[[16.504616,43.525473],[16.504887,43.525371],[16.505041,43.525293],[16.505083,43.525254]]}},{"type":"Feature","properties":{"naziv":"Dračevac","duljina":131},"geometry":{"type":"LineString","coordinates":[[16.504915,43.527755],[16.505608,43.527597],[16.505711,43.527561],[16.50638,43.52727]]}},{"type":"Feature","properties":{"naziv":"Ulica Bilice II","duljina":54.1},"geometry":{"type":"LineString","coordinates":[[16.493525,43.527672],[16.493437,43.527656],[16.493284,43.527634],[16.492865,43.527594]]}},{"type":"Feature","properties":{"naziv":"Dračevac","duljina":79.2},"geometry":{"type":"LineString","coordinates":[[16.504241,43.528233],[16.504335,43.528062],[16.504674,43.527833],[16.504915,43.527755]]}},{"type":"Feature","properties":{"naziv":"Dračevac","duljina":19},"geometry":{"type":"LineString","coordinates":[[16.502047,43.52727],[16.502054,43.527441]]}},{"type":"Feature","properties":{"naziv":"Dračevac","duljina":63.7},"geometry":{"type":"LineString","coordinates":[[16.501913,43.52715],[16.501966,43.527053],[16.50202,43.527034],[16.502605,43.527056]]}},{"type":"Feature","properties":{"naziv":"Karepovac","duljina":487.1},"geometry":{"type":"LineString","coordinates":[[16.504477,43.520547],[16.503953,43.520642],[16.503545,43.520658],[16.503227,43.520651],[16.502925,43.520616],[16.502475,43.52057],[16.502194,43.520577],[16.501947,43.52061],[16.501593,43.520663],[16.501361,43.52073],[16.500844,43.520861],[16.5004,43.52098],[16.500052,43.521074],[16.499655,43.521197],[16.499134,43.52135],[16.498865,43.521428],[16.498698,43.52148]]}},{"type":"Feature","properties":{"naziv":"Dračevac","duljina":109.1},"geometry":{"type":"LineString","coordinates":[[16.499789,43.527779],[16.500165,43.527778],[16.500381,43.527748],[16.500601,43.527703],[16.500798,43.527604],[16.500932,43.52742]]}},{"type":"Feature","properties":{"naziv":"Mostine ulica","duljina":236.3},"geometry":{"type":"LineString","coordinates":[[16.490502,43.524777],[16.490561,43.524775],[16.490655,43.524795],[16.490769,43.524813],[16.490886,43.524836],[16.491059,43.524868],[16.491231,43.524897],[16.491397,43.52491],[16.491603,43.524928],[16.491668,43.52493],[16.491743,43.524921],[16.491771,43.524911],[16.491774,43.524893],[16.491776,43.524869],[16.491783,43.524832],[16.491827,43.524816],[16.491873,43.52481],[16.491988,43.524794],[16.492244,43.524747],[16.492373,43.524718],[16.492511,43.5247],[16.492559,43.52468],[16.492652,43.52466],[16.492781,43.524643],[16.492915,43.524647],[16.493015,43.524644],[16.493147,43.524651],[16.493263,43.524653]]}},{"type":"Feature","properties":{"naziv":"Dračevac","duljina":94.8},"geometry":{"type":"LineString","coordinates":[[16.505961,43.523987],[16.505617,43.524045],[16.505375,43.524102],[16.505166,43.524128],[16.504913,43.524152],[16.504817,43.524167]]}},{"type":"Feature","properties":{"naziv":"Ulica Bilice II","duljina":27.8},"geometry":{"type":"LineString","coordinates":[[16.492865,43.527594],[16.492932,43.527718],[16.492995,43.527826]]}},{"type":"Feature","properties":{"duljina":223.3},"geometry":{"type":"LineString","coordinates":[[16.506231,43.520832],[16.506083,43.521359],[16.505934,43.521564],[16.505809,43.52182],[16.505713,43.522151],[16.505678,43.522342],[16.505731,43.522565],[16.505744,43.522776]]}},{"type":"Feature","properties":{"naziv":"Ulica Bilice II","duljina":64.2},"geometry":{"type":"LineString","coordinates":[[16.50254,43.523682],[16.50231,43.523721],[16.502116,43.523759],[16.502045,43.523775],[16.501954,43.52378],[16.501761,43.523779]]}},{"type":"Feature","properties":{"naziv":"Ulica Bilice II","duljina":90},"geometry":{"type":"LineString","coordinates":[[16.493663,43.525774],[16.493558,43.525876],[16.493473,43.526037],[16.493403,43.526157],[16.493364,43.526203],[16.493302,43.526344],[16.493198,43.526504]]}},{"type":"Feature","properties":{"naziv":"Dračevac","duljina":262.3},"geometry":{"type":"LineString","coordinates":[[16.500326,43.52692],[16.499647,43.526909],[16.498029,43.526914],[16.497082,43.526901]]}},{"type":"Feature","properties":{"naziv":"Mostine ulica","duljina":95.3},"geometry":{"type":"LineString","coordinates":[[16.490502,43.524777],[16.490554,43.524835],[16.49063,43.524886],[16.490728,43.524962],[16.490824,43.525021],[16.490921,43.525091],[16.491035,43.525168],[16.491139,43.525241],[16.491186,43.525274],[16.491203,43.525321],[16.491219,43.525377],[16.491233,43.525422]]}},{"type":"Feature","properties":{"naziv":"Ulica Bilice I","duljina":291.5},"geometry":{"type":"LineString","coordinates":[[16.488543,43.527251],[16.488549,43.527165],[16.488574,43.526949],[16.488616,43.52665],[16.488631,43.526521],[16.488614,43.526375],[16.488599,43.526309],[16.488574,43.526266],[16.4885,43.526225],[16.488361,43.526186],[16.488313,43.526167],[16.488283,43.526141],[16.488253,43.526098],[16.488214,43.526011],[16.488163,43.525878],[16.488146,43.525818],[16.488114,43.525696],[16.488078,43.5256],[16.488051,43.525517],[16.488029,43.525453],[16.487974,43.525324],[16.487925,43.525208],[16.487869,43.525099],[16.487832,43.525023],[16.487785,43.52495],[16.487759,43.524915],[16.487738,43.524893],[16.487704,43.524875],[16.487659,43.524861]]}},{"type":"Feature","properties":{"naziv":"Dračevac","duljina":21.7},"geometry":{"type":"LineString","coordinates":[[16.501449,43.524921],[16.501183,43.524893]]}},{"type":"Feature","properties":{"naziv":"Dračevac","duljina":17.7},"geometry":{"type":"LineString","coordinates":[[16.501913,43.52715],[16.502019,43.527218],[16.502047,43.52727]]}},{"type":"Feature","properties":{"naziv":"Dračevac","duljina":179.8},"geometry":{"type":"LineString","coordinates":[[16.504817,43.524167],[16.504743,43.524179],[16.504314,43.524176],[16.503568,43.524158],[16.503243,43.524191],[16.503011,43.524252],[16.502618,43.524295]]}}]}