{"type":"FeatureCollection","name":"drzavna_cesta_UI","crs":{"type":"name","properties":{"name":"urn:ogc:def:crs:OGC:1.3:CRS84"}},"xy_coordinate_resolution":0.000001,"features":[{"type":"Feature","properties":{"oznaka":"D432","vrsta":"državna cesta"},"geometry":{"type":"LineString","coordinates":[[16.493402901432347,43.53040109856765],[16.493409,43.530395],[16.493425,43.530379],[16.493442,43.530363],[16.493459,43.530347],[16.493476,43.53033],[16.493493,43.530313],[16.493511,43.530296],[16.493529,43.530278],[16.493547,43.53026],[16.493566,43.530242],[16.493585,43.530223],[16.493604,43.530205],[16.493623,43.530186],[16.493642,43.530167],[16.493662,43.530147],[16.493683,43.530127],[16.493703,43.530107],[16.493723,43.530087],[16.493744,43.530066],[16.493765,43.530045],[16.493787,43.530024],[16.493808,43.530002],[16.49383,43.529981],[16.493852,43.529959],[16.493874,43.529936],[16.493897,43.529914],[16.493919,43.529891],[16.493942,43.529867],[16.493965,43.529844],[16.493986,43.529823],[16.493989,43.52982],[16.494014,43.529795],[16.49404,43.529769],[16.494067,43.529741],[16.494091,43.529711],[16.494122,43.529679],[16.494151,43.529646],[16.494202,43.529597],[16.494253,43.529548],[16.494318,43.529492],[16.494383,43.529435],[16.494448,43.529379],[16.494514,43.529323],[16.494581,43.529268],[16.494649,43.529213],[16.494721,43.529161],[16.494792,43.529109],[16.494864,43.529057],[16.494933,43.529003],[16.495002,43.528949],[16.495071,43.528895],[16.495141,43.528842],[16.495212,43.52879],[16.495285,43.528739],[16.495358,43.528687],[16.49543,43.528636],[16.495505,43.528586],[16.49558,43.528537],[16.495657,43.52849],[16.495735,43.528442],[16.495814,43.528396],[16.495892,43.528349],[16.495971,43.528304],[16.49605,43.528257],[16.49613,43.528212],[16.496211,43.528167],[16.496291,43.528123],[16.49637,43.528077],[16.496448,43.52803],[16.496527,43.527984],[16.496607,43.527938],[16.496687,43.527894],[16.49679,43.527837]]}},{"type":"Feature","properties":{"oznaka":"D8","vrsta":"državna cesta"},"geometry":{"type":"MultiLineString","coordinates":[[[16.486975858925536,43.523545610739866],[16.487026,43.523584],[16.4871,43.52364],[16.487151,43.523679],[16.487182,43.523703],[16.487224,43.523736],[16.48727,43.523771],[16.48733,43.523817],[16.487408,43.523878],[16.487488,43.523939],[16.487557,43.523992],[16.48762,43.52404],[16.487676,43.524083],[16.489046,43.525126],[16.489247,43.525286],[16.489327,43.525346],[16.489357,43.525368],[16.489383,43.525388],[16.48941,43.525408],[16.489438,43.525429],[16.489466,43.525449],[16.489494,43.52547],[16.489519,43.525489],[16.489534,43.525501],[16.489556,43.525518],[16.489578,43.525536],[16.489596,43.525551],[16.489618,43.525569],[16.489637,43.525586],[16.489658,43.525604],[16.489693,43.525634],[16.489717,43.525655],[16.489765,43.525697],[16.489791,43.52572],[16.489816,43.525742],[16.489839,43.525762],[16.489864,43.525785],[16.489892,43.525811],[16.489922,43.52584],[16.489946,43.525863],[16.489967,43.525884],[16.489998,43.525915],[16.49002,43.525938],[16.49004,43.525959],[16.490063,43.525983],[16.490086,43.526006],[16.490104,43.526026],[16.49013,43.526053],[16.490153,43.526078],[16.490173,43.5261],[16.490198,43.526129],[16.490225,43.526161],[16.490259,43.526206],[16.490284,43.526241],[16.490307,43.526277],[16.490316,43.526294],[16.490338,43.526332],[16.490366,43.526382],[16.490392,43.52643],[16.490411,43.526465],[16.490415,43.526473],[16.49042,43.526482],[16.490426,43.526496],[16.490432,43.526507],[16.490435,43.526513],[16.49044,43.526524],[16.490443,43.52653],[16.490446,43.526537],[16.49045,43.526544],[16.490453,43.526551],[16.490455,43.526557],[16.490459,43.526564],[16.490463,43.526573],[16.490466,43.526579],[16.490469,43.526588],[16.490472,43.526594],[16.490475,43.526601],[16.490478,43.526609],[16.490481,43.526616],[16.490485,43.526627],[16.490489,43.526637],[16.490494,43.526648],[16.490497,43.526657],[16.490502,43.52667],[16.490506,43.526683],[16.490509,43.526692],[16.490512,43.526702],[16.490515,43.526709],[16.490519,43.526721],[16.490521,43.526731],[16.490525,43.526741],[16.490528,43.526753],[16.490531,43.526762],[16.490533,43.526771],[16.490535,43.526779],[16.490539,43.526792],[16.490541,43.526804],[16.490544,43.526816],[16.490546,43.526825],[16.490549,43.526837],[16.490553,43.526856],[16.490555,43.526865],[16.490558,43.52688],[16.49056,43.526893],[16.490562,43.526902],[16.490564,43.526914],[16.490567,43.52693],[16.490569,43.526945],[16.490571,43.526958],[16.490573,43.526974],[16.490575,43.526986],[16.490576,43.526999],[16.490578,43.527012],[16.490579,43.527021],[16.49058,43.52703],[16.490581,43.527043],[16.490582,43.527055],[16.490584,43.527067],[16.490585,43.527084],[16.490586,43.527097],[16.490587,43.527112],[16.490588,43.527125],[16.490589,43.527138],[16.490589,43.52715],[16.49059,43.52716],[16.49059,43.527171],[16.490591,43.527189],[16.490591,43.527201],[16.490591,43.527215],[16.490591,43.527228],[16.490591,43.527242],[16.490591,43.527256],[16.490591,43.527265],[16.490591,43.527278],[16.490591,43.527289],[16.49059,43.527306],[16.49059,43.527321],[16.490589,43.527335],[16.490588,43.527349],[16.490587,43.527363],[16.490586,43.527377],[16.490586,43.527388],[16.490584,43.527403],[16.490583,43.527414],[16.490582,43.527432],[16.49058,43.527449],[16.490578,43.527461],[16.490577,43.527472],[16.490575,43.527485],[16.490574,43.527496],[16.490572,43.527509],[16.49057,43.527522],[16.490568,43.527536],[16.490566,43.527547],[16.490564,43.527556],[16.490562,43.527568],[16.490559,43.527584],[16.490557,43.527594],[16.490555,43.527603],[16.490553,43.527615],[16.490551,43.527624],[16.490548,43.527637],[16.490546,43.527647],[16.490543,43.527657],[16.49054,43.527669],[16.490537,43.527681],[16.490534,43.527694],[16.490531,43.527705],[16.490528,43.527716],[16.490525,43.527726],[16.490522,43.527739],[16.490518,43.527753],[16.490514,43.527764],[16.490511,43.527774],[16.490507,43.527787],[16.490504,43.527796],[16.4905,43.527807],[16.490497,43.527818],[16.490493,43.52783],[16.490489,43.52784],[16.490485,43.527852],[16.490481,43.527862],[16.490477,43.527873],[16.490472,43.527886],[16.490467,43.527899],[16.490463,43.527909],[16.490458,43.527923],[16.490454,43.527932],[16.490449,43.527943],[16.490444,43.527955],[16.490438,43.527969],[16.490434,43.527978],[16.490429,43.527988],[16.490425,43.527999],[16.490419,43.52801],[16.490413,43.528024],[16.490405,43.52804],[16.490399,43.528053],[16.490393,43.528065],[16.490386,43.528078],[16.49038,43.528091],[16.490374,43.528103],[16.490368,43.528115],[16.49036,43.528129],[16.490354,43.528141],[16.490347,43.528154],[16.49034,43.528165],[16.490332,43.528179],[16.490326,43.52819],[16.490321,43.528199],[16.490315,43.528209],[16.490309,43.528219],[16.490303,43.52823],[16.490297,43.52824],[16.490292,43.528249],[16.490284,43.528261],[16.490278,43.528271],[16.490269,43.528285],[16.490263,43.528295],[16.490256,43.528307],[16.490248,43.528319],[16.490227,43.528352],[16.490218,43.528366],[16.490205,43.528385],[16.490191,43.528405],[16.490175,43.528428],[16.490153,43.528461],[16.490104,43.52853],[16.490064,43.528585],[16.490057,43.528593],[16.490049,43.528603],[16.490041,43.528613],[16.490031,43.528626],[16.490021,43.528638],[16.490011,43.52865],[16.490002,43.528661],[16.489974,43.528698],[16.489954,43.528724],[16.489924,43.528763],[16.489862,43.528844],[16.489824,43.528894],[16.489799,43.528925],[16.489784,43.528943],[16.489762,43.52897],[16.489748,43.528987],[16.489732,43.529007],[16.489719,43.529023],[16.489706,43.529038],[16.489689,43.529058],[16.489675,43.529075],[16.489659,43.529095],[16.489644,43.529113],[16.489627,43.529135],[16.489609,43.529157],[16.489596,43.529174],[16.489579,43.529196],[16.489575,43.529201]],[[16.488677459956893,43.53040109856765],[16.488684,43.530385],[16.488699,43.530355],[16.488713,43.530324],[16.488729,43.530293],[16.488744,43.530262],[16.488759,43.530231],[16.488775,43.530198],[16.488794,43.530162],[16.488816,43.530123],[16.488841,43.530077],[16.488871,43.530024],[16.488907,43.529963],[16.48895,43.529892],[16.489458,43.529237]],[[16.48881564755744,43.53040109856765],[16.48883,43.530365],[16.488958,43.530133],[16.489085,43.529931],[16.489635,43.529241]]]}},{"type":"Feature","properties":{"oznaka":"D1","vrsta":"državna cesta"},"geometry":{"type":"MultiLineString","coordinates":[[[16.492022,43.527366],[16.492064,43.527431],[16.492098,43.527499],[16.492123,43.527569],[16.492138,43.52764],[16.492144,43.527712],[16.492141,43.527783],[16.492129,43.527855],[16.492107,43.527925],[16.492077,43.527993],[16.492037,43.528059],[16.491989,43.528122],[16.491933,43.528182],[16.49187,43.528237],[16.4918,43.528288]],[[16.4918,43.528288],[16.491722,43.528334],[16.491637,43.528375],[16.491548,43.52841],[16.491454,43.528438],[16.491358,43.52846],[16.491258,43.528475],[16.491157,43.528482],[16.491056,43.528483],[16.490955,43.528476],[16.490856,43.528462],[16.490758,43.528442],[16.490664,43.528414],[16.490574,43.52838],[16.490489,43.52834],[16.49041,43.528294],[16.490338,43.528243],[16.490272,43.528186],[16.490214,43.528126],[16.490165,43.528061],[16.490124,43.527994],[16.490093,43.527924],[16.490071,43.527852],[16.490059,43.527779],[16.490056,43.527705],[16.490064,43.527631],[16.490081,43.527559],[16.490107,43.527488],[16.490143,43.527419],[16.490189,43.527353],[16.490242,43.52729],[16.490304,43.527232],[16.490373,43.527178],[16.490449,43.527129],[16.490532,43.527086],[16.490619,43.527049],[16.490711,43.527018],[16.490807,43.526994],[16.490905,43.526977],[16.491006,43.526967],[16.491107,43.526964],[16.491208,43.526968],[16.491308,43.526979],[16.491407,43.526997],[16.491502,43.527022],[16.491593,43.527054],[16.49168,43.527092],[16.491762,43.527135],[16.491837,43.527185],[16.491905,43.527239],[16.491966,43.527298],[16.492018,43.527361]],[[16.507942,43.52913],[16.507692,43.529096],[16.507234,43.529026],[16.506632,43.528927],[16.502011,43.52822],[16.501933,43.528208],[16.50132,43.528117],[16.500707,43.528037],[16.50037,43.527999],[16.500033,43.527962],[16.499782,43.527936],[16.499534,43.52791],[16.499299,43.527887],[16.499051,43.527862],[16.498768,43.527838],[16.498476,43.527818],[16.498203,43.527806],[16.497997,43.527801],[16.497689,43.527803],[16.497494,43.527807],[16.497348,43.527812],[16.497119,43.527822],[16.49695,43.527829],[16.49676,43.527839],[16.49656,43.527849],[16.496322,43.527863],[16.496113,43.527878],[16.49576,43.527908],[16.495467,43.527941],[16.495289,43.527966],[16.495154,43.527988],[16.4948,43.52806],[16.494622,43.528103],[16.494413,43.52816],[16.494145,43.528242],[16.493998,43.528291],[16.493772,43.528369],[16.493587,43.528431],[16.493369,43.528499],[16.493187,43.528549],[16.493008,43.528587],[16.492858,43.528608],[16.492704,43.528616],[16.492558,43.528608],[16.4924,43.528582],[16.492242,43.528535],[16.4918,43.528288]]]}}]}