{"type":"FeatureCollection","name":"KO_granice_ko","crs":{"type":"name","properties":{"name":"urn:ogc:def:crs:OGC:1.3:CRS84"}},"xy_coordinate_resolution":0.000001,"features":[{"type":"Feature","properties":{"naziv":"KAMEN"},"geometry":{"type":"LineString","coordinates":[[16.50656618939476,43.519470826252316],[16.506572,43.519513],[16.506726,43.519849],[16.506729,43.519869],[16.506792,43.520073],[16.506816,43.520145],[16.506817,43.520154],[16.506843,43.520296],[16.506842,43.52044]]}},{"type":"Feature","properties":{"naziv":"KAMEN"},"geometry":{"type":"LineString","coordinates":[[16.507378,43.524078],[16.507481,43.5241]]}},{"type":"Feature","properties":{"naziv":"KAMEN"},"geometry":{"type":"LineString","coordinates":[[16.507664,43.524206],[16.50783,43.524267]]}},{"type":"Feature","properties":{"naziv":"KAMEN"},"geometry":{"type":"LineString","coordinates":[[16.508881,43.524443],[16.508756,43.52442]]}},{"type":"Feature","properties":{"naziv":"KAMEN"},"geometry":{"type":"LineString","coordinates":[[16.505757,43.521965],[16.505813,43.521818]]}},{"type":"Feature","properties":{"naziv":"KAMEN"},"geometry":{"type":"LineString","coordinates":[[16.50916,43.524412],[16.50897,43.524423]]}},{"type":"Feature","properties":{"naziv":"KAMEN"},"geometry":{"type":"LineString","coordinates":[[16.507977,43.524295],[16.507988,43.524306]]}},{"type":"Feature","properties":{"naziv":"KAMEN"},"geometry":{"type":"LineString","coordinates":[[16.509888,43.524262],[16.509916,43.524254]]}},{"type":"Feature","properties":{"naziv":"KAMEN"},"geometry":{"type":"LineString","coordinates":[[16.506715,43.523464],[16.506769,43.523517]]}},{"type":"Feature","properties":{"naziv":"KAMEN"},"geometry":{"type":"LineString","coordinates":[[16.508369,43.524462],[16.508534,43.524445]]}},{"type":"Feature","properties":{"naziv":"KAMEN"},"geometry":{"type":"LineString","coordinates":[[16.50575,43.522692],[16.505777,43.522766]]}},{"type":"Feature","properties":{"naziv":"KAMEN"},"geometry":{"type":"LineString","coordinates":[[16.506769,43.523517],[16.5068,43.523542]]}},{"type":"Feature","properties":{"naziv":"KAMEN"},"geometry":{"type":"LineString","coordinates":[[16.509514,43.524351],[16.50965,43.524322]]}},{"type":"Feature","properties":{"naziv":"KAMEN"},"geometry":{"type":"LineString","coordinates":[[16.505873,43.521631],[16.505909,43.521572]]}},{"type":"Feature","properties":{"naziv":"KAMEN"},"geometry":{"type":"LineString","coordinates":[[16.505974,43.521452],[16.50598,43.521435]]}},{"type":"Feature","properties":{"naziv":"KAMEN"},"geometry":{"type":"LineString","coordinates":[[16.505699,43.522491],[16.50575,43.522692]]}},{"type":"Feature","properties":{"naziv":"KAMEN"},"geometry":{"type":"LineString","coordinates":[[16.50783,43.524267],[16.507936,43.524281]]}},{"type":"Feature","properties":{"naziv":"KAMEN"},"geometry":{"type":"LineString","coordinates":[[16.506296,43.52311],[16.506363,43.523162]]}},{"type":"Feature","properties":{"naziv":"KAMEN"},"geometry":{"type":"LineString","coordinates":[[16.508149,43.524424],[16.50824,43.52445]]}},{"type":"Feature","properties":{"naziv":"KAMEN"},"geometry":{"type":"LineString","coordinates":[[16.50965,43.524322],[16.509792,43.524288]]}},{"type":"Feature","properties":{"naziv":"KAMEN"},"geometry":{"type":"LineString","coordinates":[[16.508937,43.524429],[16.50897,43.524423]]}},{"type":"Feature","properties":{"naziv":"KAMEN"},"geometry":{"type":"LineString","coordinates":[[16.506236,43.523068],[16.50617,43.523036]]}},{"type":"Feature","properties":{"naziv":"KAMEN"},"geometry":{"type":"LineString","coordinates":[[16.505909,43.521572],[16.505974,43.521452]]}},{"type":"Feature","properties":{"naziv":"KAMEN"},"geometry":{"type":"LineString","coordinates":[[16.507107,43.523723],[16.507174,43.523785]]}},{"type":"Feature","properties":{"naziv":"KAMEN"},"geometry":{"type":"LineString","coordinates":[[16.505873,43.521631],[16.505813,43.521818]]}},{"type":"Feature","properties":{"naziv":"KAMEN"},"geometry":{"type":"LineString","coordinates":[[16.505697,43.522136],[16.505757,43.521965]]}},{"type":"Feature","properties":{"naziv":"KAMEN"},"geometry":{"type":"LineString","coordinates":[[16.508033,43.524346],[16.508046,43.524404]]}},{"type":"Feature","properties":{"naziv":"KAMEN"},"geometry":{"type":"LineString","coordinates":[[16.506363,43.523162],[16.506434,43.523202]]}},{"type":"Feature","properties":{"naziv":"KAMEN"},"geometry":{"type":"LineString","coordinates":[[16.509185,43.524411],[16.509345,43.524374]]}},{"type":"Feature","properties":{"naziv":"KAMEN"},"geometry":{"type":"LineString","coordinates":[[16.507174,43.523785],[16.507201,43.523837]]}},{"type":"Feature","properties":{"naziv":"KAMEN"},"geometry":{"type":"LineString","coordinates":[[16.505966,43.522909],[16.505819,43.522814]]}},{"type":"Feature","properties":{"naziv":"KAMEN"},"geometry":{"type":"LineString","coordinates":[[16.505684,43.522235],[16.505697,43.522136]]}},{"type":"Feature","properties":{"naziv":"KAMEN"},"geometry":{"type":"LineString","coordinates":[[16.506515,43.523259],[16.506539,43.523325]]}},{"type":"Feature","properties":{"naziv":"KAMEN"},"geometry":{"type":"LineString","coordinates":[[16.506869,43.523573],[16.5068,43.523542]]}},{"type":"Feature","properties":{"naziv":"KAMEN"},"geometry":{"type":"LineString","coordinates":[[16.508534,43.524445],[16.508756,43.52442]]}},{"type":"Feature","properties":{"naziv":"KAMEN"},"geometry":{"type":"LineString","coordinates":[[16.507481,43.5241],[16.507664,43.524206]]}},{"type":"Feature","properties":{"naziv":"KAMEN"},"geometry":{"type":"LineString","coordinates":[[16.505782,43.522786],[16.505788,43.522802]]}},{"type":"Feature","properties":{"naziv":"KAMEN"},"geometry":{"type":"LineString","coordinates":[[16.50916,43.524412],[16.509185,43.524411]]}},{"type":"Feature","properties":{"naziv":"KAMEN"},"geometry":{"type":"LineString","coordinates":[[16.508046,43.524404],[16.508149,43.524424]]}},{"type":"Feature","properties":{"naziv":"KAMEN"},"geometry":{"type":"LineString","coordinates":[[16.509792,43.524288],[16.509888,43.524262]]}},{"type":"Feature","properties":{"naziv":"KAMEN"},"geometry":{"type":"LineString","coordinates":[[16.505663,43.522338],[16.505699,43.522491]]}},{"type":"Feature","properties":{"naziv":"KAMEN"},"geometry":{"type":"LineString","coordinates":[[16.505966,43.522909],[16.506092,43.522977]]}},{"type":"Feature","properties":{"naziv":"KAMEN"},"geometry":{"type":"LineString","coordinates":[[16.507378,43.524078],[16.507325,43.524081]]}},{"type":"Feature","properties":{"naziv":"KAMEN"},"geometry":{"type":"LineString","coordinates":[[16.50615,43.523027],[16.50617,43.523036]]}},{"type":"Feature","properties":{"naziv":"KAMEN"},"geometry":{"type":"LineString","coordinates":[[16.506869,43.523573],[16.506931,43.523605]]}},{"type":"Feature","properties":{"naziv":"KAMEN"},"geometry":{"type":"LineString","coordinates":[[16.508881,43.524443],[16.508937,43.524429]]}},{"type":"Feature","properties":{"naziv":"KAMEN"},"geometry":{"type":"LineString","coordinates":[[16.507029,43.52367],[16.507107,43.523723]]}},{"type":"Feature","properties":{"naziv":"KAMEN"},"geometry":{"type":"LineString","coordinates":[[16.507201,43.523837],[16.507325,43.524081]]}},{"type":"Feature","properties":{"naziv":"KAMEN"},"geometry":{"type":"LineString","coordinates":[[16.505788,43.522802],[16.505819,43.522814]]}},{"type":"Feature","properties":{"naziv":"KAMEN"},"geometry":{"type":"LineString","coordinates":[[16.509345,43.524374],[16.509514,43.524351]]}},{"type":"Feature","properties":{"naziv":"KAMEN"},"geometry":{"type":"LineString","coordinates":[[16.505663,43.522338],[16.505684,43.522235]]}},{"type":"Feature","properties":{"naziv":"KAMEN"},"geometry":{"type":"LineString","coordinates":[[16.506434,43.523202],[16.506515,43.523259]]}},{"type":"Feature","properties":{"naziv":"KAMEN"},"geometry":{"type":"LineString","coordinates":[[16.506539,43.523325],[16.506636,43.523408]]}},{"type":"Feature","properties":{"naziv":"KAMEN"},"geometry":{"type":"LineString","coordinates":[[16.507936,43.524281],[16.507977,43.524295]]}},{"type":"Feature","properties":{"naziv":"KAMEN"},"geometry":{"type":"LineString","coordinates":[[16.506636,43.523408],[16.506715,43.523464]]}},{"type":"Feature","properties":{"naziv":"KAMEN"},"geometry":{"type":"LineString","coordinates":[[16.509916,43.524254],[16.50996,43.524259]]}},{"type":"Feature","properties":{"naziv":"KAMEN"},"geometry":{"type":"LineString","coordinates":[[16.50824,43.52445],[16.508369,43.524462]]}},{"type":"Feature","properties":{"naziv":"KAMEN"},"geometry":{"type":"LineString","coordinates":[[16.506092,43.522977],[16.50615,43.523027]]}},{"type":"Feature","properties":{"naziv":"KAMEN"},"geometry":{"type":"LineString","coordinates":[[16.506236,43.523068],[16.506296,43.52311]]}},{"type":"Feature","properties":{"naziv":"KAMEN"},"geometry":{"type":"LineString","coordinates":[[16.506931,43.523605],[16.507029,43.52367]]}},{"type":"Feature","properties":{"naziv":"KAMEN"},"geometry":{"type":"LineString","coordinates":[[16.507988,43.524306],[16.508033,43.524346]]}},{"type":"Feature","properties":{"naziv":"KAMEN"},"geometry":{"type":"LineString","coordinates":[[16.505777,43.522766],[16.505782,43.522786]]}},{"type":"Feature","properties":{"naziv":"KAMEN"},"geometry":{"type":"LineString","coordinates":[[16.50598,43.521435],[16.506034,43.521295]]}},{"type":"Feature","properties":{"naziv":"KAMEN"},"geometry":{"type":"LineString","coordinates":[[16.506596,43.520678],[16.506801,43.520595]]}},{"type":"Feature","properties":{"naziv":"KAMEN"},"geometry":{"type":"LineString","coordinates":[[16.506255,43.520815],[16.506385,43.520755]]}},{"type":"Feature","properties":{"naziv":"KAMEN"},"geometry":{"type":"LineString","coordinates":[[16.506076,43.521187],[16.506115,43.521102]]}},{"type":"Feature","properties":{"naziv":"KAMEN"},"geometry":{"type":"LineString","coordinates":[[16.506845,43.520476],[16.506846,43.520551]]}},{"type":"Feature","properties":{"naziv":"KAMEN"},"geometry":{"type":"LineString","coordinates":[[16.506127,43.521075],[16.506115,43.521102]]}},{"type":"Feature","properties":{"naziv":"KAMEN"},"geometry":{"type":"LineString","coordinates":[[16.50622,43.520849],[16.506255,43.520815]]}},{"type":"Feature","properties":{"naziv":"KAMEN"},"geometry":{"type":"LineString","coordinates":[[16.506846,43.520551],[16.506801,43.520595]]}},{"type":"Feature","properties":{"naziv":"KAMEN"},"geometry":{"type":"LineString","coordinates":[[16.506529,43.520701],[16.506596,43.520678]]}},{"type":"Feature","properties":{"naziv":"KAMEN"},"geometry":{"type":"LineString","coordinates":[[16.506127,43.521075],[16.50622,43.520849]]}},{"type":"Feature","properties":{"naziv":"KAMEN"},"geometry":{"type":"LineString","coordinates":[[16.506841,43.520447],[16.506842,43.52044]]}},{"type":"Feature","properties":{"naziv":"KAMEN"},"geometry":{"type":"LineString","coordinates":[[16.506385,43.520755],[16.506529,43.520701]]}},{"type":"Feature","properties":{"naziv":"KAMEN"},"geometry":{"type":"LineString","coordinates":[[16.506841,43.520447],[16.506845,43.520476]]}},{"type":"Feature","properties":{"naziv":"KAMEN"},"geometry":{"type":"LineString","coordinates":[[16.506076,43.521187],[16.506034,43.521295]]}},{"type":"Feature","properties":{"naziv":"KAMEN"},"geometry":{"type":"LineString","coordinates":[[16.511177,43.52354],[16.511039,43.523581]]}},{"type":"Feature","properties":{"naziv":"KAMEN"},"geometry":{"type":"LineString","coordinates":[[16.511039,43.523581],[16.510807,43.523636]]}},{"type":"Feature","properties":{"naziv":"KAMEN"},"geometry":{"type":"LineString","coordinates":[[16.510807,43.523636],[16.510673,43.523717]]}},{"type":"Feature","properties":{"naziv":"KAMEN"},"geometry":{"type":"LineString","coordinates":[[16.510376,43.524018],[16.510379,43.524027]]}},{"type":"Feature","properties":{"naziv":"KAMEN"},"geometry":{"type":"LineString","coordinates":[[16.510379,43.524027],[16.51035,43.524047]]}},{"type":"Feature","properties":{"naziv":"KAMEN"},"geometry":{"type":"LineString","coordinates":[[16.51035,43.524047],[16.510295,43.524062]]}},{"type":"Feature","properties":{"naziv":"KAMEN"},"geometry":{"type":"LineString","coordinates":[[16.510295,43.524062],[16.510167,43.524103]]}},{"type":"Feature","properties":{"naziv":"KAMEN"},"geometry":{"type":"LineString","coordinates":[[16.510167,43.524103],[16.510134,43.524154]]}},{"type":"Feature","properties":{"naziv":"KAMEN"},"geometry":{"type":"LineString","coordinates":[[16.510134,43.524154],[16.51007,43.524182]]}},{"type":"Feature","properties":{"naziv":"KAMEN"},"geometry":{"type":"LineString","coordinates":[[16.51007,43.524182],[16.509957,43.524232]]}},{"type":"Feature","properties":{"naziv":"KAMEN"},"geometry":{"type":"LineString","coordinates":[[16.509957,43.524232],[16.50996,43.524259]]}},{"type":"Feature","properties":{"naziv":"KAMEN"},"geometry":{"type":"LineString","coordinates":[[16.51054,43.523805],[16.510673,43.523717]]}},{"type":"Feature","properties":{"naziv":"KAMEN"},"geometry":{"type":"LineString","coordinates":[[16.51054,43.523805],[16.51038,43.52392]]}},{"type":"Feature","properties":{"naziv":"KAMEN"},"geometry":{"type":"LineString","coordinates":[[16.51038,43.52392],[16.510364,43.523938]]}},{"type":"Feature","properties":{"naziv":"KAMEN"},"geometry":{"type":"LineString","coordinates":[[16.510364,43.523938],[16.510354,43.523973]]}},{"type":"Feature","properties":{"naziv":"KAMEN"},"geometry":{"type":"LineString","coordinates":[[16.510354,43.523973],[16.510376,43.524017]]}},{"type":"Feature","properties":{"naziv":"KAMEN"},"geometry":{"type":"LineString","coordinates":[[16.510376,43.524017],[16.510376,43.524018]]}},{"type":"Feature","properties":{"naziv":"SPLIT"},"geometry":{"type":"LineString","coordinates":[[16.490288,43.528798],[16.490172,43.528927]]}},{"type":"Feature","properties":{"naziv":"SPLIT"},"geometry":{"type":"LineString","coordinates":[[16.489243,43.529197],[16.489214,43.529191]]}},{"type":"Feature","properties":{"naziv":"SPLIT"},"geometry":{"type":"LineString","coordinates":[[16.490172,43.528927],[16.490077,43.529055]]}},{"type":"Feature","properties":{"naziv":"SPLIT"},"geometry":{"type":"LineString","coordinates":[[16.489214,43.529191],[16.48919,43.529192]]}},{"type":"Feature","properties":{"naziv":"SPLIT"},"geometry":{"type":"LineString","coordinates":[[16.489333,43.529178],[16.489276,43.5292]]}},{"type":"Feature","properties":{"naziv":"SPLIT"},"geometry":{"type":"LineString","coordinates":[[16.490077,43.529055],[16.489971,43.5292]]}},{"type":"Feature","properties":{"naziv":"SPLIT"},"geometry":{"type":"LineString","coordinates":[[16.489149,43.529193],[16.489169,43.529193]]}},{"type":"Feature","properties":{"naziv":"SPLIT"},"geometry":{"type":"LineString","coordinates":[[16.48919,43.529192],[16.489169,43.529193]]}},{"type":"Feature","properties":{"naziv":"SPLIT"},"geometry":{"type":"LineString","coordinates":[[16.489971,43.5292],[16.489658,43.52919]]}},{"type":"Feature","properties":{"naziv":"SPLIT"},"geometry":{"type":"LineString","coordinates":[[16.489658,43.52919],[16.489333,43.529178]]}},{"type":"Feature","properties":{"naziv":"SPLIT"},"geometry":{"type":"LineString","coordinates":[[16.489256,43.529198],[16.489243,43.529197]]}},{"type":"Feature","properties":{"naziv":"SPLIT"},"geometry":{"type":"LineString","coordinates":[[16.490599,43.528674],[16.490524,43.528687]]}},{"type":"Feature","properties":{"naziv":"SPLIT"},"geometry":{"type":"LineString","coordinates":[[16.489276,43.5292],[16.489256,43.529198]]}},{"type":"Feature","properties":{"naziv":"SPLIT"},"geometry":{"type":"LineString","coordinates":[[16.490315,43.528785],[16.490288,43.528798]]}},{"type":"Feature","properties":{"naziv":"SPLIT"},"geometry":{"type":"LineString","coordinates":[[16.490524,43.528687],[16.490315,43.528785]]}},{"type":"Feature","properties":{"naziv":"SPLIT"},"geometry":{"type":"LineString","coordinates":[[16.49357,43.529284],[16.493658,43.529281],[16.494179,43.529246],[16.494493,43.529217]]}},{"type":"Feature","properties":{"naziv":"SPLIT"},"geometry":{"type":"LineString","coordinates":[[16.502474,43.528059],[16.502952,43.528023],[16.503119,43.528026],[16.503212,43.528066]]}},{"type":"Feature","properties":{"naziv":"SPLIT"},"geometry":{"type":"LineString","coordinates":[[16.494666,43.529201],[16.494721,43.529196]]}},{"type":"Feature","properties":{"naziv":"SPLIT"},"geometry":{"type":"LineString","coordinates":[[16.494721,43.529196],[16.494752,43.52921]]}},{"type":"Feature","properties":{"naziv":"SPLIT"},"geometry":{"type":"LineString","coordinates":[[16.495149,43.529146],[16.495318,43.529119]]}},{"type":"Feature","properties":{"naziv":"SPLIT"},"geometry":{"type":"LineString","coordinates":[[16.495318,43.529119],[16.495805,43.529047]]}},{"type":"Feature","properties":{"naziv":"SPLIT"},"geometry":{"type":"LineString","coordinates":[[16.495805,43.529047],[16.496212,43.528983]]}},{"type":"Feature","properties":{"naziv":"SPLIT"},"geometry":{"type":"LineString","coordinates":[[16.496779,43.528923],[16.497201,43.528879]]}},{"type":"Feature","properties":{"naziv":"SPLIT"},"geometry":{"type":"LineString","coordinates":[[16.497626,43.528879],[16.498444,43.528879]]}},{"type":"Feature","properties":{"naziv":"SPLIT"},"geometry":{"type":"LineString","coordinates":[[16.498917,43.528851],[16.499043,43.528843]]}},{"type":"Feature","properties":{"naziv":"SPLIT"},"geometry":{"type":"LineString","coordinates":[[16.499242,43.528817],[16.4995,43.528783]]}},{"type":"Feature","properties":{"naziv":"SPLIT"},"geometry":{"type":"LineString","coordinates":[[16.500001,43.528676],[16.500641,43.528539]]}},{"type":"Feature","properties":{"naziv":"SPLIT"},"geometry":{"type":"LineString","coordinates":[[16.490621,43.529031],[16.490615,43.529102]]}},{"type":"Feature","properties":{"naziv":"SPLIT"},"geometry":{"type":"LineString","coordinates":[[16.490615,43.529102],[16.490614,43.529232]]}},{"type":"Feature","properties":{"naziv":"SPLIT"},"geometry":{"type":"LineString","coordinates":[[16.490619,43.528911],[16.49063,43.528911]]}},{"type":"Feature","properties":{"naziv":"SPLIT"},"geometry":{"type":"LineString","coordinates":[[16.491279,43.529242],[16.49132,43.529271]]}},{"type":"Feature","properties":{"naziv":"SPLIT"},"geometry":{"type":"LineString","coordinates":[[16.490616,43.529247],[16.490614,43.529232]]}},{"type":"Feature","properties":{"naziv":"SPLIT"},"geometry":{"type":"LineString","coordinates":[[16.491015,43.529255],[16.490742,43.529249]]}},{"type":"Feature","properties":{"naziv":"SPLIT"},"geometry":{"type":"LineString","coordinates":[[16.490742,43.529249],[16.490616,43.529247]]}},{"type":"Feature","properties":{"naziv":"SPLIT"},"geometry":{"type":"LineString","coordinates":[[16.490621,43.529031],[16.490609,43.528992]]}},{"type":"Feature","properties":{"naziv":"SPLIT"},"geometry":{"type":"LineString","coordinates":[[16.490609,43.528992],[16.49063,43.528911]]}},{"type":"Feature","properties":{"naziv":"SPLIT"},"geometry":{"type":"LineString","coordinates":[[16.505685,43.522231],[16.505664,43.522335]]}},{"type":"Feature","properties":{"naziv":"SPLIT"},"geometry":{"type":"LineString","coordinates":[[16.505791,43.522802],[16.505818,43.522813]]}},{"type":"Feature","properties":{"naziv":"SPLIT"},"geometry":{"type":"LineString","coordinates":[[16.506732,43.519869],[16.506815,43.520146],[16.506817,43.520154],[16.506843,43.520296],[16.506842,43.52044],[16.506845,43.520446],[16.506846,43.520474],[16.506847,43.520552],[16.506801,43.520595],[16.506595,43.520679],[16.506386,43.520756],[16.506255,43.520816],[16.506218,43.52085],[16.506202,43.520889]]}},{"type":"Feature","properties":{"naziv":"SPLIT"},"geometry":{"type":"LineString","coordinates":[[16.504802,43.527831],[16.504739,43.527849]]}},{"type":"Feature","properties":{"naziv":"SPLIT"},"geometry":{"type":"LineString","coordinates":[[16.504739,43.527849],[16.504611,43.527929]]}},{"type":"Feature","properties":{"naziv":"SPLIT"},"geometry":{"type":"LineString","coordinates":[[16.504611,43.527929],[16.504514,43.527962]]}},{"type":"Feature","properties":{"naziv":"SPLIT"},"geometry":{"type":"LineString","coordinates":[[16.504514,43.527962],[16.504228,43.528127]]}},{"type":"Feature","properties":{"naziv":"SPLIT"},"geometry":{"type":"LineString","coordinates":[[16.504221,43.528127],[16.504163,43.528129]]}},{"type":"Feature","properties":{"naziv":"SPLIT"},"geometry":{"type":"LineString","coordinates":[[16.505782,43.527513],[16.505608,43.527597]]}},{"type":"Feature","properties":{"naziv":"SPLIT"},"geometry":{"type":"LineString","coordinates":[[16.505575,43.52761],[16.505481,43.527648]]}},{"type":"Feature","properties":{"naziv":"SPLIT"},"geometry":{"type":"LineString","coordinates":[[16.505481,43.527648],[16.505347,43.527671]]}},{"type":"Feature","properties":{"naziv":"SPLIT"},"geometry":{"type":"LineString","coordinates":[[16.505347,43.527671],[16.504939,43.527778]]}},{"type":"Feature","properties":{"naziv":"SPLIT"},"geometry":{"type":"LineString","coordinates":[[16.504939,43.527778],[16.504802,43.527831]]}},{"type":"Feature","properties":{"naziv":"SPLIT"},"geometry":{"type":"LineString","coordinates":[[16.491015,43.529255],[16.491116,43.529247]]}},{"type":"Feature","properties":{"naziv":"SPLIT"},"geometry":{"type":"LineString","coordinates":[[16.491116,43.529247],[16.491279,43.529242]]}},{"type":"Feature","properties":{"naziv":"SPLIT"},"geometry":{"type":"LineString","coordinates":[[16.50081,43.528507],[16.500997,43.528472]]}},{"type":"Feature","properties":{"naziv":"SPLIT"},"geometry":{"type":"LineString","coordinates":[[16.4995,43.528783],[16.499517,43.528779]]}},{"type":"Feature","properties":{"naziv":"SPLIT"},"geometry":{"type":"LineString","coordinates":[[16.499517,43.528779],[16.500001,43.528676]]}},{"type":"Feature","properties":{"naziv":"SPLIT"},"geometry":{"type":"LineString","coordinates":[[16.499043,43.528843],[16.499242,43.528817]]}},{"type":"Feature","properties":{"naziv":"SPLIT"},"geometry":{"type":"LineString","coordinates":[[16.498444,43.528879],[16.498917,43.528851]]}},{"type":"Feature","properties":{"naziv":"SPLIT"},"geometry":{"type":"LineString","coordinates":[[16.497201,43.528879],[16.497626,43.528879]]}},{"type":"Feature","properties":{"naziv":"SPLIT"},"geometry":{"type":"LineString","coordinates":[[16.496212,43.528983],[16.496779,43.528923]]}},{"type":"Feature","properties":{"naziv":"SPLIT"},"geometry":{"type":"LineString","coordinates":[[16.495131,43.529149],[16.495149,43.529146]]}},{"type":"Feature","properties":{"naziv":"SPLIT"},"geometry":{"type":"LineString","coordinates":[[16.500641,43.528539],[16.50081,43.528507]]}},{"type":"Feature","properties":{"naziv":"SPLIT"},"geometry":{"type":"LineString","coordinates":[[16.500997,43.528472],[16.501103,43.528452]]}},{"type":"Feature","properties":{"naziv":"SPLIT"},"geometry":{"type":"LineString","coordinates":[[16.490599,43.528674],[16.49061,43.528787]]}},{"type":"Feature","properties":{"naziv":"SPLIT"},"geometry":{"type":"LineString","coordinates":[[16.490615,43.528855],[16.490619,43.528911]]}},{"type":"Feature","properties":{"naziv":"SPLIT"},"geometry":{"type":"LineString","coordinates":[[16.49061,43.528787],[16.490615,43.528855]]}},{"type":"Feature","properties":{"naziv":"SPLIT"},"geometry":{"type":"LineString","coordinates":[[16.494752,43.52921],[16.495131,43.529149]]}},{"type":"Feature","properties":{"naziv":"SPLIT"},"geometry":{"type":"LineString","coordinates":[[16.494493,43.529217],[16.494666,43.529201]]}},{"type":"Feature","properties":{"naziv":"SPLIT"},"geometry":{"type":"LineString","coordinates":[[16.506097,43.527389],[16.506252,43.527318]]}},{"type":"Feature","properties":{"naziv":"SPLIT"},"geometry":{"type":"LineString","coordinates":[[16.505782,43.527513],[16.505957,43.527436]]}},{"type":"Feature","properties":{"naziv":"SPLIT"},"geometry":{"type":"LineString","coordinates":[[16.505957,43.527436],[16.505997,43.527433]]}},{"type":"Feature","properties":{"naziv":"SPLIT"},"geometry":{"type":"LineString","coordinates":[[16.505997,43.527433],[16.506097,43.527389]]}},{"type":"Feature","properties":{"naziv":"SPLIT"},"geometry":{"type":"LineString","coordinates":[[16.5064,43.527222],[16.50644,43.527196]]}},{"type":"Feature","properties":{"naziv":"SPLIT"},"geometry":{"type":"LineString","coordinates":[[16.50644,43.527196],[16.506562,43.527137]]}},{"type":"Feature","properties":{"naziv":"SPLIT"},"geometry":{"type":"LineString","coordinates":[[16.506562,43.527137],[16.50676,43.527049]]}},{"type":"Feature","properties":{"naziv":"SPLIT"},"geometry":{"type":"LineString","coordinates":[[16.50676,43.527049],[16.506832,43.527003]]}},{"type":"Feature","properties":{"naziv":"SPLIT"},"geometry":{"type":"LineString","coordinates":[[16.506832,43.527003],[16.506957,43.526969]]}},{"type":"Feature","properties":{"naziv":"SPLIT"},"geometry":{"type":"LineString","coordinates":[[16.506957,43.526969],[16.507057,43.526921]]}},{"type":"Feature","properties":{"naziv":"SPLIT"},"geometry":{"type":"LineString","coordinates":[[16.507057,43.526921],[16.507226,43.526843]]}},{"type":"Feature","properties":{"naziv":"SPLIT"},"geometry":{"type":"LineString","coordinates":[[16.507226,43.526843],[16.507468,43.526683]]}},{"type":"Feature","properties":{"naziv":"SPLIT"},"geometry":{"type":"LineString","coordinates":[[16.507468,43.526683],[16.507674,43.526515]]}},{"type":"Feature","properties":{"naziv":"SPLIT"},"geometry":{"type":"LineString","coordinates":[[16.507674,43.526515],[16.507789,43.526353]]}},{"type":"Feature","properties":{"naziv":"SPLIT"},"geometry":{"type":"LineString","coordinates":[[16.507789,43.526353],[16.507772,43.526276]]}},{"type":"Feature","properties":{"naziv":"SPLIT"},"geometry":{"type":"LineString","coordinates":[[16.507772,43.526276],[16.50769,43.526182]]}},{"type":"Feature","properties":{"naziv":"SPLIT"},"geometry":{"type":"LineString","coordinates":[[16.50769,43.526182],[16.507627,43.526076]]}},{"type":"Feature","properties":{"naziv":"SPLIT"},"geometry":{"type":"LineString","coordinates":[[16.507627,43.526076],[16.507609,43.526028]]}},{"type":"Feature","properties":{"naziv":"SPLIT"},"geometry":{"type":"LineString","coordinates":[[16.507609,43.526028],[16.50763,43.526029]]}},{"type":"Feature","properties":{"naziv":"SPLIT"},"geometry":{"type":"LineString","coordinates":[[16.508046,43.525799],[16.507937,43.525872]]}},{"type":"Feature","properties":{"naziv":"SPLIT"},"geometry":{"type":"LineString","coordinates":[[16.507937,43.525872],[16.507903,43.525895]]}},{"type":"Feature","properties":{"naziv":"SPLIT"},"geometry":{"type":"LineString","coordinates":[[16.507903,43.525895],[16.507746,43.525967]]}},{"type":"Feature","properties":{"naziv":"SPLIT"},"geometry":{"type":"LineString","coordinates":[[16.507746,43.525967],[16.50763,43.526029]]}},{"type":"Feature","properties":{"naziv":"SPLIT"},"geometry":{"type":"LineString","coordinates":[[16.50837,43.524463],[16.50824,43.524452]]}},{"type":"Feature","properties":{"naziv":"SPLIT"},"geometry":{"type":"LineString","coordinates":[[16.50824,43.524452],[16.508148,43.524424]]}},{"type":"Feature","properties":{"naziv":"SPLIT"},"geometry":{"type":"LineString","coordinates":[[16.508148,43.524424],[16.508044,43.524406]]}},{"type":"Feature","properties":{"naziv":"SPLIT"},"geometry":{"type":"LineString","coordinates":[[16.507328,43.524081],[16.507378,43.524078]]}},{"type":"Feature","properties":{"naziv":"SPLIT"},"geometry":{"type":"LineString","coordinates":[[16.507378,43.524078],[16.507484,43.5241]]}},{"type":"Feature","properties":{"naziv":"SPLIT"},"geometry":{"type":"LineString","coordinates":[[16.507328,43.524081],[16.507199,43.523833]]}},{"type":"Feature","properties":{"naziv":"SPLIT"},"geometry":{"type":"LineString","coordinates":[[16.507936,43.524282],[16.507977,43.524297]]}},{"type":"Feature","properties":{"naziv":"SPLIT"},"geometry":{"type":"LineString","coordinates":[[16.507977,43.524297],[16.508032,43.524348]]}},{"type":"Feature","properties":{"naziv":"SPLIT"},"geometry":{"type":"LineString","coordinates":[[16.508032,43.524348],[16.508044,43.524406]]}},{"type":"Feature","properties":{"naziv":"SPLIT"},"geometry":{"type":"LineString","coordinates":[[16.50837,43.524463],[16.508536,43.524445]]}},{"type":"Feature","properties":{"naziv":"SPLIT"},"geometry":{"type":"LineString","coordinates":[[16.508046,43.525799],[16.508131,43.52575]]}},{"type":"Feature","properties":{"naziv":"SPLIT"},"geometry":{"type":"LineString","coordinates":[[16.508131,43.52575],[16.508185,43.525725]]}},{"type":"Feature","properties":{"naziv":"SPLIT"},"geometry":{"type":"LineString","coordinates":[[16.508185,43.525725],[16.508312,43.52568]]}},{"type":"Feature","properties":{"naziv":"SPLIT"},"geometry":{"type":"LineString","coordinates":[[16.508312,43.52568],[16.508536,43.52559]]}},{"type":"Feature","properties":{"naziv":"SPLIT"},"geometry":{"type":"LineString","coordinates":[[16.508536,43.52559],[16.508707,43.525514]]}},{"type":"Feature","properties":{"naziv":"SPLIT"},"geometry":{"type":"LineString","coordinates":[[16.508707,43.525514],[16.508854,43.525398]]}},{"type":"Feature","properties":{"naziv":"SPLIT"},"geometry":{"type":"LineString","coordinates":[[16.508854,43.525398],[16.508929,43.525305]]}},{"type":"Feature","properties":{"naziv":"SPLIT"},"geometry":{"type":"LineString","coordinates":[[16.508929,43.525305],[16.509014,43.52521]]}},{"type":"Feature","properties":{"naziv":"SPLIT"},"geometry":{"type":"LineString","coordinates":[[16.509014,43.52521],[16.509061,43.525144]]}},{"type":"Feature","properties":{"naziv":"SPLIT"},"geometry":{"type":"LineString","coordinates":[[16.509061,43.525144],[16.509103,43.525146]]}},{"type":"Feature","properties":{"naziv":"SPLIT"},"geometry":{"type":"LineString","coordinates":[[16.509103,43.525146],[16.509145,43.525134]]}},{"type":"Feature","properties":{"naziv":"SPLIT"},"geometry":{"type":"LineString","coordinates":[[16.509145,43.525134],[16.509294,43.525033]]}},{"type":"Feature","properties":{"naziv":"SPLIT"},"geometry":{"type":"LineString","coordinates":[[16.509294,43.525033],[16.509369,43.524988]]}},{"type":"Feature","properties":{"naziv":"SPLIT"},"geometry":{"type":"LineString","coordinates":[[16.509369,43.524988],[16.509512,43.524859]]}},{"type":"Feature","properties":{"naziv":"SPLIT"},"geometry":{"type":"LineString","coordinates":[[16.509512,43.524859],[16.509587,43.524813]]}},{"type":"Feature","properties":{"naziv":"SPLIT"},"geometry":{"type":"LineString","coordinates":[[16.509587,43.524813],[16.509658,43.524689]]}},{"type":"Feature","properties":{"naziv":"SPLIT"},"geometry":{"type":"LineString","coordinates":[[16.509658,43.524689],[16.509729,43.524595]]}},{"type":"Feature","properties":{"naziv":"SPLIT"},"geometry":{"type":"LineString","coordinates":[[16.489149,43.529193],[16.489104,43.529191]]}},{"type":"Feature","properties":{"naziv":"SPLIT"},"geometry":{"type":"LineString","coordinates":[[16.489104,43.529191],[16.489032,43.529187]]}},{"type":"Feature","properties":{"naziv":"SPLIT"},"geometry":{"type":"LineString","coordinates":[[16.487788,43.529144],[16.489032,43.529187]]}},{"type":"Feature","properties":{"naziv":"SPLIT"},"geometry":{"type":"LineString","coordinates":[[16.509883,43.524438],[16.509909,43.524388]]}},{"type":"Feature","properties":{"naziv":"SPLIT"},"geometry":{"type":"LineString","coordinates":[[16.509729,43.524595],[16.509769,43.524552]]}},{"type":"Feature","properties":{"naziv":"SPLIT"},"geometry":{"type":"LineString","coordinates":[[16.509769,43.524552],[16.509822,43.524508]]}},{"type":"Feature","properties":{"naziv":"SPLIT"},"geometry":{"type":"LineString","coordinates":[[16.509822,43.524508],[16.509883,43.524438]]}},{"type":"Feature","properties":{"naziv":"SPLIT"},"geometry":{"type":"LineString","coordinates":[[16.509909,43.524388],[16.509958,43.52426]]}},{"type":"Feature","properties":{"naziv":"SPLIT"},"geometry":{"type":"LineString","coordinates":[[16.509958,43.52426],[16.509917,43.524256]]}},{"type":"Feature","properties":{"naziv":"SPLIT"},"geometry":{"type":"LineString","coordinates":[[16.509917,43.524256],[16.509835,43.524278]]}},{"type":"Feature","properties":{"naziv":"SPLIT"},"geometry":{"type":"LineString","coordinates":[[16.509648,43.524324],[16.509518,43.524352]]}},{"type":"Feature","properties":{"naziv":"SPLIT"},"geometry":{"type":"LineString","coordinates":[[16.509518,43.524352],[16.509352,43.524374]]}},{"type":"Feature","properties":{"naziv":"SPLIT"},"geometry":{"type":"LineString","coordinates":[[16.509352,43.524374],[16.509164,43.524413]]}},{"type":"Feature","properties":{"naziv":"SPLIT"},"geometry":{"type":"LineString","coordinates":[[16.509164,43.524413],[16.50897,43.524423]]}},{"type":"Feature","properties":{"naziv":"SPLIT"},"geometry":{"type":"LineString","coordinates":[[16.50897,43.524423],[16.508886,43.524442]]}},{"type":"Feature","properties":{"naziv":"SPLIT"},"geometry":{"type":"LineString","coordinates":[[16.509791,43.524288],[16.509835,43.524278]]}},{"type":"Feature","properties":{"naziv":"SPLIT"},"geometry":{"type":"LineString","coordinates":[[16.509791,43.524288],[16.509648,43.524324]]}},{"type":"Feature","properties":{"naziv":"SPLIT"},"geometry":{"type":"LineString","coordinates":[[16.507936,43.524282],[16.507834,43.524267]]}},{"type":"Feature","properties":{"naziv":"SPLIT"},"geometry":{"type":"LineString","coordinates":[[16.507834,43.524267],[16.507669,43.524207]]}},{"type":"Feature","properties":{"naziv":"SPLIT"},"geometry":{"type":"LineString","coordinates":[[16.507669,43.524207],[16.507484,43.5241]]}},{"type":"Feature","properties":{"naziv":"SPLIT"},"geometry":{"type":"LineString","coordinates":[[16.508886,43.524442],[16.508758,43.524421]]}},{"type":"Feature","properties":{"naziv":"SPLIT"},"geometry":{"type":"LineString","coordinates":[[16.508758,43.524421],[16.508536,43.524445]]}},{"type":"Feature","properties":{"naziv":"SPLIT"},"geometry":{"type":"LineString","coordinates":[[16.504138,43.528132],[16.504125,43.528133]]}},{"type":"Feature","properties":{"naziv":"SPLIT"},"geometry":{"type":"LineString","coordinates":[[16.504163,43.528129],[16.504138,43.528132]]}},{"type":"Feature","properties":{"naziv":"SPLIT"},"geometry":{"type":"LineString","coordinates":[[16.504228,43.528127],[16.504221,43.528127]]}},{"type":"Feature","properties":{"naziv":"SPLIT"},"geometry":{"type":"LineString","coordinates":[[16.505608,43.527597],[16.505575,43.52761]]}},{"type":"Feature","properties":{"naziv":"SPLIT"},"geometry":{"type":"LineString","coordinates":[[16.507199,43.523833],[16.507172,43.523784]]}},{"type":"Feature","properties":{"naziv":"SPLIT"},"geometry":{"type":"LineString","coordinates":[[16.507172,43.523784],[16.507107,43.523722]]}},{"type":"Feature","properties":{"naziv":"SPLIT"},"geometry":{"type":"LineString","coordinates":[[16.507107,43.523722],[16.506931,43.523604]]}},{"type":"Feature","properties":{"naziv":"SPLIT"},"geometry":{"type":"LineString","coordinates":[[16.50247,43.528086],[16.502466,43.52811]]}},{"type":"Feature","properties":{"naziv":"SPLIT"},"geometry":{"type":"LineString","coordinates":[[16.501432,43.528375],[16.501626,43.52833]]}},{"type":"Feature","properties":{"naziv":"SPLIT"},"geometry":{"type":"LineString","coordinates":[[16.501849,43.528277],[16.502003,43.52824]]}},{"type":"Feature","properties":{"naziv":"SPLIT"},"geometry":{"type":"LineString","coordinates":[[16.502003,43.52824],[16.502187,43.528198]]}},{"type":"Feature","properties":{"naziv":"SPLIT"},"geometry":{"type":"LineString","coordinates":[[16.502187,43.528198],[16.502461,43.528143]]}},{"type":"Feature","properties":{"naziv":"SPLIT"},"geometry":{"type":"LineString","coordinates":[[16.502461,43.528143],[16.502466,43.52811]]}},{"type":"Feature","properties":{"naziv":"SPLIT"},"geometry":{"type":"LineString","coordinates":[[16.501103,43.528452],[16.501108,43.528451]]}},{"type":"Feature","properties":{"naziv":"SPLIT"},"geometry":{"type":"LineString","coordinates":[[16.501108,43.528451],[16.501121,43.528449]]}},{"type":"Feature","properties":{"naziv":"SPLIT"},"geometry":{"type":"LineString","coordinates":[[16.501626,43.52833],[16.501741,43.528302]]}},{"type":"Feature","properties":{"naziv":"SPLIT"},"geometry":{"type":"LineString","coordinates":[[16.501741,43.528302],[16.501849,43.528277]]}},{"type":"Feature","properties":{"naziv":"SPLIT"},"geometry":{"type":"LineString","coordinates":[[16.502474,43.528059],[16.502471,43.52808]]}},{"type":"Feature","properties":{"naziv":"SPLIT"},"geometry":{"type":"LineString","coordinates":[[16.502471,43.52808],[16.50247,43.528086]]}},{"type":"Feature","properties":{"naziv":"SPLIT"},"geometry":{"type":"LineString","coordinates":[[16.501121,43.528449],[16.501432,43.528375]]}},{"type":"Feature","properties":{"naziv":"SPLIT"},"geometry":{"type":"LineString","coordinates":[[16.506087,43.521167],[16.506127,43.521076]]}},{"type":"Feature","properties":{"naziv":"SPLIT"},"geometry":{"type":"LineString","coordinates":[[16.505685,43.522231],[16.505698,43.522135]]}},{"type":"Feature","properties":{"naziv":"SPLIT"},"geometry":{"type":"LineString","coordinates":[[16.505698,43.522135],[16.505759,43.521962]]}},{"type":"Feature","properties":{"naziv":"SPLIT"},"geometry":{"type":"LineString","coordinates":[[16.505759,43.521962],[16.505817,43.521815]]}},{"type":"Feature","properties":{"naziv":"SPLIT"},"geometry":{"type":"LineString","coordinates":[[16.505817,43.521815],[16.505877,43.521629]]}},{"type":"Feature","properties":{"naziv":"SPLIT"},"geometry":{"type":"LineString","coordinates":[[16.505877,43.521629],[16.505913,43.521568]]}},{"type":"Feature","properties":{"naziv":"SPLIT"},"geometry":{"type":"LineString","coordinates":[[16.505913,43.521568],[16.505975,43.52145]]}},{"type":"Feature","properties":{"naziv":"SPLIT"},"geometry":{"type":"LineString","coordinates":[[16.505975,43.52145],[16.506079,43.521184]]}},{"type":"Feature","properties":{"naziv":"SPLIT"},"geometry":{"type":"LineString","coordinates":[[16.505779,43.522766],[16.505751,43.522691]]}},{"type":"Feature","properties":{"naziv":"SPLIT"},"geometry":{"type":"LineString","coordinates":[[16.505751,43.522691],[16.505701,43.522489]]}},{"type":"Feature","properties":{"naziv":"SPLIT"},"geometry":{"type":"LineString","coordinates":[[16.505701,43.522489],[16.505664,43.522335]]}},{"type":"Feature","properties":{"naziv":"SPLIT"},"geometry":{"type":"LineString","coordinates":[[16.505785,43.522784],[16.505791,43.522802]]}},{"type":"Feature","properties":{"naziv":"SPLIT"},"geometry":{"type":"LineString","coordinates":[[16.505818,43.522813],[16.505965,43.522907]]}},{"type":"Feature","properties":{"naziv":"SPLIT"},"geometry":{"type":"LineString","coordinates":[[16.505965,43.522907],[16.506094,43.522973]]}},{"type":"Feature","properties":{"naziv":"SPLIT"},"geometry":{"type":"LineString","coordinates":[[16.506094,43.522973],[16.506152,43.523025]]}},{"type":"Feature","properties":{"naziv":"SPLIT"},"geometry":{"type":"LineString","coordinates":[[16.506152,43.523025],[16.506237,43.523063]]}},{"type":"Feature","properties":{"naziv":"SPLIT"},"geometry":{"type":"LineString","coordinates":[[16.506237,43.523063],[16.506264,43.523084]]}},{"type":"Feature","properties":{"naziv":"SPLIT"},"geometry":{"type":"LineString","coordinates":[[16.506264,43.523084],[16.506295,43.523107]]}},{"type":"Feature","properties":{"naziv":"SPLIT"},"geometry":{"type":"LineString","coordinates":[[16.506295,43.523107],[16.506363,43.523158]]}},{"type":"Feature","properties":{"naziv":"SPLIT"},"geometry":{"type":"LineString","coordinates":[[16.506363,43.523158],[16.506436,43.523201]]}},{"type":"Feature","properties":{"naziv":"SPLIT"},"geometry":{"type":"LineString","coordinates":[[16.506436,43.523201],[16.506514,43.523257]]}},{"type":"Feature","properties":{"naziv":"SPLIT"},"geometry":{"type":"LineString","coordinates":[[16.505779,43.522766],[16.505785,43.522784]]}},{"type":"Feature","properties":{"naziv":"SPLIT"},"geometry":{"type":"LineString","coordinates":[[16.506252,43.527318],[16.5064,43.527222]]}},{"type":"Feature","properties":{"naziv":"SPLIT"},"geometry":{"type":"LineString","coordinates":[[16.492819,43.529286],[16.492952,43.52929]]}},{"type":"Feature","properties":{"naziv":"SPLIT"},"geometry":{"type":"LineString","coordinates":[[16.492422,43.529279],[16.492498,43.529278]]}},{"type":"Feature","properties":{"naziv":"SPLIT"},"geometry":{"type":"LineString","coordinates":[[16.492422,43.529279],[16.492207,43.529278]]}},{"type":"Feature","properties":{"naziv":"SPLIT"},"geometry":{"type":"LineString","coordinates":[[16.49273,43.529284],[16.492498,43.529278]]}},{"type":"Feature","properties":{"naziv":"SPLIT"},"geometry":{"type":"LineString","coordinates":[[16.492812,43.529286],[16.492819,43.529286]]}},{"type":"Feature","properties":{"naziv":"SPLIT"},"geometry":{"type":"LineString","coordinates":[[16.493542,43.529266],[16.492952,43.52929]]}},{"type":"Feature","properties":{"naziv":"SPLIT"},"geometry":{"type":"LineString","coordinates":[[16.506127,43.521076],[16.506202,43.520889]]}},{"type":"Feature","properties":{"naziv":"SPLIT"},"geometry":{"type":"LineString","coordinates":[[16.506079,43.521184],[16.506087,43.521167]]}},{"type":"Feature","properties":{"naziv":"SPLIT"},"geometry":{"type":"LineString","coordinates":[[16.506931,43.523604],[16.506869,43.523573]]}},{"type":"Feature","properties":{"naziv":"SPLIT"},"geometry":{"type":"LineString","coordinates":[[16.506869,43.523573],[16.506796,43.523539]]}},{"type":"Feature","properties":{"naziv":"SPLIT"},"geometry":{"type":"LineString","coordinates":[[16.506796,43.523539],[16.506768,43.523514]]}},{"type":"Feature","properties":{"naziv":"SPLIT"},"geometry":{"type":"LineString","coordinates":[[16.506768,43.523514],[16.506714,43.523463]]}},{"type":"Feature","properties":{"naziv":"SPLIT"},"geometry":{"type":"LineString","coordinates":[[16.493542,43.529266],[16.49357,43.529284]]}},{"type":"Feature","properties":{"naziv":"SPLIT"},"geometry":{"type":"LineString","coordinates":[[16.491513,43.529275],[16.491823,43.529281]]}},{"type":"Feature","properties":{"naziv":"SPLIT"},"geometry":{"type":"LineString","coordinates":[[16.49132,43.529271],[16.491513,43.529275]]}},{"type":"Feature","properties":{"naziv":"SPLIT"},"geometry":{"type":"LineString","coordinates":[[16.492132,43.529281],[16.492041,43.529284]]}},{"type":"Feature","properties":{"naziv":"SPLIT"},"geometry":{"type":"LineString","coordinates":[[16.492132,43.529281],[16.492207,43.529278]]}},{"type":"Feature","properties":{"naziv":"SPLIT"},"geometry":{"type":"LineString","coordinates":[[16.491823,43.529281],[16.492041,43.529284]]}},{"type":"Feature","properties":{"naziv":"SPLIT"},"geometry":{"type":"LineString","coordinates":[[16.49273,43.529284],[16.492812,43.529286]]}},{"type":"Feature","properties":{"naziv":"SPLIT"},"geometry":{"type":"LineString","coordinates":[[16.506714,43.523463],[16.506682,43.52344]]}},{"type":"Feature","properties":{"naziv":"SPLIT"},"geometry":{"type":"LineString","coordinates":[[16.506682,43.52344],[16.506634,43.523405]]}},{"type":"Feature","properties":{"naziv":"SPLIT"},"geometry":{"type":"LineString","coordinates":[[16.506634,43.523405],[16.506537,43.523321]]}},{"type":"Feature","properties":{"naziv":"SPLIT"},"geometry":{"type":"LineString","coordinates":[[16.506514,43.523257],[16.506537,43.523321]]}},{"type":"Feature","properties":{"naziv":"SPLIT"},"geometry":{"type":"LineString","coordinates":[[16.503212,43.528066],[16.503284,43.528066]]}},{"type":"Feature","properties":{"naziv":"SPLIT"},"geometry":{"type":"LineString","coordinates":[[16.503399,43.528066],[16.503473,43.528067]]}},{"type":"Feature","properties":{"naziv":"SPLIT"},"geometry":{"type":"LineString","coordinates":[[16.503473,43.528067],[16.503593,43.5281]]}},{"type":"Feature","properties":{"naziv":"SPLIT"},"geometry":{"type":"LineString","coordinates":[[16.503593,43.5281],[16.503767,43.528127]]}},{"type":"Feature","properties":{"naziv":"SPLIT"},"geometry":{"type":"LineString","coordinates":[[16.503801,43.528132],[16.503767,43.528127]]}},{"type":"Feature","properties":{"naziv":"SPLIT"},"geometry":{"type":"LineString","coordinates":[[16.503813,43.528134],[16.503801,43.528132]]}},{"type":"Feature","properties":{"naziv":"SPLIT"},"geometry":{"type":"LineString","coordinates":[[16.503284,43.528066],[16.503399,43.528066]]}},{"type":"Feature","properties":{"naziv":"SPLIT"},"geometry":{"type":"LineString","coordinates":[[16.503958,43.528142],[16.50392,43.52814]]}},{"type":"Feature","properties":{"naziv":"SPLIT"},"geometry":{"type":"LineString","coordinates":[[16.504021,43.528146],[16.503958,43.528142]]}},{"type":"Feature","properties":{"naziv":"SPLIT"},"geometry":{"type":"LineString","coordinates":[[16.50392,43.52814],[16.503813,43.528134]]}},{"type":"Feature","properties":{"naziv":"SPLIT"},"geometry":{"type":"LineString","coordinates":[[16.504069,43.52814],[16.504021,43.528146]]}},{"type":"Feature","properties":{"naziv":"SPLIT"},"geometry":{"type":"LineString","coordinates":[[16.504125,43.528133],[16.504069,43.52814]]}}]}