{"type":"FeatureCollection","name":"vodovod_hidrant","crs":{"type":"name","properties":{"name":"urn:ogc:def:crs:OGC:1.3:CRS84"}},"xy_coordinate_resolution":0.000001,"features":[{"type":"Feature","properties":{"tip":"NH","oznaka":"241","promjer":80},"geometry":{"type":"Point","coordinates":[16.492061,43.52952]}},{"type":"Feature","properties":{"tip":"NH","oznaka":"240","promjer":80},"geometry":{"type":"Point","coordinates":[16.491322,43.529498]}},{"type":"Feature","properties":{"tip":"NH","oznaka":"239","promjer":80},"geometry":{"type":"Point","coordinates":[16.490206,43.529503]}},{"type":"Feature","properties":{"tip":"NH","oznaka":"238","promjer":80},"geometry":{"type":"Point","coordinates":[16.489849,43.529936]}},{"type":"Feature","properties":{"tip":"NH","oznaka":"239","promjer":80},"geometry":{"type":"Point","coordinates":[16.490125,43.530366]}},{"type":"Feature","properties":{"tip":"NH","oznaka":"359","promjer":80},"geometry":{"type":"Point","coordinates":[16.494201,43.529632]}},{"type":"Feature","properties":{"tip":"PH","oznaka":"107","promjer":75},"geometry":{"type":"Point","coordinates":[16.495337,43.529901]}},{"type":"Feature","properties":{"tip":"PH","oznaka":"108","promjer":75},"geometry":{"type":"Point","coordinates":[16.495612,43.529087]}},{"type":"Feature","properties":{"tip":"PH","oznaka":"109","promjer":75},"geometry":{"type":"Point","coordinates":[16.496875,43.528908]}},{"type":"Feature","properties":{"tip":"PH","oznaka":"110","promjer":75},"geometry":{"type":"Point","coordinates":[16.500844,43.528434]}},{"type":"Feature","properties":{"tip":"NH","oznaka":"256","promjer":80},"geometry":{"type":"Point","coordinates":[16.50406,43.529249]}},{"type":"Feature","properties":{"tip":"NH","oznaka":"257","promjer":80},"geometry":{"type":"Point","coordinates":[16.504677,43.529053]}},{"type":"Feature","properties":{"tip":"NH","oznaka":"374 - NH 80","promjer":80},"geometry":{"type":"Point","coordinates":[16.506415,43.527288]}},{"type":"Feature","properties":{},"geometry":{"type":"Point","coordinates":[16.495456,43.529984]}}]}