{"type":"FeatureCollection","name":"Javne_zelene_povrsine_Djecja_igralista","crs":{"type":"name","properties":{"name":"urn:ogc:def:crs:OGC:1.3:CRS84"}},"xy_coordinate_resolution":0.000001,"features":[{"type":"Feature","properties":{"vrsta":"Dječje igralište","upravitelj":"Parkovi i nasadi d.o.o."},"geometry":{"type":"Point","coordinates":[16.501748,43.527173]}},{"type":"Feature","properties":{"vrsta":"Dječje igralište","upravitelj":"Parkovi i nasadi d.o.o."},"geometry":{"type":"Point","coordinates":[16.501775,43.527192]}},{"type":"Feature","properties":{"vrsta":"Dječje igralište","upravitelj":"Parkovi i nasadi d.o.o."},"geometry":{"type":"Point","coordinates":[16.501849,43.527193]}},{"type":"Feature","properties":{"vrsta":"Dječje igralište","upravitelj":"Parkovi i nasadi d.o.o."},"geometry":{"type":"Point","coordinates":[16.501862,43.527216]}}]}