{"type":"FeatureCollection","name":"CM_KIOSCI_ZONE","crs":{"type":"name","properties":{"name":"urn:ogc:def:crs:OGC:1.3:CRS84"}},"xy_coordinate_resolution":0.000001,"features":[{"type":"Feature","properties":{"naziv":"6","zona":"VI zona","vrsta":"Zona JPP"},"geometry":{"type":"Polygon","coordinates":[[[16.486975858925536,43.52418522715357],[16.487023728824127,43.52397150611139],[16.48712947383484,43.52376901539912],[16.487288836817225,43.52358590593809],[16.48749540249165,43.52342954842041],[16.487740855723782,43.52330623664169],[16.488015316246837,43.52322093418681],[16.495379324490408,43.52154278494181],[16.496704775277617,43.52100570450282],[16.496707435158505,43.52100915592822],[16.496759290540364,43.520984678082094],[16.500578710794155,43.51958435741972],[16.500826085388486,43.519513004402995],[16.5010870332416,43.51947475267918],[16.501353204352995,43.519470826252316],[16.505687577147658,43.51968865563678],[16.505969975163335,43.51972286056185],[16.506238115339542,43.51979564445852],[16.506482074120544,43.519904313698135],[16.506692822745016,43.52004484656858],[16.506862561367136,43.52021204209292],[16.506985007725184,43.520399712490125],[16.50724841239555,43.52093024567232],[16.511059305965826,43.523489870370284],[16.511099746745646,43.52352261324287],[16.511024,43.523547],[16.510595,43.523708],[16.510184,43.524131],[16.509927,43.524422],[16.50983,43.52452],[16.509546,43.524845],[16.508857,43.525312],[16.508209,43.525676],[16.50763,43.525998],[16.507817,43.526224],[16.507851,43.526317],[16.507532,43.526631],[16.50704,43.52692],[16.506757,43.527034],[16.50615,43.527347],[16.505584,43.5276],[16.505128,43.527738],[16.504779,43.527811],[16.504332,43.528031],[16.503927,43.52815],[16.503589,43.528128],[16.503403,43.52816],[16.503259,43.52823],[16.502952,43.528197],[16.502787,43.528192],[16.502344,43.528232],[16.498927,43.528922],[16.497148,43.528959],[16.495771,43.529074],[16.495154,43.52918],[16.494645,43.529253],[16.494177,43.529303],[16.493478,43.529371],[16.492946,43.529364],[16.492529,43.529342],[16.49189,43.52933],[16.491163,43.529311],[16.490431,43.529294],[16.489367,43.529274],[16.489328,43.529273],[16.48926,43.529272],[16.488401367172422,43.5292267591924],[16.48840681354507,43.529156926873206],[16.488478844003147,43.52895355412517],[16.489419239337558,43.52707864473945],[16.48941925113806,43.52660041057253],[16.48736578397391,43.52498085914065],[16.487186758348138,43.524807562915896],[16.487059047428872,43.524611842110325],[16.48698779169755,43.524401575458576],[16.486975858925536,43.52418522715357]]]}}]}