{"type":"FeatureCollection","name":"CM_KIOSK_PLAN","crs":{"type":"name","properties":{"name":"urn:ogc:def:crs:OGC:1.3:CRS84"}},"xy_coordinate_resolution":0.000001,"features":[{"type":"Feature","properties":{"namjena":"trg_ugo","adresa":"Dracevac","povrsina":12,"plan":"ukidanje lokacije","kotar":"Mejasi"},"geometry":{"type":"Point","coordinates":[16.499841,43.526826]}},{"type":"Feature","properties":{"namjena":"trg_ugo","adresa":"Dracevac","povrsina":12,"plan":"ukidanje lokacije","kotar":"Mejasi"},"geometry":{"type":"Point","coordinates":[16.499674,43.52683]}}]}