{"type":"FeatureCollection","name":"KOMUNALNA_NAKNADA_DEMO","crs":{"type":"name","properties":{"name":"urn:ogc:def:crs:OGC:1.3:CRS84"}},"xy_coordinate_resolution":0.000001,"features":[{"type":"Feature","properties":{"naziv":"GK Mejaši","zaduzeno":286129.45,"naplaceno":190511.5,"postotak_naplate":66.58},"geometry":{"type":"Polygon","coordinates":[[[16.490599405462888,43.52263205823454],[16.495379324490408,43.52154278494181],[16.496704775277617,43.52100570450282],[16.496707435158505,43.52100915592822],[16.496759290540364,43.520984678082094],[16.500578710794155,43.51958435741972],[16.500826085388486,43.519513004402995],[16.5010870332416,43.51947475267918],[16.501353204352995,43.519470826252316],[16.505687577147658,43.51968865563678],[16.505969975163335,43.51972286056185],[16.506238115339542,43.51979564445852],[16.506482074120544,43.519904313698135],[16.506692822745016,43.52004484656858],[16.506862561367136,43.52021204209292],[16.506985007725184,43.520399712490125],[16.50724841239555,43.52093024567232],[16.511059305965826,43.523489870370284],[16.511244339681177,43.52363968289595],[16.511387826410935,43.523811787309704],[16.51148478305827,43.52400020710879],[16.511531842227498,43.52419839916385],[16.511527369216505,43.52439948092549],[16.511471518850986,43.524596469425965],[16.51136623017786,43.524782523777276],[16.51121515919239,43.52495118274459],[16.511023551926407,43.52509658914323],[16.505601388679775,43.52850876172401],[16.503758,43.528881],[16.501978,43.528918],[16.500601,43.529034],[16.499984,43.52914],[16.499572,43.529198],[16.499476,43.529212],[16.499007,43.529262],[16.498308,43.52933],[16.497776,43.529323],[16.497359,43.529301],[16.496719,43.529289],[16.495992,43.52927],[16.495261,43.529254],[16.494197,43.529234],[16.494158,43.529233],[16.494461,43.528811],[16.494867,43.528203],[16.495088,43.527592],[16.495119,43.527144],[16.495047,43.526724],[16.494854,43.526242],[16.494497,43.525684],[16.493893,43.525197],[16.492881,43.524402],[16.491432,43.523265],[16.490599405462888,43.52263205823454]]]}},{"type":"Feature","properties":{"naziv":"GK Brda","zaduzeno":192077.54,"naplaceno":134859.5,"postotak_naplate":70.21},"geometry":{"type":"Polygon","coordinates":[[[16.48839245351044,43.529341048413734],[16.48840681354507,43.529156926873206],[16.488478844003147,43.52895355412517],[16.488560815548322,43.528790123689284],[16.488867,43.5292],[16.488812,43.529216],[16.48839245351044,43.529341048413734]]]}},{"type":"Feature","properties":{"naziv":"GK Neslanovac","zaduzeno":130979.7,"naplaceno":91839.18,"postotak_naplate":70.12},"geometry":{"type":"Polygon","coordinates":[[[16.486975858925536,43.52418522715357],[16.487023728824127,43.52397150611139],[16.48712947383484,43.52376901539912],[16.487288836817225,43.52358590593809],[16.48749540249165,43.52342954842041],[16.487740855723782,43.52330623664169],[16.488015316246837,43.52322093418681],[16.490599405462888,43.52263205823454],[16.491432,43.523265],[16.492881,43.524402],[16.493893,43.525197],[16.494497,43.525684],[16.494854,43.526242],[16.495047,43.526724],[16.495119,43.527144],[16.495088,43.527592],[16.494867,43.528203],[16.494461,43.528811],[16.494158,43.529233],[16.49409,43.529232],[16.493178,43.529183],[16.492437,43.529156],[16.491763,43.529133],[16.491004,43.52909],[16.490283,43.52907],[16.489591,43.52905],[16.489387,43.529077],[16.48897,43.529168],[16.488922,43.529183],[16.488867,43.5292],[16.488560815548322,43.528790123689284],[16.489419239337558,43.52707864473945],[16.48941925113806,43.52660041057253],[16.48736578397391,43.52498085914065],[16.487186758348138,43.524807562915896],[16.487059047428872,43.524611842110325],[16.48698779169755,43.524401575458576],[16.486975858925536,43.52418522715357]]]}}]}