{"type":"FeatureCollection","name":"Kucni_brojevi","crs":{"type":"name","properties":{"name":"urn:ogc:def:crs:OGC:1.3:CRS84"}},"xy_coordinate_resolution":0.000001,"features":[{"type":"Feature","properties":{"broj":"48","ulica":"Dračevac","cestica":"369/5"},"geometry":{"type":"Point","coordinates":[16.504012,43.525245]}},{"type":"Feature","properties":{"broj":"14","ulica":"Dračevac","cestica":"404/3"},"geometry":{"type":"Point","coordinates":[16.502106,43.525307]}},{"type":"Feature","properties":{"broj":"6A","ulica":"Dračevac","cestica":"287/2"},"geometry":{"type":"Point","coordinates":[16.50282,43.527671]}},{"type":"Feature","properties":{"broj":"82","ulica":"Dračevac","cestica":"365/1"},"geometry":{"type":"Point","coordinates":[16.505473,43.524266]}},{"type":"Feature","properties":{"broj":"8G","ulica":"Dračevac","cestica":"414"},"geometry":{"type":"Point","coordinates":[16.502597,43.526094]}},{"type":"Feature","properties":{"broj":"38","ulica":"Bilice II","cestica":"453/3"},"geometry":{"type":"Point","coordinates":[16.495032,43.525485]}},{"type":"Feature","properties":{"broj":"32D","ulica":"Bilice II","cestica":"529"},"geometry":{"type":"Point","coordinates":[16.493561,43.526052]}},{"type":"Feature","properties":{"broj":"50","ulica":"Dračevac","cestica":"369/18"},"geometry":{"type":"Point","coordinates":[16.503924,43.52516]}},{"type":"Feature","properties":{"broj":"28A","ulica":"Dračevac","cestica":"414"},"geometry":{"type":"Point","coordinates":[16.502892,43.525606]}},{"type":"Feature","properties":{"broj":"77","ulica":"Magistrala-Solin","cestica":"667/3"},"geometry":{"type":"Point","coordinates":[16.487105,43.524072]}},{"type":"Feature","properties":{"broj":"26","ulica":"PUT MOSTINA","cestica":"657/1"},"geometry":{"type":"Point","coordinates":[16.49053,43.52334]}},{"type":"Feature","properties":{"broj":"10C","ulica":"Dračevac","cestica":"409/1"},"geometry":{"type":"Point","coordinates":[16.501318,43.526474]}},{"type":"Feature","properties":{"broj":"73","ulica":"Dračevac","cestica":"343/1"},"geometry":{"type":"Point","coordinates":[16.506712,43.523611]}},{"type":"Feature","properties":{"broj":"14A","ulica":"Bilice II","cestica":"518/2"},"geometry":{"type":"Point","coordinates":[16.491642,43.52536]}},{"type":"Feature","properties":{"broj":"96","ulica":"Dračevac","cestica":"357"},"geometry":{"type":"Point","coordinates":[16.505319,43.523973]}},{"type":"Feature","properties":{"broj":"2","ulica":"Bilice I","cestica":"155/1"},"geometry":{"type":"Point","coordinates":[16.489549,43.528261]}},{"type":"Feature","properties":{"broj":"48","ulica":"Bilice II","cestica":"383"},"geometry":{"type":"Point","coordinates":[16.500387,43.52416]}},{"type":"Feature","properties":{"broj":"5","ulica":"Mostine","cestica":"597/4"},"geometry":{"type":"Point","coordinates":[16.492869,43.524577]}},{"type":"Feature","properties":{"broj":"46","ulica":"PUT MOSTINA","cestica":"2902/1"},"geometry":{"type":"Point","coordinates":[16.492363,43.522543]}},{"type":"Feature","properties":{"broj":"64","ulica":"Bilice II","cestica":"455/1"},"geometry":{"type":"Point","coordinates":[16.495349,43.525937]}},{"type":"Feature","properties":{"broj":"14F","ulica":"Dračevac","cestica":"404/7"},"geometry":{"type":"Point","coordinates":[16.501562,43.525015]}},{"type":"Feature","properties":{"broj":"29A","ulica":"Dračevac","cestica":"296/1"},"geometry":{"type":"Point","coordinates":[16.504361,43.525944]}},{"type":"Feature","properties":{"broj":"25F","ulica":"Bilice II","cestica":"247"},"geometry":{"type":"Point","coordinates":[16.494547,43.526918]}},{"type":"Feature","properties":{"broj":"12B","ulica":"Bilice II","cestica":"570/1"},"geometry":{"type":"Point","coordinates":[16.491211,43.525609]}},{"type":"Feature","properties":{"broj":"14G","ulica":"Dračevac","cestica":"404/5"},"geometry":{"type":"Point","coordinates":[16.501823,43.525067]}},{"type":"Feature","properties":{"broj":"25E","ulica":"Bilice II","cestica":"241/1"},"geometry":{"type":"Point","coordinates":[16.494612,43.527528]}},{"type":"Feature","properties":{"broj":"1B","ulica":"Mostine","cestica":"581"},"geometry":{"type":"Point","coordinates":[16.490197,43.524101]}},{"type":"Feature","properties":{"broj":"23A","ulica":"Dračevac","cestica":"295/2"},"geometry":{"type":"Point","coordinates":[16.503829,43.52618]}},{"type":"Feature","properties":{"broj":"12","ulica":"Karepovac","cestica":"3079"},"geometry":{"type":"Point","coordinates":[16.500059,43.520499]}},{"type":"Feature","properties":{"broj":"31A","ulica":"Bilice II","cestica":"250/7"},"geometry":{"type":"Point","coordinates":[16.495117,43.526876]}},{"type":"Feature","properties":{"broj":"6","ulica":"Mostine","cestica":"598"},"geometry":{"type":"Point","coordinates":[16.493469,43.524677]}},{"type":"Feature","properties":{"broj":"1","ulica":"Dračevac","cestica":"280/1"},"geometry":{"type":"Point","coordinates":[16.49945,43.528459]}},{"type":"Feature","properties":{"broj":"12","ulica":"Mostine","cestica":"3022/1"},"geometry":{"type":"Point","coordinates":[16.493777,43.522816]}},{"type":"Feature","properties":{"broj":"42A","ulica":"Dračevac","cestica":"369/16"},"geometry":{"type":"Point","coordinates":[16.503842,43.525477]}},{"type":"Feature","properties":{"broj":"40","ulica":"Dračevac","cestica":"369/14"},"geometry":{"type":"Point","coordinates":[16.503764,43.525679]}},{"type":"Feature","properties":{"broj":"84A","ulica":"Dračevac","cestica":"365/16"},"geometry":{"type":"Point","coordinates":[16.504965,43.524466]}},{"type":"Feature","properties":{"broj":"10D","ulica":"Dračevac","cestica":"409/1"},"geometry":{"type":"Point","coordinates":[16.50139,43.526418]}},{"type":"Feature","properties":{"broj":"70","ulica":"Dračevac","cestica":"375/1"},"geometry":{"type":"Point","coordinates":[16.50377,43.524276]}},{"type":"Feature","properties":{"broj":"95","ulica":"PUT SV.IŽIDORA","cestica":"3137/2"},"geometry":{"type":"Point","coordinates":[16.505823,43.519823]}},{"type":"Feature","properties":{"broj":"36","ulica":"Bilice II","cestica":"453/2"},"geometry":{"type":"Point","coordinates":[16.495027,43.525708]}},{"type":"Feature","properties":{"broj":"116","ulica":"Dračevac","cestica":"3113/1"},"geometry":{"type":"Point","coordinates":[16.505534,43.522135]}},{"type":"Feature","properties":{"broj":"14L","ulica":"Dračevac","cestica":"404/13"},"geometry":{"type":"Point","coordinates":[16.501786,43.524849]}},{"type":"Feature","properties":{"broj":"51","ulica":"Dračevac","cestica":"308"},"geometry":{"type":"Point","coordinates":[16.505476,43.525121]}},{"type":"Feature","properties":{"broj":"16A","ulica":"Dračevac","cestica":"417/1"},"geometry":{"type":"Point","coordinates":[16.502185,43.526585]}},{"type":"Feature","properties":{"broj":"43","ulica":"Dračevac","cestica":"308"},"geometry":{"type":"Point","coordinates":[16.505098,43.525538]}},{"type":"Feature","properties":{"broj":"31","ulica":"Bilice II","cestica":"250/10"},"geometry":{"type":"Point","coordinates":[16.495243,43.526887]}},{"type":"Feature","properties":{"broj":"18","ulica":"Dračevac","cestica":"417/1"},"geometry":{"type":"Point","coordinates":[16.502673,43.526468]}},{"type":"Feature","properties":{"broj":"20","ulica":"Bilice II","cestica":"529"},"geometry":{"type":"Point","coordinates":[16.493271,43.526633]}},{"type":"Feature","properties":{"broj":"2A","ulica":"Dračevac","cestica":"275/16"},"geometry":{"type":"Point","coordinates":[16.496789,43.528409]}},{"type":"Feature","properties":{"broj":"10","ulica":"Bilice II","cestica":"526"},"geometry":{"type":"Point","coordinates":[16.492267,43.525996]}},{"type":"Feature","properties":{"broj":"62","ulica":"Dračevac","cestica":"367/3"},"geometry":{"type":"Point","coordinates":[16.504763,43.525186]}},{"type":"Feature","properties":{"broj":"24A","ulica":"Bilice II","cestica":"539"},"geometry":{"type":"Point","coordinates":[16.492421,43.526892]}},{"type":"Feature","properties":{"broj":"36","ulica":"Dračevac","cestica":"369/10"},"geometry":{"type":"Point","coordinates":[16.503446,43.525534]}},{"type":"Feature","properties":{"broj":"23","ulica":"Dračevac","cestica":"294/11"},"geometry":{"type":"Point","coordinates":[16.503591,43.526206]}},{"type":"Feature","properties":{"broj":"47","ulica":"Dračevac","cestica":"308/2"},"geometry":{"type":"Point","coordinates":[16.505281,43.525305]}},{"type":"Feature","properties":{"broj":"78","ulica":"Dračevac","cestica":"365/1"},"geometry":{"type":"Point","coordinates":[16.505715,43.524488]}},{"type":"Feature","properties":{"broj":"9A","ulica":"Dračevac","cestica":"290/3"},"geometry":{"type":"Point","coordinates":[16.504054,43.526854]}},{"type":"Feature","properties":{"broj":"55","ulica":"Dračevac","cestica":"308"},"geometry":{"type":"Point","coordinates":[16.505352,43.525582]}},{"type":"Feature","properties":{"broj":"13","ulica":"Dračevac","cestica":"293/5"},"geometry":{"type":"Point","coordinates":[16.502791,43.526858]}},{"type":"Feature","properties":{"broj":"12A","ulica":"Dračevac","cestica":"380"},"geometry":{"type":"Point","coordinates":[16.502423,43.523614]}},{"type":"Feature","properties":{"broj":"17","ulica":"PUT MOSTINA","cestica":"643/1"},"geometry":{"type":"Point","coordinates":[16.491879,43.523883]}},{"type":"Feature","properties":{"broj":"11","ulica":"Bilice II","cestica":"201/1"},"geometry":{"type":"Point","coordinates":[16.493267,43.528245]}},{"type":"Feature","properties":{"broj":"14C","ulica":"Dračevac","cestica":"404/14"},"geometry":{"type":"Point","coordinates":[16.501384,43.52523]}},{"type":"Feature","properties":{"broj":"14R","ulica":"Dračevac","cestica":"406/2"},"geometry":{"type":"Point","coordinates":[16.502359,43.524678]}},{"type":"Feature","properties":{"broj":"7B","ulica":"Dračevac","cestica":"289/9"},"geometry":{"type":"Point","coordinates":[16.50401,43.527789]}},{"type":"Feature","properties":{"broj":"10","ulica":"Dračevac","cestica":"402/1"},"geometry":{"type":"Point","coordinates":[16.50035,43.526346]}},{"type":"Feature","properties":{"broj":"62","ulica":"Bilice II","cestica":"456/2"},"geometry":{"type":"Point","coordinates":[16.495154,43.5261]}},{"type":"Feature","properties":{"broj":"20","ulica":"Dračevac","cestica":"417/1"},"geometry":{"type":"Point","coordinates":[16.502964,43.526452]}},{"type":"Feature","properties":{"broj":"9D","ulica":"Dračevac","cestica":"290/6"},"geometry":{"type":"Point","coordinates":[16.503902,43.527018]}},{"type":"Feature","properties":{"broj":"2A","ulica":"Mostine","cestica":"516"},"geometry":{"type":"Point","coordinates":[16.491104,43.525061]}},{"type":"Feature","properties":{"broj":"5","ulica":"Dračevac","cestica":"420/10"},"geometry":{"type":"Point","coordinates":[16.500735,43.526979]}},{"type":"Feature","properties":{"broj":"40","ulica":"Bilice II","cestica":"453/4"},"geometry":{"type":"Point","coordinates":[16.495094,43.525278]}},{"type":"Feature","properties":{"broj":"82A","ulica":"Dračevac","cestica":"365/15"},"geometry":{"type":"Point","coordinates":[16.505246,43.524279]}},{"type":"Feature","properties":{"broj":"2","ulica":"Dračevac","cestica":"279/1"},"geometry":{"type":"Point","coordinates":[16.499136,43.528594]}},{"type":"Feature","properties":{"broj":"9","ulica":"Mostine","cestica":"2904"},"geometry":{"type":"Point","coordinates":[16.491518,43.522841]}},{"type":"Feature","properties":{"broj":"2B","ulica":"Dračevac","cestica":"275/17"},"geometry":{"type":"Point","coordinates":[16.496986,43.528409]}},{"type":"Feature","properties":{"broj":"60","ulica":"Dračevac","cestica":"315/6"},"geometry":{"type":"Point","coordinates":[16.50628,43.52461]}},{"type":"Feature","properties":{"broj":"8E","ulica":"Dračevac","cestica":"412"},"geometry":{"type":"Point","coordinates":[16.502479,43.525581]}},{"type":"Feature","properties":{"broj":"57","ulica":"Dračevac","cestica":"311/1;311/3"},"geometry":{"type":"Point","coordinates":[16.505647,43.525181]}},{"type":"Feature","properties":{"broj":"86","ulica":"Dračevac","cestica":"360/1"},"geometry":{"type":"Point","coordinates":[16.502893,43.524101]}},{"type":"Feature","properties":{"broj":"28","ulica":"Bilice II","cestica":"530"},"geometry":{"type":"Point","coordinates":[16.493781,43.526989]}},{"type":"Feature","properties":{"broj":"56A","ulica":"Dračevac","cestica":"367/7"},"geometry":{"type":"Point","coordinates":[16.504597,43.525269]}},{"type":"Feature","properties":{"broj":"52","ulica":"Magistrala-Solin","cestica":"686"},"geometry":{"type":"Point","coordinates":[16.488363,43.523744]}},{"type":"Feature","properties":{"broj":"42","ulica":"Dračevac","cestica":"369/1"},"geometry":{"type":"Point","coordinates":[16.503971,43.52562]}},{"type":"Feature","properties":{"broj":"66","ulica":"Bilice II","cestica":"454"},"geometry":{"type":"Point","coordinates":[16.495184,43.525937]}},{"type":"Feature","properties":{"broj":"46","ulica":"Dračevac","cestica":"369/4"},"geometry":{"type":"Point","coordinates":[16.504044,43.525406]}},{"type":"Feature","properties":{"broj":"30","ulica":"PUT MOSTINA","cestica":"657/1;3022/1"},"geometry":{"type":"Point","coordinates":[16.490744,43.523482]}},{"type":"Feature","properties":{"broj":"82B","ulica":"Dračevac","cestica":"365/14"},"geometry":{"type":"Point","coordinates":[16.505265,43.524477]}},{"type":"Feature","properties":{"broj":"21A","ulica":"Bilice II","cestica":"228/2"},"geometry":{"type":"Point","coordinates":[16.49257,43.529191]}},{"type":"Feature","properties":{"broj":"12C","ulica":"Bilice II","cestica":"570/1"},"geometry":{"type":"Point","coordinates":[16.490471,43.525721]}},{"type":"Feature","properties":{"broj":"40A","ulica":"Dračevac","cestica":"369/15"},"geometry":{"type":"Point","coordinates":[16.503655,43.525555]}},{"type":"Feature","properties":{"broj":"90A","ulica":"Dračevac","cestica":"360/1"},"geometry":{"type":"Point","coordinates":[16.503853,43.524023]}},{"type":"Feature","properties":{"broj":"8","ulica":"Dračevac","cestica":"378/1"},"geometry":{"type":"Point","coordinates":[16.50251,43.524197]}},{"type":"Feature","properties":{"broj":"44","ulica":"Dračevac","cestica":"369/2"},"geometry":{"type":"Point","coordinates":[16.504158,43.52554]}},{"type":"Feature","properties":{"broj":"66","ulica":"Dračevac","cestica":"367/2"},"geometry":{"type":"Point","coordinates":[16.505017,43.525139]}},{"type":"Feature","properties":{"broj":"15","ulica":"Dračevac","cestica":"293/8"},"geometry":{"type":"Point","coordinates":[16.503144,43.526913]}},{"type":"Feature","properties":{"broj":"10B","ulica":"Dračevac","cestica":"409/1"},"geometry":{"type":"Point","coordinates":[16.500882,43.52647]}},{"type":"Feature","properties":{"broj":"1A","ulica":"Mostine","cestica":"579"},"geometry":{"type":"Point","coordinates":[16.490156,43.524349]}},{"type":"Feature","properties":{"broj":"11","ulica":"Dračevac","cestica":"293/6"},"geometry":{"type":"Point","coordinates":[16.502372,43.526902]}},{"type":"Feature","properties":{"broj":"53","ulica":"Dračevac","cestica":"308/3"},"geometry":{"type":"Point","coordinates":[16.505413,43.5253]}},{"type":"Feature","properties":{"broj":"8F","ulica":"Dračevac","cestica":"414"},"geometry":{"type":"Point","coordinates":[16.502444,43.525798]}},{"type":"Feature","properties":{"broj":"8","ulica":"Bilice I","cestica":"172/3"},"geometry":{"type":"Point","coordinates":[16.489434,43.527669]}},{"type":"Feature","properties":{"broj":"19","ulica":"Bilice II","cestica":"232;233/1"},"geometry":{"type":"Point","coordinates":[16.493796,43.528866]}},{"type":"Feature","properties":{"broj":"88","ulica":"Dračevac","cestica":"360/1"},"geometry":{"type":"Point","coordinates":[16.503589,43.524048]}},{"type":"Feature","properties":{"broj":"16","ulica":"Dračevac","cestica":"417/1"},"geometry":{"type":"Point","coordinates":[16.502011,43.526651]}},{"type":"Feature","properties":{"broj":"27C","ulica":"Bilice II","cestica":"250/5"},"geometry":{"type":"Point","coordinates":[16.495278,43.526989]}},{"type":"Feature","properties":{"broj":"42","ulica":"Bilice II","cestica":"453/4"},"geometry":{"type":"Point","coordinates":[16.495073,43.525368]}},{"type":"Feature","properties":{"broj":"2","ulica":"Mostine","cestica":"573"},"geometry":{"type":"Point","coordinates":[16.490826,43.524731]}},{"type":"Feature","properties":{"broj":"10A","ulica":"Dračevac","cestica":"409/1"},"geometry":{"type":"Point","coordinates":[16.501053,43.526676]}},{"type":"Feature","properties":{"broj":"10/1","ulica":"Bilice I","cestica":"177/2"},"geometry":{"type":"Point","coordinates":[16.489288,43.527351]}},{"type":"Feature","properties":{"broj":"9","ulica":"Dračevac","cestica":"289/1"},"geometry":{"type":"Point","coordinates":[16.504345,43.527453]}},{"type":"Feature","properties":{"broj":"56","ulica":"Magistrala-Solin","cestica":"690/2"},"geometry":{"type":"Point","coordinates":[16.489506,43.524609]}},{"type":"Feature","properties":{"broj":"90","ulica":"Dračevac","cestica":"360/1"},"geometry":{"type":"Point","coordinates":[16.503766,43.524025]}},{"type":"Feature","properties":{"broj":"21D","ulica":"Dračevac","cestica":"294/2"},"geometry":{"type":"Point","coordinates":[16.503573,43.526423]}},{"type":"Feature","properties":{"broj":"19","ulica":"Dračevac","cestica":"294/3"},"geometry":{"type":"Point","coordinates":[16.503481,43.526742]}},{"type":"Feature","properties":{"broj":"3","ulica":"Mostine","cestica":"592"},"geometry":{"type":"Point","coordinates":[16.492448,43.524631]}},{"type":"Feature","properties":{"broj":"1A","ulica":"Dračevac","cestica":"280/4"},"geometry":{"type":"Point","coordinates":[16.499505,43.528218]}},{"type":"Feature","properties":{"broj":"59","ulica":"Dračevac","cestica":"315/7"},"geometry":{"type":"Point","coordinates":[16.505999,43.525038]}},{"type":"Feature","properties":{"broj":"11","ulica":"Mostine","cestica":"3022/1"},"geometry":{"type":"Point","coordinates":[16.493188,43.523028]}},{"type":"Feature","properties":{"broj":"27A","ulica":"Bilice II","cestica":"250/5"},"geometry":{"type":"Point","coordinates":[16.495279,43.52708]}},{"type":"Feature","properties":{"broj":"38","ulica":"Dračevac","cestica":"369/13"},"geometry":{"type":"Point","coordinates":[16.503534,43.525668]}},{"type":"Feature","properties":{"broj":"14A","ulica":"Dračevac","cestica":"404/2"},"geometry":{"type":"Point","coordinates":[16.501859,43.525293]}},{"type":"Feature","properties":{"broj":"49","ulica":"PUT MOSTINA","cestica":"3088"},"geometry":{"type":"Point","coordinates":[16.500162,43.522299]}},{"type":"Feature","properties":{"broj":"23","ulica":"Bilice II","cestica":"244"},"geometry":{"type":"Point","coordinates":[16.494023,43.527691]}},{"type":"Feature","properties":{"broj":"19A","ulica":"Bilice II","cestica":"233/3"},"geometry":{"type":"Point","coordinates":[16.494249,43.528821]}},{"type":"Feature","properties":{"broj":"13","ulica":"Bilice II","cestica":"199"},"geometry":{"type":"Point","coordinates":[16.493385,43.52789]}},{"type":"Feature","properties":{"broj":"89","ulica":"Magistrala-Solin","cestica":"565"},"geometry":{"type":"Point","coordinates":[16.489755,43.5265]}},{"type":"Feature","properties":{"broj":"21A","ulica":"Dračevac","cestica":"295/5"},"geometry":{"type":"Point","coordinates":[16.504185,43.526312]}},{"type":"Feature","properties":{"broj":"3","ulica":"Karepovac","cestica":"3029"},"geometry":{"type":"Point","coordinates":[16.4982,43.521239]}},{"type":"Feature","properties":{"broj":"72B","ulica":"Dračevac","cestica":"365/10"},"geometry":{"type":"Point","coordinates":[16.505014,43.524883]}},{"type":"Feature","properties":{"broj":"25G","ulica":"Bilice II","cestica":"249/3"},"geometry":{"type":"Point","coordinates":[16.494776,43.527223]}},{"type":"Feature","properties":{"broj":"4","ulica":"Bilice II","cestica":"554/1"},"geometry":{"type":"Point","coordinates":[16.491143,43.526618]}},{"type":"Feature","properties":{"broj":"7A","ulica":"Dračevac","cestica":"288/3"},"geometry":{"type":"Point","coordinates":[16.503877,43.527563]}},{"type":"Feature","properties":{"broj":"14P","ulica":"Dračevac","cestica":"378/2"},"geometry":{"type":"Point","coordinates":[16.501655,43.524293]}},{"type":"Feature","properties":{"broj":"28B","ulica":"Dračevac","cestica":"414"},"geometry":{"type":"Point","coordinates":[16.502994,43.525569]}},{"type":"Feature","properties":{"broj":"92","ulica":"Dračevac","cestica":"363/1"},"geometry":{"type":"Point","coordinates":[16.504522,43.524046]}},{"type":"Feature","properties":{"broj":"14","ulica":"Bilice II","cestica":"514"},"geometry":{"type":"Point","coordinates":[16.492197,43.525363]}},{"type":"Feature","properties":{"broj":"112","ulica":"Dračevac","cestica":"345"},"geometry":{"type":"Point","coordinates":[16.504057,43.522415]}},{"type":"Feature","properties":{"broj":"22","ulica":"Bilice II","cestica":"540/1"},"geometry":{"type":"Point","coordinates":[16.492674,43.527258]}},{"type":"Feature","properties":{"broj":"4D","ulica":"Dračevac","cestica":"285/1"},"geometry":{"type":"Point","coordinates":[16.501564,43.527671]}},{"type":"Feature","properties":{"broj":"25H","ulica":"Bilice II","cestica":"249/2"},"geometry":{"type":"Point","coordinates":[16.494847,43.527058]}},{"type":"Feature","properties":{"broj":"6C","ulica":"Dračevac","cestica":"286"},"geometry":{"type":"Point","coordinates":[16.503013,43.527916]}},{"type":"Feature","properties":{"broj":"10H","ulica":"Dračevac","cestica":"409/1"},"geometry":{"type":"Point","coordinates":[16.501623,43.525514]}},{"type":"Feature","properties":{"broj":"21B","ulica":"Bilice II","cestica":"229"},"geometry":{"type":"Point","coordinates":[16.49333,43.529156]}},{"type":"Feature","properties":{"broj":"8B","ulica":"Dračevac","cestica":"412"},"geometry":{"type":"Point","coordinates":[16.501549,43.526576]}},{"type":"Feature","properties":{"broj":"14S","ulica":"Dračevac","cestica":"406/3"},"geometry":{"type":"Point","coordinates":[16.502596,43.52462]}},{"type":"Feature","properties":{"broj":"1E","ulica":"Dračevac","cestica":"279/7"},"geometry":{"type":"Point","coordinates":[16.499319,43.528118]}},{"type":"Feature","properties":{"broj":"42C","ulica":"Dračevac","cestica":"369/8"},"geometry":{"type":"Point","coordinates":[16.503751,43.525309]}},{"type":"Feature","properties":{"broj":"23A","ulica":"Bilice II","cestica":"245"},"geometry":{"type":"Point","coordinates":[16.494149,43.527563]}},{"type":"Feature","properties":{"broj":"114A","ulica":"Dračevac","cestica":"3113/1"},"geometry":{"type":"Point","coordinates":[16.503944,43.522151]}},{"type":"Feature","properties":{"broj":"35","ulica":"Dračevac","cestica":"296/1"},"geometry":{"type":"Point","coordinates":[16.504466,43.526339]}},{"type":"Feature","properties":{"broj":"18","ulica":"Bilice II","cestica":"524"},"geometry":{"type":"Point","coordinates":[16.492999,43.526426]}},{"type":"Feature","properties":{"broj":"30","ulica":"Dračevac","cestica":"414"},"geometry":{"type":"Point","coordinates":[16.503148,43.525987]}},{"type":"Feature","properties":{"broj":"34","ulica":"Dračevac","cestica":"369/11"},"geometry":{"type":"Point","coordinates":[16.503285,43.525592]}},{"type":"Feature","properties":{"broj":"12","ulica":"Bilice II","cestica":"519"},"geometry":{"type":"Point","coordinates":[16.492081,43.525591]}},{"type":"Feature","properties":{"broj":"64","ulica":"Dračevac","cestica":"315/5"},"geometry":{"type":"Point","coordinates":[16.506256,43.525169]}},{"type":"Feature","properties":{"broj":"7C","ulica":"Dračevac","cestica":"288/1"},"geometry":{"type":"Point","coordinates":[16.503433,43.528013]}},{"type":"Feature","properties":{"broj":"8D","ulica":"Dračevac","cestica":"411"},"geometry":{"type":"Point","coordinates":[16.502093,43.526185]}},{"type":"Feature","properties":{"broj":"16C","ulica":"Dračevac","cestica":"412;411"},"geometry":{"type":"Point","coordinates":[16.501884,43.526464]}},{"type":"Feature","properties":{"broj":"19C","ulica":"Dračevac","cestica":"295/3"},"geometry":{"type":"Point","coordinates":[16.503968,43.526633]}},{"type":"Feature","properties":{"broj":"9C","ulica":"Dračevac","cestica":"290/2"},"geometry":{"type":"Point","coordinates":[16.503747,43.526918]}},{"type":"Feature","properties":{"broj":"21B","ulica":"Dračevac","cestica":"295/6"},"geometry":{"type":"Point","coordinates":[16.504065,43.52637]}},{"type":"Feature","properties":{"broj":"7","ulica":"Mostine","cestica":"505/1"},"geometry":{"type":"Point","coordinates":[16.493756,43.524853]}},{"type":"Feature","properties":{"broj":"26A","ulica":"Dračevac","cestica":"414"},"geometry":{"type":"Point","coordinates":[16.502736,43.525872]}},{"type":"Feature","properties":{"broj":"32","ulica":"PUT MOSTINA","cestica":"2907/5"},"geometry":{"type":"Point","coordinates":[16.491089,43.523214]}},{"type":"Feature","properties":{"broj":"8","ulica":"Bilice II","cestica":"548"},"geometry":{"type":"Point","coordinates":[16.491921,43.526259]}},{"type":"Feature","properties":{"broj":"44A","ulica":"Bilice II","cestica":"503/1"},"geometry":{"type":"Point","coordinates":[16.49468,43.525051]}},{"type":"Feature","properties":{"broj":"14H","ulica":"Dračevac","cestica":"404/4"},"geometry":{"type":"Point","coordinates":[16.502059,43.525108]}},{"type":"Feature","properties":{"broj":"60","ulica":"Magistrala-Solin","cestica":"697"},"geometry":{"type":"Point","coordinates":[16.489867,43.525049]}},{"type":"Feature","properties":{"broj":"56","ulica":"Dračevac","cestica":"367/6"},"geometry":{"type":"Point","coordinates":[16.504638,43.525333]}},{"type":"Feature","properties":{"broj":"13B","ulica":"Bilice II","cestica":"191/2"},"geometry":{"type":"Point","coordinates":[16.492906,43.527933]}},{"type":"Feature","properties":{"broj":"22","ulica":"PUT MOSTINA","cestica":"648"},"geometry":{"type":"Point","coordinates":[16.48944,43.523885]}},{"type":"Feature","properties":{"broj":"118","ulica":"Dračevac","cestica":"3116"},"geometry":{"type":"Point","coordinates":[16.505425,43.521593]}},{"type":"Feature","properties":{"broj":"14M","ulica":"Dračevac","cestica":"404/9"},"geometry":{"type":"Point","coordinates":[16.502,43.524875]}},{"type":"Feature","properties":{"broj":"17","ulica":"Bilice II","cestica":"236/2"},"geometry":{"type":"Point","coordinates":[16.493888,43.528072]}},{"type":"Feature","properties":{"broj":"16B","ulica":"Bilice II","cestica":"523"},"geometry":{"type":"Point","coordinates":[16.493173,43.525975]}},{"type":"Feature","properties":{"broj":"44","ulica":"Bilice II","cestica":"453/5"},"geometry":{"type":"Point","coordinates":[16.495116,43.525045]}},{"type":"Feature","properties":{"broj":"21G","ulica":"Bilice II","cestica":"213/1"},"geometry":{"type":"Point","coordinates":[16.490812,43.528971]}},{"type":"Feature","properties":{"broj":"2","ulica":"Karepovac","cestica":"483/1"},"geometry":{"type":"Point","coordinates":[16.49714,43.522392]}},{"type":"Feature","properties":{"broj":"32","ulica":"Bilice II","cestica":"529"},"geometry":{"type":"Point","coordinates":[16.493779,43.525983]}},{"type":"Feature","properties":{"broj":"21C","ulica":"Dračevac","cestica":"294/7"},"geometry":{"type":"Point","coordinates":[16.503828,43.52644]}},{"type":"Feature","properties":{"broj":"14L/1","ulica":"Dračevac","cestica":"389"},"geometry":{"type":"Point","coordinates":[16.501974,43.524432]}},{"type":"Feature","properties":{"broj":"32","ulica":"Dračevac","cestica":"369/3"},"geometry":{"type":"Point","coordinates":[16.503409,43.525864]}},{"type":"Feature","properties":{"broj":"18C","ulica":"Dračevac","cestica":"417/1"},"geometry":{"type":"Point","coordinates":[16.502827,43.526254]}},{"type":"Feature","properties":{"broj":"12A","ulica":"Bilice II","cestica":"571/1"},"geometry":{"type":"Point","coordinates":[16.490693,43.525553]}},{"type":"Feature","properties":{"broj":"14N","ulica":"Dračevac","cestica":"406/5"},"geometry":{"type":"Point","coordinates":[16.502263,43.524456]}},{"type":"Feature","properties":{"broj":"6B","ulica":"Dračevac","cestica":"287/2"},"geometry":{"type":"Point","coordinates":[16.502826,43.527753]}},{"type":"Feature","properties":{"broj":"80B","ulica":"Dračevac","cestica":"365/3"},"geometry":{"type":"Point","coordinates":[16.505706,43.524171]}},{"type":"Feature","properties":{"broj":"94A","ulica":"Dračevac","cestica":"358"},"geometry":{"type":"Point","coordinates":[16.504942,43.523867]}},{"type":"Feature","properties":{"broj":"54B","ulica":"Dračevac","cestica":"367/1"},"geometry":{"type":"Point","coordinates":[16.5045,43.525126]}},{"type":"Feature","properties":{"broj":"74","ulica":"Dračevac","cestica":"365/1"},"geometry":{"type":"Point","coordinates":[16.505492,43.524614]}},{"type":"Feature","properties":{"broj":"30","ulica":"Bilice II","cestica":"533/1"},"geometry":{"type":"Point","coordinates":[16.494234,43.526786]}},{"type":"Feature","properties":{"broj":"63","ulica":"Dračevac","cestica":"314/1"},"geometry":{"type":"Point","coordinates":[16.506012,43.524561]}},{"type":"Feature","properties":{"broj":"46A","ulica":"Bilice II","cestica":"502"},"geometry":{"type":"Point","coordinates":[16.496172,43.524548]}},{"type":"Feature","properties":{"broj":"64A","ulica":"Dračevac","cestica":"315/8"},"geometry":{"type":"Point","coordinates":[16.506285,43.525349]}},{"type":"Feature","properties":{"broj":"28","ulica":"Karepovac","cestica":"3130"},"geometry":{"type":"Point","coordinates":[16.505046,43.51998]}},{"type":"Feature","properties":{"broj":"75","ulica":"Dračevac","cestica":"343/3"},"geometry":{"type":"Point","coordinates":[16.506046,43.523036]}},{"type":"Feature","properties":{"broj":"68C","ulica":"Dračevac","cestica":"375/1"},"geometry":{"type":"Point","coordinates":[16.503464,43.524318]}},{"type":"Feature","properties":{"broj":"6","ulica":"Bilice II","cestica":"548"},"geometry":{"type":"Point","coordinates":[16.491833,43.526028]}},{"type":"Feature","properties":{"broj":"4","ulica":"Mostine","cestica":"594/1"},"geometry":{"type":"Point","coordinates":[16.492598,43.524561]}},{"type":"Feature","properties":{"broj":"76","ulica":"Dračevac","cestica":"365/1"},"geometry":{"type":"Point","coordinates":[16.505676,43.524748]}},{"type":"Feature","properties":{"broj":"19B","ulica":"Dračevac","cestica":"294/5"},"geometry":{"type":"Point","coordinates":[16.503724,43.526627]}},{"type":"Feature","properties":{"broj":"68","ulica":"Bilice II","cestica":"454"},"geometry":{"type":"Point","coordinates":[16.495212,43.525838]}},{"type":"Feature","properties":{"broj":"9","ulica":"Bilice II","cestica":"195"},"geometry":{"type":"Point","coordinates":[16.492679,43.527681]}},{"type":"Feature","properties":{"broj":"33","ulica":"Bilice II","cestica":"250/11"},"geometry":{"type":"Point","coordinates":[16.495319,43.526494]}},{"type":"Feature","properties":{"broj":"17","ulica":"Dračevac","cestica":"293/8"},"geometry":{"type":"Point","coordinates":[16.503149,43.526731]}},{"type":"Feature","properties":{"broj":"2C","ulica":"Dračevac","cestica":"275/18"},"geometry":{"type":"Point","coordinates":[16.498056,43.52831]}},{"type":"Feature","properties":{"broj":"10","ulica":"Mostine","cestica":"2907/6"},"geometry":{"type":"Point","coordinates":[16.491778,43.522952]}},{"type":"Feature","properties":{"broj":"34","ulica":"Bilice II","cestica":"453/1"},"geometry":{"type":"Point","coordinates":[16.494902,43.526175]}},{"type":"Feature","properties":{"broj":"18B","ulica":"Dračevac","cestica":"417/3"},"geometry":{"type":"Point","coordinates":[16.502669,43.526254]}},{"type":"Feature","properties":{"broj":"89/1","ulica":"Magistrala-Solin","cestica":"565"},"geometry":{"type":"Point","coordinates":[16.489689,43.52655]}},{"type":"Feature","properties":{"broj":"29","ulica":"Bilice II","cestica":"250/3"},"geometry":{"type":"Point","coordinates":[16.49531,43.527258]}},{"type":"Feature","properties":{"broj":"12B","ulica":"Dračevac","cestica":"380"},"geometry":{"type":"Point","coordinates":[16.502366,43.5235]}},{"type":"Feature","properties":{"broj":"68D","ulica":"Dračevac","cestica":"375/2"},"geometry":{"type":"Point","coordinates":[16.503852,43.524451]}},{"type":"Feature","properties":{"broj":"46C","ulica":"Bilice II","cestica":"471/1"},"geometry":{"type":"Point","coordinates":[16.496781,43.524369]}},{"type":"Feature","properties":{"broj":"3A","ulica":"Mostine","cestica":"511"},"geometry":{"type":"Point","coordinates":[16.492935,43.524975]}},{"type":"Feature","properties":{"broj":"72C","ulica":"Dračevac","cestica":"365/13"},"geometry":{"type":"Point","coordinates":[16.505303,43.524934]}},{"type":"Feature","properties":{"broj":"9B","ulica":"Dračevac","cestica":"290/4"},"geometry":{"type":"Point","coordinates":[16.504252,43.526757]}},{"type":"Feature","properties":{"broj":"10E","ulica":"Dračevac","cestica":"409/1"},"geometry":{"type":"Point","coordinates":[16.501648,43.52621]}},{"type":"Feature","properties":{"broj":"22","ulica":"Dračevac","cestica":"417/1"},"geometry":{"type":"Point","coordinates":[16.503158,43.526387]}},{"type":"Feature","properties":{"broj":"1B","ulica":"Dračevac","cestica":"280/4"},"geometry":{"type":"Point","coordinates":[16.49952,43.528145]}},{"type":"Feature","properties":{"broj":"3A","ulica":"Dračevac","cestica":"426"},"geometry":{"type":"Point","coordinates":[16.499547,43.526305]}},{"type":"Feature","properties":{"broj":"25K","ulica":"Bilice II","cestica":"248/3"},"geometry":{"type":"Point","coordinates":[16.494956,43.526665]}},{"type":"Feature","properties":{"broj":"14D","ulica":"Dračevac","cestica":"404/12"},"geometry":{"type":"Point","coordinates":[16.501165,43.525155]}},{"type":"Feature","properties":{"broj":"25B","ulica":"Bilice II","cestica":"241/1"},"geometry":{"type":"Point","coordinates":[16.494819,43.527462]}},{"type":"Feature","properties":{"broj":"7","ulica":"Dračevac","cestica":"289/2"},"geometry":{"type":"Point","coordinates":[16.504003,43.528077]}},{"type":"Feature","properties":{"broj":"25D","ulica":"Bilice II","cestica":"246/2"},"geometry":{"type":"Point","coordinates":[16.494439,43.527149]}},{"type":"Feature","properties":{"broj":"24","ulica":"Bilice II","cestica":"540/3"},"geometry":{"type":"Point","coordinates":[16.49249,43.526972]}},{"type":"Feature","properties":{"broj":"58","ulica":"Dračevac","cestica":"367/5"},"geometry":{"type":"Point","coordinates":[16.504898,43.525239]}},{"type":"Feature","properties":{"broj":"26","ulica":"Bilice II","cestica":"534/1"},"geometry":{"type":"Point","coordinates":[16.494065,43.527165]}},{"type":"Feature","properties":{"broj":"21E","ulica":"Bilice II","cestica":"220/2"},"geometry":{"type":"Point","coordinates":[16.491596,43.529097]}},{"type":"Feature","properties":{"broj":"6D","ulica":"Dračevac","cestica":"287/7"},"geometry":{"type":"Point","coordinates":[16.502981,43.5277]}},{"type":"Feature","properties":{"broj":"66A","ulica":"Dračevac","cestica":"367/1"},"geometry":{"type":"Point","coordinates":[16.504706,43.525063]}},{"type":"Feature","properties":{"broj":"15","ulica":"Bilice II","cestica":"198"},"geometry":{"type":"Point","coordinates":[16.493612,43.527854]}},{"type":"Feature","properties":{"broj":"64B","ulica":"Dračevac","cestica":"313/2"},"geometry":{"type":"Point","coordinates":[16.50585,43.52508]}},{"type":"Feature","properties":{"broj":"110","ulica":"Dračevac","cestica":"345"},"geometry":{"type":"Point","coordinates":[16.504563,43.522486]}},{"type":"Feature","properties":{"broj":"28C","ulica":"Dračevac","cestica":"375/1"},"geometry":{"type":"Point","coordinates":[16.503202,43.525473]}},{"type":"Feature","properties":{"broj":"16","ulica":"Bilice II","cestica":"521"},"geometry":{"type":"Point","coordinates":[16.492963,43.525581]}},{"type":"Feature","properties":{"broj":"14I","ulica":"Dračevac","cestica":"404/6"},"geometry":{"type":"Point","coordinates":[16.501081,43.524805]}},{"type":"Feature","properties":{"broj":"66B","ulica":"Dračevac","cestica":"367/1"},"geometry":{"type":"Point","coordinates":[16.504145,43.525104]}},{"type":"Feature","properties":{"broj":"21","ulica":"Bilice II","cestica":"273/3"},"geometry":{"type":"Point","coordinates":[16.494549,43.529178]}},{"type":"Feature","properties":{"broj":"18A","ulica":"Bilice II","cestica":"524"},"geometry":{"type":"Point","coordinates":[16.492773,43.526372]}},{"type":"Feature","properties":{"broj":"18D","ulica":"Dračevac","cestica":"417/1"},"geometry":{"type":"Point","coordinates":[16.502931,43.526248]}},{"type":"Feature","properties":{"broj":"8C","ulica":"Dračevac","cestica":"411"},"geometry":{"type":"Point","coordinates":[16.502017,43.526256]}},{"type":"Feature","properties":{"broj":"4","ulica":"Bilice I","cestica":"179"},"geometry":{"type":"Point","coordinates":[16.489547,43.527517]}},{"type":"Feature","properties":{"broj":"21D","ulica":"Bilice II","cestica":"219"},"geometry":{"type":"Point","coordinates":[16.492256,43.52916]}},{"type":"Feature","properties":{"broj":"1","ulica":"Karepovac","cestica":"483/1"},"geometry":{"type":"Point","coordinates":[16.496871,43.522424]}},{"type":"Feature","properties":{"broj":"42B","ulica":"Dračevac","cestica":"369/9"},"geometry":{"type":"Point","coordinates":[16.503618,43.5254]}},{"type":"Feature","properties":{"broj":"14E","ulica":"Dračevac","cestica":"404/15"},"geometry":{"type":"Point","coordinates":[16.50134,43.525022]}},{"type":"Feature","properties":{"broj":"46","ulica":"Bilice II","cestica":"502"},"geometry":{"type":"Point","coordinates":[16.49583,43.524715]}},{"type":"Feature","properties":{"broj":"68B","ulica":"Dračevac","cestica":"375/1"},"geometry":{"type":"Point","coordinates":[16.503513,43.524495]}},{"type":"Feature","properties":{"broj":"7A","ulica":"Mostine","cestica":"613/2"},"geometry":{"type":"Point","coordinates":[16.495219,43.523618]}},{"type":"Feature","properties":{"broj":"27","ulica":"Bilice II","cestica":"250/4"},"geometry":{"type":"Point","coordinates":[16.495073,43.527254]}},{"type":"Feature","properties":{"broj":"2","ulica":"Bilice II","cestica":"569/5"},"geometry":{"type":"Point","coordinates":[16.491035,43.526434]}},{"type":"Feature","properties":{"broj":"28","ulica":"Dračevac","cestica":"414"},"geometry":{"type":"Point","coordinates":[16.503011,43.525739]}},{"type":"Feature","properties":{"broj":"72D","ulica":"Dračevac","cestica":"365/11"},"geometry":{"type":"Point","coordinates":[16.504975,43.524643]}},{"type":"Feature","properties":{"broj":"8A","ulica":"Dračevac","cestica":"412"},"geometry":{"type":"Point","coordinates":[16.501618,43.526627]}},{"type":"Feature","properties":{"broj":"26B","ulica":"Dračevac","cestica":"414"},"geometry":{"type":"Point","coordinates":[16.502699,43.525688]}},{"type":"Feature","properties":{"broj":"54","ulica":"Bilice II","cestica":"351"},"geometry":{"type":"Point","coordinates":[16.502717,43.523256]}},{"type":"Feature","properties":{"broj":"25A","ulica":"Bilice II","cestica":"245"},"geometry":{"type":"Point","coordinates":[16.494476,43.5274]}},{"type":"Feature","properties":{"broj":"4A","ulica":"Dračevac","cestica":"420/10"},"geometry":{"type":"Point","coordinates":[16.501049,43.527043]}},{"type":"Feature","properties":{"broj":"90C","ulica":"Dračevac","cestica":"361/3"},"geometry":{"type":"Point","coordinates":[16.504296,43.523991]}},{"type":"Feature","properties":{"broj":"23B","ulica":"Dračevac","cestica":"295/1"},"geometry":{"type":"Point","coordinates":[16.504184,43.526149]}},{"type":"Feature","properties":{"broj":"1D","ulica":"Dračevac","cestica":"280/5"},"geometry":{"type":"Point","coordinates":[16.499705,43.528388]}},{"type":"Feature","properties":{"broj":"6","ulica":"Bilice I","cestica":"180/1"},"geometry":{"type":"Point","coordinates":[16.489722,43.527533]}},{"type":"Feature","properties":{"broj":"72A","ulica":"Dračevac","cestica":"365/11"},"geometry":{"type":"Point","coordinates":[16.504977,43.524704]}},{"type":"Feature","properties":{"broj":"12","ulica":"Dračevac","cestica":"360/3"},"geometry":{"type":"Point","coordinates":[16.502869,43.523645]}},{"type":"Feature","properties":{"broj":"49","ulica":"Dračevac","cestica":"308"},"geometry":{"type":"Point","coordinates":[16.50529,43.525149]}},{"type":"Feature","properties":{"broj":"94","ulica":"Dračevac","cestica":"358"},"geometry":{"type":"Point","coordinates":[16.505084,43.524017]}},{"type":"Feature","properties":{"broj":"24","ulica":"PUT MOSTINA","cestica":"3022/1"},"geometry":{"type":"Point","coordinates":[16.490573,43.523512]}},{"type":"Feature","properties":{"broj":"27","ulica":"Dračevac","cestica":"294/12;295/9"},"geometry":{"type":"Point","coordinates":[16.503726,43.525973]}},{"type":"Feature","properties":{"broj":"72","ulica":"Dračevac","cestica":"365/17"},"geometry":{"type":"Point","coordinates":[16.50472,43.524824]}},{"type":"Feature","properties":{"broj":"3","ulica":"Dračevac","cestica":"420/10"},"geometry":{"type":"Point","coordinates":[16.500657,43.526981]}},{"type":"Feature","properties":{"broj":"58","ulica":"Magistrala-Solin","cestica":"699/1"},"geometry":{"type":"Point","coordinates":[16.489259,43.524887]}},{"type":"Feature","properties":{"broj":"40","ulica":"PUT MOSTINA","cestica":"2907/2"},"geometry":{"type":"Point","coordinates":[16.491908,43.523053]}},{"type":"Feature","properties":{"broj":"33","ulica":"Dračevac","cestica":"296/2"},"geometry":{"type":"Point","coordinates":[16.504476,43.52619]}},{"type":"Feature","properties":{"broj":"100","ulica":"Dračevac","cestica":"357"},"geometry":{"type":"Point","coordinates":[16.505699,43.523338]}},{"type":"Feature","properties":{"broj":"66D","ulica":"Dračevac","cestica":"375/1"},"geometry":{"type":"Point","coordinates":[16.503177,43.525323]}},{"type":"Feature","properties":{"broj":"58A","ulica":"Magistrala-Solin","cestica":"691"},"geometry":{"type":"Point","coordinates":[16.489465,43.52485]}},{"type":"Feature","properties":{"broj":"25","ulica":"Bilice II","cestica":"245"},"geometry":{"type":"Point","coordinates":[16.49426,43.52743]}},{"type":"Feature","properties":{"broj":"31","ulica":"Dračevac","cestica":"296/2"},"geometry":{"type":"Point","coordinates":[16.504452,43.526107]}},{"type":"Feature","properties":{"broj":"16B","ulica":"Dračevac","cestica":"417/1"},"geometry":{"type":"Point","coordinates":[16.5025,43.526572]}},{"type":"Feature","properties":{"broj":"42A","ulica":"Bilice II","cestica":"453/5"},"geometry":{"type":"Point","coordinates":[16.495111,43.525111]}},{"type":"Feature","properties":{"broj":"14O","ulica":"Dračevac","cestica":"406/4"},"geometry":{"type":"Point","coordinates":[16.502519,43.524425]}},{"type":"Feature","properties":{"broj":"84","ulica":"Dračevac","cestica":"365/1"},"geometry":{"type":"Point","coordinates":[16.50469,43.524414]}},{"type":"Feature","properties":{"broj":"4/1","ulica":"Bilice I","cestica":"178"},"geometry":{"type":"Point","coordinates":[16.489539,43.527604]}},{"type":"Feature","properties":{"broj":"80A","ulica":"Dračevac","cestica":"365/2"},"geometry":{"type":"Point","coordinates":[16.505865,43.524182]}},{"type":"Feature","properties":{"broj":"14K","ulica":"Dračevac","cestica":"404/10"},"geometry":{"type":"Point","coordinates":[16.501543,43.524819]}},{"type":"Feature","properties":{"broj":"25C","ulica":"Bilice II","cestica":"246/3"},"geometry":{"type":"Point","coordinates":[16.494568,43.527166]}},{"type":"Feature","properties":{"broj":"61","ulica":"Dračevac","cestica":"314/2"},"geometry":{"type":"Point","coordinates":[16.505898,43.524817]}},{"type":"Feature","properties":{"broj":"12C","ulica":"Dračevac","cestica":"381/1"},"geometry":{"type":"Point","coordinates":[16.502302,43.523279]}},{"type":"Feature","properties":{"broj":"4","ulica":"Dračevac","cestica":"420/10"},"geometry":{"type":"Point","coordinates":[16.501162,43.527183]}},{"type":"Feature","properties":{"broj":"29","ulica":"Dračevac","cestica":"296/1"},"geometry":{"type":"Point","coordinates":[16.504293,43.525746]}},{"type":"Feature","properties":{"broj":"54","ulica":"Dračevac","cestica":"367/4"},"geometry":{"type":"Point","coordinates":[16.504413,43.525416]}},{"type":"Feature","properties":{"broj":"67","ulica":"Dračevac","cestica":"340"},"geometry":{"type":"Point","coordinates":[16.506076,43.524355]}},{"type":"Feature","properties":{"broj":"6","ulica":"Dračevac","cestica":"287/3"},"geometry":{"type":"Point","coordinates":[16.502413,43.527734]}},{"type":"Feature","properties":{"broj":"1","ulica":"Mostine","cestica":"576"},"geometry":{"type":"Point","coordinates":[16.49042,43.52454]}},{"type":"Feature","properties":{"broj":"2D","ulica":"Dračevac","cestica":"275/3"},"geometry":{"type":"Point","coordinates":[16.496268,43.528748]}},{"type":"Feature","properties":{"broj":"13","ulica":"Mostine","cestica":"3013"},"geometry":{"type":"Point","coordinates":[16.493818,43.522575]}},{"type":"Feature","properties":{"broj":"27B","ulica":"Bilice II","cestica":"250/5"},"geometry":{"type":"Point","coordinates":[16.495098,43.527058]}},{"type":"Feature","properties":{"broj":"26","ulica":"Dračevac","cestica":"414"},"geometry":{"type":"Point","coordinates":[16.502811,43.526023]}},{"type":"Feature","properties":{"broj":"7","ulica":"Bilice II","cestica":"191/1"},"geometry":{"type":"Point","coordinates":[16.492651,43.527815]}},{"type":"Feature","properties":{"broj":"28","ulica":"PUT MOSTINA","cestica":"655"},"geometry":{"type":"Point","coordinates":[16.490222,43.523078]}},{"type":"Feature","properties":{"broj":"19A","ulica":"Dračevac","cestica":"294/4"},"geometry":{"type":"Point","coordinates":[16.50375,43.526728]}},{"type":"Feature","properties":{"broj":"16A","ulica":"Bilice II","cestica":"522"},"geometry":{"type":"Point","coordinates":[16.492687,43.525795]}},{"type":"Feature","properties":{"broj":"80","ulica":"Dračevac","cestica":"365/9"},"geometry":{"type":"Point","coordinates":[16.505825,43.524387]}},{"type":"Feature","properties":{"broj":"21","ulica":"Dračevac","cestica":"295/4"},"geometry":{"type":"Point","coordinates":[16.504237,43.526509]}},{"type":"Feature","properties":{"broj":"114","ulica":"Dračevac","cestica":"3113/1"},"geometry":{"type":"Point","coordinates":[16.504591,43.52218]}},{"type":"Feature","properties":{"broj":"1C","ulica":"Dračevac","cestica":"280/6"},"geometry":{"type":"Point","coordinates":[16.499765,43.528179]}}]}