{"type":"FeatureCollection","name":"ST_KulturnoDobro","crs":{"type":"name","properties":{"name":"urn:ogc:def:crs:OGC:1.3:CRS84"}},"xy_coordinate_resolution":0.000001,"features":[{"type":"Feature","properties":{"naziv":"Dioklecijanov vodovod u predjelu Mostine","vrsta":"Pojedinačna kulturna dobra","status":"Zaštićeno kulturno dobro","opis":"Dioklecijanov vodovod građen je u isto vrijeme kao i Palača, za potrebe opskrbe vodom carske rezidencije iz rijeke Jadro. Najvećim dijelom ide pod zemljom, osim na 2 mjesta gdje je nad zemljom sagrađena konstrukcija akvedukta s 28 lukova u predjelu M"},"geometry":{"type":"Polygon","coordinates":[[[16.487756,43.523792],[16.487775,43.523788],[16.487789,43.52381],[16.487938,43.523779],[16.488057,43.523753],[16.488165,43.523761],[16.488256,43.52375],[16.488275,43.523748],[16.488282,43.523747],[16.488286,43.523747],[16.488293,43.523746],[16.488389,43.523734],[16.488402,43.523733],[16.488733,43.523723],[16.488774,43.52368],[16.488906,43.523617],[16.489023,43.523596],[16.489257,43.523614],[16.489285,43.523629],[16.489524,43.523605],[16.48965,43.523572],[16.489578,43.52346],[16.48957,43.52344],[16.489548,43.523381],[16.489524,43.523225],[16.489511,43.523188],[16.489504,43.523157],[16.489505,43.523125],[16.490049,43.523051],[16.490063,43.523048],[16.490073,43.523044],[16.490077,43.52302],[16.490345,43.522967],[16.490346,43.522973],[16.49035,43.52299],[16.490359,43.523024],[16.490396,43.523014],[16.490591,43.522963],[16.490669,43.522942],[16.490683,43.522939],[16.490771,43.522916],[16.490845,43.522896],[16.49085,43.522917],[16.490907,43.523174],[16.490941,43.523223],[16.491052,43.523377],[16.491087,43.523425],[16.491088,43.523446],[16.491081,43.52346],[16.491075,43.52347],[16.491031,43.523497],[16.491051,43.523509],[16.491136,43.523468],[16.491178,43.523461],[16.491323,43.523436],[16.491384,43.523427],[16.49162,43.523339],[16.491632,43.523348],[16.49166,43.523339],[16.491797,43.523297],[16.49216,43.523887],[16.492166,43.523898],[16.492005,43.523928],[16.491955,43.523937],[16.49184,43.523957],[16.491725,43.523979],[16.491645,43.523982],[16.491585,43.523983],[16.49162,43.524125],[16.491639,43.524205],[16.491654,43.524263],[16.491688,43.524404],[16.491699,43.524446],[16.491633,43.524461],[16.491525,43.524485],[16.491318,43.524526],[16.491233,43.524539],[16.491216,43.524585],[16.491226,43.524659],[16.491239,43.524872],[16.491205,43.524867],[16.491172,43.524862],[16.490951,43.524827],[16.490954,43.524731],[16.490936,43.52473],[16.490785,43.524723],[16.490773,43.524723],[16.490746,43.524721],[16.490731,43.524721],[16.490704,43.52473],[16.490666,43.524743],[16.490658,43.524746],[16.490592,43.524769],[16.49059,43.52479],[16.490313,43.524759],[16.490256,43.524809],[16.490096,43.524966],[16.489932,43.524946],[16.489793,43.524936],[16.48973,43.524936],[16.489812,43.525123],[16.489814,43.525135],[16.489775,43.525138],[16.489631,43.525165],[16.48949,43.525192],[16.489312,43.525079],[16.489241,43.525004],[16.489227,43.524993],[16.489205,43.524987],[16.489184,43.524974],[16.489143,43.524936],[16.489024,43.524882],[16.488982,43.524851],[16.488805,43.52472],[16.488712,43.524649],[16.488594,43.52456],[16.48829,43.52433],[16.48828,43.524323],[16.488277,43.524321],[16.488268,43.524314],[16.488252,43.524302],[16.488242,43.524295],[16.488235,43.524286],[16.488204,43.524248],[16.488191,43.524227],[16.488179,43.524213],[16.488128,43.524176],[16.487945,43.524044],[16.487817,43.523938],[16.487797,43.523868],[16.487756,43.523792]]]}},{"type":"Feature","properties":{"naziv":"Dioklecijanov vodovod","vrsta":"Arheološka kulturna dobra","datacija":"3. st. n.e. - 4. st. n.e.","status":"Zaštićeno kulturno dobro","opis":"Dioklecijanov vodovod gravitacijski je kanal, dug 9 kilometara, koji se proteže od izvora rijeke Jadro u Solinu do Dioklecijanove palače u Splitu. Građen je istovremeno s Palačom ili ubrzo nakon nje, krajem 3. i početkom 4. stoljeća, te je jedan od"},"geometry":{"type":"Polygon","coordinates":[[[16.48751187833159,43.52342127122189],[16.48771652193985,43.52331846154561],[16.487955,43.5234],[16.488202,43.523434],[16.488502,43.523497],[16.488821,43.523532],[16.49007,43.524387],[16.491697,43.525501],[16.491981,43.525852],[16.492447,43.526391],[16.493168,43.52719],[16.493567,43.527512],[16.494128,43.527834],[16.494228,43.528017],[16.494899,43.529324],[16.495001,43.529709],[16.49515098606016,43.53029038926413],[16.494955957776938,43.53029451772955],[16.494873,43.529957],[16.494743,43.529461],[16.493953,43.527983],[16.493397,43.527646],[16.492996,43.527319],[16.49251,43.526819],[16.492275,43.526567],[16.491985,43.526201],[16.491552,43.525671],[16.491272,43.525455],[16.490997,43.525261],[16.490634,43.52503],[16.490569,43.524978],[16.48988,43.524495],[16.488709,43.523708],[16.488409,43.523669],[16.488139,43.523613],[16.487869,43.523568],[16.487581,43.523472],[16.48751187833159,43.52342127122189]]]}},{"type":"Feature","properties":{"naziv":"Dioklecijanov vodovod","vrsta":"Arheološka kulturna dobra","datacija":"3. st. n.e. - 4. st. n.e.","status":"Zaštićeno kulturno dobro","opis":"Dioklecijanov vodovod gravitacijski je kanal, dug 9 kilometara, koji se proteže od izvora rijeke Jadro u Solinu do Dioklecijanove palače u Splitu. Građen je istovremeno s Palačom ili ubrzo nakon nje, krajem 3. i početkom 4. stoljeća, te je jedan od"},"geometry":{"type":"Polygon","coordinates":[[[16.495085,43.528197],[16.494999,43.528216],[16.494984,43.528219],[16.494699,43.5283],[16.494622,43.528322],[16.494487,43.528365],[16.494441,43.52838],[16.494551,43.528584],[16.494854,43.529194],[16.495131,43.529149],[16.495155,43.529131],[16.495178,43.529113],[16.495259,43.529063],[16.495339,43.529012],[16.49549,43.528867],[16.495542,43.528828],[16.495641,43.528764],[16.495789,43.528678],[16.495854,43.528651],[16.495997,43.528581],[16.496419,43.528398],[16.49644,43.528391],[16.496507,43.528367],[16.496351,43.52823],[16.496077,43.528026],[16.495964,43.527942],[16.495056,43.528133],[16.495085,43.528197]]]}},{"type":"Feature","properties":{"naziv":"Dioklecijanov vodovod","vrsta":"Arheološka kulturna dobra","datacija":"3. st. n.e. - 4. st. n.e.","status":"Zaštićeno kulturno dobro","opis":"Dioklecijanov vodovod gravitacijski je kanal, dug 9 kilometara, koji se proteže od izvora rijeke Jadro u Solinu do Dioklecijanove palače u Splitu. Građen je istovremeno s Palačom ili ubrzo nakon nje, krajem 3. i početkom 4. stoljeća, te je jedan od"},"geometry":{"type":"Polygon","coordinates":[[[16.493986,43.528571],[16.493973,43.528549],[16.493933,43.528562],[16.493876,43.528576],[16.493654,43.52863],[16.493651,43.528714],[16.49361,43.528686],[16.493593,43.5287],[16.493634,43.528736],[16.493601,43.528741],[16.493569,43.528868],[16.493555,43.52896],[16.493547,43.529025],[16.493544,43.529105],[16.49357,43.529284],[16.493658,43.529281],[16.494179,43.529246],[16.494493,43.529217],[16.494578,43.529209],[16.494188,43.528469],[16.493982,43.528545],[16.493986,43.528571]]]}},{"type":"Feature","properties":{"naziv":"Dioklecijanov vodovod","vrsta":"Arheološka kulturna dobra","datacija":"3. st. n.e. - 4. st. n.e.","status":"Zaštićeno kulturno dobro","opis":"Dioklecijanov vodovod gravitacijski je kanal, dug 9 kilometara, koji se proteže od izvora rijeke Jadro u Solinu do Dioklecijanove palače u Splitu. Građen je istovremeno s Palačom ili ubrzo nakon nje, krajem 3. i početkom 4. stoljeća, te je jedan od"},"geometry":{"type":"Polygon","coordinates":[[[16.495085,43.528197],[16.494999,43.528216],[16.494984,43.528219],[16.494699,43.5283],[16.494622,43.528322],[16.494487,43.528365],[16.494441,43.52838],[16.494551,43.528584],[16.494854,43.529194],[16.495131,43.529149],[16.495155,43.529131],[16.495178,43.529113],[16.495259,43.529063],[16.495339,43.529012],[16.49549,43.528867],[16.495542,43.528828],[16.495641,43.528764],[16.495789,43.528678],[16.495854,43.528651],[16.495997,43.528581],[16.496419,43.528398],[16.49644,43.528391],[16.496507,43.528367],[16.496351,43.52823],[16.496077,43.528026],[16.495964,43.527942],[16.495056,43.528133],[16.495085,43.528197]]]}},{"type":"Feature","properties":{"naziv":"Dioklecijanov vodovod","vrsta":"Arheološka kulturna dobra","datacija":"3. st. n.e. - 4. st. n.e.","status":"Zaštićeno kulturno dobro","opis":"Dioklecijanov vodovod gravitacijski je kanal, dug 9 kilometara, koji se proteže od izvora rijeke Jadro u Solinu do Dioklecijanove palače u Splitu. Građen je istovremeno s Palačom ili ubrzo nakon nje, krajem 3. i početkom 4. stoljeća, te je jedan od"},"geometry":{"type":"Polygon","coordinates":[[[16.493986,43.528571],[16.493973,43.528549],[16.493933,43.528562],[16.493876,43.528576],[16.493654,43.52863],[16.493651,43.528714],[16.49361,43.528686],[16.493593,43.5287],[16.493634,43.528736],[16.493601,43.528741],[16.493569,43.528868],[16.493555,43.52896],[16.493547,43.529025],[16.493544,43.529105],[16.49357,43.529284],[16.493658,43.529281],[16.494179,43.529246],[16.494493,43.529217],[16.494578,43.529209],[16.494188,43.528469],[16.493982,43.528545],[16.493986,43.528571]]]}},{"type":"Feature","properties":{"naziv":"Dioklecijanov vodovod","vrsta":"Arheološka kulturna dobra","datacija":"3. st. n.e. - 4. st. n.e.","status":"Zaštićeno kulturno dobro","opis":"Dioklecijanov vodovod gravitacijski je kanal, dug 9 kilometara, koji se proteže od izvora rijeke Jadro u Solinu do Dioklecijanove palače u Splitu. Građen je istovremeno s Palačom ili ubrzo nakon nje, krajem 3. i početkom 4. stoljeća, te je jedan od"},"geometry":{"type":"Polygon","coordinates":[[[16.48751187833159,43.52342127122189],[16.48771652193985,43.52331846154561],[16.487955,43.5234],[16.488202,43.523434],[16.488502,43.523497],[16.488821,43.523532],[16.49007,43.524387],[16.491697,43.525501],[16.491981,43.525852],[16.492447,43.526391],[16.493168,43.52719],[16.493567,43.527512],[16.494128,43.527834],[16.494228,43.528017],[16.494899,43.529324],[16.495001,43.529709],[16.49515098606016,43.53029038926413],[16.494955957776938,43.53029451772955],[16.494873,43.529957],[16.494743,43.529461],[16.493953,43.527983],[16.493397,43.527646],[16.492996,43.527319],[16.49251,43.526819],[16.492275,43.526567],[16.491985,43.526201],[16.491552,43.525671],[16.491272,43.525455],[16.490997,43.525261],[16.490634,43.52503],[16.490569,43.524978],[16.48988,43.524495],[16.488709,43.523708],[16.488409,43.523669],[16.488139,43.523613],[16.487869,43.523568],[16.487581,43.523472],[16.48751187833159,43.52342127122189]]]}}]}