{"type":"FeatureCollection","name":"GradjJavneNamjene","crs":{"type":"name","properties":{"name":"urn:ogc:def:crs:OGC:1.3:CRS84"}},"xy_coordinate_resolution":0.000001,"features":[{"type":"Feature","properties":{"lokacija":"Dračevac okretište","vrsta":"Nadstrešnice na stajalištima javnog prometa","vlasnik":"Grad Split"},"geometry":{"type":"Point","coordinates":[16.501709,43.527283]}},{"type":"Feature","properties":{"lokacija":"Smokovik","vrsta":"Nadstrešnice na stajalištima javnog prometa","vlasnik":"Grad Split"},"geometry":{"type":"Point","coordinates":[16.487671,43.523926]}}]}