{"type":"FeatureCollection","name":"Nogostupi","crs":{"type":"name","properties":{"name":"urn:ogc:def:crs:OGC:1.3:CRS84"}},"xy_coordinate_resolution":0.000001,"features":[{"type":"Feature","properties":{"sirina":1.2,"duljina":65.9},"geometry":{"type":"LineString","coordinates":[[16.501441,43.526865],[16.501461,43.52687],[16.501489,43.526881],[16.501504,43.526889],[16.501512,43.526899],[16.501516,43.526908],[16.501517,43.526917],[16.501518,43.526936],[16.50152,43.526956],[16.501526,43.526976],[16.501548,43.527013],[16.501562,43.527031],[16.50158,43.527049],[16.501605,43.52707],[16.501619,43.527079],[16.501636,43.527088],[16.501652,43.527096],[16.501679,43.527105],[16.501702,43.527114],[16.501756,43.527131],[16.501804,43.527147],[16.50184,43.527158],[16.50187,43.527171],[16.501896,43.527184],[16.501921,43.527199],[16.50195,43.527224],[16.501968,43.52724],[16.501984,43.527259]]}},{"type":"Feature","properties":{"sirina":1.7,"duljina":255.5},"geometry":{"type":"LineString","coordinates":[[16.502065,43.527469],[16.502244,43.527483],[16.502399,43.527496],[16.502551,43.527507],[16.502647,43.527511],[16.50273,43.527515],[16.502811,43.527514],[16.502907,43.527504],[16.502977,43.527495],[16.503071,43.527477],[16.503212,43.527444],[16.503316,43.52741],[16.503383,43.527385],[16.503493,43.527343],[16.503536,43.527326],[16.503594,43.527308],[16.503653,43.527288],[16.503722,43.527269],[16.503761,43.527259],[16.503796,43.527252],[16.50384,43.527247],[16.503894,43.52724],[16.50398,43.527234],[16.504083,43.527233],[16.504176,43.527235],[16.504248,43.527242],[16.504339,43.527264],[16.504404,43.527284],[16.504523,43.527333],[16.504587,43.527369],[16.504644,43.527408],[16.504684,43.527442],[16.50472,43.52748],[16.504743,43.527513],[16.504761,43.527542],[16.504776,43.527569],[16.504785,43.527593],[16.504792,43.527613],[16.504798,43.527642],[16.504796,43.527668],[16.504787,43.527697]]}},{"type":"Feature","properties":{"sirina":2,"duljina":62},"geometry":{"type":"LineString","coordinates":[[16.505035,43.527661],[16.505099,43.527668],[16.505148,43.527668],[16.505222,43.527655],[16.505328,43.527633],[16.505455,43.527602],[16.505537,43.527581],[16.505651,43.527548],[16.505743,43.527518],[16.505764,43.527511]]}},{"type":"Feature","properties":{"sirina":1.2,"duljina":14.9},"geometry":{"type":"LineString","coordinates":[[16.500859,43.527361],[16.500817,43.527345],[16.500757,43.527318],[16.500727,43.527302],[16.500704,43.527288]]}},{"type":"Feature","properties":{"sirina":1.5,"duljina":78.7},"geometry":{"type":"LineString","coordinates":[[16.50002,43.526069],[16.499301,43.526062],[16.499046,43.526058]]}},{"type":"Feature","properties":{"sirina":1.8,"duljina":83.8},"geometry":{"type":"LineString","coordinates":[[16.501964,43.527464],[16.501915,43.527462],[16.501813,43.527462],[16.501697,43.527465],[16.501557,43.527469],[16.501427,43.527473],[16.501342,43.527475],[16.501283,43.527474],[16.501193,43.527478],[16.501127,43.527479],[16.501093,43.527487],[16.501055,43.527503],[16.501011,43.527527],[16.500962,43.527558]]}},{"type":"Feature","properties":{"sirina":1.8,"duljina":59.6},"geometry":{"type":"LineString","coordinates":[[16.500031,43.526261],[16.500019,43.526233],[16.499995,43.526204],[16.499958,43.526175],[16.499911,43.526149],[16.49987,43.526137],[16.499829,43.52613],[16.49979,43.526126],[16.499702,43.526124],[16.499492,43.526121],[16.499378,43.52612]]}},{"type":"Feature","properties":{"sirina":2.2,"duljina":81.4},"geometry":{"type":"LineString","coordinates":[[16.504787,43.527697],[16.504751,43.527738],[16.504723,43.527765],[16.50469,43.527787],[16.504662,43.527801],[16.504626,43.527814],[16.50456,43.527837],[16.504512,43.527859],[16.504476,43.527879],[16.504428,43.527912],[16.504382,43.52795],[16.504352,43.527975],[16.504316,43.528013],[16.504284,43.528053],[16.504267,43.52808],[16.504253,43.528104],[16.50424,43.52813],[16.504218,43.528174],[16.504194,43.528193],[16.504169,43.528202],[16.504143,43.528211],[16.504123,43.528213]]}},{"type":"Feature","properties":{"sirina":1.5,"duljina":41.7},"geometry":{"type":"LineString","coordinates":[[16.497398,43.526823],[16.497494,43.526824],[16.497915,43.526828]]}},{"type":"Feature","properties":{"sirina":1.2,"duljina":66.2},"geometry":{"type":"LineString","coordinates":[[16.501994,43.527354],[16.501977,43.527373],[16.501956,43.527388],[16.501922,43.5274],[16.501903,43.527403],[16.501711,43.527406],[16.50156,43.52741],[16.501444,43.527413],[16.501369,43.527415],[16.501324,43.527415],[16.501302,43.527413],[16.501286,43.527407],[16.501279,43.527397],[16.501275,43.52739],[16.501275,43.527378],[16.501277,43.527367],[16.501283,43.527361],[16.501293,43.527354]]}},{"type":"Feature","properties":{"sirina":2.2,"duljina":76.4},"geometry":{"type":"LineString","coordinates":[[16.502073,43.527061],[16.502049,43.527072],[16.502026,43.527087],[16.502013,43.527099],[16.502003,43.527111],[16.501997,43.527125],[16.501999,43.527139],[16.502004,43.527149],[16.502027,43.527173],[16.502062,43.527212],[16.502075,43.527225],[16.502086,43.527242],[16.502093,43.527258],[16.502099,43.527278],[16.502118,43.527346],[16.502127,43.527371],[16.502141,43.527387],[16.50216,43.527402],[16.502183,43.527414],[16.502208,43.527421],[16.502233,43.527425],[16.502273,43.527427],[16.502327,43.527432],[16.502384,43.527436],[16.502462,43.527442],[16.502491,43.527444],[16.502507,43.527443],[16.50252,43.527437],[16.502531,43.527426],[16.502535,43.527416]]}},{"type":"Feature","properties":{"sirina":1,"duljina":70.2},"geometry":{"type":"LineString","coordinates":[[16.499303,43.526118],[16.499035,43.526114],[16.498879,43.526113],[16.498664,43.52611],[16.498553,43.526109],[16.498469,43.526107],[16.498436,43.526114]]}},{"type":"Feature","properties":{"sirina":1.6,"duljina":39.3},"geometry":{"type":"LineString","coordinates":[[16.497362,43.526538],[16.497338,43.526544],[16.497311,43.526561],[16.497297,43.526575],[16.497293,43.526595],[16.497292,43.52662],[16.497288,43.526743],[16.497302,43.526776],[16.497323,43.526799],[16.497344,43.52681],[16.497367,43.526819],[16.497398,43.526823]]}},{"type":"Feature","properties":{"sirina":2.3,"duljina":26.4},"geometry":{"type":"LineString","coordinates":[[16.487793,43.523971],[16.487904,43.524067],[16.488005,43.524152]]}},{"type":"Feature","properties":{"sirina":1.3,"duljina":19},"geometry":{"type":"LineString","coordinates":[[16.501723,43.527035],[16.501759,43.527048],[16.501795,43.527061],[16.50182,43.527067],[16.501837,43.527066],[16.501856,43.527058],[16.50187,43.52705],[16.501878,43.527042],[16.501884,43.527031],[16.501892,43.527015],[16.501896,43.527002]]}},{"type":"Feature","properties":{"sirina":3.7,"duljina":5.5},"geometry":{"type":"LineString","coordinates":[[16.487992,43.524164],[16.488038,43.5242]]}},{"type":"Feature","properties":{"sirina":2,"duljina":224.4},"geometry":{"type":"LineString","coordinates":[[16.502626,43.527441],[16.50265,43.52745],[16.502729,43.52745],[16.502792,43.527448],[16.502839,43.527445],[16.502904,43.527438],[16.502991,43.527424],[16.503069,43.527409],[16.50315,43.527391],[16.50325,43.527364],[16.503316,43.527342],[16.503365,43.527326],[16.503431,43.527302],[16.503507,43.527273],[16.503577,43.52725],[16.503618,43.527235],[16.503653,43.527224],[16.503686,43.527213],[16.503726,43.5272],[16.503761,43.52719],[16.503794,43.527183],[16.503848,43.527175],[16.503927,43.527166],[16.50398,43.527162],[16.50402,43.527161],[16.504075,43.527162],[16.504118,43.527163],[16.504172,43.527165],[16.50422,43.52717],[16.504252,43.527174],[16.50428,43.527179],[16.504305,43.527183],[16.504387,43.527202],[16.504432,43.527217],[16.504473,43.527232],[16.504512,43.527248],[16.504542,43.527263],[16.504602,43.527296],[16.504647,43.527325],[16.504684,43.527351],[16.504721,43.52738],[16.504741,43.527398],[16.504763,43.527418],[16.5048,43.527456],[16.504816,43.527475],[16.504833,43.527497],[16.504848,43.527514],[16.504864,43.527542],[16.504884,43.527571],[16.504891,43.527584],[16.504905,43.527598],[16.504915,43.527608],[16.504933,43.527623],[16.504953,43.527636],[16.504971,43.527644],[16.504991,43.527652],[16.505007,43.527656],[16.505035,43.527661]]}},{"type":"Feature","properties":{"sirina":1.5,"duljina":106.4},"geometry":{"type":"LineString","coordinates":[[16.498152,43.526108],[16.498139,43.526103],[16.498108,43.526103],[16.497816,43.526098],[16.497586,43.526095],[16.497527,43.526095],[16.497481,43.526103],[16.497445,43.526114],[16.497408,43.526133],[16.497367,43.526165],[16.497338,43.526199],[16.497316,43.526231],[16.497303,43.526265],[16.4973,43.526289],[16.497297,43.526373],[16.497297,43.526435],[16.497297,43.526448],[16.497309,43.526462],[16.49732,43.526474],[16.497333,43.526481],[16.497355,43.526487],[16.497366,43.526488]]}},{"type":"Feature","properties":{"sirina":4.6,"duljina":7.7},"geometry":{"type":"LineString","coordinates":[[16.487725,43.523921],[16.487783,43.523976]]}},{"type":"Feature","properties":{"sirina":2.8,"duljina":58.5},"geometry":{"type":"LineString","coordinates":[[16.487243,43.523953],[16.48716,43.523898],[16.487088,43.523849],[16.486985,43.52378],[16.486975858925536,43.52377337020973]]}},{"type":"Feature","properties":{"sirina":1.5,"duljina":9},"geometry":{"type":"LineString","coordinates":[[16.5011,43.527408],[16.50108,43.527406],[16.500991,43.527392]]}},{"type":"Feature","properties":{"sirina":1.7,"duljina":115.5},"geometry":{"type":"LineString","coordinates":[[16.498949,43.526057],[16.498657,43.526053],[16.498326,43.526047],[16.498159,43.526047],[16.497955,43.526043],[16.497806,43.526042],[16.497561,43.526038],[16.497521,43.526034]]}}]}