{"type":"FeatureCollection","name":"Odbojne_Ograde","crs":{"type":"name","properties":{"name":"urn:ogc:def:crs:OGC:1.3:CRS84"}},"xy_coordinate_resolution":0.000001,"features":[{"type":"Feature","properties":{"duljina":5.819054},"geometry":{"type":"LineString","coordinates":[[16.489909,43.527285],[16.489945,43.52724]]}},{"type":"Feature","properties":{"duljina":24.20973245},"geometry":{"type":"LineString","coordinates":[[16.490068,43.526877],[16.490069,43.526841],[16.490068,43.526804],[16.490052,43.526733],[16.490047,43.526715],[16.490034,43.52669],[16.490028,43.526662]]}},{"type":"Feature","properties":{"duljina":32.15362116},"geometry":{"type":"LineString","coordinates":[[16.488211,43.524345],[16.488249,43.524326],[16.488294,43.524305],[16.48834,43.524293],[16.488387,43.524282],[16.488389,43.52428],[16.488434,43.524269],[16.488491,43.524252],[16.48853,43.524247],[16.488577,43.52424]]}},{"type":"Feature","properties":{"duljina":91.45017023},"geometry":{"type":"LineString","coordinates":[[16.492545,43.528304],[16.492504,43.528286],[16.492478,43.528276],[16.49246,43.528263],[16.492446,43.528252],[16.492424,43.528232],[16.492403,43.528202],[16.492387,43.528163],[16.492385,43.528135],[16.492391,43.528112],[16.492402,43.528074],[16.492407,43.528049],[16.492423,43.527985],[16.492439,43.527923],[16.492454,43.527866],[16.492468,43.527813],[16.49248,43.527761],[16.492483,43.52773],[16.492477,43.527686],[16.492472,43.527638],[16.492465,43.527593],[16.492455,43.527573],[16.492453,43.527566],[16.492444,43.527552],[16.492437,43.52754]]}},{"type":"Feature","properties":{"duljina":43.0607975},"geometry":{"type":"LineString","coordinates":[[16.487701,43.524854],[16.487742,43.52478],[16.487761,43.524746],[16.487797,43.524698],[16.487833,43.52466],[16.487893,43.5246],[16.487949,43.52455],[16.487981,43.524528]]}},{"type":"Feature","properties":{"duljina":31.34114551},"geometry":{"type":"LineString","coordinates":[[16.490646,43.526202],[16.490669,43.526235],[16.490712,43.52629],[16.490751,43.526342],[16.490789,43.526395],[16.490828,43.526446],[16.490831,43.52645]]}}]}