{"type":"FeatureCollection","name":"odvodnja_podrucje_zgrada_poligon","crs":{"type":"name","properties":{"name":"urn:ogc:def:crs:OGC:1.3:CRS84"}},"xy_coordinate_resolution":0.000001,"features":[{"type":"Feature","properties":{"tip":"mastolov","naziv":"mastolov \"Rotor\"","lokacija":"SOLIN"},"geometry":{"type":"Polygon","coordinates":[[[16.49083,43.528415],[16.490925,43.528286],[16.4909,43.528276],[16.490889,43.528272],[16.490838,43.528253],[16.490827,43.528248],[16.490803,43.528238],[16.490707,43.528366],[16.490733,43.528376],[16.490744,43.528381],[16.490794,43.5284],[16.490805,43.528405],[16.49083,43.528415]]]}},{"type":"Feature","properties":{"tip":"ulazna graÄ‘evina","naziv":"ulazna graÄ‘evina","lokacija":"MOSTINE, SPLIT"},"geometry":{"type":"Polygon","coordinates":[[[16.494017,43.523453],[16.494099,43.523443],[16.49408,43.523365],[16.493965,43.523379],[16.493975,43.523426],[16.49401,43.523422],[16.494017,43.523453]]]}},{"type":"Feature","properties":{"tip":"sabirno okno","naziv":"sabirno okno","lokacija":"MOSTINE, SPLIT"},"geometry":{"type":"Polygon","coordinates":[[[16.490495,43.523868],[16.490615,43.523853],[16.490603,43.523801],[16.490481,43.523817],[16.490495,43.523868]]]}},{"type":"Feature","properties":{"lokacija":"MOSTINE, SPLIT"},"geometry":{"type":"Polygon","coordinates":[[[16.49419,43.523525],[16.494126,43.523259],[16.493919,43.523286],[16.493794,43.523393],[16.493809,43.523455],[16.493983,43.523552],[16.49419,43.523525]]]}},{"type":"Feature","properties":{"lokacija":"MOSTINE, SPLIT"},"geometry":{"type":"Polygon","coordinates":[[[16.490771,43.523831],[16.490749,43.523754],[16.490715,43.523721],[16.490407,43.523772],[16.490452,43.523938],[16.490775,43.523867],[16.490771,43.523831]]]}},{"type":"Feature","properties":{"tip":"zidani kanal","lokacija":"SOLIN"},"geometry":{"type":"Polygon","coordinates":[[[16.489064,43.530457],[16.489324,43.53003],[16.489411,43.529985],[16.489392,43.529966],[16.489361,43.529983],[16.489358,43.529981],[16.489384,43.52994],[16.489428,43.529881],[16.489489,43.529799],[16.489651,43.529614],[16.489894,43.529336],[16.490218,43.528967],[16.490453,43.528776],[16.4906,43.528655],[16.490575,43.528645],[16.490196,43.528954],[16.49016,43.528995],[16.489755,43.529459],[16.489628,43.529603],[16.489464,43.52979],[16.489403,43.529871],[16.489358,43.529929],[16.489304,43.530012],[16.489096,43.530352],[16.489039,43.530448],[16.48905,43.530454],[16.489064,43.530457]]]}},{"type":"Feature","properties":{"lokacija":"SOLIN"},"geometry":{"type":"Polygon","coordinates":[[[16.4906,43.528655],[16.490609,43.528659],[16.490628,43.528634],[16.490627,43.528633],[16.490599,43.528622],[16.490578,43.528614],[16.490559,43.528639],[16.490575,43.528645],[16.4906,43.528655]]]}},{"type":"Feature","properties":{"lokacija":"SOLIN"},"geometry":{"type":"Polygon","coordinates":[[[16.49061,43.528627],[16.490744,43.528381],[16.490733,43.528376],[16.490599,43.528622],[16.49061,43.528627]]]}},{"type":"Feature","properties":{"lokacija":"SOLIN"},"geometry":{"type":"Polygon","coordinates":[[[16.490627,43.528633],[16.490805,43.528405],[16.490794,43.5284],[16.490616,43.528629],[16.490627,43.528633]]]}},{"type":"Feature","properties":{"lokacija":"SOLIN"},"geometry":{"type":"Polygon","coordinates":[[[16.490838,43.528253],[16.490921,43.528183],[16.490911,43.528178],[16.490827,43.528248],[16.490838,43.528253]]]}},{"type":"Feature","properties":{"lokacija":"SOLIN"},"geometry":{"type":"Polygon","coordinates":[[[16.4909,43.528276],[16.490939,43.528193],[16.490929,43.528188],[16.490889,43.528272],[16.4909,43.528276]]]}},{"type":"Feature","properties":{"lokacija":"SOLIN"},"geometry":{"type":"Polygon","coordinates":[[[16.490942,43.528194],[16.490962,43.528174],[16.490924,43.528154],[16.490904,43.528174],[16.490911,43.528178],[16.490921,43.528183],[16.490929,43.528188],[16.490939,43.528193],[16.490942,43.528194]]]}},{"type":"Feature","properties":{"lokacija":"SOLIN"},"geometry":{"type":"Polygon","coordinates":[[[16.49094,43.528162],[16.490958,43.528172],[16.490965,43.528167],[16.490979,43.528158],[16.490995,43.528151],[16.491018,43.528144],[16.491036,43.52814],[16.491048,43.528139],[16.491073,43.528138],[16.491091,43.528139],[16.491109,43.528142],[16.491127,43.528147],[16.491144,43.528153],[16.491154,43.528157],[16.491734,43.528354],[16.49175,43.528329],[16.491716,43.528317],[16.491709,43.528328],[16.491163,43.528143],[16.491151,43.528138],[16.491123,43.528129],[16.491106,43.528125],[16.491086,43.528123],[16.491069,43.528122],[16.491051,43.528123],[16.491037,43.528124],[16.491017,43.528127],[16.490992,43.528135],[16.490975,43.528141],[16.49096,43.528149],[16.49095,43.528155],[16.49094,43.528162]]]}}]}