{"type":"FeatureCollection","name":"odvodnja_okno","crs":{"type":"name","properties":{"name":"urn:ogc:def:crs:OGC:1.3:CRS84"}},"xy_coordinate_resolution":0.000001,"features":[{"type":"Feature","properties":{"medij":"Mješovita","materijal":"Lijevano željezni","oblik":"Okrugli"},"geometry":{"type":"Point","coordinates":[16.491411,43.528393]}},{"type":"Feature","properties":{"medij":"Mješovita","materijal":"Lijevano željezni","oblik":"Okrugli"},"geometry":{"type":"Point","coordinates":[16.490367,43.52838]}},{"type":"Feature","properties":{"medij":"Mješovita","materijal":"Lijevano željezni","oblik":"Okrugli"},"geometry":{"type":"Point","coordinates":[16.490071,43.528559]}},{"type":"Feature","properties":{"medij":"Mješovita","materijal":"Lijevano željezni","oblik":"Okrugli"},"geometry":{"type":"Point","coordinates":[16.488991,43.528187]}},{"type":"Feature","properties":{"medij":"Mješovita","materijal":"Lijevano željezni","oblik":"Okrugli"},"geometry":{"type":"Point","coordinates":[16.488739,43.529535]}},{"type":"Feature","properties":{"medij":"Mješovita","materijal":"Lijevano željezni","oblik":"Okrugli"},"geometry":{"type":"Point","coordinates":[16.488523,43.529527]}},{"type":"Feature","properties":{"medij":"Mješovita","materijal":"Lijevano željezni","oblik":"Okrugli"},"geometry":{"type":"Point","coordinates":[16.488731,43.529635]}},{"type":"Feature","properties":{"medij":"Mješovita","materijal":"Lijevano željezni","oblik":"Okrugli"},"geometry":{"type":"Point","coordinates":[16.491036,43.528654]}},{"type":"Feature","properties":{"medij":"Mješovita","materijal":"Lijevano željezni","oblik":"Okrugli"},"geometry":{"type":"Point","coordinates":[16.49164,43.528491]}},{"type":"Feature","properties":{"medij":"Mješovita","materijal":"Lijevano željezni","oblik":"Okrugli"},"geometry":{"type":"Point","coordinates":[16.489839,43.529133]}},{"type":"Feature","properties":{"medij":"Mješovita","materijal":"Lijevano željezni","oblik":"Okrugli"},"geometry":{"type":"Point","coordinates":[16.490501,43.528298]}},{"type":"Feature","properties":{"medij":"Mješovita","materijal":"Lijevano željezni","oblik":"ÄŒetvrtasti"},"geometry":{"type":"Point","coordinates":[16.490183,43.528384]}},{"type":"Feature","properties":{"medij":"Mješovita","materijal":"Lijevano željezni","oblik":"Okrugli"},"geometry":{"type":"Point","coordinates":[16.490054,43.528147]}},{"type":"Feature","properties":{"medij":"Mješovita","materijal":"Lijevano željezni","oblik":"Okrugli"},"geometry":{"type":"Point","coordinates":[16.490376,43.528028]}},{"type":"Feature","properties":{"medij":"Mješovita","materijal":"Lijevano željezni","oblik":"Okrugli"},"geometry":{"type":"Point","coordinates":[16.490019,43.528592]}},{"type":"Feature","properties":{"medij":"Mješovita","materijal":"Lijevano željezni","oblik":"Okrugli"},"geometry":{"type":"Point","coordinates":[16.489829,43.528494]}},{"type":"Feature","properties":{"medij":"Mješovita","materijal":"Lijevano željezni","oblik":"Okrugli"},"geometry":{"type":"Point","coordinates":[16.497429,43.528046]}},{"type":"Feature","properties":{"medij":"Mješovita","materijal":"Lijevano željezni","oblik":"ÄŒetvrtasti"},"geometry":{"type":"Point","coordinates":[16.495131,43.528128]}},{"type":"Feature","properties":{"medij":"Mješovita","materijal":"Lijevano željezni","oblik":"ÄŒetvrtasti"},"geometry":{"type":"Point","coordinates":[16.494634,43.528248]}},{"type":"Feature","properties":{"medij":"Mješovita","materijal":"Lijevano željezni","oblik":"Okrugli"},"geometry":{"type":"Point","coordinates":[16.494433,43.528284]}},{"type":"Feature","properties":{"medij":"Mješovita","materijal":"Lijevano željezni","oblik":"Okrugli"},"geometry":{"type":"Point","coordinates":[16.493954,43.52844]}},{"type":"Feature","properties":{"medij":"Mješovita","materijal":"Lijevano željezni","oblik":"Okrugli"},"geometry":{"type":"Point","coordinates":[16.493324,43.528654]}},{"type":"Feature","properties":{"medij":"Mješovita","materijal":"Lijevano željezni","oblik":"Okrugli"},"geometry":{"type":"Point","coordinates":[16.493065,43.528684]}},{"type":"Feature","properties":{"medij":"Mješovita","materijal":"Lijevano željezni","oblik":"Okrugli"},"geometry":{"type":"Point","coordinates":[16.492878,43.528705]}},{"type":"Feature","properties":{"medij":"Mješovita","materijal":"Lijevano željezni","oblik":"Okrugli"},"geometry":{"type":"Point","coordinates":[16.492558,43.528715]}},{"type":"Feature","properties":{"medij":"Mješovita","materijal":"Lijevano željezni","oblik":"Okrugli"},"geometry":{"type":"Point","coordinates":[16.492289,43.528115]}},{"type":"Feature","properties":{"medij":"Mješovita","materijal":"Lijevano željezni","oblik":"Okrugli"},"geometry":{"type":"Point","coordinates":[16.493905,43.528191]}},{"type":"Feature","properties":{"medij":"Mješovita","materijal":"Lijevano željezni","oblik":"Okrugli"},"geometry":{"type":"Point","coordinates":[16.494034,43.528277]}},{"type":"Feature","properties":{"medij":"Mješovita","materijal":"Lijevano željezni","oblik":"Okrugli"},"geometry":{"type":"Point","coordinates":[16.494377,43.528169]}},{"type":"Feature","properties":{"medij":"Mješovita","materijal":"Lijevano željezni","oblik":"ÄŒetvrtasti"},"geometry":{"type":"Point","coordinates":[16.494427,43.528337]}},{"type":"Feature","properties":{"medij":"Mješovita","materijal":"Lijevano željezni","oblik":"ÄŒetvrtasti"},"geometry":{"type":"Point","coordinates":[16.495095,43.528145]}},{"type":"Feature","properties":{"medij":"Mješovita","materijal":"Lijevano željezni","oblik":"ÄŒetvrtasti"},"geometry":{"type":"Point","coordinates":[16.494786,43.528218]}},{"type":"Feature","properties":{"medij":"Mješovita","materijal":"Lijevano željezni","oblik":"ÄŒetvrtasti"},"geometry":{"type":"Point","coordinates":[16.494939,43.528032]}},{"type":"Feature","properties":{"medij":"Mješovita","materijal":"Lijevano željezni","oblik":"ÄŒetvrtasti"},"geometry":{"type":"Point","coordinates":[16.494963,43.528024]}},{"type":"Feature","properties":{"medij":"Mješovita","materijal":"Lijevano željezni","oblik":"ÄŒetvrtasti"},"geometry":{"type":"Point","coordinates":[16.494617,43.528114]}},{"type":"Feature","properties":{"medij":"Mješovita","materijal":"Lijevano željezni","oblik":"ÄŒetvrtasti"},"geometry":{"type":"Point","coordinates":[16.494447,43.528387]}},{"type":"Feature","properties":{"medij":"Mješovita","materijal":"Lijevano željezni","oblik":"ÄŒetvrtasti"},"geometry":{"type":"Point","coordinates":[16.494102,43.528482]}},{"type":"Feature","properties":{"medij":"Mješovita","materijal":"Lijevano željezni","oblik":"ÄŒetvrtasti"},"geometry":{"type":"Point","coordinates":[16.493887,43.528543]}},{"type":"Feature","properties":{"medij":"Mješovita","materijal":"Lijevano željezni","oblik":"ÄŒetvrtasti"},"geometry":{"type":"Point","coordinates":[16.493827,43.528357]}},{"type":"Feature","properties":{"medij":"Mješovita","materijal":"Lijevano željezni","oblik":"Okrugli"},"geometry":{"type":"Point","coordinates":[16.492294,43.528704]}},{"type":"Feature","properties":{"medij":"Mješovita","materijal":"Lijevano željezni","oblik":"Okrugli"},"geometry":{"type":"Point","coordinates":[16.492313,43.5286]}},{"type":"Feature","properties":{"medij":"Mješovita","materijal":"Lijevano željezni","oblik":"Okrugli"},"geometry":{"type":"Point","coordinates":[16.49192,43.528442]}},{"type":"Feature","properties":{"medij":"Mješovita","materijal":"Lijevano željezni","oblik":"ÄŒetvrtasti"},"geometry":{"type":"Point","coordinates":[16.502086,43.527393]}},{"type":"Feature","properties":{"medij":"Mješovita","materijal":"Lijevano željezni","oblik":"Okrugli"},"geometry":{"type":"Point","coordinates":[16.502023,43.527445]}},{"type":"Feature","properties":{"medij":"Mješovita","materijal":"Lijevano željezni","oblik":"ÄŒetvrtasti"},"geometry":{"type":"Point","coordinates":[16.501195,43.528037]}},{"type":"Feature","properties":{"medij":"Mješovita","materijal":"Lijevano željezni","oblik":"ÄŒetvrtasti"},"geometry":{"type":"Point","coordinates":[16.501219,43.528037]}},{"type":"Feature","properties":{"medij":"Mješovita","materijal":"Lijevano željezni","oblik":"ÄŒetvrtasti"},"geometry":{"type":"Point","coordinates":[16.501631,43.528094]}},{"type":"Feature","properties":{"medij":"Mješovita","materijal":"Lijevano željezni","oblik":"ÄŒetvrtasti"},"geometry":{"type":"Point","coordinates":[16.50197,43.528144]}},{"type":"Feature","properties":{"medij":"Mješovita","materijal":"Lijevano željezni","oblik":"Okrugli"},"geometry":{"type":"Point","coordinates":[16.504439,43.527266]}},{"type":"Feature","properties":{"medij":"Mješovita","materijal":"Lijevano željezni","oblik":"Okrugli"},"geometry":{"type":"Point","coordinates":[16.50376,43.527216]}},{"type":"Feature","properties":{"medij":"Mješovita","materijal":"Lijevano željezni","oblik":"ÄŒetvrtasti"},"geometry":{"type":"Point","coordinates":[16.506379,43.527192]}},{"type":"Feature","properties":{"medij":"Mješovita","materijal":"Lijevano željezni","oblik":"ÄŒetvrtasti"},"geometry":{"type":"Point","coordinates":[16.505619,43.527546]}},{"type":"Feature","properties":{"medij":"Mješovita","materijal":"Lijevano željezni","oblik":"ÄŒetvrtasti"},"geometry":{"type":"Point","coordinates":[16.504748,43.52772]}},{"type":"Feature","properties":{"medij":"Mješovita","materijal":"Lijevano željezni","oblik":"ÄŒetvrtasti"},"geometry":{"type":"Point","coordinates":[16.501177,43.527481]}},{"type":"Feature","properties":{"medij":"Mješovita","materijal":"Lijevano željezni","oblik":"Okrugli"},"geometry":{"type":"Point","coordinates":[16.495429,43.527855]}},{"type":"Feature","properties":{"medij":"Mješovita","materijal":"Lijevano željezni","oblik":"Okrugli"},"geometry":{"type":"Point","coordinates":[16.492073,43.527276]}},{"type":"Feature","properties":{"medij":"Mješovita","materijal":"Lijevano željezni","oblik":"Okrugli"},"geometry":{"type":"Point","coordinates":[16.492252,43.527804]}},{"type":"Feature","properties":{"medij":"Mješovita","materijal":"Lijevano željezni","oblik":"Okrugli"},"geometry":{"type":"Point","coordinates":[16.492341,43.527813]}},{"type":"Feature","properties":{"medij":"Mješovita","materijal":"Lijevano željezni","oblik":"Okrugli"},"geometry":{"type":"Point","coordinates":[16.500755,43.52758]}},{"type":"Feature","properties":{"medij":"Mješovita","materijal":"Lijevano željezni","oblik":"Okrugli"},"geometry":{"type":"Point","coordinates":[16.500915,43.527527]}},{"type":"Feature","properties":{"medij":"Mješovita","materijal":"Lijevano željezni","oblik":"Okrugli"},"geometry":{"type":"Point","coordinates":[16.501023,43.52749]}},{"type":"Feature","properties":{"medij":"Mješovita","materijal":"Lijevano željezni","oblik":"Okrugli"},"geometry":{"type":"Point","coordinates":[16.500736,43.527662]}},{"type":"Feature","properties":{"medij":"Mješovita","materijal":"Lijevano željezni","oblik":"Okrugli"},"geometry":{"type":"Point","coordinates":[16.500096,43.527767]}},{"type":"Feature","properties":{"medij":"Mješovita","materijal":"Lijevano željezni","oblik":"Okrugli"},"geometry":{"type":"Point","coordinates":[16.499711,43.527756]}},{"type":"Feature","properties":{"medij":"Mješovita","materijal":"Lijevano željezni","oblik":"Okrugli"},"geometry":{"type":"Point","coordinates":[16.49927,43.527744]}},{"type":"Feature","properties":{"medij":"Mješovita","materijal":"Lijevano željezni","oblik":"Okrugli"},"geometry":{"type":"Point","coordinates":[16.497872,43.527708]}},{"type":"Feature","properties":{"medij":"Mješovita","materijal":"Lijevano željezni","oblik":"Okrugli"},"geometry":{"type":"Point","coordinates":[16.496473,43.527733]}},{"type":"Feature","properties":{"medij":"Mješovita","materijal":"Lijevano željezni","oblik":"ÄŒetvrtasti"},"geometry":{"type":"Point","coordinates":[16.495606,43.528013]}},{"type":"Feature","properties":{"medij":"Mješovita","materijal":"Lijevano željezni","oblik":"Okrugli"},"geometry":{"type":"Point","coordinates":[16.496193,43.527967]}},{"type":"Feature","properties":{"medij":"Mješovita","materijal":"Lijevano željezni","oblik":"ÄŒetvrtasti"},"geometry":{"type":"Point","coordinates":[16.495381,43.52795]}},{"type":"Feature","properties":{"medij":"Mješovita","materijal":"Lijevano željezni","oblik":"ÄŒetvrtasti"},"geometry":{"type":"Point","coordinates":[16.496427,43.52784]}},{"type":"Feature","properties":{"medij":"Mješovita","materijal":"Lijevano željezni","oblik":"ÄŒetvrtasti"},"geometry":{"type":"Point","coordinates":[16.496454,43.527838]}},{"type":"Feature","properties":{"medij":"Mješovita","materijal":"Lijevano željezni","oblik":"ÄŒetvrtasti"},"geometry":{"type":"Point","coordinates":[16.497146,43.527815]}},{"type":"Feature","properties":{"medij":"Mješovita","materijal":"Lijevano željezni","oblik":"ÄŒetvrtasti"},"geometry":{"type":"Point","coordinates":[16.497174,43.527814]}},{"type":"Feature","properties":{"medij":"Mješovita","materijal":"Lijevano željezni","oblik":"ÄŒetvrtasti"},"geometry":{"type":"Point","coordinates":[16.497499,43.527812]}},{"type":"Feature","properties":{"medij":"Mješovita","materijal":"Lijevano željezni","oblik":"ÄŒetvrtasti"},"geometry":{"type":"Point","coordinates":[16.497786,43.527806]}},{"type":"Feature","properties":{"medij":"Mješovita","materijal":"Lijevano željezni","oblik":"ÄŒetvrtasti"},"geometry":{"type":"Point","coordinates":[16.498153,43.527809]}},{"type":"Feature","properties":{"medij":"Mješovita","materijal":"Lijevano željezni","oblik":"ÄŒetvrtasti"},"geometry":{"type":"Point","coordinates":[16.498181,43.527812]}},{"type":"Feature","properties":{"medij":"Mješovita","materijal":"Lijevano željezni","oblik":"ÄŒetvrtasti"},"geometry":{"type":"Point","coordinates":[16.49843,43.527817]}},{"type":"Feature","properties":{"medij":"Mješovita","materijal":"Lijevano željezni","oblik":"ÄŒetvrtasti"},"geometry":{"type":"Point","coordinates":[16.498683,43.527827]}},{"type":"Feature","properties":{"medij":"Mješovita","materijal":"Lijevano željezni","oblik":"ÄŒetvrtasti"},"geometry":{"type":"Point","coordinates":[16.49871,43.527826]}},{"type":"Feature","properties":{"medij":"Mješovita","materijal":"Lijevano željezni","oblik":"ÄŒetvrtasti"},"geometry":{"type":"Point","coordinates":[16.499079,43.52784]}},{"type":"Feature","properties":{"medij":"Mješovita","materijal":"Lijevano željezni","oblik":"ÄŒetvrtasti"},"geometry":{"type":"Point","coordinates":[16.500114,43.527913]}},{"type":"Feature","properties":{"medij":"Mješovita","materijal":"Lijevano željezni","oblik":"ÄŒetvrtasti"},"geometry":{"type":"Point","coordinates":[16.500849,43.527986]}},{"type":"Feature","properties":{"medij":"Mješovita","materijal":"Lijevano željezni","oblik":"ÄŒetvrtasti"},"geometry":{"type":"Point","coordinates":[16.499945,43.527727]}},{"type":"Feature","properties":{"medij":"Mješovita","materijal":"Lijevano željezni","oblik":"Okrugli"},"geometry":{"type":"Point","coordinates":[16.497753,43.52853]}},{"type":"Feature","properties":{"medij":"Mješovita","materijal":"Lijevano željezni","oblik":"Okrugli"},"geometry":{"type":"Point","coordinates":[16.497755,43.528491]}},{"type":"Feature","properties":{"medij":"Mješovita","materijal":"Lijevano željezni","oblik":"Okrugli"},"geometry":{"type":"Point","coordinates":[16.49776,43.528318]}},{"type":"Feature","properties":{"medij":"Mješovita","materijal":"Lijevano željezni","oblik":"Okrugli"},"geometry":{"type":"Point","coordinates":[16.497761,43.528294]}},{"type":"Feature","properties":{"medij":"Mješovita","materijal":"Lijevano željezni","oblik":"Okrugli"},"geometry":{"type":"Point","coordinates":[16.498373,43.528587]}},{"type":"Feature","properties":{"medij":"Mješovita","materijal":"Lijevano željezni","oblik":"Okrugli"},"geometry":{"type":"Point","coordinates":[16.49838,43.528212]}},{"type":"Feature","properties":{"medij":"Mješovita","materijal":"Lijevano željezni","oblik":"Okrugli"},"geometry":{"type":"Point","coordinates":[16.49771,43.528205]}},{"type":"Feature","properties":{"medij":"Mješovita","materijal":"Lijevano željezni","oblik":"Okrugli"},"geometry":{"type":"Point","coordinates":[16.497464,43.528524]}},{"type":"Feature","properties":{"medij":"Mješovita","materijal":"Lijevano željezni","oblik":"Okrugli"},"geometry":{"type":"Point","coordinates":[16.497464,43.528209]}},{"type":"Feature","properties":{"medij":"Mješovita","materijal":"Lijevano željezni","oblik":"Okrugli"},"geometry":{"type":"Point","coordinates":[16.49669,43.528541]}},{"type":"Feature","properties":{"medij":"Mješovita","materijal":"Lijevano željezni","oblik":"Okrugli"},"geometry":{"type":"Point","coordinates":[16.48725,43.523765]}},{"type":"Feature","properties":{"medij":"Mješovita","materijal":"Lijevano željezni","oblik":"Okrugli"},"geometry":{"type":"Point","coordinates":[16.494186,43.528365]}},{"type":"Feature","properties":{"medij":"Mješovita","materijal":"Lijevano željezni","oblik":"Okrugli"},"geometry":{"type":"Point","coordinates":[16.49394,43.528489]}},{"type":"Feature","properties":{"medij":"Mješovita","materijal":"Lijevano željezni","oblik":"Okrugli"},"geometry":{"type":"Point","coordinates":[16.493284,43.52858]}},{"type":"Feature","properties":{"medij":"Mješovita","materijal":"Lijevano željezni","oblik":"Okrugli"},"geometry":{"type":"Point","coordinates":[16.49288,43.528594]}},{"type":"Feature","properties":{"medij":"Mješovita","materijal":"Lijevano željezni","oblik":"Okrugli"},"geometry":{"type":"Point","coordinates":[16.493355,43.530316]}},{"type":"Feature","properties":{"medij":"Mješovita","materijal":"Lijevano željezni","oblik":"Okrugli"},"geometry":{"type":"Point","coordinates":[16.493368,43.530122]}},{"type":"Feature","properties":{"medij":"Mješovita","materijal":"Lijevano željezni","oblik":"Okrugli"},"geometry":{"type":"Point","coordinates":[16.49346,43.53017]}},{"type":"Feature","properties":{"medij":"Mješovita","materijal":"Lijevano željezni","oblik":"Okrugli"},"geometry":{"type":"Point","coordinates":[16.492485,43.530194]}},{"type":"Feature","properties":{"medij":"Mješovita","kota_terena":17.55,"kota_dna":14.84,"materijal":"Lijevano željezni","oblik":"Okrugli"},"geometry":{"type":"Point","coordinates":[16.491001,43.52867]}},{"type":"Feature","properties":{"medij":"Mješovita","kota_terena":34.49,"kota_dna":33.02,"materijal":"Lijevano željezni","oblik":"Okrugli"},"geometry":{"type":"Point","coordinates":[16.493213,43.526469]}},{"type":"Feature","properties":{"medij":"Mješovita","kota_terena":34.97,"kota_dna":33.31,"materijal":"Lijevano željezni","oblik":"Okrugli"},"geometry":{"type":"Point","coordinates":[16.493302,43.526319]}},{"type":"Feature","properties":{"medij":"Mješovita","kota_terena":35.09,"kota_dna":33.56,"materijal":"Lijevano željezni","oblik":"Okrugli"},"geometry":{"type":"Point","coordinates":[16.493399,43.526137]}},{"type":"Feature","properties":{"medij":"Mješovita","kota_terena":32.79,"kota_dna":30.87,"materijal":"Lijevano željezni","oblik":"Okrugli"},"geometry":{"type":"Point","coordinates":[16.494199,43.527258]}},{"type":"Feature","properties":{"medij":"Mješovita","kota_terena":35.56,"kota_dna":33.7,"materijal":"Lijevano željezni","oblik":"Okrugli"},"geometry":{"type":"Point","coordinates":[16.494492,43.526654]}},{"type":"Feature","properties":{"medij":"Mješovita","kota_terena":36.74,"kota_dna":35.06,"materijal":"Lijevano željezni","oblik":"Okrugli"},"geometry":{"type":"Point","coordinates":[16.494594,43.526227]}},{"type":"Feature","properties":{"medij":"Mješovita","kota_terena":33.18,"kota_dna":31.35,"materijal":"Lijevano željezni","oblik":"Okrugli"},"geometry":{"type":"Point","coordinates":[16.494547,43.527325]}},{"type":"Feature","properties":{"medij":"Mješovita","kota_terena":26.23,"kota_dna":23.9,"materijal":"Lijevano željezni","oblik":"Okrugli"},"geometry":{"type":"Point","coordinates":[16.494449,43.528384]}},{"type":"Feature","properties":{"medij":"Mješovita","kota_terena":45.95,"kota_dna":43.75,"materijal":"Lijevano željezni","oblik":"Okrugli"},"geometry":{"type":"Point","coordinates":[16.501347,43.527374]}},{"type":"Feature","properties":{"medij":"Mješovita","kota_terena":46.99,"kota_dna":46.15,"materijal":"Lijevano željezni","oblik":"Okrugli"},"geometry":{"type":"Point","coordinates":[16.501568,43.527353]}},{"type":"Feature","properties":{"medij":"Mješovita","kota_terena":47.93,"kota_dna":46.18,"materijal":"Lijevano željezni","oblik":"Okrugli"},"geometry":{"type":"Point","coordinates":[16.501391,43.527207]}},{"type":"Feature","properties":{"medij":"Mješovita","kota_terena":49.56,"kota_dna":47.61,"materijal":"Lijevano željezni","oblik":"Okrugli"},"geometry":{"type":"Point","coordinates":[16.501386,43.527061]}},{"type":"Feature","properties":{"medij":"Mješovita","kota_terena":53.38,"kota_dna":50.7,"materijal":"Lijevano željezni","oblik":"Okrugli"},"geometry":{"type":"Point","coordinates":[16.501523,43.526853]}},{"type":"Feature","properties":{"medij":"Mješovita","kota_terena":55.47,"kota_dna":53.47,"materijal":"Lijevano željezni","oblik":"Okrugli"},"geometry":{"type":"Point","coordinates":[16.502162,43.526722]}},{"type":"Feature","properties":{"medij":"Mješovita","kota_terena":57.75,"kota_dna":56.06,"materijal":"Lijevano željezni","oblik":"Okrugli"},"geometry":{"type":"Point","coordinates":[16.503165,43.526522]}},{"type":"Feature","properties":{"medij":"Mješovita","kota_terena":57.93,"kota_dna":56.15,"materijal":"Lijevano željezni","oblik":"Okrugli"},"geometry":{"type":"Point","coordinates":[16.503266,43.526489]}},{"type":"Feature","properties":{"medij":"Mješovita","kota_terena":58.34,"kota_dna":56.7,"materijal":"Lijevano željezni","oblik":"Okrugli"},"geometry":{"type":"Point","coordinates":[16.503311,43.526403]}},{"type":"Feature","properties":{"medij":"Mješovita","kota_terena":59.33,"kota_dna":57.75,"materijal":"Lijevano željezni","oblik":"ÄŒetvrtasti"},"geometry":{"type":"Point","coordinates":[16.503357,43.52612]}},{"type":"Feature","properties":{"medij":"Mješovita","kota_terena":60.61,"kota_dna":58.86,"materijal":"Lijevano željezni","oblik":"Okrugli"},"geometry":{"type":"Point","coordinates":[16.503356,43.526044]}},{"type":"Feature","properties":{"medij":"Mješovita","kota_terena":48.74,"kota_dna":47.72,"materijal":"Lijevano željezni","oblik":"Okrugli"},"geometry":{"type":"Point","coordinates":[16.501966,43.527172]}},{"type":"Feature","properties":{"medij":"Mješovita","kota_terena":53.4,"kota_dna":50.68,"materijal":"Lijevano željezni","oblik":"Okrugli"},"geometry":{"type":"Point","coordinates":[16.501548,43.526858]}},{"type":"Feature","properties":{"medij":"Mješovita","kota_terena":56.27,"kota_dna":55.31,"materijal":"Lijevano željezni","oblik":"Okrugli"},"geometry":{"type":"Point","coordinates":[16.502532,43.526645]}},{"type":"Feature","properties":{"medij":"Mješovita","kota_terena":57.9,"kota_dna":56.45,"materijal":"Lijevano željezni","oblik":"Okrugli"},"geometry":{"type":"Point","coordinates":[16.503275,43.526508]}},{"type":"Feature","properties":{"medij":"Mješovita","kota_terena":61.61,"kota_dna":59.93,"materijal":"Lijevano željezni","oblik":"Okrugli"},"geometry":{"type":"Point","coordinates":[16.503584,43.52589]}},{"type":"Feature","properties":{"medij":"Mješovita","kota_terena":62.08,"kota_dna":60.95,"materijal":"Lijevano željezni","oblik":"Okrugli"},"geometry":{"type":"Point","coordinates":[16.503862,43.525739]}},{"type":"Feature","properties":{"medij":"Mješovita","kota_terena":27.54,"kota_dna":24.1,"materijal":"Lijevano željezni","oblik":"Okrugli"},"geometry":{"type":"Point","coordinates":[16.494617,43.528599]}},{"type":"Feature","properties":{"medij":"Mješovita","kota_dna":24.23,"materijal":"Lijevano željezni","oblik":"Okrugli"},"geometry":{"type":"Point","coordinates":[16.494865,43.528932]}},{"type":"Feature","properties":{"medij":"Mješovita","kota_dna":24.56,"materijal":"Lijevano željezni","oblik":"Okrugli"},"geometry":{"type":"Point","coordinates":[16.495406,43.529589]}},{"type":"Feature","properties":{"medij":"Mješovita","kota_terena":29.09,"kota_dna":26.69,"materijal":"Lijevano željezni","oblik":"Okrugli"},"geometry":{"type":"Point","coordinates":[16.497225,43.529714]}},{"type":"Feature","properties":{"medij":"Mješovita","kota_terena":31.34,"kota_dna":29.55,"materijal":"Lijevano željezni","oblik":"Okrugli"},"geometry":{"type":"Point","coordinates":[16.49906,43.529641]}},{"type":"Feature","properties":{"medij":"Mješovita","kota_terena":32.24,"kota_dna":30.17,"materijal":"Lijevano željezni","oblik":"Okrugli"},"geometry":{"type":"Point","coordinates":[16.499652,43.529697]}},{"type":"Feature","properties":{"medij":"Mješovita","kota_dna":30.75,"materijal":"Lijevano željezni","oblik":"Okrugli"},"geometry":{"type":"Point","coordinates":[16.500215,43.529753]}},{"type":"Feature","properties":{"medij":"Mješovita","kota_terena":33.04,"kota_dna":31.21,"materijal":"Lijevano željezni","oblik":"Okrugli"},"geometry":{"type":"Point","coordinates":[16.500478,43.529749]}},{"type":"Feature","properties":{"medij":"Mješovita","materijal":"Lijevano željezni","oblik":"ÄŒetvrtasti"},"geometry":{"type":"Point","coordinates":[16.504128,43.528368]}},{"type":"Feature","properties":{"medij":"Mješovita","materijal":"Lijevano željezni","oblik":"ÄŒetvrtasti"},"geometry":{"type":"Point","coordinates":[16.504122,43.528908]}},{"type":"Feature","properties":{"medij":"Mješovita","materijal":"Lijevano željezni","oblik":"Okrugli"},"geometry":{"type":"Point","coordinates":[16.504111,43.528597]}},{"type":"Feature","properties":{"medij":"Mješovita","materijal":"Lijevano željezni","oblik":"Okrugli"},"geometry":{"type":"Point","coordinates":[16.503156,43.528616]}},{"type":"Feature","properties":{"medij":"Mješovita","materijal":"Lijevano željezni","oblik":"Okrugli"},"geometry":{"type":"Point","coordinates":[16.504416,43.529125]}},{"type":"Feature","properties":{"kota_dna":30.43},"geometry":{"type":"Point","coordinates":[16.488736,43.523475]}},{"type":"Feature","properties":{},"geometry":{"type":"Point","coordinates":[16.49056,43.523912]}},{"type":"Feature","properties":{"kota_terena":18.95,"kota_dna":15.39},"geometry":{"type":"Point","coordinates":[16.490166,43.524461]}},{"type":"Feature","properties":{"kota_terena":17.65,"kota_dna":15.72},"geometry":{"type":"Point","coordinates":[16.489124,43.524873]}},{"type":"Feature","properties":{"kota_terena":17.06,"kota_dna":15.96},"geometry":{"type":"Point","coordinates":[16.488779,43.525166]}},{"type":"Feature","properties":{"kota_terena":18.73,"kota_dna":16.06},"geometry":{"type":"Point","coordinates":[16.488967,43.525348]}},{"type":"Feature","properties":{},"geometry":{"type":"Point","coordinates":[16.489395,43.52563]}},{"type":"Feature","properties":{},"geometry":{"type":"Point","coordinates":[16.488997,43.52818]}},{"type":"Feature","properties":{"kota_terena":14.02,"kota_dna":12.52},"geometry":{"type":"Point","coordinates":[16.489832,43.52816]}},{"type":"Feature","properties":{},"geometry":{"type":"Point","coordinates":[16.493831,43.526607]}},{"type":"Feature","properties":{},"geometry":{"type":"Point","coordinates":[16.494105,43.526408]}},{"type":"Feature","properties":{"medij":"Mješovita","materijal":"Lijevano željezni","oblik":"Okrugli"},"geometry":{"type":"Point","coordinates":[16.491726,43.528408]}},{"type":"Feature","properties":{"medij":"Mješovita","materijal":"Lijevano željezni","oblik":"Okrugli"},"geometry":{"type":"Point","coordinates":[16.490837,43.528388]}},{"type":"Feature","properties":{"medij":"Mješovita","materijal":"Lijevano željezni","oblik":"Okrugli"},"geometry":{"type":"Point","coordinates":[16.489547,43.528379]}},{"type":"Feature","properties":{"medij":"Mješovita","materijal":"Lijevano željezni","oblik":"Okrugli"},"geometry":{"type":"Point","coordinates":[16.488767,43.529239]}},{"type":"Feature","properties":{"medij":"Mješovita","materijal":"Lijevano željezni","oblik":"Okrugli"},"geometry":{"type":"Point","coordinates":[16.488549,43.529528]}},{"type":"Feature","properties":{"medij":"Mješovita","materijal":"Lijevano željezni","oblik":"Okrugli"},"geometry":{"type":"Point","coordinates":[16.489861,43.528497]}},{"type":"Feature","properties":{"medij":"Mješovita","materijal":"Lijevano željezni","oblik":"ÄŒetvrtasti"},"geometry":{"type":"Point","coordinates":[16.489725,43.528441]}},{"type":"Feature","properties":{"medij":"Mješovita","materijal":"Lijevano željezni","oblik":"Okrugli"},"geometry":{"type":"Point","coordinates":[16.491657,43.52862]}},{"type":"Feature","properties":{"medij":"Mješovita","materijal":"Lijevano željezni","oblik":"Okrugli"},"geometry":{"type":"Point","coordinates":[16.490574,43.528639]}},{"type":"Feature","properties":{"medij":"Mješovita","materijal":"Lijevano željezni","oblik":"Okrugli"},"geometry":{"type":"Point","coordinates":[16.491729,43.528327]}},{"type":"Feature","properties":{"medij":"Mješovita","materijal":"Lijevano željezni","oblik":"Okrugli"},"geometry":{"type":"Point","coordinates":[16.4909,43.528581]}},{"type":"Feature","properties":{"medij":"Mješovita","materijal":"Lijevano željezni","oblik":"Okrugli"},"geometry":{"type":"Point","coordinates":[16.491278,43.528574]}},{"type":"Feature","properties":{"medij":"Mješovita","materijal":"Lijevano željezni","oblik":"Okrugli"},"geometry":{"type":"Point","coordinates":[16.490037,43.528903]}},{"type":"Feature","properties":{"medij":"Mješovita","materijal":"Lijevano željezni","oblik":"ÄŒetvrtasti"},"geometry":{"type":"Point","coordinates":[16.490188,43.528666]}},{"type":"Feature","properties":{"medij":"Mješovita","materijal":"Lijevano željezni","oblik":"Okrugli"},"geometry":{"type":"Point","coordinates":[16.490324,43.528497]}},{"type":"Feature","properties":{"medij":"Mješovita","materijal":"Lijevano željezni","oblik":"ÄŒetvrtasti"},"geometry":{"type":"Point","coordinates":[16.490251,43.528472]}},{"type":"Feature","properties":{"medij":"Mješovita","materijal":"Lijevano željezni","oblik":"ÄŒetvrtasti"},"geometry":{"type":"Point","coordinates":[16.490164,43.528401]}},{"type":"Feature","properties":{"medij":"Mješovita","materijal":"Lijevano željezni","oblik":"ÄŒetvrtasti"},"geometry":{"type":"Point","coordinates":[16.490031,43.528302]}},{"type":"Feature","properties":{"medij":"Mješovita","materijal":"Lijevano željezni","oblik":"ÄŒetvrtasti"},"geometry":{"type":"Point","coordinates":[16.490083,43.528299]}},{"type":"Feature","properties":{"medij":"Mješovita","materijal":"Lijevano željezni","oblik":"ÄŒetvrtasti"},"geometry":{"type":"Point","coordinates":[16.490304,43.528217]}},{"type":"Feature","properties":{"medij":"Mješovita","materijal":"Lijevano željezni","oblik":"ÄŒetvrtasti"},"geometry":{"type":"Point","coordinates":[16.490198,43.528126]}},{"type":"Feature","properties":{"medij":"Mješovita","materijal":"Lijevano željezni","oblik":"Okrugli"},"geometry":{"type":"Point","coordinates":[16.489637,43.529074]}},{"type":"Feature","properties":{"medij":"Mješovita","materijal":"Lijevano željezni","oblik":"Okrugli"},"geometry":{"type":"Point","coordinates":[16.489819,43.528831]}},{"type":"Feature","properties":{"medij":"Mješovita","materijal":"Lijevano željezni","oblik":"Okrugli"},"geometry":{"type":"Point","coordinates":[16.489353,43.529189]}},{"type":"Feature","properties":{"medij":"Mješovita","materijal":"Lijevano željezni","oblik":"Okrugli"},"geometry":{"type":"Point","coordinates":[16.489497,43.528976]}},{"type":"Feature","properties":{"medij":"Mješovita","materijal":"Lijevano željezni","oblik":"Okrugli"},"geometry":{"type":"Point","coordinates":[16.489664,43.528736]}},{"type":"Feature","properties":{"medij":"Mješovita","materijal":"Lijevano željezni","oblik":"Okrugli"},"geometry":{"type":"Point","coordinates":[16.490818,43.528335]}},{"type":"Feature","properties":{"medij":"Mješovita","materijal":"Lijevano željezni","oblik":"Okrugli"},"geometry":{"type":"Point","coordinates":[16.497577,43.52807]}},{"type":"Feature","properties":{"medij":"Mješovita","materijal":"Lijevano željezni","oblik":"Okrugli"},"geometry":{"type":"Point","coordinates":[16.497185,43.528136]}},{"type":"Feature","properties":{"medij":"Mješovita","materijal":"Lijevano željezni","oblik":"ÄŒetvrtasti"},"geometry":{"type":"Point","coordinates":[16.494884,43.528185]}},{"type":"Feature","properties":{"medij":"Mješovita","materijal":"Lijevano željezni","oblik":"Okrugli"},"geometry":{"type":"Point","coordinates":[16.494559,43.528249]}},{"type":"Feature","properties":{"medij":"Mješovita","materijal":"Lijevano željezni","oblik":"Okrugli"},"geometry":{"type":"Point","coordinates":[16.493934,43.528492]}},{"type":"Feature","properties":{"medij":"Mješovita","materijal":"Lijevano željezni","oblik":"Okrugli"},"geometry":{"type":"Point","coordinates":[16.4938,43.528535]}},{"type":"Feature","properties":{"medij":"Mješovita","materijal":"Lijevano željezni","oblik":"Okrugli"},"geometry":{"type":"Point","coordinates":[16.493503,43.528614]}},{"type":"Feature","properties":{"medij":"Mješovita","materijal":"Lijevano željezni","oblik":"Okrugli"},"geometry":{"type":"Point","coordinates":[16.494229,43.528098]}},{"type":"Feature","properties":{"medij":"Mješovita","materijal":"Lijevano željezni","oblik":"Okrugli"},"geometry":{"type":"Point","coordinates":[16.494046,43.528137]}},{"type":"Feature","properties":{"medij":"Mješovita","materijal":"Lijevano željezni","oblik":"Okrugli"},"geometry":{"type":"Point","coordinates":[16.493752,43.528205]}},{"type":"Feature","properties":{"medij":"Mješovita","materijal":"Lijevano željezni","oblik":"Okrugli"},"geometry":{"type":"Point","coordinates":[16.493826,43.528542]}},{"type":"Feature","properties":{"medij":"Mješovita","materijal":"Lijevano željezni","oblik":"Okrugli"},"geometry":{"type":"Point","coordinates":[16.493968,43.528492]}},{"type":"Feature","properties":{"medij":"Mješovita","materijal":"Lijevano željezni","oblik":"ÄŒetvrtasti"},"geometry":{"type":"Point","coordinates":[16.494291,43.528069]}},{"type":"Feature","properties":{"medij":"Mješovita","materijal":"Lijevano željezni","oblik":"ÄŒetvrtasti"},"geometry":{"type":"Point","coordinates":[16.495419,43.528081]}},{"type":"Feature","properties":{"medij":"Mješovita","materijal":"Lijevano željezni","oblik":"ÄŒetvrtasti"},"geometry":{"type":"Point","coordinates":[16.494593,43.528119]}},{"type":"Feature","properties":{"medij":"Mješovita","materijal":"Lijevano željezni","oblik":"ÄŒetvrtasti"},"geometry":{"type":"Point","coordinates":[16.495079,43.528117]}},{"type":"Feature","properties":{"medij":"Mješovita","materijal":"Lijevano željezni","oblik":"ÄŒetvrtasti"},"geometry":{"type":"Point","coordinates":[16.4939,43.528561]}},{"type":"Feature","properties":{"medij":"Mješovita","materijal":"Lijevano željezni","oblik":"ÄŒetvrtasti"},"geometry":{"type":"Point","coordinates":[16.493806,43.528366]}},{"type":"Feature","properties":{"medij":"Mješovita","materijal":"Lijevano željezni","oblik":"ÄŒetvrtasti"},"geometry":{"type":"Point","coordinates":[16.493671,43.528218]}},{"type":"Feature","properties":{"medij":"Mješovita","materijal":"Lijevano željezni","oblik":"ÄŒetvrtasti"},"geometry":{"type":"Point","coordinates":[16.493661,43.528201]}},{"type":"Feature","properties":{"medij":"Mješovita","materijal":"Lijevano željezni","oblik":"Okrugli"},"geometry":{"type":"Point","coordinates":[16.492273,43.528711]}},{"type":"Feature","properties":{"medij":"Mješovita","materijal":"Lijevano željezni","oblik":"Okrugli"},"geometry":{"type":"Point","coordinates":[16.492544,43.528624]}},{"type":"Feature","properties":{"medij":"Mješovita","materijal":"Lijevano željezni","oblik":"Okrugli"},"geometry":{"type":"Point","coordinates":[16.492178,43.528034]}},{"type":"Feature","properties":{"medij":"Mješovita","materijal":"Lijevano željezni","oblik":"Okrugli"},"geometry":{"type":"Point","coordinates":[16.491989,43.528271]}},{"type":"Feature","properties":{"medij":"Mješovita","materijal":"Lijevano željezni","oblik":"Okrugli"},"geometry":{"type":"Point","coordinates":[16.501574,43.527431]}},{"type":"Feature","properties":{"medij":"Mješovita","materijal":"Lijevano željezni","oblik":"ÄŒetvrtasti"},"geometry":{"type":"Point","coordinates":[16.501174,43.527451]}},{"type":"Feature","properties":{"medij":"Mješovita","kota_terena":54.61,"materijal":"Lijevano željezni","oblik":"Okrugli"},"geometry":{"type":"Point","coordinates":[16.501787,43.52679]}},{"type":"Feature","properties":{"medij":"Mješovita","materijal":"Lijevano željezni","oblik":"Okrugli"},"geometry":{"type":"Point","coordinates":[16.501956,43.52747]}},{"type":"Feature","properties":{"medij":"Mješovita","materijal":"Lijevano željezni","oblik":"ÄŒetvrtasti"},"geometry":{"type":"Point","coordinates":[16.501607,43.528089]}},{"type":"Feature","properties":{"medij":"Mješovita","materijal":"Lijevano željezni","oblik":"ÄŒetvrtasti"},"geometry":{"type":"Point","coordinates":[16.501942,43.528141]}},{"type":"Feature","properties":{"medij":"Mješovita","materijal":"Lijevano željezni","oblik":"Okrugli"},"geometry":{"type":"Point","coordinates":[16.50413,43.527195]}},{"type":"Feature","properties":{"medij":"Mješovita","materijal":"Lijevano željezni","oblik":"Okrugli"},"geometry":{"type":"Point","coordinates":[16.503453,43.527316]}},{"type":"Feature","properties":{"medij":"Mješovita","materijal":"Lijevano željezni","oblik":"Okrugli"},"geometry":{"type":"Point","coordinates":[16.503112,43.527437]}},{"type":"Feature","properties":{"medij":"Mješovita","materijal":"Lijevano željezni","oblik":"Okrugli"},"geometry":{"type":"Point","coordinates":[16.502806,43.52748]}},{"type":"Feature","properties":{"medij":"Mješovita","materijal":"Lijevano željezni","oblik":"Okrugli"},"geometry":{"type":"Point","coordinates":[16.502474,43.527477]}},{"type":"Feature","properties":{"medij":"Mješovita","materijal":"Lijevano željezni","oblik":"Okrugli"},"geometry":{"type":"Point","coordinates":[16.50641,43.527233]}},{"type":"Feature","properties":{"medij":"Mješovita","materijal":"Lijevano željezni","oblik":"Okrugli"},"geometry":{"type":"Point","coordinates":[16.505795,43.527545]}},{"type":"Feature","properties":{"medij":"Mješovita","materijal":"Lijevano željezni","oblik":"Okrugli"},"geometry":{"type":"Point","coordinates":[16.504471,43.527923]}},{"type":"Feature","properties":{"medij":"Mješovita","materijal":"Lijevano željezni","oblik":"ÄŒetvrtasti"},"geometry":{"type":"Point","coordinates":[16.505654,43.527634]}},{"type":"Feature","properties":{"medij":"Mješovita","materijal":"Lijevano željezni","oblik":"ÄŒetvrtasti"},"geometry":{"type":"Point","coordinates":[16.502377,43.527499]}},{"type":"Feature","properties":{"medij":"Mješovita","materijal":"Lijevano željezni","oblik":"ÄŒetvrtasti"},"geometry":{"type":"Point","coordinates":[16.50141,43.527405]}},{"type":"Feature","properties":{"medij":"Mješovita","materijal":"Lijevano željezni","oblik":"Okrugli"},"geometry":{"type":"Point","coordinates":[16.492215,43.527529]}},{"type":"Feature","properties":{"medij":"Mješovita","materijal":"Lijevano željezni","oblik":"ÄŒetvrtasti"},"geometry":{"type":"Point","coordinates":[16.500979,43.527432]}},{"type":"Feature","properties":{"medij":"Mješovita","materijal":"Lijevano željezni","oblik":"Okrugli"},"geometry":{"type":"Point","coordinates":[16.500462,43.527737]}},{"type":"Feature","properties":{"medij":"Mješovita","materijal":"Lijevano željezni","oblik":"Okrugli"},"geometry":{"type":"Point","coordinates":[16.49877,43.527726]}},{"type":"Feature","properties":{"medij":"Mješovita","materijal":"Lijevano željezni","oblik":"Okrugli"},"geometry":{"type":"Point","coordinates":[16.498324,43.527714]}},{"type":"Feature","properties":{"medij":"Mješovita","materijal":"Lijevano željezni","oblik":"Okrugli"},"geometry":{"type":"Point","coordinates":[16.497486,43.527709]}},{"type":"Feature","properties":{"medij":"Mješovita","materijal":"Lijevano željezni","oblik":"Okrugli"},"geometry":{"type":"Point","coordinates":[16.496979,43.52772]}},{"type":"Feature","properties":{"medij":"Mješovita","materijal":"Lijevano željezni","oblik":"ÄŒetvrtasti"},"geometry":{"type":"Point","coordinates":[16.496164,43.527746]}},{"type":"Feature","properties":{"medij":"Mješovita","materijal":"Lijevano željezni","oblik":"ÄŒetvrtasti"},"geometry":{"type":"Point","coordinates":[16.495877,43.527781]}},{"type":"Feature","properties":{"medij":"Mješovita","materijal":"Lijevano željezni","oblik":"ÄŒetvrtasti"},"geometry":{"type":"Point","coordinates":[16.495561,43.52781]}},{"type":"Feature","properties":{"medij":"Mješovita","materijal":"Lijevano željezni","oblik":"Okrugli"},"geometry":{"type":"Point","coordinates":[16.497369,43.527908]}},{"type":"Feature","properties":{"medij":"Mješovita","materijal":"Lijevano željezni","oblik":"ÄŒetvrtasti"},"geometry":{"type":"Point","coordinates":[16.496725,43.52793]}},{"type":"Feature","properties":{"medij":"Mješovita","materijal":"Lijevano željezni","oblik":"ÄŒetvrtasti"},"geometry":{"type":"Point","coordinates":[16.495354,43.527954]}},{"type":"Feature","properties":{"medij":"Mješovita","materijal":"Lijevano željezni","oblik":"ÄŒetvrtasti"},"geometry":{"type":"Point","coordinates":[16.496098,43.527865]}},{"type":"Feature","properties":{"medij":"Mješovita","materijal":"Lijevano željezni","oblik":"ÄŒetvrtasti"},"geometry":{"type":"Point","coordinates":[16.496123,43.527862]}},{"type":"Feature","properties":{"medij":"Mješovita","materijal":"Lijevano željezni","oblik":"ÄŒetvrtasti"},"geometry":{"type":"Point","coordinates":[16.49681,43.527823]}},{"type":"Feature","properties":{"medij":"Mješovita","materijal":"Lijevano željezni","oblik":"ÄŒetvrtasti"},"geometry":{"type":"Point","coordinates":[16.49684,43.527822]}},{"type":"Feature","properties":{"medij":"Mješovita","materijal":"Lijevano željezni","oblik":"ÄŒetvrtasti"},"geometry":{"type":"Point","coordinates":[16.497814,43.527808]}},{"type":"Feature","properties":{"medij":"Mješovita","materijal":"Lijevano željezni","oblik":"ÄŒetvrtasti"},"geometry":{"type":"Point","coordinates":[16.498401,43.527817]}},{"type":"Feature","properties":{"medij":"Mješovita","materijal":"Lijevano željezni","oblik":"ÄŒetvrtasti"},"geometry":{"type":"Point","coordinates":[16.499107,43.527841]}},{"type":"Feature","properties":{"medij":"Mješovita","materijal":"Lijevano željezni","oblik":"ÄŒetvrtasti"},"geometry":{"type":"Point","coordinates":[16.499406,43.527861]}},{"type":"Feature","properties":{"medij":"Mješovita","materijal":"Lijevano željezni","oblik":"ÄŒetvrtasti"},"geometry":{"type":"Point","coordinates":[16.499437,43.527862]}},{"type":"Feature","properties":{"medij":"Mješovita","materijal":"Lijevano željezni","oblik":"ÄŒetvrtasti"},"geometry":{"type":"Point","coordinates":[16.499769,43.527884]}},{"type":"Feature","properties":{"medij":"Mješovita","materijal":"Lijevano željezni","oblik":"ÄŒetvrtasti"},"geometry":{"type":"Point","coordinates":[16.499796,43.527886]}},{"type":"Feature","properties":{"medij":"Mješovita","materijal":"Lijevano željezni","oblik":"ÄŒetvrtasti"},"geometry":{"type":"Point","coordinates":[16.500088,43.527912]}},{"type":"Feature","properties":{"medij":"Mješovita","materijal":"Lijevano željezni","oblik":"ÄŒetvrtasti"},"geometry":{"type":"Point","coordinates":[16.500409,43.527941]}},{"type":"Feature","properties":{"medij":"Mješovita","materijal":"Lijevano željezni","oblik":"ÄŒetvrtasti"},"geometry":{"type":"Point","coordinates":[16.500434,43.527946]}},{"type":"Feature","properties":{"medij":"Mješovita","materijal":"Lijevano željezni","oblik":"ÄŒetvrtasti"},"geometry":{"type":"Point","coordinates":[16.500876,43.527989]}},{"type":"Feature","properties":{"medij":"Mješovita","materijal":"Lijevano željezni","oblik":"Okrugli"},"geometry":{"type":"Point","coordinates":[16.497976,43.528646]}},{"type":"Feature","properties":{"medij":"Mješovita","materijal":"Lijevano željezni","oblik":"Okrugli"},"geometry":{"type":"Point","coordinates":[16.497749,43.528643]}},{"type":"Feature","properties":{"medij":"Mješovita","materijal":"Lijevano željezni","oblik":"Okrugli"},"geometry":{"type":"Point","coordinates":[16.497749,43.528578]}},{"type":"Feature","properties":{"medij":"Mješovita","materijal":"Lijevano željezni","oblik":"Okrugli"},"geometry":{"type":"Point","coordinates":[16.497756,43.528428]}},{"type":"Feature","properties":{"medij":"Mješovita","materijal":"Lijevano željezni","oblik":"Okrugli"},"geometry":{"type":"Point","coordinates":[16.497758,43.528378]}},{"type":"Feature","properties":{"medij":"Mješovita","materijal":"Lijevano željezni","oblik":"Okrugli"},"geometry":{"type":"Point","coordinates":[16.497758,43.528216]}},{"type":"Feature","properties":{"medij":"Mješovita","materijal":"Lijevano željezni","oblik":"Okrugli"},"geometry":{"type":"Point","coordinates":[16.497742,43.52807]}},{"type":"Feature","properties":{"medij":"Mješovita","materijal":"Lijevano željezni","oblik":"Okrugli"},"geometry":{"type":"Point","coordinates":[16.498271,43.528217]}},{"type":"Feature","properties":{"medij":"Mješovita","materijal":"Lijevano željezni","oblik":"Okrugli"},"geometry":{"type":"Point","coordinates":[16.497799,43.528655]}},{"type":"Feature","properties":{"medij":"Mješovita","materijal":"Lijevano željezni","oblik":"Okrugli"},"geometry":{"type":"Point","coordinates":[16.49746,43.528655]}},{"type":"Feature","properties":{"medij":"Mješovita","materijal":"Lijevano željezni","oblik":"Okrugli"},"geometry":{"type":"Point","coordinates":[16.497463,43.528388]}},{"type":"Feature","properties":{"medij":"Mješovita","materijal":"Lijevano željezni","oblik":"ÄŒetvrtasti"},"geometry":{"type":"Point","coordinates":[16.496671,43.528457]}},{"type":"Feature","properties":{"medij":"Mješovita","materijal":"Lijevano željezni","oblik":"ÄŒetvrtasti"},"geometry":{"type":"Point","coordinates":[16.496677,43.528363]}},{"type":"Feature","properties":{"medij":"Mješovita","materijal":"Lijevano željezni","oblik":"ÄŒetvrtasti"},"geometry":{"type":"Point","coordinates":[16.496951,43.528325]}},{"type":"Feature","properties":{"medij":"Mješovita","materijal":"Lijevano željezni","oblik":"Okrugli"},"geometry":{"type":"Point","coordinates":[16.494951,43.528011]}},{"type":"Feature","properties":{"medij":"Mješovita","materijal":"Lijevano željezni","oblik":"Okrugli"},"geometry":{"type":"Point","coordinates":[16.494751,43.528097]}},{"type":"Feature","properties":{"medij":"Mješovita","materijal":"Lijevano željezni","oblik":"Okrugli"},"geometry":{"type":"Point","coordinates":[16.494456,43.528224]}},{"type":"Feature","properties":{"medij":"Mješovita","materijal":"Lijevano željezni","oblik":"Okrugli"},"geometry":{"type":"Point","coordinates":[16.493686,43.528613]}},{"type":"Feature","properties":{"medij":"Mješovita","materijal":"Lijevano željezni","oblik":"Okrugli"},"geometry":{"type":"Point","coordinates":[16.493599,43.528657]}},{"type":"Feature","properties":{"medij":"Mješovita","materijal":"Lijevano željezni","oblik":"Okrugli"},"geometry":{"type":"Point","coordinates":[16.492485,43.528612]}},{"type":"Feature","properties":{"medij":"Mješovita","materijal":"Lijevano željezni","oblik":"Okrugli"},"geometry":{"type":"Point","coordinates":[16.491968,43.528589]}},{"type":"Feature","properties":{"medij":"Mješovita","kota_terena":28.4,"materijal":"Lijevano željezni","oblik":"Okrugli"},"geometry":{"type":"Point","coordinates":[16.49424,43.528092]}},{"type":"Feature","properties":{"medij":"Mješovita","materijal":"Lijevano željezni","oblik":"Okrugli"},"geometry":{"type":"Point","coordinates":[16.493362,43.530307]}},{"type":"Feature","properties":{"medij":"Mješovita","materijal":"Lijevano željezni","oblik":"Okrugli"},"geometry":{"type":"Point","coordinates":[16.492886,43.530207]}},{"type":"Feature","properties":{"medij":"Mješovita","materijal":"Lijevano željezni","oblik":"Okrugli"},"geometry":{"type":"Point","coordinates":[16.493047,43.530211]}},{"type":"Feature","properties":{"medij":"Mješovita","kota_terena":16.42,"kota_dna":14.1,"materijal":"Lijevano željezni","oblik":"Okrugli"},"geometry":{"type":"Point","coordinates":[16.490219,43.528644]}},{"type":"Feature","properties":{"medij":"Mješovita","kota_terena":17.04,"kota_dna":14.56,"materijal":"Lijevano željezni","oblik":"Okrugli"},"geometry":{"type":"Point","coordinates":[16.490617,43.528672]}},{"type":"Feature","properties":{"medij":"Mješovita","kota_terena":18.27,"kota_dna":15.35,"materijal":"Lijevano željezni","oblik":"Okrugli"},"geometry":{"type":"Point","coordinates":[16.491386,43.528663]}},{"type":"Feature","properties":{"medij":"Mješovita","kota_terena":19.03,"kota_dna":15.68,"materijal":"Lijevano željezni","oblik":"Okrugli"},"geometry":{"type":"Point","coordinates":[16.491698,43.528657]}},{"type":"Feature","properties":{"medij":"Mješovita","kota_terena":16.89,"kota_dna":15.81,"materijal":"Lijevano željezni","oblik":"Okrugli"},"geometry":{"type":"Point","coordinates":[16.491922,43.528658]}},{"type":"Feature","properties":{"medij":"Mješovita","kota_terena":16.07,"kota_dna":13.35,"materijal":"Lijevano željezni","oblik":"Okrugli"},"geometry":{"type":"Point","coordinates":[16.491282,43.528622]}},{"type":"Feature","properties":{"medij":"Mješovita","kota_terena":29.37,"kota_dna":24.87,"materijal":"Lijevano željezni","oblik":"Okrugli"},"geometry":{"type":"Point","coordinates":[16.494169,43.528021]}},{"type":"Feature","properties":{"medij":"Mješovita","kota_terena":31.26,"kota_dna":28.4,"materijal":"Lijevano željezni","oblik":"Okrugli"},"geometry":{"type":"Point","coordinates":[16.493839,43.527752]}},{"type":"Feature","properties":{"medij":"Mješovita","kota_terena":31.56,"kota_dna":29.4,"materijal":"Lijevano željezni","oblik":"Okrugli"},"geometry":{"type":"Point","coordinates":[16.49396,43.527588]}},{"type":"Feature","properties":{"medij":"Mješovita","kota_terena":32.13,"kota_dna":30.22,"materijal":"Lijevano željezni","oblik":"Okrugli"},"geometry":{"type":"Point","coordinates":[16.494083,43.527414]}},{"type":"Feature","properties":{"medij":"Mješovita","kota_terena":32.68,"kota_dna":30.89,"materijal":"Lijevano željezni","oblik":"Okrugli"},"geometry":{"type":"Point","coordinates":[16.493877,43.527276]}},{"type":"Feature","properties":{"medij":"Mješovita","kota_terena":32.95,"kota_dna":31.43,"materijal":"Lijevano željezni","oblik":"Okrugli"},"geometry":{"type":"Point","coordinates":[16.493594,43.52704]}},{"type":"Feature","properties":{"medij":"Mješovita","kota_terena":33.81,"kota_dna":32.04,"materijal":"Lijevano željezni","oblik":"Okrugli"},"geometry":{"type":"Point","coordinates":[16.493273,43.526767]}},{"type":"Feature","properties":{"medij":"Mješovita","kota_terena":34.47,"kota_dna":32.59,"materijal":"Lijevano željezni","oblik":"Okrugli"},"geometry":{"type":"Point","coordinates":[16.493387,43.526561]}},{"type":"Feature","properties":{"medij":"Mješovita","kota_terena":35.15,"kota_dna":33.65,"materijal":"Lijevano željezni","oblik":"Okrugli"},"geometry":{"type":"Point","coordinates":[16.493468,43.526003]}},{"type":"Feature","properties":{"medij":"Mješovita","kota_terena":35.4,"kota_dna":33.91,"materijal":"Lijevano željezni","oblik":"Okrugli"},"geometry":{"type":"Point","coordinates":[16.493551,43.525864]}},{"type":"Feature","properties":{"medij":"Mješovita","kota_terena":33.33,"kota_dna":31.53,"materijal":"Lijevano željezni","oblik":"Okrugli"},"geometry":{"type":"Point","coordinates":[16.494275,43.527159]}},{"type":"Feature","properties":{"medij":"Mješovita","kota_terena":34.54,"kota_dna":32.66,"materijal":"Lijevano željezni","oblik":"Okrugli"},"geometry":{"type":"Point","coordinates":[16.49439,43.526926]}},{"type":"Feature","properties":{"medij":"Mješovita","kota_terena":36.2,"kota_dna":34.38,"materijal":"Lijevano željezni","oblik":"Okrugli"},"geometry":{"type":"Point","coordinates":[16.494533,43.526455]}},{"type":"Feature","properties":{"medij":"Mješovita","kota_terena":33.06,"kota_dna":31.1,"materijal":"Lijevano željezni","oblik":"Okrugli"},"geometry":{"type":"Point","coordinates":[16.494318,43.52726]}},{"type":"Feature","properties":{"medij":"Mješovita","kota_terena":33.9,"kota_dna":31.96,"materijal":"Lijevano željezni","oblik":"Okrugli"},"geometry":{"type":"Point","coordinates":[16.494928,43.527365]}},{"type":"Feature","properties":{"medij":"Mješovita","kota_terena":34.66,"kota_dna":33.02,"materijal":"Lijevano željezni","oblik":"Okrugli"},"geometry":{"type":"Point","coordinates":[16.495221,43.527347]}},{"type":"Feature","properties":{"medij":"Mješovita","kota_terena":47.66,"kota_dna":46.22,"materijal":"Lijevano željezni","oblik":"ÄŒetvrtasti"},"geometry":{"type":"Point","coordinates":[16.502033,43.527252]}},{"type":"Feature","properties":{"medij":"Mješovita","kota_terena":52.11,"kota_dna":49.7,"materijal":"Lijevano željezni","oblik":"Okrugli"},"geometry":{"type":"Point","coordinates":[16.501582,43.527011]}},{"type":"Feature","properties":{"medij":"Mješovita","kota_terena":56.34,"kota_dna":55.13,"materijal":"Lijevano željezni","oblik":"Okrugli"},"geometry":{"type":"Point","coordinates":[16.502548,43.526636]}},{"type":"Feature","properties":{"medij":"Mješovita","kota_terena":47.56,"kota_dna":46.15,"materijal":"Lijevano željezni","oblik":"Okrugli"},"geometry":{"type":"Point","coordinates":[16.502027,43.527273]}},{"type":"Feature","properties":{"medij":"Mješovita","kota_terena":52.13,"kota_dna":49.95,"materijal":"Lijevano željezni","oblik":"Okrugli"},"geometry":{"type":"Point","coordinates":[16.501591,43.526993]}},{"type":"Feature","properties":{"medij":"Mješovita","kota_terena":55.43,"kota_dna":53.7,"materijal":"Lijevano željezni","oblik":"Okrugli"},"geometry":{"type":"Point","coordinates":[16.502145,43.526734]}},{"type":"Feature","properties":{"medij":"Mješovita","kota_terena":57.74,"kota_dna":56.31,"materijal":"Lijevano željezni","oblik":"Okrugli"},"geometry":{"type":"Point","coordinates":[16.503146,43.526536]}},{"type":"Feature","properties":{"medij":"Mješovita","kota_terena":58.31,"kota_dna":56.9,"materijal":"Lijevano željezni","oblik":"Okrugli"},"geometry":{"type":"Point","coordinates":[16.503318,43.526422]}},{"type":"Feature","properties":{"medij":"Mješovita","kota_terena":59.43,"kota_dna":58.06,"materijal":"Lijevano željezni","oblik":"Okrugli"},"geometry":{"type":"Point","coordinates":[16.503371,43.526138]}},{"type":"Feature","properties":{"medij":"Mješovita","kota_terena":60.61,"kota_dna":58.9,"materijal":"Lijevano željezni","oblik":"Okrugli"},"geometry":{"type":"Point","coordinates":[16.503378,43.526038]}},{"type":"Feature","properties":{"medij":"Mješovita","kota_terena":62.5,"kota_dna":61.4,"materijal":"Lijevano željezni","oblik":"Okrugli"},"geometry":{"type":"Point","coordinates":[16.504082,43.525638]}},{"type":"Feature","properties":{"medij":"Mješovita","kota_dna":24.36,"materijal":"Lijevano željezni","oblik":"Okrugli"},"geometry":{"type":"Point","coordinates":[16.495265,43.529068]}},{"type":"Feature","properties":{"medij":"Mješovita","kota_dna":25.07,"materijal":"Lijevano željezni","oblik":"Okrugli"},"geometry":{"type":"Point","coordinates":[16.49549,43.529919]}},{"type":"Feature","properties":{"medij":"Mješovita","kota_dna":25.29,"materijal":"Lijevano željezni","oblik":"Okrugli"},"geometry":{"type":"Point","coordinates":[16.495939,43.529876]}},{"type":"Feature","properties":{"medij":"Mješovita","kota_dna":25.7,"materijal":"Lijevano željezni","oblik":"Okrugli"},"geometry":{"type":"Point","coordinates":[16.496508,43.529713]}},{"type":"Feature","properties":{"medij":"Mješovita","kota_dna":26.14,"materijal":"Lijevano željezni","oblik":"Okrugli"},"geometry":{"type":"Point","coordinates":[16.496856,43.529718]}},{"type":"Feature","properties":{"medij":"Mješovita","kota_terena":29.51,"kota_dna":27.2,"materijal":"Lijevano željezni","oblik":"Okrugli"},"geometry":{"type":"Point","coordinates":[16.497627,43.529631]}},{"type":"Feature","properties":{"medij":"Mješovita","kota_terena":30.12,"kota_dna":27.86,"materijal":"Lijevano željezni","oblik":"Okrugli"},"geometry":{"type":"Point","coordinates":[16.498065,43.529534]}},{"type":"Feature","properties":{"medij":"Mješovita","kota_terena":30.51,"kota_dna":28.26,"materijal":"Lijevano željezni","oblik":"Okrugli"},"geometry":{"type":"Point","coordinates":[16.498407,43.529565]}},{"type":"Feature","properties":{"medij":"Mješovita","kota_terena":30.94,"kota_dna":28.39,"materijal":"Lijevano željezni","oblik":"Okrugli"},"geometry":{"type":"Point","coordinates":[16.498461,43.52957]}},{"type":"Feature","properties":{"medij":"Mješovita","kota_dna":32.25,"materijal":"Lijevano željezni","oblik":"Okrugli"},"geometry":{"type":"Point","coordinates":[16.500865,43.529744]}},{"type":"Feature","properties":{"medij":"Mješovita","kota_terena":34.95,"kota_dna":32.9,"materijal":"Lijevano željezni","oblik":"Okrugli"},"geometry":{"type":"Point","coordinates":[16.501349,43.529714]}},{"type":"Feature","properties":{"medij":"Mješovita","kota_terena":35.9,"kota_dna":33.66,"materijal":"Lijevano željezni","oblik":"Okrugli"},"geometry":{"type":"Point","coordinates":[16.501858,43.529682]}},{"type":"Feature","properties":{"medij":"Mješovita","kota_terena":37.4,"kota_dna":34.4,"materijal":"Lijevano željezni","oblik":"Okrugli"},"geometry":{"type":"Point","coordinates":[16.502349,43.529644]}},{"type":"Feature","properties":{"medij":"Mješovita","materijal":"Lijevano željezni","oblik":"ÄŒetvrtasti"},"geometry":{"type":"Point","coordinates":[16.504182,43.528573]}},{"type":"Feature","properties":{"medij":"Mješovita","materijal":"Lijevano željezni","oblik":"ÄŒetvrtasti"},"geometry":{"type":"Point","coordinates":[16.504129,43.528837]}},{"type":"Feature","properties":{"medij":"Mješovita","materijal":"Lijevano željezni","oblik":"ÄŒetvrtasti"},"geometry":{"type":"Point","coordinates":[16.503755,43.528852]}},{"type":"Feature","properties":{"medij":"Mješovita","materijal":"Lijevano željezni","oblik":"ÄŒetvrtasti"},"geometry":{"type":"Point","coordinates":[16.504083,43.529017]}},{"type":"Feature","properties":{"medij":"Mješovita","materijal":"Lijevano željezni","oblik":"ÄŒetvrtasti"},"geometry":{"type":"Point","coordinates":[16.501794,43.528319]}},{"type":"Feature","properties":{"medij":"Mješovita","materijal":"Lijevano željezni","oblik":"Okrugli"},"geometry":{"type":"Point","coordinates":[16.502291,43.528361]}},{"type":"Feature","properties":{"medij":"Mješovita","materijal":"Lijevano željezni","oblik":"Okrugli"},"geometry":{"type":"Point","coordinates":[16.504051,43.528827]}},{"type":"Feature","properties":{"medij":"Mješovita","materijal":"Lijevano željezni","oblik":"Okrugli"},"geometry":{"type":"Point","coordinates":[16.503983,43.529069]}},{"type":"Feature","properties":{"medij":"Mješovita","materijal":"Lijevano željezni","oblik":"Okrugli"},"geometry":{"type":"Point","coordinates":[16.503733,43.528908]}},{"type":"Feature","properties":{"medij":"Mješovita","materijal":"Lijevano željezni","oblik":"Okrugli"},"geometry":{"type":"Point","coordinates":[16.50385,43.529414]}},{"type":"Feature","properties":{"medij":"Mješovita","materijal":"Lijevano željezni","oblik":"Okrugli"},"geometry":{"type":"Point","coordinates":[16.504238,43.528204]}},{"type":"Feature","properties":{"kota_dna":31.2},"geometry":{"type":"Point","coordinates":[16.487759,43.523318]}},{"type":"Feature","properties":{"kota_dna":31.29},"geometry":{"type":"Point","coordinates":[16.488015,43.523425]}},{"type":"Feature","properties":{"kota_dna":26.94},"geometry":{"type":"Point","coordinates":[16.489159,43.523494]}},{"type":"Feature","properties":{"kota_dna":23.1},"geometry":{"type":"Point","coordinates":[16.489556,43.52351]}},{"type":"Feature","properties":{"kota_dna":20.92},"geometry":{"type":"Point","coordinates":[16.489826,43.523523]}},{"type":"Feature","properties":{},"geometry":{"type":"Point","coordinates":[16.490539,43.523794]}},{"type":"Feature","properties":{"kota_terena":17.51,"kota_dna":15.14},"geometry":{"type":"Point","coordinates":[16.490557,43.523876]}},{"type":"Feature","properties":{},"geometry":{"type":"Point","coordinates":[16.490602,43.52397]}},{"type":"Feature","properties":{"kota_terena":18.45,"kota_dna":15.27},"geometry":{"type":"Point","coordinates":[16.490654,43.524326]}},{"type":"Feature","properties":{"kota_terena":19.59,"kota_dna":15.39},"geometry":{"type":"Point","coordinates":[16.490605,43.524386]}},{"type":"Feature","properties":{"kota_terena":19.29,"kota_dna":15.51},"geometry":{"type":"Point","coordinates":[16.489994,43.52457]}},{"type":"Feature","properties":{"kota_terena":19,"kota_dna":15.57},"geometry":{"type":"Point","coordinates":[16.489826,43.524582]}},{"type":"Feature","properties":{"kota_terena":17.37,"kota_dna":15.97},"geometry":{"type":"Point","coordinates":[16.488828,43.525264]}},{"type":"Feature","properties":{"kota_terena":20.25,"kota_dna":17.54},"geometry":{"type":"Point","coordinates":[16.489112,43.525424]}},{"type":"Feature","properties":{},"geometry":{"type":"Point","coordinates":[16.488995,43.528134]}},{"type":"Feature","properties":{},"geometry":{"type":"Point","coordinates":[16.489817,43.528]}},{"type":"Feature","properties":{},"geometry":{"type":"Point","coordinates":[16.494209,43.526303]}},{"type":"Feature","properties":{},"geometry":{"type":"Point","coordinates":[16.494324,43.526202]}},{"type":"Feature","properties":{},"geometry":{"type":"Point","coordinates":[16.494459,43.526166]}},{"type":"Feature","properties":{"medij":"Oborinska","kota_terena":37.18,"kota_dna":32.76,"oblik":"Okrugli"},"geometry":{"type":"Point","coordinates":[16.497509,43.524551]}},{"type":"Feature","properties":{"medij":"Oborinska","kota_terena":32.81,"kota_dna":31.47,"oblik":"Okrugli"},"geometry":{"type":"Point","coordinates":[16.497269,43.524735]}},{"type":"Feature","properties":{"medij":"Oborinska","kota_terena":32.29,"kota_dna":29.93,"oblik":"Okrugli"},"geometry":{"type":"Point","coordinates":[16.497256,43.524973]}},{"type":"Feature","properties":{"medij":"Oborinska","kota_terena":32.23,"kota_dna":30.42,"oblik":"Okrugli"},"geometry":{"type":"Point","coordinates":[16.497248,43.525224]}},{"type":"Feature","properties":{"medij":"Oborinska","oblik":"Okrugli"},"geometry":{"type":"Point","coordinates":[16.497248,43.525578]}},{"type":"Feature","properties":{"medij":"Oborinska","oblik":"Okrugli"},"geometry":{"type":"Point","coordinates":[16.497406,43.525231]}},{"type":"Feature","properties":{"medij":"Oborinska","oblik":"Okrugli"},"geometry":{"type":"Point","coordinates":[16.497229,43.525953]}},{"type":"Feature","properties":{"medij":"Mješovita","kota_terena":46.8,"kota_dna":43.3,"oblik":"ÄŒetvrtasti"},"geometry":{"type":"Point","coordinates":[16.498461,43.52399]}},{"type":"Feature","properties":{"medij":"Mješovita","kota_terena":50.02,"kota_dna":48.01,"oblik":"ÄŒetvrtasti"},"geometry":{"type":"Point","coordinates":[16.499335,43.523679]}},{"type":"Feature","properties":{"medij":"Mješovita","oblik":"ÄŒetvrtasti"},"geometry":{"type":"Point","coordinates":[16.499955,43.522946]}},{"type":"Feature","properties":{"medij":"Mješovita","oblik":"ÄŒetvrtasti"},"geometry":{"type":"Point","coordinates":[16.500035,43.522925]}},{"type":"Feature","properties":{"medij":"Mješovita","kota_terena":50.16,"kota_dna":48.33,"oblik":"ÄŒetvrtasti"},"geometry":{"type":"Point","coordinates":[16.499321,43.523595]}},{"type":"Feature","properties":{"medij":"Mješovita","oblik":"ÄŒetvrtasti"},"geometry":{"type":"Point","coordinates":[16.499948,43.522921]}},{"type":"Feature","properties":{"medij":"Mješovita","kota_terena":65.38,"kota_dna":64.48,"oblik":"ÄŒetvrtasti"},"geometry":{"type":"Point","coordinates":[16.502379,43.524536]}},{"type":"Feature","properties":{"medij":"Mješovita","kota_terena":64.11,"kota_dna":63.31,"oblik":"ÄŒetvrtasti"},"geometry":{"type":"Point","coordinates":[16.502128,43.524786]}},{"type":"Feature","properties":{"medij":"Mješovita","oblik":"ÄŒetvrtasti"},"geometry":{"type":"Point","coordinates":[16.503402,43.525702]}},{"type":"Feature","properties":{"medij":"Mješovita","kota_terena":62.94,"kota_dna":62.07,"oblik":"ÄŒetvrtasti"},"geometry":{"type":"Point","coordinates":[16.503832,43.525666]}},{"type":"Feature","properties":{"medij":"Mješovita","kota_terena":60.94,"kota_dna":60.45,"oblik":"ÄŒetvrtasti"},"geometry":{"type":"Point","coordinates":[16.505433,43.525642]}},{"type":"Feature","properties":{"medij":"Mješovita","kota_terena":35.32,"kota_dna":29.77,"oblik":"Okrugli"},"geometry":{"type":"Point","coordinates":[16.497223,43.526646]}},{"type":"Feature","properties":{"medij":"Mješovita","kota_terena":52.37,"kota_dna":50.35,"oblik":"Okrugli"},"geometry":{"type":"Point","coordinates":[16.49981,43.523288]}},{"type":"Feature","properties":{"medij":"Mješovita","kota_terena":52.93,"kota_dna":49.72,"oblik":"Okrugli"},"geometry":{"type":"Point","coordinates":[16.499834,43.523458]}},{"type":"Feature","properties":{"medij":"Mješovita","kota_terena":53.92,"kota_dna":51.24,"oblik":"Okrugli"},"geometry":{"type":"Point","coordinates":[16.499905,43.522941]}},{"type":"Feature","properties":{"medij":"Mješovita","kota_terena":48.43,"kota_dna":46.77,"oblik":"Okrugli"},"geometry":{"type":"Point","coordinates":[16.498909,43.523804]}},{"type":"Feature","properties":{"medij":"Mješovita","kota_terena":43.45,"kota_dna":41.23,"oblik":"Okrugli"},"geometry":{"type":"Point","coordinates":[16.498317,43.524133]}},{"type":"Feature","properties":{"medij":"Mješovita","kota_terena":39.65,"kota_dna":38.3,"oblik":"Okrugli"},"geometry":{"type":"Point","coordinates":[16.497819,43.524297]}},{"type":"Feature","properties":{"medij":"Mješovita","kota_terena":37.12,"kota_dna":34.86,"oblik":"Okrugli"},"geometry":{"type":"Point","coordinates":[16.497317,43.524464]}},{"type":"Feature","properties":{"medij":"Mješovita","kota_terena":32.28,"kota_dna":30.28,"oblik":"Okrugli"},"geometry":{"type":"Point","coordinates":[16.497272,43.525235]}},{"type":"Feature","properties":{"medij":"Mješovita","kota_terena":32.48,"kota_dna":31.28,"oblik":"Okrugli"},"geometry":{"type":"Point","coordinates":[16.49728,43.524876]}},{"type":"Feature","properties":{"medij":"Mješovita","oblik":"Okrugli"},"geometry":{"type":"Point","coordinates":[16.497147,43.52528]}},{"type":"Feature","properties":{"medij":"Mješovita","oblik":"Okrugli"},"geometry":{"type":"Point","coordinates":[16.497123,43.524871]}},{"type":"Feature","properties":{"medij":"Mješovita","oblik":"Okrugli"},"geometry":{"type":"Point","coordinates":[16.49714,43.525295]}},{"type":"Feature","properties":{"medij":"Mješovita","oblik":"Okrugli"},"geometry":{"type":"Point","coordinates":[16.49709,43.525307]}},{"type":"Feature","properties":{"medij":"Mješovita","kota_terena":33.6,"kota_dna":30,"oblik":"Okrugli"},"geometry":{"type":"Point","coordinates":[16.497254,43.525966]}},{"type":"Feature","properties":{"medij":"Mješovita","oblik":"Okrugli"},"geometry":{"type":"Point","coordinates":[16.497119,43.525297]}},{"type":"Feature","properties":{"medij":"Mješovita","kota_terena":32.66,"kota_dna":30.23,"oblik":"Okrugli"},"geometry":{"type":"Point","coordinates":[16.497263,43.525585]}},{"type":"Feature","properties":{"medij":"Mješovita","kota_terena":34.5,"kota_dna":29.92,"oblik":"Okrugli"},"geometry":{"type":"Point","coordinates":[16.497247,43.526328]}},{"type":"Feature","properties":{"medij":"Mješovita","kota_terena":36.03,"kota_dna":29.5,"oblik":"Okrugli"},"geometry":{"type":"Point","coordinates":[16.496996,43.527059]}},{"type":"Feature","properties":{"medij":"Mješovita","kota_terena":35.02,"kota_dna":29.87,"oblik":"Okrugli"},"geometry":{"type":"Point","coordinates":[16.497242,43.526517]}},{"type":"Feature","properties":{"medij":"Mješovita","kota_terena":32.7,"kota_dna":27.87,"oblik":"Okrugli"},"geometry":{"type":"Point","coordinates":[16.496263,43.527577]}},{"type":"Feature","properties":{"medij":"Mješovita","kota_terena":35.78,"kota_dna":29.63,"oblik":"Okrugli"},"geometry":{"type":"Point","coordinates":[16.497131,43.526827]}},{"type":"Feature","properties":{"medij":"Mješovita","kota_terena":30.46,"kota_dna":27.42,"oblik":"Okrugli"},"geometry":{"type":"Point","coordinates":[16.495859,43.527713]}},{"type":"Feature","properties":{"medij":"Mješovita","kota_terena":32.69,"kota_dna":28.29,"oblik":"Okrugli"},"geometry":{"type":"Point","coordinates":[16.496545,43.527408]}},{"type":"Feature","properties":{"medij":"Mješovita","kota_terena":35.74,"kota_dna":28.7,"oblik":"Okrugli"},"geometry":{"type":"Point","coordinates":[16.496804,43.527252]}},{"type":"Feature","properties":{"medij":"Mješovita","kota_terena":34.38,"kota_dna":32.59,"oblik":"Okrugli"},"geometry":{"type":"Point","coordinates":[16.497249,43.527502]}},{"type":"Feature","properties":{"medij":"Mješovita","kota_terena":35.07,"kota_dna":30.37,"oblik":"Okrugli"},"geometry":{"type":"Point","coordinates":[16.496996,43.527207]}},{"type":"Feature","properties":{"medij":"Mješovita","kota_terena":35.81,"kota_dna":29.42,"oblik":"Okrugli"},"geometry":{"type":"Point","coordinates":[16.496895,43.527208]}},{"type":"Feature","properties":{"medij":"Mješovita","oblik":"Okrugli"},"geometry":{"type":"Point","coordinates":[16.496969,43.527067]}},{"type":"Feature","properties":{"medij":"Mješovita","oblik":"Okrugli"},"geometry":{"type":"Point","coordinates":[16.497145,43.526776]}},{"type":"Feature","properties":{"medij":"Mješovita","oblik":"Okrugli"},"geometry":{"type":"Point","coordinates":[16.4972,43.526628]}},{"type":"Feature","properties":{"medij":"Mješovita","oblik":"Okrugli"},"geometry":{"type":"Point","coordinates":[16.497119,43.526808]}},{"type":"Feature","properties":{"medij":"Mješovita","oblik":"Okrugli"},"geometry":{"type":"Point","coordinates":[16.497219,43.526524]}},{"type":"Feature","properties":{"medij":"Mješovita","oblik":"Okrugli"},"geometry":{"type":"Point","coordinates":[16.497205,43.52638]}},{"type":"Feature","properties":{"medij":"Mješovita","oblik":"Okrugli"},"geometry":{"type":"Point","coordinates":[16.497221,43.526311]}},{"type":"Feature","properties":{"medij":"Mješovita","kota_terena":62.7,"kota_dna":62.1,"oblik":"Okrugli"},"geometry":{"type":"Point","coordinates":[16.501484,43.52493]}},{"type":"Feature","properties":{"medij":"Mješovita","oblik":"Okrugli"},"geometry":{"type":"Point","coordinates":[16.501931,43.524992]}},{"type":"Feature","properties":{"medij":"Mješovita","oblik":"Okrugli"},"geometry":{"type":"Point","coordinates":[16.501709,43.52496]}},{"type":"Feature","properties":{"medij":"Mješovita","oblik":"Okrugli"},"geometry":{"type":"Point","coordinates":[16.502056,43.525215]}},{"type":"Feature","properties":{"medij":"Mješovita","oblik":"Okrugli"},"geometry":{"type":"Point","coordinates":[16.501955,43.525214]}},{"type":"Feature","properties":{"medij":"Mješovita","kota_terena":62.26,"kota_dna":61.74,"oblik":"Okrugli"},"geometry":{"type":"Point","coordinates":[16.50135,43.525126]}},{"type":"Feature","properties":{"medij":"Mješovita","oblik":"Okrugli"},"geometry":{"type":"Point","coordinates":[16.501499,43.525154]}},{"type":"Feature","properties":{"medij":"Mješovita","kota_terena":59.61,"kota_dna":58.39,"oblik":"Okrugli"},"geometry":{"type":"Point","coordinates":[16.501949,43.52573]}},{"type":"Feature","properties":{"medij":"Mješovita","kota_terena":60.08,"kota_dna":59.08,"oblik":"Okrugli"},"geometry":{"type":"Point","coordinates":[16.501915,43.525638]}},{"type":"Feature","properties":{"medij":"Mješovita","kota_terena":54.52,"kota_dna":52.49,"oblik":"Okrugli"},"geometry":{"type":"Point","coordinates":[16.501747,43.526789]}},{"type":"Feature","properties":{"medij":"Mješovita","kota_terena":57.6,"kota_dna":54.65,"oblik":"Okrugli"},"geometry":{"type":"Point","coordinates":[16.501772,43.526219]}},{"type":"Feature","properties":{"medij":"Mješovita","kota_terena":56.47,"kota_dna":54.83,"oblik":"Okrugli"},"geometry":{"type":"Point","coordinates":[16.501612,43.526414]}},{"type":"Feature","properties":{"medij":"Mješovita","kota_terena":55.19,"kota_dna":53.52,"oblik":"Okrugli"},"geometry":{"type":"Point","coordinates":[16.501847,43.526712]}},{"type":"Feature","properties":{"medij":"Mješovita","kota_terena":54.82,"kota_dna":53.2,"oblik":"Okrugli"},"geometry":{"type":"Point","coordinates":[16.501291,43.526582]}},{"type":"Feature","properties":{"medij":"Mješovita","kota_terena":52.9,"kota_dna":49.64,"oblik":"Okrugli"},"geometry":{"type":"Point","coordinates":[16.50096,43.526375]}},{"type":"Feature","properties":{"medij":"Mješovita","kota_terena":55.44,"kota_dna":54.14,"oblik":"Okrugli"},"geometry":{"type":"Point","coordinates":[16.501397,43.526529]}},{"type":"Feature","properties":{"medij":"Mješovita","kota_terena":49.43,"kota_dna":47.04,"oblik":"Okrugli"},"geometry":{"type":"Point","coordinates":[16.500693,43.526276]}},{"type":"Feature","properties":{"medij":"Mješovita","kota_terena":53.52,"kota_dna":52.42,"oblik":"Okrugli"},"geometry":{"type":"Point","coordinates":[16.501147,43.526629]}},{"type":"Feature","properties":{"medij":"Mješovita","oblik":"Okrugli"},"geometry":{"type":"Point","coordinates":[16.500512,43.526221]}},{"type":"Feature","properties":{"medij":"Mješovita","oblik":"Okrugli"},"geometry":{"type":"Point","coordinates":[16.500007,43.526102]}},{"type":"Feature","properties":{"medij":"Mješovita","kota_terena":70.53,"kota_dna":69.35,"oblik":"Okrugli"},"geometry":{"type":"Point","coordinates":[16.504827,43.524574]}},{"type":"Feature","properties":{"medij":"Mješovita","oblik":"Okrugli"},"geometry":{"type":"Point","coordinates":[16.504821,43.524444]}},{"type":"Feature","properties":{"medij":"Mješovita","kota_terena":69.84,"kota_dna":68.79,"oblik":"Okrugli"},"geometry":{"type":"Point","coordinates":[16.504838,43.524793]}},{"type":"Feature","properties":{"medij":"Mješovita","kota_terena":69.61,"kota_dna":68.47,"oblik":"Okrugli"},"geometry":{"type":"Point","coordinates":[16.504843,43.524885]}},{"type":"Feature","properties":{"medij":"Mješovita","kota_terena":68.38,"kota_dna":67.05,"oblik":"Okrugli"},"geometry":{"type":"Point","coordinates":[16.505147,43.525043]}},{"type":"Feature","properties":{"medij":"Mješovita","kota_terena":68.72,"kota_dna":67.86,"oblik":"Okrugli"},"geometry":{"type":"Point","coordinates":[16.504844,43.524993]}},{"type":"Feature","properties":{"medij":"Mješovita","kota_terena":71.8,"kota_dna":70.4,"oblik":"Okrugli"},"geometry":{"type":"Point","coordinates":[16.50583,43.524584]}},{"type":"Feature","properties":{"medij":"Mješovita","kota_terena":69.68,"kota_dna":68.12,"oblik":"Okrugli"},"geometry":{"type":"Point","coordinates":[16.505707,43.524882]}},{"type":"Feature","properties":{"medij":"Mješovita","kota_terena":75.12,"kota_dna":73.98,"oblik":"Okrugli"},"geometry":{"type":"Point","coordinates":[16.505988,43.524054]}},{"type":"Feature","properties":{"medij":"Mješovita","kota_terena":73.21,"kota_dna":71.78,"oblik":"Okrugli"},"geometry":{"type":"Point","coordinates":[16.50592,43.524389]}},{"type":"Feature","properties":{"medij":"Mješovita","kota_terena":76.16,"kota_dna":74.91,"oblik":"Okrugli"},"geometry":{"type":"Point","coordinates":[16.50581,43.523404]}},{"type":"Feature","properties":{"medij":"Mješovita","kota_terena":65.36,"kota_dna":64.2,"oblik":"Okrugli"},"geometry":{"type":"Point","coordinates":[16.503879,43.52538]}},{"type":"Feature","properties":{"medij":"Mješovita","kota_terena":62.51,"kota_dna":61.42,"oblik":"Okrugli"},"geometry":{"type":"Point","coordinates":[16.504047,43.525652]}},{"type":"Feature","properties":{"medij":"Mješovita","kota_terena":64.18,"kota_dna":63.58,"oblik":"Okrugli"},"geometry":{"type":"Point","coordinates":[16.50377,43.525583]}},{"type":"Feature","properties":{"medij":"Mješovita","kota_dna":61.48,"oblik":"Okrugli"},"geometry":{"type":"Point","coordinates":[16.503829,43.525718]}},{"type":"Feature","properties":{"medij":"Mješovita","kota_terena":62.18,"kota_dna":60.96,"oblik":"Okrugli"},"geometry":{"type":"Point","coordinates":[16.503857,43.525729]}},{"type":"Feature","properties":{"medij":"Mješovita","kota_terena":61.57,"kota_dna":60.3,"oblik":"Okrugli"},"geometry":{"type":"Point","coordinates":[16.503547,43.525901]}},{"type":"Feature","properties":{"medij":"Mješovita","oblik":"Okrugli"},"geometry":{"type":"Point","coordinates":[16.503322,43.525712]}},{"type":"Feature","properties":{"medij":"Mješovita","kota_terena":63.99,"kota_dna":62.51,"oblik":"Okrugli"},"geometry":{"type":"Point","coordinates":[16.50457,43.52547]}},{"type":"Feature","properties":{"medij":"Mješovita","kota_terena":67.31,"kota_dna":66.02,"oblik":"Okrugli"},"geometry":{"type":"Point","coordinates":[16.505167,43.525202]}},{"type":"Feature","properties":{"medij":"Mješovita","kota_terena":62.56,"kota_dna":61.21,"oblik":"Okrugli"},"geometry":{"type":"Point","coordinates":[16.505447,43.525447]}},{"type":"Feature","properties":{"medij":"Mješovita","kota_terena":61.27,"kota_dna":59.75,"oblik":"Okrugli"},"geometry":{"type":"Point","coordinates":[16.504622,43.525739]}},{"type":"Feature","properties":{"medij":"Mješovita","kota_terena":59.83,"kota_dna":58.81,"oblik":"Okrugli"},"geometry":{"type":"Point","coordinates":[16.504181,43.525983]}},{"type":"Feature","properties":{"medij":"Mješovita","kota_terena":60.19,"kota_dna":59.28,"oblik":"Okrugli"},"geometry":{"type":"Point","coordinates":[16.504172,43.525867]}},{"type":"Feature","properties":{"medij":"Mješovita","kota_terena":59.33,"kota_dna":57.76,"oblik":"Okrugli"},"geometry":{"type":"Point","coordinates":[16.503343,43.526127]}},{"type":"Feature","properties":{"medij":"Mješovita","kota_terena":59.67,"kota_dna":58.47,"oblik":"Okrugli"},"geometry":{"type":"Point","coordinates":[16.503843,43.526051]}},{"type":"Feature","properties":{"medij":"Mješovita","kota_terena":61.57,"kota_dna":60.55,"oblik":"Okrugli"},"geometry":{"type":"Point","coordinates":[16.502999,43.526156]}},{"type":"Feature","properties":{"medij":"Mješovita","kota_terena":63.44,"kota_dna":61.67,"oblik":"Okrugli"},"geometry":{"type":"Point","coordinates":[16.502916,43.525927]}},{"type":"Feature","properties":{"medij":"Mješovita","kota_terena":63.79,"kota_dna":62.86,"oblik":"Okrugli"},"geometry":{"type":"Point","coordinates":[16.502826,43.525721]}},{"type":"Feature","properties":{"medij":"Mješovita","oblik":"Okrugli"},"geometry":{"type":"Point","coordinates":[16.496874,43.527206]}},{"type":"Feature","properties":{"kota_terena":28.76,"kota_dna":26.81},"geometry":{"type":"Point","coordinates":[16.495478,43.530212]}},{"type":"Feature","properties":{"kota_terena":27.75,"kota_dna":25.95},"geometry":{"type":"Point","coordinates":[16.495402,43.529937]}}]}