{"type":"FeatureCollection","name":"tlacni_vod","crs":{"type":"name","properties":{"name":"urn:ogc:def:crs:OGC:1.3:CRS84"}},"xy_coordinate_resolution":0.000001,"features":[{"type":"Feature","properties":{"tip":"Tlačni vod"},"geometry":{"type":"LineString","coordinates":[[16.489507,43.525738],[16.489698,43.525956]]}},{"type":"Feature","properties":{"tip":"Tlačni vod"},"geometry":{"type":"LineString","coordinates":[[16.490013,43.52647],[16.490067,43.526617]]}},{"type":"Feature","properties":{"tip":"Tlačni vod"},"geometry":{"type":"LineString","coordinates":[[16.490067,43.526617],[16.4901,43.526738]]}},{"type":"Feature","properties":{"tip":"Tlačni vod"},"geometry":{"type":"LineString","coordinates":[[16.4901,43.526738],[16.490132,43.526853]]}},{"type":"Feature","properties":{"tip":"Tlačni vod"},"geometry":{"type":"LineString","coordinates":[[16.490132,43.526853],[16.490143,43.526902]]}},{"type":"Feature","properties":{"tip":"Tlačni vod"},"geometry":{"type":"LineString","coordinates":[[16.490136,43.527036],[16.490123,43.52708]]}},{"type":"Feature","properties":{"tip":"Tlačni vod"},"geometry":{"type":"LineString","coordinates":[[16.490111,43.527109],[16.490087,43.527154]]}},{"type":"Feature","properties":{"tip":"Tlačni vod"},"geometry":{"type":"LineString","coordinates":[[16.490063,43.527189],[16.490044,43.527216]]}},{"type":"Feature","properties":{"tip":"Tlačni vod"},"geometry":{"type":"LineString","coordinates":[[16.489976,43.527304],[16.489915,43.527391]]}},{"type":"Feature","properties":{"tip":"Tlačni vod"},"geometry":{"type":"LineString","coordinates":[[16.489887,43.527445],[16.489867,43.527514]]}},{"type":"Feature","properties":{"tip":"Tlačni vod"},"geometry":{"type":"LineString","coordinates":[[16.489843,43.527601],[16.489832,43.527661]]}},{"type":"Feature","properties":{"tip":"Tlačni vod"},"geometry":{"type":"LineString","coordinates":[[16.489388,43.529023],[16.489589,43.528719]]}},{"type":"Feature","properties":{"tip":"Tlačni vod"},"geometry":{"type":"LineString","coordinates":[[16.489589,43.528719],[16.48973,43.528513]]}},{"type":"Feature","properties":{"tip":"Tlačni vod"},"geometry":{"type":"LineString","coordinates":[[16.48973,43.528513],[16.489769,43.528455]]}},{"type":"Feature","properties":{"tip":"Tlačni vod"},"geometry":{"type":"LineString","coordinates":[[16.489803,43.528392],[16.489839,43.528317]]}},{"type":"Feature","properties":{"tip":"Tlačni vod"},"geometry":{"type":"LineString","coordinates":[[16.489883,43.528067],[16.48987,43.527991]]}},{"type":"Feature","properties":{"tip":"Tlačni vod"},"geometry":{"type":"LineString","coordinates":[[16.489266,43.529219],[16.489037,43.529567]]}},{"type":"Feature","properties":{"tip":"Tlačni vod"},"geometry":{"type":"LineString","coordinates":[[16.488846,43.529869],[16.488767,43.530028]]}},{"type":"Feature","properties":{"tip":"Tlačni vod"},"geometry":{"type":"LineString","coordinates":[[16.488767,43.530028],[16.488663,43.530263]]}},{"type":"Feature","properties":{"tip":"Tlačni vod"},"geometry":{"type":"LineString","coordinates":[[16.494097,43.523375],[16.495191,43.523236]]}},{"type":"Feature","properties":{"tip":"Tlačni vod"},"geometry":{"type":"LineString","coordinates":[[16.495191,43.523236],[16.496702,43.523024]]}},{"type":"Feature","properties":{"tip":"Tlačni vod"},"geometry":{"type":"LineString","coordinates":[[16.497913,43.522855],[16.499092,43.522689]]}},{"type":"Feature","properties":{"tip":"Tlačni vod"},"geometry":{"type":"LineString","coordinates":[[16.5056,43.52029],[16.511431923858645,43.519470826252316]]}},{"type":"Feature","properties":{"tip":"Tlačni vod"},"geometry":{"type":"LineString","coordinates":[[16.496707,43.523042],[16.497917,43.522872]]}},{"type":"Feature","properties":{"tip":"Tlačni vod"},"geometry":{"type":"LineString","coordinates":[[16.497917,43.522872],[16.499097,43.522707]]}},{"type":"Feature","properties":{"tip":"Tlačni vod"},"geometry":{"type":"LineString","coordinates":[[16.505604,43.520307],[16.511531842227498,43.51947447773682]]}},{"type":"Feature","properties":{"tip":"Tlačni vod"},"geometry":{"type":"LineString","coordinates":[[16.490557,43.523823],[16.490599,43.523815]]}},{"type":"Feature","properties":{"tip":"Tlačni vod"},"geometry":{"type":"LineString","coordinates":[[16.493844,43.526603],[16.49368,43.526683]]}},{"type":"Feature","properties":{"tip":"Tlačni vod"},"geometry":{"type":"LineString","coordinates":[[16.49368,43.526683],[16.49338,43.526822]]}},{"type":"Feature","properties":{"tip":"Tlačni vod"},"geometry":{"type":"LineString","coordinates":[[16.492148,43.527138],[16.492081,43.527145]]}},{"type":"Feature","properties":{"tip":"Tlačni vod"},"geometry":{"type":"LineString","coordinates":[[16.492081,43.527145],[16.492019,43.527148]]}},{"type":"Feature","properties":{"tip":"Tlačni vod"},"geometry":{"type":"LineString","coordinates":[[16.492019,43.527148],[16.491955,43.527146]]}},{"type":"Feature","properties":{"tip":"Tlačni vod"},"geometry":{"type":"LineString","coordinates":[[16.491955,43.527146],[16.491897,43.527141]]}},{"type":"Feature","properties":{"tip":"Tlačni vod"},"geometry":{"type":"LineString","coordinates":[[16.491897,43.527141],[16.491836,43.527131]]}},{"type":"Feature","properties":{"tip":"Tlačni vod"},"geometry":{"type":"LineString","coordinates":[[16.491735,43.527105],[16.491687,43.527087]]}},{"type":"Feature","properties":{"tip":"Tlačni vod"},"geometry":{"type":"LineString","coordinates":[[16.491687,43.527087],[16.491649,43.527073]]}},{"type":"Feature","properties":{"tip":"Tlačni vod"},"geometry":{"type":"LineString","coordinates":[[16.491649,43.527073],[16.491528,43.527024]]}},{"type":"Feature","properties":{"tip":"Tlačni vod"},"geometry":{"type":"LineString","coordinates":[[16.491409,43.52698],[16.491335,43.526959]]}},{"type":"Feature","properties":{"tip":"Tlačni vod"},"geometry":{"type":"LineString","coordinates":[[16.49112,43.526927],[16.491037,43.52692]]}},{"type":"Feature","properties":{"tip":"Tlačni vod"},"geometry":{"type":"LineString","coordinates":[[16.491037,43.52692],[16.490943,43.526915]]}},{"type":"Feature","properties":{"tip":"Tlačni vod"},"geometry":{"type":"LineString","coordinates":[[16.490943,43.526915],[16.490855,43.526917]]}},{"type":"Feature","properties":{"tip":"Tlačni vod"},"geometry":{"type":"LineString","coordinates":[[16.490855,43.526917],[16.490772,43.526924]]}},{"type":"Feature","properties":{"tip":"Tlačni vod"},"geometry":{"type":"LineString","coordinates":[[16.490772,43.526924],[16.490602,43.526946]]}},{"type":"Feature","properties":{"tip":"Tlačni vod"},"geometry":{"type":"LineString","coordinates":[[16.490602,43.526946],[16.490577,43.526948]]}},{"type":"Feature","properties":{"tip":"Tlačni vod"},"geometry":{"type":"LineString","coordinates":[[16.490503,43.523851],[16.489731,43.524043]]}},{"type":"Feature","properties":{"tip":"Tlačni vod"},"geometry":{"type":"LineString","coordinates":[[16.489731,43.524043],[16.489605,43.524075]]}},{"type":"Feature","properties":{"tip":"Tlačni vod"},"geometry":{"type":"LineString","coordinates":[[16.489605,43.524075],[16.489535,43.524099]]}},{"type":"Feature","properties":{"tip":"Tlačni vod"},"geometry":{"type":"LineString","coordinates":[[16.489467,43.524127],[16.489405,43.524137]]}},{"type":"Feature","properties":{"tip":"Tlačni vod"},"geometry":{"type":"LineString","coordinates":[[16.489405,43.524137],[16.489381,43.524135]]}},{"type":"Feature","properties":{"tip":"Tlačni vod"},"geometry":{"type":"LineString","coordinates":[[16.489348,43.524128],[16.48932,43.524131]]}},{"type":"Feature","properties":{"tip":"Tlačni vod"},"geometry":{"type":"LineString","coordinates":[[16.48932,43.524131],[16.489266,43.524136]]}},{"type":"Feature","properties":{"tip":"Tlačni vod"},"geometry":{"type":"LineString","coordinates":[[16.489206,43.524142],[16.489123,43.524156]]}},{"type":"Feature","properties":{"tip":"Tlačni vod"},"geometry":{"type":"LineString","coordinates":[[16.489123,43.524156],[16.489063,43.524162]]}},{"type":"Feature","properties":{"tip":"Tlačni vod"},"geometry":{"type":"LineString","coordinates":[[16.488684,43.524205],[16.488621,43.524213]]}},{"type":"Feature","properties":{"tip":"Tlačni vod"},"geometry":{"type":"LineString","coordinates":[[16.488621,43.524213],[16.488512,43.524231]]}},{"type":"Feature","properties":{"tip":"Tlačni vod"},"geometry":{"type":"LineString","coordinates":[[16.488512,43.524231],[16.488406,43.524253]]}},{"type":"Feature","properties":{"tip":"Tlačni vod"},"geometry":{"type":"LineString","coordinates":[[16.488406,43.524253],[16.48834,43.52427]]}},{"type":"Feature","properties":{"tip":"Tlačni vod"},"geometry":{"type":"LineString","coordinates":[[16.488274,43.524292],[16.488216,43.524316]]}},{"type":"Feature","properties":{"tip":"Tlačni vod"},"geometry":{"type":"LineString","coordinates":[[16.488216,43.524316],[16.488166,43.524345]]}},{"type":"Feature","properties":{"tip":"Tlačni vod"},"geometry":{"type":"LineString","coordinates":[[16.48788,43.524591],[16.487844,43.524627]]}},{"type":"Feature","properties":{"tip":"Tlačni vod"},"geometry":{"type":"LineString","coordinates":[[16.487844,43.524627],[16.487811,43.524665]]}},{"type":"Feature","properties":{"tip":"Tlačni vod"},"geometry":{"type":"LineString","coordinates":[[16.487811,43.524665],[16.487779,43.524706]]}},{"type":"Feature","properties":{"tip":"Tlačni vod"},"geometry":{"type":"LineString","coordinates":[[16.487779,43.524706],[16.487753,43.524746]]}},{"type":"Feature","properties":{"tip":"Tlačni vod"},"geometry":{"type":"LineString","coordinates":[[16.48773,43.524785],[16.487708,43.524826]]}},{"type":"Feature","properties":{"tip":"Tlačni vod","sliv":"Podsliv Sjever 2"},"geometry":{"type":"LineString","coordinates":[[16.487611,43.524943],[16.487568,43.524974]]}},{"type":"Feature","properties":{"tip":"Tlačni vod","sliv":"Podsliv Sjever 2"},"geometry":{"type":"LineString","coordinates":[[16.487568,43.524974],[16.48752,43.524996]]}},{"type":"Feature","properties":{"tip":"Tlačni vod","sliv":"Podsliv Sjever 2"},"geometry":{"type":"LineString","coordinates":[[16.487493,43.525008],[16.487461,43.525024]]}},{"type":"Feature","properties":{"tip":"Tlačni vod"},"geometry":{"type":"LineString","coordinates":[[16.499097,43.522707],[16.499237,43.522686],[16.499436,43.522652],[16.499723,43.522592],[16.499941,43.52254],[16.500259,43.522458],[16.500582,43.522353],[16.500803,43.522273],[16.50107,43.522163],[16.501235,43.52209],[16.501354,43.522035],[16.501476,43.521972],[16.501588,43.521915]]}},{"type":"Feature","properties":{"tip":"Tlačni vod"},"geometry":{"type":"LineString","coordinates":[[16.501574,43.521901],[16.501431,43.521973],[16.501303,43.522035],[16.501167,43.522099],[16.501059,43.522148],[16.500953,43.522192],[16.500803,43.522252],[16.500646,43.522312],[16.500465,43.522371],[16.500323,43.522417],[16.500195,43.522455],[16.500064,43.522491],[16.499962,43.522518],[16.499837,43.522548],[16.499687,43.522583],[16.49952,43.522618],[16.499419,43.522637],[16.499313,43.522655],[16.499197,43.522673],[16.499092,43.522689]]}},{"type":"Feature","properties":{"tip":"Tlačni vod"},"geometry":{"type":"LineString","coordinates":[[16.503123,43.521096],[16.503346,43.520982],[16.503527,43.520898],[16.503689,43.520825],[16.503899,43.520745],[16.504097,43.520669],[16.504371,43.520579],[16.504525,43.520536],[16.504639,43.520503],[16.504786,43.520466],[16.504926,43.520431],[16.505087,43.520397],[16.505238,43.520368],[16.505355,43.520346],[16.505486,43.520324],[16.505604,43.520307]]}},{"type":"Feature","properties":{"tip":"Tlačni vod"},"geometry":{"type":"LineString","coordinates":[[16.5056,43.52029],[16.505445,43.520312],[16.505323,43.520332],[16.505116,43.520372],[16.504898,43.52042],[16.504678,43.520476],[16.504579,43.520501],[16.504515,43.520518],[16.504461,43.520534],[16.504417,43.520547],[16.504343,43.520569],[16.504229,43.520606],[16.504036,43.520672],[16.503846,43.520743],[16.50357,43.520857],[16.503377,43.520946],[16.50324,43.521013],[16.503137,43.521066],[16.503109,43.521081]]}},{"type":"Feature","properties":{"tip":"Tlačni vod"},"geometry":{"type":"LineString","coordinates":[[16.489407,43.525626],[16.489507,43.525738]]}},{"type":"Feature","properties":{"tip":"Tlačni vod"},"geometry":{"type":"LineString","coordinates":[[16.489698,43.525956],[16.489866,43.526157]]}},{"type":"Feature","properties":{"tip":"Tlačni vod"},"geometry":{"type":"LineString","coordinates":[[16.489866,43.526157],[16.489904,43.526231]]}},{"type":"Feature","properties":{"tip":"Tlačni vod"},"geometry":{"type":"LineString","coordinates":[[16.489904,43.526231],[16.48994,43.526306]]}},{"type":"Feature","properties":{"tip":"Tlačni vod"},"geometry":{"type":"LineString","coordinates":[[16.48994,43.526306],[16.490013,43.52647]]}},{"type":"Feature","properties":{"tip":"Tlačni vod"},"geometry":{"type":"LineString","coordinates":[[16.490143,43.526902],[16.490146,43.526947]]}},{"type":"Feature","properties":{"tip":"Tlačni vod"},"geometry":{"type":"LineString","coordinates":[[16.490146,43.526947],[16.490144,43.526993]]}},{"type":"Feature","properties":{"tip":"Tlačni vod"},"geometry":{"type":"LineString","coordinates":[[16.490144,43.526993],[16.490136,43.527036]]}},{"type":"Feature","properties":{"tip":"Tlačni vod"},"geometry":{"type":"LineString","coordinates":[[16.490123,43.52708],[16.490111,43.527109]]}},{"type":"Feature","properties":{"tip":"Tlačni vod"},"geometry":{"type":"LineString","coordinates":[[16.490087,43.527154],[16.490063,43.527189]]}},{"type":"Feature","properties":{"tip":"Tlačni vod"},"geometry":{"type":"LineString","coordinates":[[16.490044,43.527216],[16.489976,43.527304]]}},{"type":"Feature","properties":{"tip":"Tlačni vod"},"geometry":{"type":"LineString","coordinates":[[16.489915,43.527391],[16.489887,43.527445]]}},{"type":"Feature","properties":{"tip":"Tlačni vod"},"geometry":{"type":"LineString","coordinates":[[16.489867,43.527514],[16.489843,43.527601]]}},{"type":"Feature","properties":{"tip":"Tlačni vod"},"geometry":{"type":"LineString","coordinates":[[16.489832,43.527661],[16.489827,43.52773]]}},{"type":"Feature","properties":{"tip":"Tlačni vod"},"geometry":{"type":"LineString","coordinates":[[16.489827,43.52773],[16.489829,43.527794]]}},{"type":"Feature","properties":{"tip":"Tlačni vod"},"geometry":{"type":"LineString","coordinates":[[16.489829,43.527794],[16.489839,43.527854]]}},{"type":"Feature","properties":{"tip":"Tlačni vod"},"geometry":{"type":"LineString","coordinates":[[16.489839,43.527854],[16.48987,43.527991]]}},{"type":"Feature","properties":{"tip":"Tlačni vod"},"geometry":{"type":"LineString","coordinates":[[16.489266,43.529219],[16.489388,43.529023]]}},{"type":"Feature","properties":{"tip":"Tlačni vod"},"geometry":{"type":"LineString","coordinates":[[16.489769,43.528455],[16.489803,43.528392]]}},{"type":"Feature","properties":{"tip":"Tlačni vod"},"geometry":{"type":"LineString","coordinates":[[16.489839,43.528317],[16.489863,43.528248]]}},{"type":"Feature","properties":{"tip":"Tlačni vod"},"geometry":{"type":"LineString","coordinates":[[16.489863,43.528248],[16.489877,43.528186]]}},{"type":"Feature","properties":{"tip":"Tlačni vod"},"geometry":{"type":"LineString","coordinates":[[16.489877,43.528186],[16.489883,43.528125]]}},{"type":"Feature","properties":{"tip":"Tlačni vod"},"geometry":{"type":"LineString","coordinates":[[16.489883,43.528125],[16.489883,43.528067]]}},{"type":"Feature","properties":{"tip":"Tlačni vod"},"geometry":{"type":"LineString","coordinates":[[16.489037,43.529567],[16.488846,43.529869]]}},{"type":"Feature","properties":{"tip":"Tlačni vod"},"geometry":{"type":"LineString","coordinates":[[16.496702,43.523024],[16.497913,43.522855]]}},{"type":"Feature","properties":{"tip":"Tlačni vod"},"geometry":{"type":"LineString","coordinates":[[16.501574,43.521901],[16.503109,43.521081]]}},{"type":"Feature","properties":{"tip":"Tlačni vod"},"geometry":{"type":"LineString","coordinates":[[16.494101,43.523392],[16.495196,43.523254]]}},{"type":"Feature","properties":{"tip":"Tlačni vod"},"geometry":{"type":"LineString","coordinates":[[16.495196,43.523254],[16.496707,43.523042]]}},{"type":"Feature","properties":{"tip":"Tlačni vod"},"geometry":{"type":"LineString","coordinates":[[16.501588,43.521915],[16.503123,43.521096]]}},{"type":"Feature","properties":{"tip":"Tlačni vod"},"geometry":{"type":"LineString","coordinates":[[16.490599,43.523815],[16.493981,43.52339]]}},{"type":"Feature","properties":{"tip":"Tlačni vod"},"geometry":{"type":"LineString","coordinates":[[16.490561,43.523841],[16.490603,43.523833]]}},{"type":"Feature","properties":{"tip":"Tlačni vod"},"geometry":{"type":"LineString","coordinates":[[16.490603,43.523833],[16.493985,43.523408]]}},{"type":"Feature","properties":{"tip":"Tlačni vod"},"geometry":{"type":"LineString","coordinates":[[16.49338,43.526822],[16.493105,43.526944]]}},{"type":"Feature","properties":{"tip":"Tlačni vod"},"geometry":{"type":"LineString","coordinates":[[16.493105,43.526944],[16.4929,43.526997]]}},{"type":"Feature","properties":{"tip":"Tlačni vod"},"geometry":{"type":"LineString","coordinates":[[16.4929,43.526997],[16.492675,43.527051]]}},{"type":"Feature","properties":{"tip":"Tlačni vod"},"geometry":{"type":"LineString","coordinates":[[16.492675,43.527051],[16.492472,43.52709]]}},{"type":"Feature","properties":{"tip":"Tlačni vod"},"geometry":{"type":"LineString","coordinates":[[16.492472,43.52709],[16.492307,43.527114]]}},{"type":"Feature","properties":{"tip":"Tlačni vod"},"geometry":{"type":"LineString","coordinates":[[16.492307,43.527114],[16.492148,43.527138]]}},{"type":"Feature","properties":{"tip":"Tlačni vod"},"geometry":{"type":"LineString","coordinates":[[16.491836,43.527131],[16.491796,43.527122]]}},{"type":"Feature","properties":{"tip":"Tlačni vod"},"geometry":{"type":"LineString","coordinates":[[16.491796,43.527122],[16.491735,43.527105]]}},{"type":"Feature","properties":{"tip":"Tlačni vod"},"geometry":{"type":"LineString","coordinates":[[16.491528,43.527024],[16.491409,43.52698]]}},{"type":"Feature","properties":{"tip":"Tlačni vod"},"geometry":{"type":"LineString","coordinates":[[16.491335,43.526959],[16.491239,43.526945]]}},{"type":"Feature","properties":{"tip":"Tlačni vod"},"geometry":{"type":"LineString","coordinates":[[16.491239,43.526945],[16.49112,43.526927]]}},{"type":"Feature","properties":{"tip":"Tlačni vod"},"geometry":{"type":"LineString","coordinates":[[16.490577,43.526948],[16.490499,43.526955]]}},{"type":"Feature","properties":{"tip":"Tlačni vod"},"geometry":{"type":"LineString","coordinates":[[16.489535,43.524099],[16.489467,43.524127]]}},{"type":"Feature","properties":{"tip":"Tlačni vod"},"geometry":{"type":"LineString","coordinates":[[16.489381,43.524135],[16.489348,43.524128]]}},{"type":"Feature","properties":{"tip":"Tlačni vod"},"geometry":{"type":"LineString","coordinates":[[16.489266,43.524136],[16.489206,43.524142]]}},{"type":"Feature","properties":{"tip":"Tlačni vod"},"geometry":{"type":"LineString","coordinates":[[16.489063,43.524162],[16.488945,43.524174]]}},{"type":"Feature","properties":{"tip":"Tlačni vod"},"geometry":{"type":"LineString","coordinates":[[16.488945,43.524174],[16.488819,43.524188]]}},{"type":"Feature","properties":{"tip":"Tlačni vod"},"geometry":{"type":"LineString","coordinates":[[16.488819,43.524188],[16.488751,43.524196]]}},{"type":"Feature","properties":{"tip":"Tlačni vod"},"geometry":{"type":"LineString","coordinates":[[16.488751,43.524196],[16.488684,43.524205]]}},{"type":"Feature","properties":{"tip":"Tlačni vod"},"geometry":{"type":"LineString","coordinates":[[16.48834,43.52427],[16.488274,43.524292]]}},{"type":"Feature","properties":{"tip":"Tlačni vod"},"geometry":{"type":"LineString","coordinates":[[16.488166,43.524345],[16.488119,43.52438]]}},{"type":"Feature","properties":{"tip":"Tlačni vod"},"geometry":{"type":"LineString","coordinates":[[16.488119,43.52438],[16.488079,43.524414]]}},{"type":"Feature","properties":{"tip":"Tlačni vod"},"geometry":{"type":"LineString","coordinates":[[16.488079,43.524414],[16.488039,43.52445]]}},{"type":"Feature","properties":{"tip":"Tlačni vod"},"geometry":{"type":"LineString","coordinates":[[16.488039,43.52445],[16.487976,43.524503]]}},{"type":"Feature","properties":{"tip":"Tlačni vod"},"geometry":{"type":"LineString","coordinates":[[16.487976,43.524503],[16.48788,43.524591]]}},{"type":"Feature","properties":{"tip":"Tlačni vod"},"geometry":{"type":"LineString","coordinates":[[16.487753,43.524746],[16.48773,43.524785]]}},{"type":"Feature","properties":{"tip":"Tlačni vod"},"geometry":{"type":"LineString","coordinates":[[16.487708,43.524826],[16.487684,43.524863]]}},{"type":"Feature","properties":{"tip":"Tlačni vod"},"geometry":{"type":"LineString","coordinates":[[16.487684,43.524863],[16.487651,43.524905]]}},{"type":"Feature","properties":{"tip":"Tlačni vod"},"geometry":{"type":"LineString","coordinates":[[16.487651,43.524905],[16.487611,43.524943]]}},{"type":"Feature","properties":{"tip":"Tlačni vod","sliv":"Podsliv Sjever 2"},"geometry":{"type":"LineString","coordinates":[[16.48752,43.524996],[16.487493,43.525008]]}},{"type":"Feature","properties":{"tip":"Tlačni vod","sliv":"Podsliv Sjever 2"},"geometry":{"type":"LineString","coordinates":[[16.487461,43.525024],[16.487414,43.525038]]}}]}