{"type":"FeatureCollection","name":"JavnaParkiralista","crs":{"type":"name","properties":{"name":"urn:ogc:def:crs:OGC:1.3:CRS84"}},"xy_coordinate_resolution":0.000001,"features":[{"type":"Feature","properties":{"naziv":"Dračevac - Dračevac bb","upravitelj":"Split Parking d.o.o.","zona":"III","polozaj":"Vanulično (zasebno)"},"geometry":{"type":"Polygon","coordinates":[[[16.49809,43.526954],[16.499804,43.526985],[16.499809,43.526948],[16.499976,43.526949],[16.499982,43.526777],[16.498823,43.526764],[16.498822,43.526884],[16.498289,43.52688],[16.49809,43.526921],[16.49809,43.526954]]]}}]}