{"type":"FeatureCollection","name":"Pjesacki_Prijelazi","crs":{"type":"name","properties":{"name":"urn:ogc:def:crs:OGC:1.3:CRS84"}},"xy_coordinate_resolution":0.000001,"features":[{"type":"Feature","properties":{},"geometry":{"type":"Point","coordinates":[16.502031,43.527486]}},{"type":"Feature","properties":{},"geometry":{"type":"Point","coordinates":[16.501226,43.527393]}},{"type":"Feature","properties":{},"geometry":{"type":"Point","coordinates":[16.502061,43.527384]}},{"type":"Feature","properties":{},"geometry":{"type":"Point","coordinates":[16.502244,43.527456]}},{"type":"Feature","properties":{},"geometry":{"type":"Point","coordinates":[16.501086,43.527452]}}]}