{"type":"FeatureCollection","name":"OBUHVATI_PP","crs":{"type":"name","properties":{"name":"urn:ogc:def:crs:OGC:1.3:CRS84"}},"xy_coordinate_resolution":0.000001,"features":[{"type":"Feature","properties":{"naziv":"Prostorni plan uređenja Grada Splita","poveznica":"https://www.split.hr/ukljuci-se/prostorno-planska-dokumentacija/planovi-na-snazi/ppu-grada-splita"},"geometry":{"type":"Polygon","coordinates":[[[16.486975858925536,43.52418522715357],[16.487023728824127,43.52397150611139],[16.48712947383484,43.52376901539912],[16.487288836817225,43.52358590593809],[16.48749540249165,43.52342954842041],[16.487740855723782,43.52330623664169],[16.488015316246837,43.52322093418681],[16.495379324490408,43.52154278494181],[16.496704775277617,43.52100570450282],[16.496707435158505,43.52100915592822],[16.496759290540364,43.520984678082094],[16.500578710794155,43.51958435741972],[16.500826085388486,43.519513004402995],[16.5010870332416,43.51947475267918],[16.501353204352995,43.519470826252316],[16.505687577147658,43.51968865563678],[16.505969975163335,43.51972286056185],[16.506238115339542,43.51979564445852],[16.506482074120544,43.519904313698135],[16.506692822745016,43.52004484656858],[16.506862561367136,43.52021204209292],[16.506985007725184,43.520399712490125],[16.50724841239555,43.52093024567232],[16.511059305965826,43.523489870370284],[16.51109971723645,43.52352258935075],[16.511015,43.523549],[16.510576,43.523718],[16.510217,43.524096],[16.509553,43.524836],[16.509479,43.524889],[16.508801,43.52534],[16.508332,43.525613],[16.507868,43.525868],[16.507664,43.525981],[16.507669,43.526047],[16.507823,43.526231],[16.507845,43.526324],[16.507745,43.526411],[16.507539,43.526621],[16.507048,43.526919],[16.506746,43.527035],[16.506166,43.527342],[16.505592,43.5276],[16.505114,43.527736],[16.504783,43.527811],[16.504327,43.528033],[16.503928,43.528143],[16.503782,43.528141],[16.503581,43.528125],[16.503404,43.528158],[16.503262,43.528231],[16.502933,43.528196],[16.502769,43.528198],[16.502567,43.528213],[16.502305,43.528237],[16.501882,43.528329],[16.499561,43.528822],[16.499066,43.5289],[16.498809,43.528919],[16.49837,43.528922],[16.498029,43.528926],[16.497523,43.52892],[16.496961,43.528957],[16.496522,43.528991],[16.49599,43.529046],[16.49519,43.529169],[16.494751,43.529227],[16.494552,43.529262],[16.49385,43.529342],[16.493569,43.529359],[16.493166,43.529368],[16.492184,43.529342],[16.489352,43.529273],[16.488401086482902,43.52923035813825],[16.48840681354507,43.529156926873206],[16.488478844003147,43.52895355412517],[16.489419239337558,43.52707864473945],[16.48941925113806,43.52660041057253],[16.48736578397391,43.52498085914065],[16.487186758348138,43.524807562915896],[16.487059047428872,43.524611842110325],[16.48698779169755,43.524401575458576],[16.486975858925536,43.52418522715357]]]}},{"type":"Feature","properties":{"naziv":"Generalni urbanistički plan Splita","poveznica":"https://www.split.hr/ukljuci-se/prostorno-planska-dokumentacija/planovi-na-snazi/gup-splita"},"geometry":{"type":"Polygon","coordinates":[[[16.486975858925536,43.52418522715357],[16.487023728824127,43.52397150611139],[16.48712947383484,43.52376901539912],[16.487288836817225,43.52358590593809],[16.48749540249165,43.52342954842041],[16.487740855723782,43.52330623664169],[16.488015316246837,43.52322093418681],[16.495379324490408,43.52154278494181],[16.496704775277617,43.52100570450282],[16.496707435158505,43.52100915592822],[16.496759290540364,43.520984678082094],[16.500578710794155,43.51958435741972],[16.500826085388486,43.519513004402995],[16.5010870332416,43.51947475267918],[16.501353204352995,43.519470826252316],[16.505687577147658,43.51968865563678],[16.505969975163335,43.51972286056185],[16.506238115339542,43.51979564445852],[16.506482074120544,43.519904313698135],[16.506692822745016,43.52004484656858],[16.506862561367136,43.52021204209292],[16.506985007725184,43.520399712490125],[16.50724841239555,43.52093024567232],[16.511059305965826,43.523489870370284],[16.51109969409116,43.52352257061116],[16.511024,43.523547],[16.510595,43.523708],[16.510237,43.524076],[16.509927,43.524422],[16.50983,43.52452],[16.509546,43.524844],[16.508856,43.525311],[16.508208,43.525675],[16.507629,43.525998],[16.507817,43.526224],[16.50785,43.526316],[16.507531,43.52663],[16.507039,43.526919],[16.506757,43.527033],[16.50615,43.527346],[16.505584,43.5276],[16.505127,43.527737],[16.504779,43.52781],[16.504332,43.528031],[16.503927,43.528149],[16.503588,43.528127],[16.503402,43.528159],[16.503259,43.528229],[16.502952,43.528197],[16.502787,43.528192],[16.502344,43.528232],[16.498927,43.528921],[16.497147,43.528958],[16.495771,43.529074],[16.495153,43.52918],[16.494645,43.529252],[16.494177,43.529302],[16.493478,43.52937],[16.492945,43.529363],[16.492528,43.529341],[16.491889,43.529329],[16.491162,43.52931],[16.490431,43.529294],[16.489488,43.529276],[16.489006,43.529254],[16.488401395771476,43.52922639250098],[16.48840681354507,43.529156926873206],[16.488478844003147,43.52895355412517],[16.489419239337558,43.52707864473945],[16.48941925113806,43.52660041057253],[16.48736578397391,43.52498085914065],[16.487186758348138,43.524807562915896],[16.487059047428872,43.524611842110325],[16.48698779169755,43.524401575458576],[16.486975858925536,43.52418522715357]]]}},{"type":"Feature","properties":{"naziv":"Urbanistički plan uređenja Bilice - sjever","poveznica":"https://www.split.hr/ukljuci-se/prostorno-planska-dokumentacija/planovi-na-snazi/upu-i-na-snazi"},"geometry":{"type":"Polygon","coordinates":[[[16.487168627944573,43.52477977752987],[16.487212,43.524753],[16.487323,43.524678],[16.487395,43.524627],[16.487439,43.524601],[16.48784,43.524395],[16.487861,43.524384],[16.487893,43.524367],[16.487922,43.524348],[16.488137,43.524198],[16.48852,43.524489],[16.488994,43.524845],[16.489036,43.524876],[16.489156,43.524931],[16.489254,43.524998],[16.489324,43.525073],[16.489615,43.525255],[16.489696,43.525306],[16.489893,43.525421],[16.489993,43.525496],[16.490133,43.52565],[16.49022,43.525731],[16.490307,43.52581],[16.490545,43.526053],[16.490724,43.526316],[16.490886,43.526554],[16.490945,43.526637],[16.49095,43.526829],[16.49095,43.526833],[16.490949,43.526836],[16.490948,43.526838],[16.490944,43.526842],[16.490935,43.526845],[16.490932,43.526845],[16.490822,43.526857],[16.490669,43.526892],[16.490645,43.526898],[16.490554,43.526928],[16.490519,43.526941],[16.490429,43.526979],[16.490406,43.52699],[16.490364,43.52701],[16.490325,43.527033],[16.490256,43.527074],[16.490199,43.527111],[16.490121,43.527169],[16.49011,43.527177],[16.490101,43.527186],[16.489975,43.527345],[16.489944,43.527406],[16.489918,43.527467],[16.489897,43.52753],[16.489885,43.527576],[16.489875,43.527622],[16.489868,43.527682],[16.489866,43.527743],[16.48987,43.527803],[16.489881,43.527871],[16.489898,43.527938],[16.489919,43.528001],[16.489933,43.528064],[16.489936,43.528095],[16.489936,43.528126],[16.489932,43.528183],[16.489919,43.528241],[16.489899,43.528297],[16.489868,43.52836],[16.489833,43.528421],[16.489793,43.528482],[16.489724,43.528584],[16.489642,43.528704],[16.489648,43.528706],[16.489582,43.528798],[16.489493,43.528933],[16.489399,43.529066],[16.489324,43.529181],[16.489294,43.529192],[16.489279,43.529194],[16.489268,43.529193],[16.489255,43.529191],[16.489236,43.529188],[16.489224,43.529186],[16.489202,43.529186],[16.489181,43.529188],[16.489161,43.529188],[16.489125,43.529235],[16.489009,43.529223],[16.488402599029676,43.529210964560896],[16.48840681354507,43.529156926873206],[16.488478844003147,43.52895355412517],[16.489419239337558,43.52707864473945],[16.48941925113806,43.52660041057253],[16.48736578397391,43.52498085914065],[16.487186758348138,43.524807562915896],[16.487168627944573,43.52477977752987]]]}},{"type":"Feature","properties":{"naziv":"Izmjena i dopuna DPU-a radne zone Dračevac","poveznica":"https://www.split.hr/ukljuci-se/prostorno-planska-dokumentacija/planovi-na-snazi/dpu-i-na-snazi"},"geometry":{"type":"Polygon","coordinates":[[[16.495378,43.52777],[16.495411,43.527714],[16.495412,43.527712],[16.495406,43.527622],[16.495406,43.527566],[16.495402,43.527559],[16.495409,43.527473],[16.495411,43.5274],[16.495413,43.527326],[16.495413,43.527315],[16.495414,43.527293],[16.495417,43.527247],[16.495427,43.527067],[16.495432,43.526966],[16.495435,43.526914],[16.495439,43.526825],[16.495443,43.526741],[16.495445,43.526718],[16.49545,43.52662],[16.495456,43.526524],[16.495462,43.526402],[16.495466,43.526301],[16.495471,43.526203],[16.495472,43.526195],[16.495479,43.526046],[16.495487,43.525879],[16.495494,43.525747],[16.495501,43.525655],[16.495506,43.525571],[16.495512,43.525474],[16.495513,43.525443],[16.495517,43.525374],[16.495522,43.525279],[16.495527,43.525177],[16.495532,43.525072],[16.495727,43.525007],[16.495726,43.525003],[16.495715,43.524891],[16.495614,43.524915],[16.49558,43.524796],[16.495864,43.524734],[16.496185,43.524659],[16.497184,43.524329],[16.499145,43.523682],[16.499226,43.523853],[16.499255,43.523928],[16.49927,43.523967],[16.499391,43.524272],[16.499527,43.524613],[16.499667,43.524954],[16.499689,43.525009],[16.49974,43.525134],[16.499814,43.525312],[16.500146,43.526142],[16.500242,43.526329],[16.500289,43.526422],[16.500376,43.526596],[16.500426,43.526694],[16.500441,43.526726],[16.500454,43.526754],[16.500472,43.526786],[16.500472,43.526787],[16.500563,43.526972],[16.500625,43.527093],[16.500645,43.527123],[16.500673,43.527184],[16.500683,43.527206],[16.500692,43.527226],[16.500708,43.527259],[16.500712,43.527267],[16.50084,43.527314],[16.500967,43.527361],[16.501119,43.527374],[16.501105,43.527493],[16.501144,43.527518],[16.501195,43.527547],[16.501153,43.527608],[16.501142,43.527609],[16.501096,43.527612],[16.501128,43.527692],[16.50119,43.527874],[16.501242,43.527879],[16.501444,43.527898],[16.501461,43.5279],[16.501419,43.528059],[16.501395,43.528056],[16.501153,43.528023],[16.50091,43.527992],[16.500666,43.527963],[16.500423,43.527936],[16.500028,43.527897],[16.499633,43.527865],[16.499237,43.527839],[16.498841,43.527818],[16.498444,43.527805],[16.498046,43.527797],[16.497648,43.527795],[16.497251,43.5278],[16.496854,43.527811],[16.496457,43.527828],[16.496228,43.527841],[16.496,43.527858],[16.495773,43.527879],[16.495599,43.5279],[16.495426,43.527925],[16.495383,43.527782],[16.495378,43.52777]]]}},{"type":"Feature","properties":{"naziv":"Generalni urbanistički plan Splita - neslužbeni pročišćeni kartografski prikazi","poveznica":"https://www.split.hr/ukljuci-se/prostorno-planska-dokumentacija/planovi-na-snazi/gup-splita"},"geometry":{"type":"Polygon","coordinates":[[[16.486975858925536,43.52418522715357],[16.487023728824127,43.52397150611139],[16.48712947383484,43.52376901539912],[16.487288836817225,43.52358590593809],[16.48749540249165,43.52342954842041],[16.487740855723782,43.52330623664169],[16.488015316246837,43.52322093418681],[16.495379324490408,43.52154278494181],[16.496704775277617,43.52100570450282],[16.496707435158505,43.52100915592822],[16.496759290540364,43.520984678082094],[16.500578710794155,43.51958435741972],[16.500826085388486,43.519513004402995],[16.5010870332416,43.51947475267918],[16.501353204352995,43.519470826252316],[16.505687577147658,43.51968865563678],[16.505969975163335,43.51972286056185],[16.506238115339542,43.51979564445852],[16.506482074120544,43.519904313698135],[16.506692822745016,43.52004484656858],[16.506862561367136,43.52021204209292],[16.506985007725184,43.520399712490125],[16.50724841239555,43.52093024567232],[16.511059305965826,43.523489870370284],[16.51109969409116,43.52352257061116],[16.511024,43.523547],[16.510595,43.523708],[16.510237,43.524076],[16.509927,43.524422],[16.50983,43.52452],[16.509546,43.524844],[16.508856,43.525311],[16.508208,43.525675],[16.507629,43.525998],[16.507817,43.526224],[16.50785,43.526316],[16.507531,43.52663],[16.507039,43.526919],[16.506757,43.527033],[16.50615,43.527346],[16.505584,43.5276],[16.505127,43.527737],[16.504779,43.52781],[16.504332,43.528031],[16.503927,43.528149],[16.503588,43.528127],[16.503402,43.528159],[16.503259,43.528229],[16.502952,43.528197],[16.502787,43.528192],[16.502344,43.528232],[16.498927,43.528921],[16.497147,43.528958],[16.495771,43.529074],[16.495153,43.52918],[16.494645,43.529252],[16.494177,43.529302],[16.493478,43.52937],[16.492945,43.529363],[16.492528,43.529341],[16.491889,43.529329],[16.491162,43.52931],[16.490431,43.529294],[16.489488,43.529276],[16.489006,43.529254],[16.488401395771476,43.52922639250098],[16.48840681354507,43.529156926873206],[16.488478844003147,43.52895355412517],[16.489419239337558,43.52707864473945],[16.48941925113806,43.52660041057253],[16.48736578397391,43.52498085914065],[16.487186758348138,43.524807562915896],[16.487059047428872,43.524611842110325],[16.48698779169755,43.524401575458576],[16.486975858925536,43.52418522715357]]]}},{"type":"Feature","properties":{"naziv":"Urbanistički plan uređenja područja Bilice II Mostine","poveznica":"https://www.split.hr/ukljuci-se/prostorno-planska-dokumentacija/planovi-na-snazi/upu-i-na-snazi"},"geometry":{"type":"Polygon","coordinates":[[[16.487729,43.523469],[16.48773,43.523451],[16.487734,43.523429],[16.487747,43.523359],[16.487976,43.523428],[16.488135,43.523448],[16.488797,43.523534],[16.488888,43.523596],[16.489016,43.523571],[16.489254,43.52359],[16.489279,43.523607],[16.489368,43.523599],[16.489515,43.523585],[16.489633,43.523558],[16.489534,43.523421],[16.489513,43.523312],[16.489474,43.523109],[16.48948,43.523098],[16.489657,43.523076],[16.490035,43.523028],[16.490045,43.522988],[16.490176,43.522968],[16.490656,43.522893],[16.491008,43.522934],[16.491495,43.522991],[16.491621,43.523209],[16.491804,43.523158],[16.49203,43.523094],[16.492057,43.52313],[16.49218,43.523096],[16.492183,43.523086],[16.4925,43.523006],[16.492496,43.522995],[16.492763,43.522921],[16.492763,43.522899],[16.493041,43.522825],[16.493286,43.522796],[16.493396,43.522753],[16.493465,43.522729],[16.4936,43.522694],[16.493744,43.522659],[16.493848,43.522629],[16.493997,43.52258],[16.494275,43.5225],[16.494412,43.522464],[16.494761,43.522377],[16.495282,43.522256],[16.495539,43.522199],[16.495558,43.52221],[16.4956,43.522224],[16.495657,43.522234],[16.495716,43.522229],[16.49577,43.522224],[16.495886,43.522455],[16.495832,43.522471],[16.495781,43.52249],[16.495764,43.522503],[16.495743,43.522517],[16.4957,43.522561],[16.495694,43.522585],[16.495696,43.522614],[16.495713,43.522693],[16.495744,43.522957],[16.495747,43.523039],[16.495755,43.523202],[16.495747,43.523344],[16.495728,43.523452],[16.495693,43.52359],[16.495598,43.52383],[16.495448,43.524088],[16.495318,43.524316],[16.49525,43.524447],[16.495194,43.524569],[16.495165,43.524648],[16.495137,43.524729],[16.495134,43.524739],[16.495133,43.524759],[16.495136,43.524779],[16.495142,43.524784],[16.495145,43.524788],[16.495161,43.524804],[16.495167,43.524805],[16.495196,43.524812],[16.495256,43.524815],[16.495343,43.524818],[16.495579,43.52481],[16.495603,43.52481],[16.495631,43.524917],[16.495639,43.524947],[16.4957,43.52494],[16.495735,43.524935],[16.495747,43.525015],[16.495552,43.525078],[16.495534,43.525579],[16.495506,43.526237],[16.495486,43.526786],[16.495459,43.527216],[16.495449,43.527457],[16.495444,43.52759],[16.495453,43.527721],[16.49542,43.527778],[16.495417,43.527784],[16.495406,43.527786],[16.495405,43.527786],[16.495301,43.527807],[16.495035,43.527848],[16.494898,43.527881],[16.49471,43.527923],[16.494604,43.527949],[16.494358,43.528011],[16.4943,43.528036],[16.494186,43.528083],[16.494099,43.5281],[16.494095,43.528128],[16.494061,43.52814],[16.493652,43.528286],[16.493613,43.528298],[16.493339,43.528373],[16.493135,43.528429],[16.493121,43.52839],[16.492871,43.528427],[16.492724,43.528437],[16.492633,43.528437],[16.492565,43.528435],[16.49252,43.528424],[16.492469,43.528411],[16.492423,43.528381],[16.492364,43.528335],[16.492326,43.528294],[16.492363,43.528201],[16.492439,43.528007],[16.49248,43.527878],[16.492482,43.527829],[16.492491,43.527668],[16.492467,43.527569],[16.492443,43.527471],[16.492407,43.5274],[16.492351,43.527296],[16.492332,43.527254],[16.492265,43.52718],[16.492165,43.52707],[16.49207,43.527011],[16.491955,43.526935],[16.491878,43.526901],[16.491698,43.526817],[16.491621,43.526797],[16.491427,43.526742],[16.491133,43.526711],[16.490928,43.526635],[16.490822,43.526481],[16.49068,43.526269],[16.49053,43.52608],[16.490455,43.525991],[16.490357,43.525926],[16.490335,43.525911],[16.490224,43.525792],[16.490037,43.525627],[16.489834,43.525473],[16.489674,43.525357],[16.489592,43.525305],[16.489261,43.525094],[16.489303,43.525057],[16.489243,43.524996],[16.489135,43.52492],[16.489,43.524865],[16.48869,43.524632],[16.488531,43.524504],[16.488473,43.524463],[16.488347,43.524369],[16.488216,43.524268],[16.488159,43.524196],[16.488144,43.524185],[16.487928,43.524031],[16.48779,43.523915],[16.487751,43.523792],[16.487744,43.523677],[16.487747,43.523543],[16.487729,43.523469]]]}}]}