{"type":"FeatureCollection","name":"PK","crs":{"type":"name","properties":{"name":"urn:ogc:def:crs:OGC:1.3:CRS84"}},"xy_coordinate_resolution":0.000001,"features":[{"type":"Feature","properties":{"naziv":"PK 000","sifra":"0049271000","statisticki_krug":"SK 0049271","kotar":"Kamen","naselje":"Kamen"},"geometry":{"type":"Polygon","coordinates":[[[16.505756,43.522318],[16.50585,43.521864],[16.506338,43.520826],[16.506875,43.520647],[16.50683287057407,43.52018279614021],[16.506862561367136,43.52021204209292],[16.506985007725184,43.520399712490125],[16.50724841239555,43.52093024567232],[16.511059305965826,43.523489870370284],[16.51109808790322,43.52352127016129],[16.511025,43.523545],[16.510595,43.523706],[16.510232,43.524079],[16.510184,43.524129],[16.510056,43.524166],[16.509997,43.524183],[16.509895,43.524204],[16.509378,43.524312],[16.508712,43.524407],[16.508264,43.524384],[16.507372,43.524028],[16.507264,43.523889],[16.506999,43.523545],[16.506516,43.523207],[16.505839,43.522819],[16.505756,43.522318]]]}},{"type":"Feature","properties":{"naziv":"PK 001","sifra":"0110663001","statisticki_krug":"SK 0110663","kotar":"Neslanovac","naselje":"Split"},"geometry":{"type":"Polygon","coordinates":[[[16.487403316452713,43.52501046067548],[16.487508,43.524964],[16.487658,43.524856],[16.487788,43.524689],[16.488051,43.524441],[16.489064,43.525236],[16.489668,43.525723],[16.490024,43.526281],[16.490218,43.526763],[16.49029,43.527183],[16.490258,43.527631],[16.490037,43.528241],[16.489631,43.528849],[16.489384,43.529194],[16.489328,43.529271],[16.48926,43.52927],[16.48840152251835,43.52922476737748],[16.48840681354507,43.529156926873206],[16.488478844003147,43.52895355412517],[16.489419239337558,43.52707864473945],[16.48941925113806,43.52660041057253],[16.487403316452713,43.52501046067548]]]}},{"type":"Feature","properties":{"naziv":"PK 002","sifra":"0110663002","statisticki_krug":"SK 0110663","kotar":"Neslanovac","naselje":"Split"},"geometry":{"type":"Polygon","coordinates":[[[16.486975858925536,43.52418522715357],[16.487023728824127,43.52397150611139],[16.48712947383484,43.52376901539912],[16.487156159956868,43.523738352811435],[16.488051,43.524441],[16.487788,43.524689],[16.487658,43.524856],[16.487508,43.524964],[16.487403316452713,43.52501046067548],[16.48736578397391,43.52498085914065],[16.487186758348138,43.524807562915896],[16.487059047428872,43.524611842110325],[16.48698779169755,43.524401575458576],[16.486975858925536,43.52418522715357]]]}},{"type":"Feature","properties":{"naziv":"PK 001","sifra":"0110701001","statisticki_krug":"SK 0110701","kotar":"Mejaši","naselje":"Split"},"geometry":{"type":"Polygon","coordinates":[[[16.487156159956868,43.523738352811435],[16.487288836817225,43.52358590593809],[16.48749540249165,43.52342954842041],[16.487740855723782,43.52330623664169],[16.488015316246837,43.52322093418681],[16.495379324490408,43.52154278494181],[16.496704775277617,43.52100570450282],[16.496707435158505,43.52100915592822],[16.496759290540364,43.520984678082094],[16.500578710794155,43.51958435741972],[16.500826085388486,43.519513004402995],[16.5010870332416,43.51947475267918],[16.501353204352995,43.519470826252316],[16.505687577147658,43.51968865563678],[16.505969975163335,43.51972286056185],[16.506238115339542,43.51979564445852],[16.506482074120544,43.519904313698135],[16.506692822745016,43.52004484656858],[16.50683287057407,43.52018279614021],[16.506875,43.520647],[16.506338,43.520826],[16.505281,43.520484],[16.505102,43.520466],[16.504764,43.5205],[16.504298,43.520578],[16.503864,43.520634],[16.503263,43.520626],[16.502906,43.520583],[16.502484,43.520554],[16.501999,43.520563],[16.50163,43.520624],[16.500535,43.520934],[16.499047,43.521356],[16.495664,43.522549],[16.49552,43.522582],[16.495177,43.52257],[16.494657,43.522608],[16.494051,43.522678],[16.493591,43.522758],[16.493158,43.522894],[16.492845,43.523035],[16.492319,43.523209],[16.491937,43.52332],[16.491479,43.523481],[16.49055,43.523598],[16.490406,43.523624],[16.490172,43.523707],[16.490041,43.523806],[16.489949,43.523892],[16.489763,43.523992],[16.489583,43.524057],[16.489451,43.524093],[16.489122,43.524137],[16.488941,43.524139],[16.488769,43.524176],[16.488606,43.524252],[16.488395,43.524289],[16.488207,43.524343],[16.488051,43.524441],[16.487156159956868,43.523738352811435]]]}},{"type":"Feature","properties":{"naziv":"PK 003","sifra":"0110701003","statisticki_krug":"SK 0110701","kotar":"Mejaši","naselje":"Split"},"geometry":{"type":"Polygon","coordinates":[[[16.488051,43.524441],[16.488207,43.524343],[16.488395,43.524289],[16.488606,43.524252],[16.488769,43.524176],[16.488941,43.524139],[16.489122,43.524137],[16.489451,43.524093],[16.491337,43.525427],[16.491718,43.525728],[16.492111,43.52621],[16.492417,43.52652],[16.492823,43.527026],[16.493016,43.527218],[16.49321,43.527427],[16.494031,43.52793],[16.494607,43.528937],[16.494721,43.529192],[16.494742,43.529237],[16.494646,43.529251],[16.494177,43.529301],[16.493478,43.529369],[16.492946,43.529362],[16.492529,43.52934],[16.49189,43.529328],[16.491163,43.529309],[16.490607,43.529294],[16.490601,43.528619],[16.490428,43.528615],[16.490221,43.528757],[16.489803,43.52928],[16.489432,43.529273],[16.489367,43.529272],[16.489328,43.529271],[16.489384,43.529194],[16.489631,43.528849],[16.490037,43.528241],[16.490258,43.527631],[16.49029,43.527183],[16.490218,43.526763],[16.490024,43.526281],[16.489668,43.525723],[16.489064,43.525236],[16.488051,43.524441]]]}},{"type":"Feature","properties":{"naziv":"PK 004","sifra":"0110701004","statisticki_krug":"SK 0110701","kotar":"Mejaši","naselje":"Split"},"geometry":{"type":"Polygon","coordinates":[[[16.489451,43.524093],[16.489583,43.524057],[16.489763,43.523992],[16.489949,43.523892],[16.490041,43.523806],[16.490172,43.523707],[16.490406,43.523624],[16.49055,43.523598],[16.491479,43.523481],[16.491937,43.52332],[16.492319,43.523209],[16.492845,43.523035],[16.493158,43.522894],[16.493591,43.522758],[16.494051,43.522678],[16.494657,43.522608],[16.495177,43.52257],[16.49552,43.522582],[16.495664,43.522549],[16.499047,43.521356],[16.500535,43.520934],[16.501611,43.523052],[16.500811,43.523237],[16.500194,43.523454],[16.499167,43.523684],[16.499684,43.524935],[16.500102,43.526064],[16.500174,43.526401],[16.500393,43.526942],[16.500578,43.527215],[16.500854,43.52739],[16.501024,43.527694],[16.500931,43.528515],[16.500253,43.528652],[16.499609,43.528782],[16.498927,43.52892],[16.497148,43.528957],[16.495771,43.529072],[16.495154,43.529178],[16.494742,43.529237],[16.494721,43.529192],[16.494607,43.528937],[16.494031,43.52793],[16.49321,43.527427],[16.493016,43.527218],[16.492823,43.527026],[16.492417,43.52652],[16.492111,43.52621],[16.491718,43.525728],[16.491337,43.525427],[16.489451,43.524093]]]}},{"type":"Feature","properties":{"naziv":"PK 005","sifra":"0110701005","statisticki_krug":"SK 0110701","kotar":"Mejaši","naselje":"Split"},"geometry":{"type":"Polygon","coordinates":[[[16.499167,43.523684],[16.500194,43.523454],[16.500811,43.523237],[16.501611,43.523052],[16.500535,43.520934],[16.50163,43.520624],[16.501999,43.520563],[16.502484,43.520554],[16.502906,43.520583],[16.503263,43.520626],[16.503864,43.520634],[16.504298,43.520578],[16.504764,43.5205],[16.505102,43.520466],[16.505281,43.520484],[16.506338,43.520826],[16.50585,43.521864],[16.505756,43.522318],[16.505839,43.522819],[16.506516,43.523207],[16.506999,43.523545],[16.507264,43.523889],[16.507092,43.524436],[16.506729,43.524436],[16.506549,43.524487],[16.506428,43.524516],[16.506362,43.524888],[16.505702,43.524902],[16.505507,43.52495],[16.505264,43.524999],[16.505104,43.524996],[16.504862,43.524982],[16.504606,43.524934],[16.504364,43.524943],[16.50404,43.52502],[16.503829,43.525039],[16.503235,43.525133],[16.502224,43.525403],[16.501916,43.525421],[16.501958,43.525622],[16.502051,43.525894],[16.501995,43.526004],[16.501853,43.526239],[16.501755,43.526337],[16.501508,43.526484],[16.501337,43.526575],[16.501286,43.52665],[16.50132,43.526744],[16.500939,43.526843],[16.500663,43.526888],[16.500393,43.526942],[16.500174,43.526401],[16.500102,43.526064],[16.499684,43.524935],[16.499167,43.523684]]]}},{"type":"Feature","properties":{"naziv":"PK 006","sifra":"0110701006","statisticki_krug":"SK 0110701","kotar":"Mejaši","naselje":"Split"},"geometry":{"type":"Polygon","coordinates":[[[16.500393,43.526942],[16.500663,43.526888],[16.500939,43.526843],[16.50132,43.526744],[16.501286,43.52665],[16.501337,43.526575],[16.501508,43.526484],[16.501755,43.526337],[16.501853,43.526239],[16.501995,43.526004],[16.502051,43.525894],[16.501958,43.525622],[16.501916,43.525421],[16.502224,43.525403],[16.503235,43.525133],[16.503829,43.525039],[16.50404,43.52502],[16.504364,43.524943],[16.504606,43.524934],[16.504862,43.524982],[16.505104,43.524996],[16.505264,43.524999],[16.505507,43.52495],[16.505702,43.524902],[16.506362,43.524888],[16.506428,43.524516],[16.506549,43.524487],[16.506729,43.524436],[16.507092,43.524436],[16.507264,43.523889],[16.507372,43.524028],[16.508264,43.524384],[16.508712,43.524407],[16.509378,43.524312],[16.509895,43.524204],[16.509997,43.524183],[16.510056,43.524166],[16.510184,43.524129],[16.509927,43.52442],[16.509905,43.524442],[16.50983,43.524518],[16.509546,43.524843],[16.509104,43.525142],[16.509001,43.525212],[16.508857,43.52531],[16.508209,43.525674],[16.50763,43.525996],[16.507687,43.526065],[16.507817,43.526222],[16.507851,43.526315],[16.50779,43.526374],[16.507531,43.526629],[16.507073,43.526898],[16.50704,43.526918],[16.506757,43.527032],[16.506356,43.527239],[16.50615,43.527345],[16.505894,43.52746],[16.505584,43.527598],[16.505548,43.527609],[16.505513,43.52762],[16.505128,43.527736],[16.504803,43.527804],[16.504779,43.527809],[16.504446,43.527973],[16.504413,43.527989],[16.504332,43.528029],[16.504222,43.528167],[16.503895,43.528173],[16.503589,43.528126],[16.503403,43.528158],[16.503259,43.528228],[16.502952,43.528195],[16.502787,43.52819],[16.502344,43.52823],[16.500931,43.528515],[16.501024,43.527694],[16.500854,43.52739],[16.500578,43.527215],[16.500393,43.526942]]]}}]}