{"type":"FeatureCollection","name":"Prometni_Znakovi","crs":{"type":"name","properties":{"name":"urn:ogc:def:crs:OGC:1.3:CRS84"}},"xy_coordinate_resolution":0.000001,"features":[{"type":"Feature","properties":{"broj":2,"opis":"Označava uklanjanje vozila »paukom« na mjestima na kojima je parkiranje ili zaustavljanje vozila prometnim znakom zabranjeno"},"geometry":{"type":"Point","coordinates":[16.500085,43.526167,85.8814]}},{"type":"Feature","properties":{"broj":2,"opis":"Sadrži pobliže objašnjenje prometnog znaka riječima ili simbolom, ako to nije jasno određeno simbolom znaka"},"geometry":{"type":"Point","coordinates":[16.48959,43.524104,61.3845]}},{"type":"Feature","properties":{"broj":2,"opis":"Cesta s prednošću prolaska"},"geometry":{"type":"Point","coordinates":[16.494231,43.525983,82.7885]}},{"type":"Feature","properties":{"broj":2,"opis":"Stajalište autobusa"},"geometry":{"type":"Point","coordinates":[16.493468,43.525501,82.2481]}},{"type":"Feature","properties":{"broj":2,"opis":"Stajalište autobusa"},"geometry":{"type":"Point","coordinates":[16.490684,43.52355,66.2317]}},{"type":"Feature","properties":{"broj":1,"opis":"Obavezno zaustavljanje"},"geometry":{"type":"Point","coordinates":[16.498025,43.524056,89.148]}},{"type":"Feature","properties":{"broj":5,"opis":"Opasnost na cesti"},"geometry":{"type":"Point","coordinates":[16.500513,43.527251,88.598]}},{"type":"Feature","properties":{"broj":2,"opis":"Sadrži pobliže objašnjenje prometnog znaka riječima ili simbolom, ako to nije jasno određeno simbolom znaka"},"geometry":{"type":"Point","coordinates":[16.498556,43.521501,97.4196]}},{"type":"Feature","properties":{"broj":5,"opis":"Obavezan smjer"},"geometry":{"type":"Point","coordinates":[16.500513,43.527252,87.6029]}},{"type":"Feature","properties":{"broj":2,"opis":"Ploča za označavanje prometnog otoka"},"geometry":{"type":"Point","coordinates":[16.489442,43.52411,59.8686]}},{"type":"Feature","properties":{"broj":1,"opis":"Pješački prijelaz"},"geometry":{"type":"Point","coordinates":[16.501055,43.527404,89.5316]}},{"type":"Feature","properties":{"broj":1,"opis":"Raskrižje sa sporednom cestom pod određenim kutom"},"geometry":{"type":"Point","coordinates":[16.488593,43.52424,60.2719]}},{"type":"Feature","properties":{"broj":2,"opis":"Označavaju položaj ceste s pravom prednosti"},"geometry":{"type":"Point","coordinates":[16.494699,43.526041,80.6152]}},{"type":"Feature","properties":{"broj":2,"opis":"Sadrži pobliže objašnjenje prometnog znaka riječima ili simbolom, ako to nije jasno određeno simbolom znaka"},"geometry":{"type":"Point","coordinates":[16.49418,43.522564,73.5886]}},{"type":"Feature","properties":{"broj":2,"opis":"Zabrana zaustavljanja i parkiranja"},"geometry":{"type":"Point","coordinates":[16.500085,43.526167,86.5165]}},{"type":"Feature","properties":{"broj":1,"opis":"Zabrana prometa u jednom smjeru"},"geometry":{"type":"Point","coordinates":[16.500905,43.527502,89.2858]}},{"type":"Feature","properties":{"broj":2,"opis":"Sadrži pobliže objašnjenje prometnog znaka riječima ili simbolom, ako to nije jasno određeno simbolom znaka"},"geometry":{"type":"Point","coordinates":[16.493277,43.525489,81.5961]}},{"type":"Feature","properties":{"broj":3,"opis":"Ograničenje brzine"},"geometry":{"type":"Point","coordinates":[16.498673,43.526127,81.0915]}},{"type":"Feature","properties":{"broj":2,"opis":"Označava uklanjanje vozila »paukom« na mjestima na kojima je parkiranje ili zaustavljanje vozila prometnim znakom zabranjeno"},"geometry":{"type":"Point","coordinates":[16.505965,43.521624,125.0318]}},{"type":"Feature","properties":{"broj":2,"opis":"Ograničenje brzine"},"geometry":{"type":"Point","coordinates":[16.4882,43.524273,59.7085]}},{"type":"Feature","properties":{"broj":2,"opis":"Označavaju duljinu dijela ceste na kojem prijeti opasnost označena prometnim znakom, odnosno na kojem se primjenjuje izričita naredba označena znakom, ili na koji se odnosi sadržaj znaka uz koji se ističe dopunska ploča"},"geometry":{"type":"Point","coordinates":[16.4882,43.524273,59.1123]}},{"type":"Feature","properties":{"broj":2,"opis":"Sadrži pobliže objašnjenje prometnog znaka riječima ili simbolom, ako to nije jasno određeno simbolom znaka"},"geometry":{"type":"Point","coordinates":[16.494901,43.524863,72.0215]}},{"type":"Feature","properties":{"broj":1,"opis":"Prometno zrcalo"},"geometry":{"type":"Point","coordinates":[16.49311,43.522821,69.0406]}},{"type":"Feature","properties":{"broj":2,"opis":"Umjetna izbočina ili uzdignuta ploha"},"geometry":{"type":"Point","coordinates":[16.501525,43.526981,97.9417]}},{"type":"Feature","properties":{"broj":2,"opis":"Stajalište autobusa"},"geometry":{"type":"Point","coordinates":[16.504168,43.520653,125.6817]}},{"type":"Feature","properties":{"broj":2,"opis":"Označavaju duljinu dijela ceste na kojem prijeti opasnost označena prometnim znakom, odnosno na kojem se primjenjuje izričita naredba označena znakom, ili na koji se odnosi sadržaj znaka uz koji se ističe dopunska ploča"},"geometry":{"type":"Point","coordinates":[16.495413,43.522601,76.9113]}},{"type":"Feature","properties":{"broj":2,"opis":"Sadrži pobliže objašnjenje prometnog znaka riječima ili simbolom, ako to nije jasno određeno simbolom znaka"},"geometry":{"type":"Point","coordinates":[16.504169,43.520654,125.0679]}},{"type":"Feature","properties":{"broj":3,"opis":"Zabrana prometa za autobuse"},"geometry":{"type":"Point","coordinates":[16.501592,43.526805,99.8509]}},{"type":"Feature","properties":{"broj":1,"opis":"Cesta s prednošću prolaska"},"geometry":{"type":"Point","coordinates":[16.495769,43.52261,78.007]}},{"type":"Feature","properties":{"broj":2,"opis":"Obavezno zaustavljanje"},"geometry":{"type":"Point","coordinates":[16.494586,43.526237,81.9457]}},{"type":"Feature","properties":{"broj":2,"opis":"Ploča za označavanje prometnog otoka"},"geometry":{"type":"Point","coordinates":[16.489477,43.52409,59.7967]}},{"type":"Feature","properties":{"broj":2,"opis":"Zona u kojoj je ograničena brzina"},"geometry":{"type":"Point","coordinates":[16.505152,43.525262,112.1502]}},{"type":"Feature","properties":{"broj":1,"opis":"Prometno zrcalo"},"geometry":{"type":"Point","coordinates":[16.500242,43.520992,108.3382]}},{"type":"Feature","properties":{"broj":2,"opis":"Zabrana zaustavljanja i parkiranja"},"geometry":{"type":"Point","coordinates":[16.500469,43.526925,88.6787]}},{"type":"Feature","properties":{"broj":1,"opis":"Obavezno zaustavljanje"},"geometry":{"type":"Point","coordinates":[16.492222,43.525542,78.7878]}},{"type":"Feature","properties":{"broj":1,"opis":"Opcinski sud"},"geometry":{"type":"Point","coordinates":[16.499182,43.526128,83.7031]}},{"type":"Feature","properties":{"broj":2,"opis":"Stajalište autobusa"},"geometry":{"type":"Point","coordinates":[16.494901,43.524863,72.6467]}},{"type":"Feature","properties":{"broj":2,"opis":"Sadrži pobliže objašnjenje prometnog znaka riječima ili simbolom, ako to nije jasno određeno simbolom znaka"},"geometry":{"type":"Point","coordinates":[16.490834,43.523605,65.158]}},{"type":"Feature","properties":{"broj":2,"opis":"Cesta s prednošću prolaska"},"geometry":{"type":"Point","coordinates":[16.4947,43.52604,81.4117]}},{"type":"Feature","properties":{"broj":2,"opis":"Stajalište autobusa"},"geometry":{"type":"Point","coordinates":[16.490834,43.523605,65.7496]}},{"type":"Feature","properties":{"broj":1,"opis":"Raskrižje s cestom s prednošću prolaska"},"geometry":{"type":"Point","coordinates":[16.501056,43.527539,89.6629]}},{"type":"Feature","properties":{"broj":1,"opis":"Obavezno zaustavljanje"},"geometry":{"type":"Point","coordinates":[16.493333,43.522724,70.1035]}},{"type":"Feature","properties":{"broj":3,"opis":"Zabrana prometa za teretna motorna vozila"},"geometry":{"type":"Point","coordinates":[16.501592,43.526805,99.2368]}},{"type":"Feature","properties":{"broj":5,"opis":"Sadrže simbole vrste vozila na koje se prometni znak odnosi"},"geometry":{"type":"Point","coordinates":[16.500513,43.527252,87.004]}},{"type":"Feature","properties":{"broj":2,"opis":"Stajalište autobusa"},"geometry":{"type":"Point","coordinates":[16.49418,43.522564,74.1827]}},{"type":"Feature","properties":{"broj":2,"opis":"Stajalište autobusa"},"geometry":{"type":"Point","coordinates":[16.498555,43.5215,97.9926]}},{"type":"Feature","properties":{"broj":5,"opis":"Žuto trepćuće svjetlo za obilježavanje radova na cesti i zapreke"},"geometry":{"type":"Point","coordinates":[16.500512,43.527251,88.767]}},{"type":"Feature","properties":{"broj":2,"opis":"Sadrži pobliže objašnjenje prometnog znaka riječima ili simbolom, ako to nije jasno određeno simbolom znaka"},"geometry":{"type":"Point","coordinates":[16.488986,43.5241,61.3507]}},{"type":"Feature","properties":{"broj":1,"opis":"Cesta s prednošću prolaska"},"geometry":{"type":"Point","coordinates":[16.493486,43.522797,69.9205]}},{"type":"Feature","properties":{"broj":1,"opis":"Parkiralište"},"geometry":{"type":"Point","coordinates":[16.501992,43.527926,91.4233]}},{"type":"Feature","properties":{"broj":3,"opis":"Opasnost na cesti"},"geometry":{"type":"Point","coordinates":[16.498673,43.526127,82.1633]}},{"type":"Feature","properties":{"broj":1,"opis":"Prometno zrcalo"},"geometry":{"type":"Point","coordinates":[16.491275,43.525458,76.0322]}},{"type":"Feature","properties":{"broj":3,"opis":"Obavezan smjer"},"geometry":{"type":"Point","coordinates":[16.498516,43.52612,81.5462]}},{"type":"Feature","properties":{"broj":2,"opis":"Stajalište autobusa"},"geometry":{"type":"Point","coordinates":[16.498854,43.521476,99.2529]}},{"type":"Feature","properties":{"broj":2,"opis":"Obavezno obilaženje"},"geometry":{"type":"Point","coordinates":[16.489477,43.52409,60.3999]}},{"type":"Feature","properties":{"broj":2,"opis":"Označava uklanjanje vozila »paukom« na mjestima na kojima je parkiranje ili zaustavljanje vozila prometnim znakom zabranjeno"},"geometry":{"type":"Point","coordinates":[16.500469,43.526925,88.0313]}},{"type":"Feature","properties":{"broj":1,"opis":"Obavezno zaustavljanje"},"geometry":{"type":"Point","coordinates":[16.497036,43.522311,86.0376]}},{"type":"Feature","properties":{"broj":3,"opis":"Obavezno zaustavljanje"},"geometry":{"type":"Point","coordinates":[16.498516,43.52612,82.1489]}},{"type":"Feature","properties":{"broj":2,"opis":"Označava uklanjanje vozila »paukom« na mjestima na kojima je parkiranje ili zaustavljanje vozila prometnim znakom zabranjeno"},"geometry":{"type":"Point","coordinates":[16.500769,43.527419,89.1465]}},{"type":"Feature","properties":{"broj":1,"opis":"Stajalište autobusa"},"geometry":{"type":"Point","coordinates":[16.501591,43.527487,90.7537]}},{"type":"Feature","properties":{"broj":1,"opis":"Zabrana prometa u jednom smjeru"},"geometry":{"type":"Point","coordinates":[16.500959,43.527508,89.475]}},{"type":"Feature","properties":{"broj":1,"opis":"Prometno zrcalo - okruglo"},"geometry":{"type":"Point","coordinates":[16.501871,43.525431,106.8719]}},{"type":"Feature","properties":{"broj":2,"opis":"Zabrana prometa u oba smjera"},"geometry":{"type":"Point","coordinates":[16.48959,43.524104,61.9881]}},{"type":"Feature","properties":{"broj":1,"opis":"Prometno zrcalo - okruglo"},"geometry":{"type":"Point","coordinates":[16.506006,43.523978,120.4865]}},{"type":"Feature","properties":{"broj":1,"opis":"Obavezno zaustavljanje"},"geometry":{"type":"Point","coordinates":[16.495294,43.524936,72.8245]}},{"type":"Feature","properties":{"broj":3,"opis":"Sadrži pobliže objašnjenje prometnog znaka riječima ili simbolom, ako to nije jasno određeno simbolom znaka"},"geometry":{"type":"Point","coordinates":[16.498516,43.52612,80.9208]}},{"type":"Feature","properties":{"broj":1,"opis":"Obavezno zaustavljanje"},"geometry":{"type":"Point","coordinates":[16.502148,43.527371,92.6176]}},{"type":"Feature","properties":{"broj":1,"opis":"Stajalište autobusa"},"geometry":{"type":"Point","coordinates":[16.499623,43.526994,87.0386]}},{"type":"Feature","properties":{"broj":1,"opis":"Obavezno zaustavljanje"},"geometry":{"type":"Point","coordinates":[16.491139,43.523475,66.2315]}},{"type":"Feature","properties":{"broj":2,"opis":"Zabrana prometa u oba smjera"},"geometry":{"type":"Point","coordinates":[16.491176,43.525313,75.6149]}},{"type":"Feature","properties":{"broj":1,"opis":"Parkiralište"},"geometry":{"type":"Point","coordinates":[16.502124,43.527905,92.0589]}},{"type":"Feature","properties":{"broj":2,"opis":"Sadrži pobliže objašnjenje prometnog znaka riječima ili simbolom, ako to nije jasno određeno simbolom znaka"},"geometry":{"type":"Point","coordinates":[16.493468,43.525502,81.6259]}},{"type":"Feature","properties":{"broj":1,"opis":"Obavezno zaustavljanje"},"geometry":{"type":"Point","coordinates":[16.501295,43.527386,90.8723]}},{"type":"Feature","properties":{"broj":2,"opis":"Slijepa cesta"},"geometry":{"type":"Point","coordinates":[16.494587,43.526236,82.017]}},{"type":"Feature","properties":{"broj":1,"opis":"Zabrana prometa za vozila čija ukupna masa prelazi određenu masu"},"geometry":{"type":"Point","coordinates":[16.490375,43.525446,71.0022]}},{"type":"Feature","properties":{"broj":1,"opis":"Zabrana skretanja"},"geometry":{"type":"Point","coordinates":[16.500787,43.527313,89.1852]}},{"type":"Feature","properties":{"broj":2,"opis":"Zabrana prometa u jednom smjeru"},"geometry":{"type":"Point","coordinates":[16.501975,43.527265,93.2141]}},{"type":"Feature","properties":{"broj":1,"opis":"Cesta s prednošću prolaska"},"geometry":{"type":"Point","coordinates":[16.493007,43.522873,68.519]}},{"type":"Feature","properties":{"broj":1,"opis":"Prometno zrcalo"},"geometry":{"type":"Point","coordinates":[16.505167,43.525251,112.6009]}},{"type":"Feature","properties":{"broj":1,"opis":"Pješački prijelaz"},"geometry":{"type":"Point","coordinates":[16.501923,43.527396,91.7211]}},{"type":"Feature","properties":{"broj":2,"opis":"Zabrana prometa za teretna motorna vozila"},"geometry":{"type":"Point","coordinates":[16.505965,43.521624,125.6039]}},{"type":"Feature","properties":{"broj":2,"opis":"Stajalište autobusa"},"geometry":{"type":"Point","coordinates":[16.494035,43.52268,72.9887]}},{"type":"Feature","properties":{"broj":1,"opis":"Obavezno zaustavljanje"},"geometry":{"type":"Point","coordinates":[16.489895,43.523986,62.1458]}},{"type":"Feature","properties":{"broj":1,"opis":"Raskrižje sa sporednom cestom pod određenim kutom"},"geometry":{"type":"Point","coordinates":[16.487796,43.524596,58.8049]}},{"type":"Feature","properties":{"broj":2,"opis":"Sadrži pobliže objašnjenje prometnog znaka riječima ili simbolom, ako to nije jasno određeno simbolom znaka"},"geometry":{"type":"Point","coordinates":[16.501458,43.527243,91.7744]}},{"type":"Feature","properties":{"broj":1,"opis":"Zabrana zaustavljanja i parkiranja"},"geometry":{"type":"Point","coordinates":[16.501245,43.527687,91.0462]}},{"type":"Feature","properties":{"broj":1,"opis":"Raskrižje s cestom s prednošću prolaska"},"geometry":{"type":"Point","coordinates":[16.500806,43.527468,89.251]}},{"type":"Feature","properties":{"broj":2,"opis":"Označavaju položaj ceste s pravom prednosti"},"geometry":{"type":"Point","coordinates":[16.494231,43.525983,82.0356]}},{"type":"Feature","properties":{"broj":2,"opis":"Sadrži pobliže objašnjenje prometnog znaka riječima ili simbolom, ako to nije jasno određeno simbolom znaka"},"geometry":{"type":"Point","coordinates":[16.490684,43.52355,65.5848]}},{"type":"Feature","properties":{"broj":1,"opis":"Obavezno zaustavljanje"},"geometry":{"type":"Point","coordinates":[16.49488,43.52489,72.0182]}},{"type":"Feature","properties":{"broj":2,"opis":"Obavezno obilaženje"},"geometry":{"type":"Point","coordinates":[16.489442,43.524109,60.4584]}},{"type":"Feature","properties":{"broj":1,"opis":"Stajalište autobusa"},"geometry":{"type":"Point","coordinates":[16.499975,43.526873,87.2329]}},{"type":"Feature","properties":{"broj":2,"opis":"Sadrži pobliže objašnjenje prometnog znaka riječima ili simbolom, ako to nije jasno određeno simbolom znaka"},"geometry":{"type":"Point","coordinates":[16.498854,43.521476,98.6476]}},{"type":"Feature","properties":{"broj":1,"opis":"Zabrana prometa za vozila čija ukupna masa prelazi određenu masu"},"geometry":{"type":"Point","coordinates":[16.506402,43.520722,124.8068]}},{"type":"Feature","properties":{"broj":3,"opis":"Sadrži pobliže objašnjenje prometnog znaka riječima ili simbolom, ako to nije jasno određeno simbolom znaka"},"geometry":{"type":"Point","coordinates":[16.498673,43.526127,81.4201]}},{"type":"Feature","properties":{"broj":2,"opis":"Umjetna izbočina ili uzdignuta ploha"},"geometry":{"type":"Point","coordinates":[16.505151,43.525263,111.5309]}},{"type":"Feature","properties":{"broj":5,"opis":"Sadrži pobliže objašnjenje prometnog znaka riječima ili simbolom, ako to nije jasno određeno simbolom znaka"},"geometry":{"type":"Point","coordinates":[16.500513,43.527252,87.8836]}},{"type":"Feature","properties":{"broj":2,"opis":"Sadrži pobliže objašnjenje prometnog znaka riječima ili simbolom, ako to nije jasno određeno simbolom znaka"},"geometry":{"type":"Point","coordinates":[16.491176,43.525313,75.0028]}},{"type":"Feature","properties":{"broj":3,"opis":"Sadrži pobliže objašnjenje prometnog znaka riječima ili simbolom, ako to nije jasno određeno simbolom znaka"},"geometry":{"type":"Point","coordinates":[16.501592,43.526804,98.6175]}},{"type":"Feature","properties":{"broj":2,"opis":"Obavezno zaustavljanje"},"geometry":{"type":"Point","coordinates":[16.501975,43.527265,93.1625]}},{"type":"Feature","properties":{"broj":1,"opis":"Zabrana zaustavljanja i parkiranja"},"geometry":{"type":"Point","coordinates":[16.497158,43.52675,80.7823]}},{"type":"Feature","properties":{"broj":1,"opis":"Promet u oba smjera"},"geometry":{"type":"Point","coordinates":[16.497918,43.524088,88.5388]}},{"type":"Feature","properties":{"broj":1,"opis":"Obavezno zaustavljanje"},"geometry":{"type":"Point","coordinates":[16.49472,43.526243,82.1437]}},{"type":"Feature","properties":{"broj":2,"opis":"Zona u kojoj je ograničena brzina"},"geometry":{"type":"Point","coordinates":[16.501525,43.526981,98.5604]}},{"type":"Feature","properties":{"broj":1,"opis":"Obavezno zaustavljanje"},"geometry":{"type":"Point","coordinates":[16.49087,43.523642,64.9865]}},{"type":"Feature","properties":{"broj":2,"opis":"Postaja za punjenje električnih vozila"},"geometry":{"type":"Point","coordinates":[16.501458,43.527242,92.4023]}},{"type":"Feature","properties":{"broj":1,"opis":"Prometno zrcalo - okruglo"},"geometry":{"type":"Point","coordinates":[16.50338,43.526476,103.7091]}},{"type":"Feature","properties":{"broj":2,"opis":"Ograničenje brzine"},"geometry":{"type":"Point","coordinates":[16.495413,43.522601,77.5267]}},{"type":"Feature","properties":{"broj":2,"opis":"Zabrana zaustavljanja i parkiranja"},"geometry":{"type":"Point","coordinates":[16.493277,43.525488,82.2169]}},{"type":"Feature","properties":{"broj":1,"opis":"Obavezno zaustavljanje"},"geometry":{"type":"Point","coordinates":[16.495492,43.522625,77.042]}},{"type":"Feature","properties":{"broj":1,"opis":"Pješački prijelaz"},"geometry":{"type":"Point","coordinates":[16.502284,43.527505,92.6341]}},{"type":"Feature","properties":{"broj":1,"opis":"Prometno zrcalo - okruglo"},"geometry":{"type":"Point","coordinates":[16.50122,43.526644,99.8978]}},{"type":"Feature","properties":{"broj":1,"opis":"Cesta s prednošću prolaska"},"geometry":{"type":"Point","coordinates":[16.49526,43.522528,77.3284]}},{"type":"Feature","properties":{"broj":1,"opis":"Obavezno zaustavljanje"},"geometry":{"type":"Point","coordinates":[16.504931,43.527587,99.2456]}},{"type":"Feature","properties":{"broj":2,"opis":"Stajalište autobusa"},"geometry":{"type":"Point","coordinates":[16.488986,43.5241,61.9643]}},{"type":"Feature","properties":{"broj":1,"opis":"Prometno zrcalo"},"geometry":{"type":"Point","coordinates":[16.50363,43.527218,97.0683]}},{"type":"Feature","properties":{"broj":2,"opis":"Zabrana zaustavljanja i parkiranja"},"geometry":{"type":"Point","coordinates":[16.500769,43.527419,89.7715]}},{"type":"Feature","properties":{"broj":1,"opis":"Ograničenje brzine"},"geometry":{"type":"Point","coordinates":[16.506294,43.520904,123.9544]}},{"type":"Feature","properties":{"broj":1,"opis":"Obavezno zaustavljanje"},"geometry":{"type":"Point","coordinates":[16.491266,43.525357,75.9822]}},{"type":"Feature","properties":{"broj":2,"opis":"Sadrži pobliže objašnjenje prometnog znaka riječima ili simbolom, ako to nije jasno određeno simbolom znaka"},"geometry":{"type":"Point","coordinates":[16.494036,43.52268,72.4061]}}]}