{"type":"FeatureCollection","name":"JavnaRasvjeta","crs":{"type":"name","properties":{"name":"urn:ogc:def:crs:OGC:1.3:CRS84"}},"xy_coordinate_resolution":0.000001,"features":[{"type":"Feature","properties":{"vrsta":"Stup","oznaka":"22581"},"geometry":{"type":"Point","coordinates":[16.496865,43.52539]}},{"type":"Feature","properties":{"vrsta":"Stup","oznaka":"9789"},"geometry":{"type":"Point","coordinates":[16.502153,43.527367]}},{"type":"Feature","properties":{"vrsta":"Stup","oznaka":"20139"},"geometry":{"type":"Point","coordinates":[16.500674,43.527707]}},{"type":"Feature","properties":{"vrsta":"Stup","oznaka":"22609"},"geometry":{"type":"Point","coordinates":[16.496319,43.527122]}},{"type":"Feature","properties":{"vrsta":"Stup","oznaka":"22510"},"geometry":{"type":"Point","coordinates":[16.488165,43.524606]}},{"type":"Feature","properties":{"vrsta":"Stup","oznaka":"9885"},"geometry":{"type":"Point","coordinates":[16.494108,43.527452]}},{"type":"Feature","properties":{"vrsta":"Stup","oznaka":"22530"},"geometry":{"type":"Point","coordinates":[16.505326,43.524136]}},{"type":"Feature","properties":{"vrsta":"Stup","oznaka":"9806"},"geometry":{"type":"Point","coordinates":[16.501699,43.52686]}},{"type":"Feature","properties":{"vrsta":"Stup","oznaka":"22574"},"geometry":{"type":"Point","coordinates":[16.499134,43.525849]}},{"type":"Feature","properties":{"vrsta":"Stup","oznaka":"9894"},"geometry":{"type":"Point","coordinates":[16.494234,43.525981]}},{"type":"Feature","properties":{"vrsta":"Stup","oznaka":"12210"},"geometry":{"type":"Point","coordinates":[16.50633,43.525287]}},{"type":"Feature","properties":{"vrsta":"Stup","oznaka":"9904"},"geometry":{"type":"Point","coordinates":[16.491978,43.525452]}},{"type":"Feature","properties":{"vrsta":"Stup","oznaka":"20056"},"geometry":{"type":"Point","coordinates":[16.498463,43.524676]}},{"type":"Feature","properties":{"vrsta":"Stup","oznaka":"23041"},"geometry":{"type":"Point","coordinates":[16.489313,43.524082]}},{"type":"Feature","properties":{"vrsta":"Stup","oznaka":"22514"},"geometry":{"type":"Point","coordinates":[16.488208,43.524433]}},{"type":"Feature","properties":{"vrsta":"Stup","oznaka":"9909"},"geometry":{"type":"Point","coordinates":[16.490122,43.52555]}},{"type":"Feature","properties":{"vrsta":"Stup","oznaka":"22586"},"geometry":{"type":"Point","coordinates":[16.496579,43.524854]}},{"type":"Feature","properties":{"vrsta":"Stup","oznaka":"22577"},"geometry":{"type":"Point","coordinates":[16.498153,43.525795]}},{"type":"Feature","properties":{"vrsta":"Stup","oznaka":"9893"},"geometry":{"type":"Point","coordinates":[16.494646,43.526255]}},{"type":"Feature","properties":{"vrsta":"Stup","oznaka":"20051"},"geometry":{"type":"Point","coordinates":[16.497348,43.525797]}},{"type":"Feature","properties":{"vrsta":"Stup","oznaka":"20066"},"geometry":{"type":"Point","coordinates":[16.497363,43.525271]}},{"type":"Feature","properties":{"vrsta":"Stup","oznaka":"20041"},"geometry":{"type":"Point","coordinates":[16.498408,43.52894]}},{"type":"Feature","properties":{"vrsta":"Stup","oznaka":"9895"},"geometry":{"type":"Point","coordinates":[16.493913,43.525843]}},{"type":"Feature","properties":{"vrsta":"Stup","oznaka":"9810"},"geometry":{"type":"Point","coordinates":[16.502853,43.526627]}},{"type":"Feature","properties":{"vrsta":"Stup","oznaka":"22545"},"geometry":{"type":"Point","coordinates":[16.499351,43.526555]}},{"type":"Feature","properties":{"vrsta":"Stup","oznaka":"9683"},"geometry":{"type":"Point","coordinates":[16.504417,43.527891]}},{"type":"Feature","properties":{"vrsta":"Stup","oznaka":"9807"},"geometry":{"type":"Point","coordinates":[16.501917,43.526819]}},{"type":"Feature","properties":{"vrsta":"Stup","oznaka":"22522"},"geometry":{"type":"Point","coordinates":[16.490578,43.523635]}},{"type":"Feature","properties":{"vrsta":"Stup","oznaka":"22580"},"geometry":{"type":"Point","coordinates":[16.497782,43.525317]}},{"type":"Feature","properties":{"vrsta":"Stup","oznaka":"22534"},"geometry":{"type":"Point","coordinates":[16.505941,43.527905]}},{"type":"Feature","properties":{"vrsta":"Stup","oznaka":"21196"},"geometry":{"type":"Point","coordinates":[16.49806,43.524043]}},{"type":"Feature","properties":{"vrsta":"Stup","oznaka":"21199"},"geometry":{"type":"Point","coordinates":[16.497629,43.523894]}},{"type":"Feature","properties":{"vrsta":"Stup","oznaka":"22596"},"geometry":{"type":"Point","coordinates":[16.495433,43.525483]}},{"type":"Feature","properties":{"vrsta":"Stup","oznaka":"9817"},"geometry":{"type":"Point","coordinates":[16.503855,43.525738]}},{"type":"Feature","properties":{"vrsta":"Stup","oznaka":"9815"},"geometry":{"type":"Point","coordinates":[16.502993,43.526161]}},{"type":"Feature","properties":{"vrsta":"Stup","oznaka":"22523"},"geometry":{"type":"Point","coordinates":[16.490466,43.523361]}},{"type":"Feature","properties":{"vrsta":"Stup","oznaka":"22542"},"geometry":{"type":"Point","coordinates":[16.499288,43.526131]}},{"type":"Feature","properties":{"vrsta":"Stup","oznaka":"12208"},"geometry":{"type":"Point","coordinates":[16.506498,43.524484]}},{"type":"Feature","properties":{"vrsta":"Stup","oznaka":"22594"},"geometry":{"type":"Point","coordinates":[16.495439,43.525078]}},{"type":"Feature","properties":{"vrsta":"Stup","oznaka":"20044"},"geometry":{"type":"Point","coordinates":[16.501198,43.527689]}},{"type":"Feature","properties":{"vrsta":"Stup","oznaka":"9799"},"geometry":{"type":"Point","coordinates":[16.502084,43.525885]}},{"type":"Feature","properties":{"vrsta":"Stup","oznaka":"12200"},"geometry":{"type":"Point","coordinates":[16.493813,43.5247]}},{"type":"Feature","properties":{"vrsta":"Stup","oznaka":"9891"},"geometry":{"type":"Point","coordinates":[16.494499,43.526751]}},{"type":"Feature","properties":{"vrsta":"Stup","oznaka":"22536"},"geometry":{"type":"Point","coordinates":[16.499802,43.526979]}},{"type":"Feature","properties":{"vrsta":"Stup","oznaka":"9812"},"geometry":{"type":"Point","coordinates":[16.503383,43.52647]}},{"type":"Feature","properties":{"vrsta":"Stup","oznaka":"9890"},"geometry":{"type":"Point","coordinates":[16.494347,43.527137]}},{"type":"Feature","properties":{"vrsta":"Stup","oznaka":"9818"},"geometry":{"type":"Point","coordinates":[16.504345,43.525555]}},{"type":"Feature","properties":{"vrsta":"Stup","oznaka":"9913"},"geometry":{"type":"Point","coordinates":[16.494865,43.525432]}},{"type":"Feature","properties":{"vrsta":"Stup","oznaka":"9922"},"geometry":{"type":"Point","coordinates":[16.500534,43.523315]}},{"type":"Feature","properties":{"vrsta":"Stup","oznaka":"9927"},"geometry":{"type":"Point","coordinates":[16.502444,43.523178]}},{"type":"Feature","properties":{"vrsta":"Stup","oznaka":"12198"},"geometry":{"type":"Point","coordinates":[16.493131,43.524666]}},{"type":"Feature","properties":{"vrsta":"Stup","oznaka":"9816"},"geometry":{"type":"Point","coordinates":[16.50354,43.525925]}},{"type":"Feature","properties":{"vrsta":"Stup","oznaka":"20065"},"geometry":{"type":"Point","coordinates":[16.497367,43.525139]}},{"type":"Feature","properties":{"vrsta":"Stup","oznaka":"12203"},"geometry":{"type":"Point","coordinates":[16.495292,43.524926]}},{"type":"Feature","properties":{"vrsta":"Stup","oznaka":"22598"},"geometry":{"type":"Point","coordinates":[16.49546,43.525984]}},{"type":"Feature","properties":{"vrsta":"Stup","oznaka":"9935"},"geometry":{"type":"Point","coordinates":[16.495186,43.526304]}},{"type":"Feature","properties":{"vrsta":"Stup","oznaka":"22569"},"geometry":{"type":"Point","coordinates":[16.499219,43.525004]}},{"type":"Feature","properties":{"vrsta":"Stup","oznaka":"9824"},"geometry":{"type":"Point","coordinates":[16.505744,43.524885]}},{"type":"Feature","properties":{"vrsta":"Stup","oznaka":"20060"},"geometry":{"type":"Point","coordinates":[16.497381,43.52465]}},{"type":"Feature","properties":{"vrsta":"Stup","oznaka":"12193"},"geometry":{"type":"Point","coordinates":[16.491041,43.524839]}},{"type":"Feature","properties":{"vrsta":"Stup","oznaka":"9905"},"geometry":{"type":"Point","coordinates":[16.491604,43.525422]}},{"type":"Feature","properties":{"vrsta":"Stup","oznaka":"20057"},"geometry":{"type":"Point","coordinates":[16.498244,43.524639]}},{"type":"Feature","properties":{"vrsta":"Stup","oznaka":"9923"},"geometry":{"type":"Point","coordinates":[16.500943,43.523178]}},{"type":"Feature","properties":{"vrsta":"Stup","oznaka":"12199"},"geometry":{"type":"Point","coordinates":[16.49352,43.524659]}},{"type":"Feature","properties":{"vrsta":"Stup","oznaka":"22597"},"geometry":{"type":"Point","coordinates":[16.495455,43.525756]}},{"type":"Feature","properties":{"vrsta":"Stup","oznaka":"9906"},"geometry":{"type":"Point","coordinates":[16.491206,43.525411]}},{"type":"Feature","properties":{"vrsta":"Stup","oznaka":"20088"},"geometry":{"type":"Point","coordinates":[16.500323,43.522476]}},{"type":"Feature","properties":{"vrsta":"Stup","oznaka":"12204"},"geometry":{"type":"Point","coordinates":[16.495675,43.524914]}},{"type":"Feature","properties":{"vrsta":"Stup","oznaka":"9822"},"geometry":{"type":"Point","coordinates":[16.504607,43.52492]}},{"type":"Feature","properties":{"vrsta":"Stup","oznaka":"22562"},"geometry":{"type":"Point","coordinates":[16.497299,43.526443]}},{"type":"Feature","properties":{"vrsta":"Stup","oznaka":"9814"},"geometry":{"type":"Point","coordinates":[16.503303,43.526123]}},{"type":"Feature","properties":{"vrsta":"Stup","oznaka":"9823"},"geometry":{"type":"Point","coordinates":[16.505381,43.52494]}},{"type":"Feature","properties":{"vrsta":"Stup","oznaka":"22517"},"geometry":{"type":"Point","coordinates":[16.488971,43.524194]}},{"type":"Feature","properties":{"vrsta":"Stup","oznaka":"22608"},"geometry":{"type":"Point","coordinates":[16.496006,43.527122]}},{"type":"Feature","properties":{"vrsta":"Stup","oznaka":"22605"},"geometry":{"type":"Point","coordinates":[16.496038,43.526933]}},{"type":"Feature","properties":{"vrsta":"Stup","oznaka":"12207"},"geometry":{"type":"Point","coordinates":[16.495388,43.526701]}},{"type":"Feature","properties":{"vrsta":"Stup","oznaka":"9813"},"geometry":{"type":"Point","coordinates":[16.503388,43.526373]}},{"type":"Feature","properties":{"vrsta":"Stup","oznaka":"12197"},"geometry":{"type":"Point","coordinates":[16.492854,43.524669]}},{"type":"Feature","properties":{"vrsta":"Stup","oznaka":"9930"},"geometry":{"type":"Point","coordinates":[16.503034,43.524251]}},{"type":"Feature","properties":{"vrsta":"Stup","oznaka":"22600"},"geometry":{"type":"Point","coordinates":[16.495476,43.526952]}},{"type":"Feature","properties":{"vrsta":"Stup","oznaka":"22547"},"geometry":{"type":"Point","coordinates":[16.499203,43.526775]}},{"type":"Feature","properties":{"vrsta":"Stup","oznaka":"22564"},"geometry":{"type":"Point","coordinates":[16.497437,43.526794]}},{"type":"Feature","properties":{"vrsta":"Stup","oznaka":"20067"},"geometry":{"type":"Point","coordinates":[16.497121,43.525256]}},{"type":"Feature","properties":{"vrsta":"Stup","oznaka":"20081"},"geometry":{"type":"Point","coordinates":[16.499899,43.523004]}},{"type":"Feature","properties":{"vrsta":"Stup","oznaka":"22479"},"geometry":{"type":"Point","coordinates":[16.506152,43.520846]}},{"type":"Feature","properties":{"vrsta":"Stup","oznaka":"9685"},"geometry":{"type":"Point","coordinates":[16.504719,43.527505]}},{"type":"Feature","properties":{"vrsta":"Stup","oznaka":"20031"},"geometry":{"type":"Point","coordinates":[16.495397,43.529322]}},{"type":"Feature","properties":{"vrsta":"Stup","oznaka":"22585"},"geometry":{"type":"Point","coordinates":[16.496467,43.524858]}},{"type":"Feature","properties":{"vrsta":"Stup","oznaka":"22555"},"geometry":{"type":"Point","coordinates":[16.498339,43.526424]}},{"type":"Feature","properties":{"vrsta":"Stup","oznaka":"20137"},"geometry":{"type":"Point","coordinates":[16.500514,43.527237]}},{"type":"Feature","properties":{"vrsta":"Stup","oznaka":"22478"},"geometry":{"type":"Point","coordinates":[16.505946,43.519908]}},{"type":"Feature","properties":{"vrsta":"Stup","oznaka":"22557"},"geometry":{"type":"Point","coordinates":[16.49845,43.526131]}},{"type":"Feature","properties":{"vrsta":"Stup","oznaka":"12206"},"geometry":{"type":"Point","coordinates":[16.496414,43.52471]}},{"type":"Feature","properties":{"vrsta":"Stup","oznaka":"9915"},"geometry":{"type":"Point","coordinates":[16.494895,43.524879]}},{"type":"Feature","properties":{"vrsta":"Stup","oznaka":"22535"},"geometry":{"type":"Point","coordinates":[16.505315,43.527704]}},{"type":"Feature","properties":{"vrsta":"Stup","oznaka":"9690"},"geometry":{"type":"Point","coordinates":[16.503053,43.527502]}},{"type":"Feature","properties":{"vrsta":"Stup","oznaka":"9914"},"geometry":{"type":"Point","coordinates":[16.494929,43.525183]}},{"type":"Feature","properties":{"vrsta":"Stup","oznaka":"9790"},"geometry":{"type":"Point","coordinates":[16.501893,43.527229]}},{"type":"Feature","properties":{"vrsta":"Stup","oznaka":"22589"},"geometry":{"type":"Point","coordinates":[16.496579,43.524761]}},{"type":"Feature","properties":{"vrsta":"Stup","oznaka":"12196"},"geometry":{"type":"Point","coordinates":[16.492534,43.524716]}},{"type":"Feature","properties":{"vrsta":"Stup","oznaka":"20027"},"geometry":{"type":"Point","coordinates":[16.495499,43.530126]}},{"type":"Feature","properties":{"vrsta":"Stup","oznaka":"22549"},"geometry":{"type":"Point","coordinates":[16.499129,43.52664]}},{"type":"Feature","properties":{"vrsta":"Stup","oznaka":"9921"},"geometry":{"type":"Point","coordinates":[16.500125,43.523452]}},{"type":"Feature","properties":{"vrsta":"Stup","oznaka":"20082"},"geometry":{"type":"Point","coordinates":[16.499809,43.522784]}},{"type":"Feature","properties":{"vrsta":"Stup","oznaka":"9908"},"geometry":{"type":"Point","coordinates":[16.490378,43.525438]}},{"type":"Feature","properties":{"vrsta":"Stup","oznaka":"20142"},"geometry":{"type":"Point","coordinates":[16.499984,43.527901]}},{"type":"Feature","properties":{"vrsta":"Stup","oznaka":"9833"},"geometry":{"type":"Point","coordinates":[16.505716,43.522072]}},{"type":"Feature","properties":{"vrsta":"Stup","oznaka":"9825"},"geometry":{"type":"Point","coordinates":[16.505843,43.524658]}},{"type":"Feature","properties":{"vrsta":"Stup","oznaka":"9686"},"geometry":{"type":"Point","coordinates":[16.504459,43.52733]}},{"type":"Feature","properties":{"vrsta":"Stup","oznaka":"9934"},"geometry":{"type":"Point","coordinates":[16.495469,43.526385]}},{"type":"Feature","properties":{"vrsta":"Stup","oznaka":"21197"},"geometry":{"type":"Point","coordinates":[16.497922,43.524079]}},{"type":"Feature","properties":{"vrsta":"Stup","oznaka":"9688"},"geometry":{"type":"Point","coordinates":[16.503667,43.527308]}},{"type":"Feature","properties":{"vrsta":"Stup","oznaka":"20034"},"geometry":{"type":"Point","coordinates":[16.496431,43.529044]}},{"type":"Feature","properties":{"vrsta":"Stup","oznaka":"20038"},"geometry":{"type":"Point","coordinates":[16.497507,43.52896]}},{"type":"Feature","properties":{"vrsta":"Stup","oznaka":"22566"},"geometry":{"type":"Point","coordinates":[16.497983,43.526802]}},{"type":"Feature","properties":{"vrsta":"Stup","oznaka":"9682"},"geometry":{"type":"Point","coordinates":[16.50377,43.52772]}},{"type":"Feature","properties":{"vrsta":"Stup","oznaka":"22511"},"geometry":{"type":"Point","coordinates":[16.48825,43.524664]}},{"type":"Feature","properties":{"vrsta":"Stup","oznaka":"12209"},"geometry":{"type":"Point","coordinates":[16.506355,43.524712]}},{"type":"Feature","properties":{"vrsta":"Stup","oznaka":"9911"},"geometry":{"type":"Point","coordinates":[16.494706,43.525868]}},{"type":"Feature","properties":{"vrsta":"Stup","oznaka":"22509"},"geometry":{"type":"Point","coordinates":[16.488075,43.524541]}},{"type":"Feature","properties":{"vrsta":"Stup","oznaka":"22537"},"geometry":{"type":"Point","coordinates":[16.500162,43.526852]}},{"type":"Feature","properties":{"vrsta":"Stup","oznaka":"22559"},"geometry":{"type":"Point","coordinates":[16.497877,43.526127]}},{"type":"Feature","properties":{"vrsta":"Stup","oznaka":"22544"},"geometry":{"type":"Point","coordinates":[16.499372,43.526393]}},{"type":"Feature","properties":{"vrsta":"Stup","oznaka":"9821"},"geometry":{"type":"Point","coordinates":[16.505121,43.524977]}},{"type":"Feature","properties":{"vrsta":"Stup","oznaka":"22532"},"geometry":{"type":"Point","coordinates":[16.506392,43.527299]}},{"type":"Feature","properties":{"vrsta":"Stup","oznaka":"9896"},"geometry":{"type":"Point","coordinates":[16.493607,43.525691]}},{"type":"Feature","properties":{"vrsta":"Stup","oznaka":"9801"},"geometry":{"type":"Point","coordinates":[16.502287,43.525412]}},{"type":"Feature","properties":{"vrsta":"Stup","oznaka":"22513"},"geometry":{"type":"Point","coordinates":[16.488123,43.524363]}},{"type":"Feature","properties":{"vrsta":"Stup","oznaka":"22508"},"geometry":{"type":"Point","coordinates":[16.487975,43.524464]}},{"type":"Feature","properties":{"vrsta":"Stup","oznaka":"9687"},"geometry":{"type":"Point","coordinates":[16.504113,43.527258]}},{"type":"Feature","properties":{"vrsta":"Stup","oznaka":"20059"},"geometry":{"type":"Point","coordinates":[16.497614,43.524531]}},{"type":"Feature","properties":{"vrsta":"Stup","oznaka":"9925"},"geometry":{"type":"Point","coordinates":[16.501791,43.52299]}},{"type":"Feature","properties":{"vrsta":"Stup","oznaka":"9689"},"geometry":{"type":"Point","coordinates":[16.503378,43.527413]}},{"type":"Feature","properties":{"vrsta":"Stup","oznaka":"9691"},"geometry":{"type":"Point","coordinates":[16.502682,43.527525]}},{"type":"Feature","properties":{"vrsta":"Stup","oznaka":"22568"},"geometry":{"type":"Point","coordinates":[16.498116,43.526027]}},{"type":"Feature","properties":{"vrsta":"Stup","oznaka":"20061"},"geometry":{"type":"Point","coordinates":[16.497265,43.524651]}},{"type":"Feature","properties":{"vrsta":"Stup","oznaka":"9826"},"geometry":{"type":"Point","coordinates":[16.506343,43.524896]}},{"type":"Feature","properties":{"vrsta":"Stup","oznaka":"20134"},"geometry":{"type":"Point","coordinates":[16.500947,43.527492]}},{"type":"Feature","properties":{"vrsta":"Stup","oznaka":"9802"},"geometry":{"type":"Point","coordinates":[16.502211,43.524973]}},{"type":"Feature","properties":{"vrsta":"Stup","oznaka":"9676"},"geometry":{"type":"Point","coordinates":[16.504089,43.528032]}},{"type":"Feature","properties":{"vrsta":"Stup","oznaka":"9931"},"geometry":{"type":"Point","coordinates":[16.5035,43.524169]}},{"type":"Feature","properties":{"vrsta":"Stup","oznaka":"20053"},"geometry":{"type":"Point","coordinates":[16.498015,43.525337]}},{"type":"Feature","properties":{"vrsta":"Stup","oznaka":"22519"},"geometry":{"type":"Point","coordinates":[16.489772,43.523997]}},{"type":"Feature","properties":{"vrsta":"Stup","oznaka":"9684"},"geometry":{"type":"Point","coordinates":[16.504779,43.527639]}},{"type":"Feature","properties":{"vrsta":"Stup","oznaka":"9831"},"geometry":{"type":"Point","coordinates":[16.505822,43.523124]}},{"type":"Feature","properties":{"vrsta":"Stup","oznaka":"9797"},"geometry":{"type":"Point","coordinates":[16.501615,43.526449]}},{"type":"Feature","properties":{"vrsta":"Stup","oznaka":"9805"},"geometry":{"type":"Point","coordinates":[16.502176,43.524667]}},{"type":"Feature","properties":{"vrsta":"Stup","oznaka":"9811"},"geometry":{"type":"Point","coordinates":[16.503244,43.526552]}},{"type":"Feature","properties":{"vrsta":"Stup","oznaka":"9919"},"geometry":{"type":"Point","coordinates":[16.499288,43.523625]}},{"type":"Feature","properties":{"vrsta":"Stup","oznaka":"9829"},"geometry":{"type":"Point","coordinates":[16.505978,43.523761]}},{"type":"Feature","properties":{"vrsta":"Stup","oznaka":"23042"},"geometry":{"type":"Point","coordinates":[16.488936,43.52411]}},{"type":"Feature","properties":{"vrsta":"Stup","oznaka":"22590"},"geometry":{"type":"Point","coordinates":[16.496462,43.524769]}},{"type":"Feature","properties":{"vrsta":"Stup","oznaka":"22571"},"geometry":{"type":"Point","coordinates":[16.499213,43.525564]}},{"type":"Feature","properties":{"vrsta":"Stup","oznaka":"9828"},"geometry":{"type":"Point","coordinates":[16.506049,43.524117]}},{"type":"Feature","properties":{"vrsta":"Stup","oznaka":"22567"},"geometry":{"type":"Point","coordinates":[16.497777,43.526027]}},{"type":"Feature","properties":{"vrsta":"Stup","oznaka":"20037"},"geometry":{"type":"Point","coordinates":[16.497235,43.528962]}},{"type":"Feature","properties":{"vrsta":"Stup","oznaka":"22528"},"geometry":{"type":"Point","coordinates":[16.49212,43.523264]}},{"type":"Feature","properties":{"vrsta":"Stup","oznaka":"22570"},"geometry":{"type":"Point","coordinates":[16.499213,43.525255]}},{"type":"Feature","properties":{"vrsta":"Stup","oznaka":"9809"},"geometry":{"type":"Point","coordinates":[16.502581,43.526682]}},{"type":"Feature","properties":{"vrsta":"Stup","oznaka":"20133"},"geometry":{"type":"Point","coordinates":[16.501008,43.528007]}},{"type":"Feature","properties":{"vrsta":"Stup","oznaka":"20084"},"geometry":{"type":"Point","coordinates":[16.499656,43.522321]}},{"type":"Feature","properties":{"vrsta":"Stup","oznaka":"20140"},"geometry":{"type":"Point","coordinates":[16.5005,43.52795]}},{"type":"Feature","properties":{"vrsta":"Stup","oznaka":"9889"},"geometry":{"type":"Point","coordinates":[16.492818,43.527568]}},{"type":"Feature","properties":{"vrsta":"Stup","oznaka":"12211"},"geometry":{"type":"Point","coordinates":[16.506421,43.52538]}},{"type":"Feature","properties":{"vrsta":"Stup","oznaka":"22548"},"geometry":{"type":"Point","coordinates":[16.499203,43.526644]}},{"type":"Feature","properties":{"vrsta":"Stup","oznaka":"9924"},"geometry":{"type":"Point","coordinates":[16.50136,43.523085]}},{"type":"Feature","properties":{"vrsta":"Stup","oznaka":"20086"},"geometry":{"type":"Point","coordinates":[16.500237,43.522145]}},{"type":"Feature","properties":{"vrsta":"Stup","oznaka":"22546"},"geometry":{"type":"Point","coordinates":[16.499622,43.526775]}},{"type":"Feature","properties":{"vrsta":"Stup","oznaka":"20050"},"geometry":{"type":"Point","coordinates":[16.502024,43.528152]}},{"type":"Feature","properties":{"vrsta":"Stup","oznaka":"9920"},"geometry":{"type":"Point","coordinates":[16.499707,43.523525]}},{"type":"Feature","properties":{"vrsta":"Stup","oznaka":"22531"},"geometry":{"type":"Point","coordinates":[16.504562,43.52419]}},{"type":"Feature","properties":{"vrsta":"Stup","oznaka":"20135"},"geometry":{"type":"Point","coordinates":[16.50078,43.527429]}},{"type":"Feature","properties":{"vrsta":"Stup","oznaka":"22610"},"geometry":{"type":"Point","coordinates":[16.496594,43.527126]}},{"type":"Feature","properties":{"vrsta":"Stup","oznaka":"9912"},"geometry":{"type":"Point","coordinates":[16.494787,43.525654]}},{"type":"Feature","properties":{"vrsta":"Stup","oznaka":"20030"},"geometry":{"type":"Point","coordinates":[16.495349,43.529528]}},{"type":"Feature","properties":{"vrsta":"Stup","oznaka":"9692"},"geometry":{"type":"Point","coordinates":[16.502283,43.527498]}},{"type":"Feature","properties":{"vrsta":"Stup","oznaka":"22604"},"geometry":{"type":"Point","coordinates":[16.49634,43.526929]}},{"type":"Feature","properties":{"vrsta":"Stup","oznaka":"22582"},"geometry":{"type":"Point","coordinates":[16.497061,43.5248]}},{"type":"Feature","properties":{"vrsta":"Stup","oznaka":"22551"},"geometry":{"type":"Point","coordinates":[16.498858,43.526771]}},{"type":"Feature","properties":{"vrsta":"Stup","oznaka":"9883"},"geometry":{"type":"Point","coordinates":[16.494648,43.527354]}},{"type":"Feature","properties":{"vrsta":"Stup","oznaka":"22578"},"geometry":{"type":"Point","coordinates":[16.497782,43.52576]}},{"type":"Feature","properties":{"vrsta":"Stup","oznaka":"21198"},"geometry":{"type":"Point","coordinates":[16.497816,43.524054]}},{"type":"Feature","properties":{"vrsta":"Stup","oznaka":"9918"},"geometry":{"type":"Point","coordinates":[16.498851,43.523765]}},{"type":"Feature","properties":{"vrsta":"Stup","oznaka":"9929"},"geometry":{"type":"Point","coordinates":[16.502644,43.524291]}},{"type":"Feature","properties":{"vrsta":"Stup","oznaka":"9900"},"geometry":{"type":"Point","coordinates":[16.492756,43.525479]}},{"type":"Feature","properties":{"vrsta":"Stup","oznaka":"22583"},"geometry":{"type":"Point","coordinates":[16.496881,43.5249]}},{"type":"Feature","properties":{"vrsta":"Stup","oznaka":"9827"},"geometry":{"type":"Point","coordinates":[16.505961,43.524404]}},{"type":"Feature","properties":{"vrsta":"Stup","oznaka":"9910"},"geometry":{"type":"Point","coordinates":[16.494554,43.526087]}},{"type":"Feature","properties":{"vrsta":"Stup","oznaka":"22602"},"geometry":{"type":"Point","coordinates":[16.49687,43.526933]}},{"type":"Feature","properties":{"vrsta":"Stup","oznaka":"20047"},"geometry":{"type":"Point","coordinates":[16.501983,43.527918]}},{"type":"Feature","properties":{"vrsta":"Stup","oznaka":"9794"},"geometry":{"type":"Point","coordinates":[16.501713,43.527001]}},{"type":"Feature","properties":{"vrsta":"Stup","oznaka":"9916"},"geometry":{"type":"Point","coordinates":[16.498059,43.524045]}},{"type":"Feature","properties":{"vrsta":"Stup","oznaka":"20064"},"geometry":{"type":"Point","coordinates":[16.497141,43.525024]}},{"type":"Feature","properties":{"vrsta":"Stup","oznaka":"22607"},"geometry":{"type":"Point","coordinates":[16.495656,43.527114]}},{"type":"Feature","properties":{"vrsta":"Stup","oznaka":"21200"},"geometry":{"type":"Point","coordinates":[16.497426,43.523694]}},{"type":"Feature","properties":{"vrsta":"Stup","oznaka":"9897"},"geometry":{"type":"Point","coordinates":[16.49364,43.525578]}},{"type":"Feature","properties":{"vrsta":"Stup","oznaka":"22554"},"geometry":{"type":"Point","coordinates":[16.498354,43.526597]}},{"type":"Feature","properties":{"vrsta":"Stup","oznaka":"22563"},"geometry":{"type":"Point","coordinates":[16.497284,43.526632]}},{"type":"Feature","properties":{"vrsta":"Stup","oznaka":"22588"},"geometry":{"type":"Point","coordinates":[16.496679,43.524761]}},{"type":"Feature","properties":{"vrsta":"Stup","oznaka":"22603"},"geometry":{"type":"Point","coordinates":[16.496621,43.526937]}},{"type":"Feature","properties":{"vrsta":"Stup","oznaka":"20046"},"geometry":{"type":"Point","coordinates":[16.502222,43.527839]}},{"type":"Feature","properties":{"vrsta":"Stup","oznaka":"20083"},"geometry":{"type":"Point","coordinates":[16.499732,43.522559]}},{"type":"Feature","properties":{"vrsta":"Stup","oznaka":"9681"},"geometry":{"type":"Point","coordinates":[16.503812,43.52791]}},{"type":"Feature","properties":{"vrsta":"Stup","oznaka":"22601"},"geometry":{"type":"Point","coordinates":[16.496992,43.527002]}},{"type":"Feature","properties":{"vrsta":"Stup","oznaka":"22518"},"geometry":{"type":"Point","coordinates":[16.489337,43.524167]}},{"type":"Feature","properties":{"vrsta":"Stup","oznaka":"9679"},"geometry":{"type":"Point","coordinates":[16.50351,43.528085]}},{"type":"Feature","properties":{"vrsta":"Stup","oznaka":"20136"},"geometry":{"type":"Point","coordinates":[16.50066,43.527426]}},{"type":"Feature","properties":{"vrsta":"Stup","oznaka":"20052"},"geometry":{"type":"Point","coordinates":[16.497355,43.525529]}},{"type":"Feature","properties":{"vrsta":"Stup","oznaka":"9695"},"geometry":{"type":"Point","coordinates":[16.501375,43.527489]}},{"type":"Feature","properties":{"vrsta":"Stup","oznaka":"22533"},"geometry":{"type":"Point","coordinates":[16.505867,43.527569]}},{"type":"Feature","properties":{"vrsta":"Stup"},"geometry":{"type":"Point","coordinates":[16.488936,43.52411]}},{"type":"Feature","properties":{"vrsta":"Stup","oznaka":"22606"},"geometry":{"type":"Point","coordinates":[16.495672,43.526929]}},{"type":"Feature","properties":{"vrsta":"Stup","oznaka":"9819"},"geometry":{"type":"Point","coordinates":[16.504814,43.525367]}},{"type":"Feature","properties":{"vrsta":"Stup","oznaka":"22565"},"geometry":{"type":"Point","coordinates":[16.49766,43.526806]}},{"type":"Feature","properties":{"vrsta":"Stup","oznaka":"20141"},"geometry":{"type":"Point","coordinates":[16.500305,43.527793]}},{"type":"Feature","properties":{"vrsta":"Stup","oznaka":"9932"},"geometry":{"type":"Point","coordinates":[16.504911,43.524128]}},{"type":"Feature","properties":{"vrsta":"Stup","oznaka":"9898"},"geometry":{"type":"Point","coordinates":[16.493466,43.52549]}},{"type":"Feature","properties":{"vrsta":"Stup","oznaka":"22529"},"geometry":{"type":"Point","coordinates":[16.505665,43.52404]}},{"type":"Feature","properties":{"vrsta":"Stup","oznaka":"9886"},"geometry":{"type":"Point","coordinates":[16.493849,43.527741]}},{"type":"Feature","properties":{"vrsta":"Stup","oznaka":"20048"},"geometry":{"type":"Point","coordinates":[16.501458,43.527897]}},{"type":"Feature","properties":{"vrsta":"Stup","oznaka":"20049"},"geometry":{"type":"Point","coordinates":[16.501512,43.528076]}},{"type":"Feature","properties":{"vrsta":"Stup","oznaka":"22575"},"geometry":{"type":"Point","coordinates":[16.498832,43.525784]}},{"type":"Feature","properties":{"vrsta":"Stup","oznaka":"20036"},"geometry":{"type":"Point","coordinates":[16.496966,43.528983]}},{"type":"Feature","properties":{"vrsta":"Stup","oznaka":"22516"},"geometry":{"type":"Point","coordinates":[16.488377,43.524576]}},{"type":"Feature","properties":{"vrsta":"Stup","oznaka":"22591"},"geometry":{"type":"Point","coordinates":[16.49669,43.526219]}},{"type":"Feature","properties":{"vrsta":"Stup","oznaka":"20085"},"geometry":{"type":"Point","coordinates":[16.499964,43.522215]}},{"type":"Feature","properties":{"vrsta":"Stup","oznaka":"9800"},"geometry":{"type":"Point","coordinates":[16.501954,43.525478]}},{"type":"Feature","properties":{"vrsta":"Stup","oznaka":"9791"},"geometry":{"type":"Point","coordinates":[16.501396,43.527229]}},{"type":"Feature","properties":{"vrsta":"Stup","oznaka":"22541"},"geometry":{"type":"Point","coordinates":[16.499648,43.526123]}},{"type":"Feature","properties":{"vrsta":"Stup","oznaka":"22525"},"geometry":{"type":"Point","coordinates":[16.491044,43.523326]}},{"type":"Feature","properties":{"vrsta":"Stup","oznaka":"22556"},"geometry":{"type":"Point","coordinates":[16.498339,43.52625]}},{"type":"Feature","properties":{"vrsta":"Stup","oznaka":"22595"},"geometry":{"type":"Point","coordinates":[16.495439,43.52529]}},{"type":"Feature","properties":{"vrsta":"Stup","oznaka":"20029"},"geometry":{"type":"Point","coordinates":[16.495398,43.529731]}},{"type":"Feature","properties":{"vrsta":"Stup","oznaka":"22572"},"geometry":{"type":"Point","coordinates":[16.499235,43.525745]}},{"type":"Feature","properties":{"vrsta":"Stup","oznaka":"12195"},"geometry":{"type":"Point","coordinates":[16.491802,43.524939]}},{"type":"Feature","properties":{"vrsta":"Stup","oznaka":"9917"},"geometry":{"type":"Point","coordinates":[16.498481,43.523898]}},{"type":"Feature","properties":{"vrsta":"Stup","oznaka":"20063"},"geometry":{"type":"Point","coordinates":[16.497111,43.524903]}},{"type":"Feature","properties":{"vrsta":"Stup","oznaka":"20045"},"geometry":{"type":"Point","coordinates":[16.501157,43.527677]}},{"type":"Feature","properties":{"vrsta":"Stup","oznaka":"12202"},"geometry":{"type":"Point","coordinates":[16.494452,43.524827]}},{"type":"Feature","properties":{"vrsta":"Stup","oznaka":"22521"},"geometry":{"type":"Point","coordinates":[16.490249,43.523692]}},{"type":"Feature","properties":{"vrsta":"Stup","oznaka":"22611"},"geometry":{"type":"Point","coordinates":[16.496865,43.527134]}},{"type":"Feature","properties":{"vrsta":"Stup","oznaka":"20042"},"geometry":{"type":"Point","coordinates":[16.502154,43.527363]}},{"type":"Feature","properties":{"vrsta":"Stup","oznaka":"9803"},"geometry":{"type":"Point","coordinates":[16.501877,43.524939]}},{"type":"Feature","properties":{"vrsta":"Stup","oznaka":"9903"},"geometry":{"type":"Point","coordinates":[16.492423,43.52549]}},{"type":"Feature","properties":{"vrsta":"Stup","oznaka":"20039"},"geometry":{"type":"Point","coordinates":[16.497794,43.528951]}},{"type":"Feature","properties":{"vrsta":"Stup","oznaka":"9902"},"geometry":{"type":"Point","coordinates":[16.492608,43.525456]}},{"type":"Feature","properties":{"vrsta":"Stup","oznaka":"22558"},"geometry":{"type":"Point","coordinates":[16.498784,43.526135]}},{"type":"Feature","properties":{"vrsta":"Stup","oznaka":"22584"},"geometry":{"type":"Point","coordinates":[16.496812,43.524835]}},{"type":"Feature","properties":{"vrsta":"Stup","oznaka":"9678"},"geometry":{"type":"Point","coordinates":[16.503807,43.528138]}},{"type":"Feature","properties":{"vrsta":"Stup","oznaka":"22552"},"geometry":{"type":"Point","coordinates":[16.498476,43.526752]}},{"type":"Feature","properties":{"vrsta":"Stup","oznaka":"9830"},"geometry":{"type":"Point","coordinates":[16.5059,43.523455]}},{"type":"Feature","properties":{"vrsta":"Stup","oznaka":"9693"},"geometry":{"type":"Point","coordinates":[16.501943,43.527477]}},{"type":"Feature","properties":{"vrsta":"Stup","oznaka":"20087"},"geometry":{"type":"Point","coordinates":[16.500632,43.522393]}},{"type":"Feature","properties":{"vrsta":"Stup","oznaka":"20143"},"geometry":{"type":"Point","coordinates":[16.499481,43.52786]}},{"type":"Feature","properties":{"vrsta":"Stup","oznaka":"12194"},"geometry":{"type":"Point","coordinates":[16.49143,43.524927]}},{"type":"Feature","properties":{"vrsta":"Stup","oznaka":"9881"},"geometry":{"type":"Point","coordinates":[16.495308,43.527398]}},{"type":"Feature","properties":{"vrsta":"Stup","oznaka":"9884"},"geometry":{"type":"Point","coordinates":[16.494267,43.527273]}},{"type":"Feature","properties":{"vrsta":"Stup","oznaka":"22593"},"geometry":{"type":"Point","coordinates":[16.496616,43.526111]}},{"type":"Feature","properties":{"vrsta":"Stup","oznaka":"20062"},"geometry":{"type":"Point","coordinates":[16.497375,43.524865]}},{"type":"Feature","properties":{"vrsta":"Stup","oznaka":"22560"},"geometry":{"type":"Point","coordinates":[16.497474,43.526127]}},{"type":"Feature","properties":{"vrsta":"Stup","oznaka":"9933"},"geometry":{"type":"Point","coordinates":[16.495438,43.52705]}},{"type":"Feature","properties":{"vrsta":"Stup","oznaka":"20032"},"geometry":{"type":"Point","coordinates":[16.495576,43.529175]}},{"type":"Feature","properties":{"vrsta":"Stup","oznaka":"22579"},"geometry":{"type":"Point","coordinates":[16.497777,43.525521]}},{"type":"Feature","properties":{"vrsta":"Stup","oznaka":"9887"},"geometry":{"type":"Point","coordinates":[16.493594,43.527647]}},{"type":"Feature","properties":{"vrsta":"Stup","oznaka":"22612"},"geometry":{"type":"Point","coordinates":[16.4922,43.525668]}},{"type":"Feature","properties":{"vrsta":"Stup","oznaka":"20043"},"geometry":{"type":"Point","coordinates":[16.501268,43.527655]}},{"type":"Feature","properties":{"vrsta":"Stup","oznaka":"9820"},"geometry":{"type":"Point","coordinates":[16.505185,43.52524]}},{"type":"Feature","properties":{"vrsta":"Stup","oznaka":"22543"},"geometry":{"type":"Point","coordinates":[16.499346,43.526243]}},{"type":"Feature","properties":{"vrsta":"Stup","oznaka":"20028"},"geometry":{"type":"Point","coordinates":[16.495451,43.529929]}},{"type":"Feature","properties":{"vrsta":"Stup","oznaka":"9926"},"geometry":{"type":"Point","coordinates":[16.502237,43.522882]}},{"type":"Feature","properties":{"vrsta":"Stup","oznaka":"22540"},"geometry":{"type":"Point","coordinates":[16.499987,43.526227]}},{"type":"Feature","properties":{"vrsta":"Stup","oznaka":"9892"},"geometry":{"type":"Point","coordinates":[16.494575,43.526536]}},{"type":"Feature","properties":{"vrsta":"Stup","oznaka":"22515"},"geometry":{"type":"Point","coordinates":[16.488309,43.524506]}},{"type":"Feature","properties":{"vrsta":"Stup","oznaka":"22550"},"geometry":{"type":"Point","coordinates":[16.498916,43.526655]}},{"type":"Feature","properties":{"vrsta":"Stup","oznaka":"9936"},"geometry":{"type":"Point","coordinates":[16.494929,43.526284]}},{"type":"Feature","properties":{"vrsta":"Stup","oznaka":"9798"},"geometry":{"type":"Point","coordinates":[16.501832,43.526206]}},{"type":"Feature","properties":{"vrsta":"Stup","oznaka":"20033"},"geometry":{"type":"Point","coordinates":[16.496142,43.529079]}},{"type":"Feature","properties":{"vrsta":"Stup","oznaka":"12205"},"geometry":{"type":"Point","coordinates":[16.496089,43.524777]}},{"type":"Feature","properties":{"vrsta":"Stup","oznaka":"9832"},"geometry":{"type":"Point","coordinates":[16.50566,43.522343]}},{"type":"Feature","properties":{"vrsta":"Stup","oznaka":"22599"},"geometry":{"type":"Point","coordinates":[16.495486,43.527134]}},{"type":"Feature","properties":{"vrsta":"Stup","oznaka":"9899"},"geometry":{"type":"Point","coordinates":[16.493075,43.525469]}},{"type":"Feature","properties":{"vrsta":"Stup","oznaka":"22520"},"geometry":{"type":"Point","coordinates":[16.490021,43.523851]}},{"type":"Feature","properties":{"vrsta":"Stup","oznaka":"20035"},"geometry":{"type":"Point","coordinates":[16.496707,43.529008]}},{"type":"Feature","properties":{"vrsta":"Stup","oznaka":"9796"},"geometry":{"type":"Point","coordinates":[16.50122,43.526637]}},{"type":"Feature","properties":{"vrsta":"Stup","oznaka":"9792"},"geometry":{"type":"Point","coordinates":[16.501636,43.527227]}},{"type":"Feature","properties":{"vrsta":"Stup","oznaka":"9928"},"geometry":{"type":"Point","coordinates":[16.502572,43.523538]}},{"type":"Feature","properties":{"vrsta":"Stup","oznaka":"22524"},"geometry":{"type":"Point","coordinates":[16.490975,43.523592]}},{"type":"Feature","properties":{"vrsta":"Stup","oznaka":"20055"},"geometry":{"type":"Point","coordinates":[16.498369,43.525079]}},{"type":"Feature","properties":{"vrsta":"Stup","oznaka":"20054"},"geometry":{"type":"Point","coordinates":[16.498076,43.525075]}},{"type":"Feature","properties":{"vrsta":"Stup","oznaka":"9882"},"geometry":{"type":"Point","coordinates":[16.495004,43.527392]}},{"type":"Feature","properties":{"vrsta":"Stup","oznaka":"22573"},"geometry":{"type":"Point","coordinates":[16.499431,43.525807]}},{"type":"Feature","properties":{"vrsta":"Stup","oznaka":"22576"},"geometry":{"type":"Point","coordinates":[16.498561,43.525799]}},{"type":"Feature","properties":{"vrsta":"Stup","oznaka":"9834"},"geometry":{"type":"Point","coordinates":[16.505784,43.521794]}},{"type":"Feature","properties":{"vrsta":"Stup","oznaka":"22587"},"geometry":{"type":"Point","coordinates":[16.496685,43.524842]}},{"type":"Feature","properties":{"vrsta":"Stup","oznaka":"20089"},"geometry":{"type":"Point","coordinates":[16.500035,43.522553]}},{"type":"Feature","properties":{"vrsta":"Stup","oznaka":"9804"},"geometry":{"type":"Point","coordinates":[16.501387,43.524882]}},{"type":"Feature","properties":{"vrsta":"Stup","oznaka":"20058"},"geometry":{"type":"Point","coordinates":[16.497906,43.524578]}},{"type":"Feature","properties":{"vrsta":"Stup","oznaka":"20040"},"geometry":{"type":"Point","coordinates":[16.49808,43.528953]}},{"type":"Feature","properties":{"vrsta":"Stup","oznaka":"22512"},"geometry":{"type":"Point","coordinates":[16.488192,43.524522]}},{"type":"Feature","properties":{"vrsta":"Stup","oznaka":"9793"},"geometry":{"type":"Point","coordinates":[16.50203,43.527119]}},{"type":"Feature","properties":{"vrsta":"Stup","oznaka":"9888"},"geometry":{"type":"Point","coordinates":[16.493004,43.52777]}},{"type":"Feature","properties":{"vrsta":"Stup","oznaka":"22592"},"geometry":{"type":"Point","coordinates":[16.496404,43.526235]}},{"type":"Feature","properties":{"vrsta":"Stup","oznaka":"12201"},"geometry":{"type":"Point","coordinates":[16.494125,43.524725]}},{"type":"Feature","properties":{"vrsta":"Stup","oznaka":"9795"},"geometry":{"type":"Point","coordinates":[16.501462,43.526911]}},{"type":"Feature","properties":{"vrsta":"Stup","oznaka":"22538"},"geometry":{"type":"Point","coordinates":[16.500252,43.526736]}},{"type":"Feature","properties":{"vrsta":"Stup","oznaka":"22561"},"geometry":{"type":"Point","coordinates":[16.497331,43.526219]}},{"type":"Feature","properties":{"vrsta":"Stup","oznaka":"22527"},"geometry":{"type":"Point","coordinates":[16.49159,43.522967]}},{"type":"Feature","properties":{"vrsta":"Stup","oznaka":"9907"},"geometry":{"type":"Point","coordinates":[16.490659,43.52539]}},{"type":"Feature","properties":{"vrsta":"Stup","oznaka":"9808"},"geometry":{"type":"Point","coordinates":[16.502259,43.526754]}},{"type":"Feature","properties":{"vrsta":"Stup","oznaka":"22539"},"geometry":{"type":"Point","coordinates":[16.500152,43.526532]}},{"type":"Feature","properties":{"vrsta":"Stup","oznaka":"20138"},"geometry":{"type":"Point","coordinates":[16.500321,43.527014]}},{"type":"Feature","properties":{"vrsta":"Stup","oznaka":"22553"},"geometry":{"type":"Point","coordinates":[16.498567,43.526624]}},{"type":"Feature","properties":{"vrsta":"Stup","oznaka":"9680"},"geometry":{"type":"Point","coordinates":[16.502972,43.528088]}},{"type":"Feature","properties":{"vrsta":"Stup","oznaka":"9694"},"geometry":{"type":"Point","coordinates":[16.501672,43.52748]}},{"type":"Feature","properties":{"vrsta":"Stup","oznaka":"22526"},"geometry":{"type":"Point","coordinates":[16.491675,43.52333]}}]}