{"type":"FeatureCollection","name":"PL_TR_STAT_PT","crs":{"type":"name","properties":{"name":"urn:ogc:def:crs:OGC:1.3:CRS84"}},"xy_coordinate_resolution":0.000001,"features":[{"type":"Feature","properties":{"naziv":"OSTINE-TS","status":"Izgradeno"},"geometry":{"type":"Point","coordinates":[16.492608,43.525454]}},{"type":"Feature","properties":{"naziv":"DRACEVAC-1-TS-","status":"Izgradeno"},"geometry":{"type":"Point","coordinates":[16.498466,43.526659]}},{"type":"Feature","properties":{"naziv":"OR-UZ-TS-DRACEVAC-3","status":"Izgradeno"},"geometry":{"type":"Point","coordinates":[16.502958,43.526617]}}]}