{"type":"FeatureCollection","name":"PL_LIGHT_POS_PT","crs":{"type":"name","properties":{"name":"urn:ogc:def:crs:OGC:1.3:CRS84"}},"xy_coordinate_resolution":0.000001,"features":[{"type":"Feature","properties":{"ulica":"Bilice Ii","status":"Izgradeno","ugradeno":"1111-01-01","zona":4},"geometry":{"type":"Point","coordinates":[16.495308,43.527398]}},{"type":"Feature","properties":{"ulica":"Bilice Ii","status":"Izgradeno","ugradeno":"1111-01-01","zona":4},"geometry":{"type":"Point","coordinates":[16.495004,43.527392]}},{"type":"Feature","properties":{"ulica":"Bilice Ii","status":"Izgradeno","ugradeno":"1111-01-01","zona":4},"geometry":{"type":"Point","coordinates":[16.494648,43.527354]}},{"type":"Feature","properties":{"ulica":"Bilice Ii","status":"Izgradeno","ugradeno":"1111-01-01","zona":4},"geometry":{"type":"Point","coordinates":[16.494108,43.527452]}},{"type":"Feature","properties":{"ulica":"Bilice Ii","status":"Izgradeno","ugradeno":"1111-01-01","zona":4},"geometry":{"type":"Point","coordinates":[16.493594,43.527647]}},{"type":"Feature","properties":{"ulica":"Bilice Ii","status":"Izgradeno","ugradeno":"1111-01-01","zona":4},"geometry":{"type":"Point","coordinates":[16.493004,43.52777]}},{"type":"Feature","properties":{"ulica":"Bilice Ii","status":"Izgradeno","ugradeno":"1111-01-01","zona":4},"geometry":{"type":"Point","coordinates":[16.492818,43.527568]}},{"type":"Feature","properties":{"ulica":"Bilice Ii","status":"Izgradeno","ugradeno":"1111-01-01","zona":4},"geometry":{"type":"Point","coordinates":[16.494347,43.527137]}},{"type":"Feature","properties":{"ulica":"Bilice Ii","status":"Izgradeno","ugradeno":"1111-01-01","zona":4},"geometry":{"type":"Point","coordinates":[16.494499,43.526751]}},{"type":"Feature","properties":{"ulica":"Bilice Ii","status":"Izgradeno","ugradeno":"1111-01-01","zona":4},"geometry":{"type":"Point","coordinates":[16.494575,43.526536]}},{"type":"Feature","properties":{"ulica":"Bilice Ii","status":"Izgradeno","ugradeno":"1111-01-01","zona":4},"geometry":{"type":"Point","coordinates":[16.494646,43.526255]}},{"type":"Feature","properties":{"ulica":"Bilice Ii","status":"Izgradeno","ugradeno":"1111-01-01","zona":4},"geometry":{"type":"Point","coordinates":[16.494234,43.525981]}},{"type":"Feature","properties":{"ulica":"Bilice Ii","status":"Izgradeno","ugradeno":"1111-01-01","zona":4},"geometry":{"type":"Point","coordinates":[16.493913,43.525843]}},{"type":"Feature","properties":{"ulica":"Bilice Ii","status":"Izgradeno","ugradeno":"1111-01-01","zona":4},"geometry":{"type":"Point","coordinates":[16.493607,43.525691]}},{"type":"Feature","properties":{"ulica":"Bilice Ii","status":"Izgradeno","ugradeno":"1111-01-01","zona":4},"geometry":{"type":"Point","coordinates":[16.49364,43.525578]}},{"type":"Feature","properties":{"ulica":"Bilice Ii","status":"Izgradeno","ugradeno":"1111-01-01","zona":4},"geometry":{"type":"Point","coordinates":[16.493466,43.52549]}},{"type":"Feature","properties":{"ulica":"Dračevac","status":"Izgradeno","ugradeno":"1111-01-01","zona":4},"geometry":{"type":"Point","coordinates":[16.502153,43.527367]}},{"type":"Feature","properties":{"ulica":"Dračevac","status":"Izgradeno","ugradeno":"1111-01-01","zona":4},"geometry":{"type":"Point","coordinates":[16.501893,43.527229]}},{"type":"Feature","properties":{"ulica":"Dračevac","status":"Izgradeno","ugradeno":"1111-01-01","zona":4},"geometry":{"type":"Point","coordinates":[16.501396,43.527229]}},{"type":"Feature","properties":{"ulica":"Dračevac","status":"Izgradeno","ugradeno":"1111-01-01","zona":4},"geometry":{"type":"Point","coordinates":[16.501636,43.527227]}},{"type":"Feature","properties":{"ulica":"Dračevac","status":"Izgradeno","ugradeno":"1111-01-01","zona":4},"geometry":{"type":"Point","coordinates":[16.50203,43.527119]}},{"type":"Feature","properties":{"ulica":"Dračevac","status":"Izgradeno","ugradeno":"1111-01-01","zona":4},"geometry":{"type":"Point","coordinates":[16.501713,43.527001]}},{"type":"Feature","properties":{"ulica":"Dračevac","status":"Izgradeno","ugradeno":"1111-01-01","zona":4},"geometry":{"type":"Point","coordinates":[16.501462,43.526911]}},{"type":"Feature","properties":{"ulica":"Dračevac","status":"Izgradeno","ugradeno":"1111-01-01","zona":4},"geometry":{"type":"Point","coordinates":[16.501615,43.526449]}},{"type":"Feature","properties":{"ulica":"Dračevac","status":"Izgradeno","ugradeno":"1111-01-01","zona":4},"geometry":{"type":"Point","coordinates":[16.501832,43.526206]}},{"type":"Feature","properties":{"ulica":"Dračevac","status":"Izgradeno","ugradeno":"1111-01-01","zona":4},"geometry":{"type":"Point","coordinates":[16.502084,43.525885]}},{"type":"Feature","properties":{"ulica":"Dračevac","status":"Izgradeno","ugradeno":"1111-01-01","zona":4},"geometry":{"type":"Point","coordinates":[16.501954,43.525478]}},{"type":"Feature","properties":{"ulica":"Dračevac","status":"Izgradeno","ugradeno":"1111-01-01","zona":4},"geometry":{"type":"Point","coordinates":[16.502287,43.525412]}},{"type":"Feature","properties":{"ulica":"Dračevac","status":"Izgradeno","ugradeno":"1111-01-01","zona":4},"geometry":{"type":"Point","coordinates":[16.502211,43.524973]}},{"type":"Feature","properties":{"ulica":"Dračevac","status":"Izgradeno","ugradeno":"1111-01-01","zona":4},"geometry":{"type":"Point","coordinates":[16.501877,43.524939]}},{"type":"Feature","properties":{"ulica":"Dračevac","status":"Izgradeno","ugradeno":"1111-01-01","zona":4},"geometry":{"type":"Point","coordinates":[16.501387,43.524882]}},{"type":"Feature","properties":{"ulica":"Dračevac","status":"Izgradeno","ugradeno":"1111-01-01","zona":4},"geometry":{"type":"Point","coordinates":[16.502176,43.524667]}},{"type":"Feature","properties":{"ulica":"Dračevac","status":"Izgradeno","ugradeno":"1111-01-01","zona":4},"geometry":{"type":"Point","coordinates":[16.501699,43.52686]}},{"type":"Feature","properties":{"ulica":"Dračevac","status":"Izgradeno","ugradeno":"1111-01-01","zona":4},"geometry":{"type":"Point","coordinates":[16.501917,43.526819]}},{"type":"Feature","properties":{"ulica":"Dračevac","status":"Izgradeno","ugradeno":"1111-01-01","zona":4},"geometry":{"type":"Point","coordinates":[16.502259,43.526754]}},{"type":"Feature","properties":{"ulica":"Dračevac","status":"Izgradeno","ugradeno":"1111-01-01","zona":4},"geometry":{"type":"Point","coordinates":[16.502581,43.526682]}},{"type":"Feature","properties":{"ulica":"Dračevac","status":"Izgradeno","ugradeno":"1111-01-01","zona":4},"geometry":{"type":"Point","coordinates":[16.502853,43.526627]}},{"type":"Feature","properties":{"ulica":"Dračevac","status":"Izgradeno","ugradeno":"1111-01-01","zona":4},"geometry":{"type":"Point","coordinates":[16.503244,43.526552]}},{"type":"Feature","properties":{"ulica":"Dračevac","status":"Izgradeno","ugradeno":"1111-01-01","zona":4},"geometry":{"type":"Point","coordinates":[16.503383,43.52647]}},{"type":"Feature","properties":{"ulica":"Bilice Ii","status":"Izgradeno","ugradeno":"1111-01-01","zona":4},"geometry":{"type":"Point","coordinates":[16.493075,43.525469]}},{"type":"Feature","properties":{"ulica":"Bilice Ii","status":"Izgradeno","ugradeno":"1111-01-01","zona":4},"geometry":{"type":"Point","coordinates":[16.492756,43.525479]}},{"type":"Feature","properties":{"ulica":"Bilice Ii","status":"Izgradeno","ugradeno":"1111-01-01","zona":4},"geometry":{"type":"Point","coordinates":[16.492608,43.525456]}},{"type":"Feature","properties":{"ulica":"Bilice Ii","status":"Izgradeno","ugradeno":"1111-01-01","zona":4},"geometry":{"type":"Point","coordinates":[16.492423,43.52549]}},{"type":"Feature","properties":{"ulica":"Bilice Ii","status":"Izgradeno","ugradeno":"1111-01-01","zona":4},"geometry":{"type":"Point","coordinates":[16.491978,43.525452]}},{"type":"Feature","properties":{"ulica":"Bilice Ii","status":"Izgradeno","ugradeno":"1111-01-01","zona":4},"geometry":{"type":"Point","coordinates":[16.491604,43.525422]}},{"type":"Feature","properties":{"ulica":"Bilice Ii","status":"Izgradeno","ugradeno":"1111-01-01","zona":4},"geometry":{"type":"Point","coordinates":[16.491206,43.525411]}},{"type":"Feature","properties":{"ulica":"Bilice Ii","status":"Izgradeno","ugradeno":"1111-01-01","zona":4},"geometry":{"type":"Point","coordinates":[16.490659,43.52539]}},{"type":"Feature","properties":{"ulica":"Bilice Ii","status":"Izgradeno","ugradeno":"1111-01-01","zona":4},"geometry":{"type":"Point","coordinates":[16.490378,43.525438]}},{"type":"Feature","properties":{"ulica":"Bilice Ii","status":"Izgradeno","ugradeno":"1111-01-01","zona":4},"geometry":{"type":"Point","coordinates":[16.490122,43.52555]}},{"type":"Feature","properties":{"ulica":"Bilice Ii","status":"Izgradeno","ugradeno":"1111-01-01","zona":4},"geometry":{"type":"Point","coordinates":[16.494554,43.526087]}},{"type":"Feature","properties":{"ulica":"Bilice Ii","status":"Izgradeno","ugradeno":"1111-01-01","zona":4},"geometry":{"type":"Point","coordinates":[16.494706,43.525868]}},{"type":"Feature","properties":{"ulica":"Bilice Ii","status":"Izgradeno","ugradeno":"1111-01-01","zona":4},"geometry":{"type":"Point","coordinates":[16.494787,43.525654]}},{"type":"Feature","properties":{"ulica":"Bilice Ii","status":"Izgradeno","ugradeno":"1111-01-01","zona":4},"geometry":{"type":"Point","coordinates":[16.494865,43.525432]}},{"type":"Feature","properties":{"ulica":"Bilice Ii","status":"Izgradeno","ugradeno":"1111-01-01","zona":4},"geometry":{"type":"Point","coordinates":[16.494895,43.524879]}},{"type":"Feature","properties":{"ulica":"Dračevac","status":"Izgradeno","ugradeno":"1111-01-01","zona":4},"geometry":{"type":"Point","coordinates":[16.498059,43.524045]}},{"type":"Feature","properties":{"ulica":"Dračevac","status":"Izgradeno","ugradeno":"1111-01-01","zona":4},"geometry":{"type":"Point","coordinates":[16.498481,43.523898]}},{"type":"Feature","properties":{"ulica":"Dračevac","status":"Izgradeno","ugradeno":"1111-01-01","zona":4},"geometry":{"type":"Point","coordinates":[16.498851,43.523765]}},{"type":"Feature","properties":{"ulica":"Dračevac","status":"Izgradeno","ugradeno":"1111-01-01","zona":4},"geometry":{"type":"Point","coordinates":[16.499288,43.523625]}},{"type":"Feature","properties":{"ulica":"Dračevac","status":"Izgradeno","ugradeno":"1111-01-01","zona":4},"geometry":{"type":"Point","coordinates":[16.499707,43.523525]}},{"type":"Feature","properties":{"ulica":"Dračevac","status":"Izgradeno","ugradeno":"1111-01-01","zona":4},"geometry":{"type":"Point","coordinates":[16.500125,43.523452]}},{"type":"Feature","properties":{"ulica":"Dračevac","status":"Izgradeno","ugradeno":"1111-01-01","zona":4},"geometry":{"type":"Point","coordinates":[16.500534,43.523315]}},{"type":"Feature","properties":{"ulica":"Dračevac","status":"Izgradeno","ugradeno":"1111-01-01","zona":4},"geometry":{"type":"Point","coordinates":[16.50136,43.523085]}},{"type":"Feature","properties":{"ulica":"Dračevac","status":"Izgradeno","ugradeno":"1111-01-01","zona":4},"geometry":{"type":"Point","coordinates":[16.501791,43.52299]}},{"type":"Feature","properties":{"ulica":"Dračevac","status":"Izgradeno","ugradeno":"1111-01-01","zona":4},"geometry":{"type":"Point","coordinates":[16.502237,43.522882]}},{"type":"Feature","properties":{"ulica":"Dračevac","status":"Izgradeno","ugradeno":"1111-01-01","zona":4},"geometry":{"type":"Point","coordinates":[16.502444,43.523178]}},{"type":"Feature","properties":{"ulica":"Dračevac","status":"Izgradeno","ugradeno":"1111-01-01","zona":4},"geometry":{"type":"Point","coordinates":[16.502572,43.523538]}},{"type":"Feature","properties":{"ulica":"Dračevac","status":"Izgradeno","ugradeno":"1111-01-01","zona":4},"geometry":{"type":"Point","coordinates":[16.502644,43.524291]}},{"type":"Feature","properties":{"ulica":"Dračevac","status":"Izgradeno","ugradeno":"1111-01-01","zona":4},"geometry":{"type":"Point","coordinates":[16.503034,43.524251]}},{"type":"Feature","properties":{"ulica":"Dračevac","status":"Izgradeno","ugradeno":"1111-01-01","zona":4},"geometry":{"type":"Point","coordinates":[16.5035,43.524169]}},{"type":"Feature","properties":{"ulica":"Dračevac","status":"Izgradeno","ugradeno":"1111-01-01","zona":4},"geometry":{"type":"Point","coordinates":[16.504911,43.524128]}},{"type":"Feature","properties":{"ulica":"Bilice Ii","status":"Izgradeno","ugradeno":"1111-01-01","zona":4},"geometry":{"type":"Point","coordinates":[16.495469,43.526385]}},{"type":"Feature","properties":{"ulica":"Bilice Ii","status":"Izgradeno","ugradeno":"1111-01-01","zona":4},"geometry":{"type":"Point","coordinates":[16.495186,43.526304]}},{"type":"Feature","properties":{"ulica":"Bilice Ii","status":"Izgradeno","ugradeno":"1111-01-01","zona":4},"geometry":{"type":"Point","coordinates":[16.494929,43.526284]}},{"type":"Feature","properties":{"ulica":"Dračevac","status":"Izgradeno","ugradeno":"1111-01-01","zona":4},"geometry":{"type":"Point","coordinates":[16.504089,43.528032]}},{"type":"Feature","properties":{"ulica":"Dračevac","status":"Izgradeno","ugradeno":"1111-01-01","zona":4},"geometry":{"type":"Point","coordinates":[16.503807,43.528138]}},{"type":"Feature","properties":{"ulica":"Dračevac","status":"Izgradeno","ugradeno":"1111-01-01","zona":4},"geometry":{"type":"Point","coordinates":[16.50351,43.528085]}},{"type":"Feature","properties":{"ulica":"Dračevac","status":"Izgradeno","ugradeno":"1111-01-01","zona":4},"geometry":{"type":"Point","coordinates":[16.502972,43.528088]}},{"type":"Feature","properties":{"ulica":"Dračevac","status":"Izgradeno","ugradeno":"1111-01-01","zona":4},"geometry":{"type":"Point","coordinates":[16.503812,43.52791]}},{"type":"Feature","properties":{"ulica":"Dračevac","status":"Izgradeno","ugradeno":"1111-01-01","zona":4},"geometry":{"type":"Point","coordinates":[16.50377,43.52772]}},{"type":"Feature","properties":{"ulica":"Dračevac","status":"Izgradeno","ugradeno":"1111-01-01","zona":4},"geometry":{"type":"Point","coordinates":[16.504417,43.527891]}},{"type":"Feature","properties":{"ulica":"Dračevac","status":"Izgradeno","ugradeno":"1111-01-01","zona":4},"geometry":{"type":"Point","coordinates":[16.504779,43.527639]}},{"type":"Feature","properties":{"ulica":"Dračevac","status":"Izgradeno","ugradeno":"1111-01-01","zona":4},"geometry":{"type":"Point","coordinates":[16.504459,43.52733]}},{"type":"Feature","properties":{"ulica":"Dračevac","status":"Izgradeno","ugradeno":"1111-01-01","zona":4},"geometry":{"type":"Point","coordinates":[16.504113,43.527258]}},{"type":"Feature","properties":{"ulica":"Dračevac","status":"Izgradeno","ugradeno":"1111-01-01","zona":4},"geometry":{"type":"Point","coordinates":[16.503667,43.527308]}},{"type":"Feature","properties":{"ulica":"Dračevac","status":"Izgradeno","ugradeno":"1111-01-01","zona":4},"geometry":{"type":"Point","coordinates":[16.503378,43.527413]}},{"type":"Feature","properties":{"ulica":"Dračevac","status":"Izgradeno","ugradeno":"1111-01-01","zona":4},"geometry":{"type":"Point","coordinates":[16.503053,43.527502]}},{"type":"Feature","properties":{"ulica":"Dračevac","status":"Izgradeno","ugradeno":"1111-01-01","zona":4},"geometry":{"type":"Point","coordinates":[16.502682,43.527525]}},{"type":"Feature","properties":{"ulica":"Dračevac","status":"Izgradeno","ugradeno":"1111-01-01","zona":4},"geometry":{"type":"Point","coordinates":[16.502283,43.527498]}},{"type":"Feature","properties":{"ulica":"Dračevac","status":"Izgradeno","ugradeno":"1111-01-01","zona":4},"geometry":{"type":"Point","coordinates":[16.501943,43.527477]}},{"type":"Feature","properties":{"ulica":"Dračevac","status":"Izgradeno","ugradeno":"1111-01-01","zona":4},"geometry":{"type":"Point","coordinates":[16.501672,43.52748]}},{"type":"Feature","properties":{"ulica":"Dračevac","status":"Izgradeno","ugradeno":"1111-01-01","zona":4},"geometry":{"type":"Point","coordinates":[16.501375,43.527489]}},{"type":"Feature","properties":{"ulica":"Dračevac","status":"Izgradeno","ugradeno":"1111-01-01","zona":4},"geometry":{"type":"Point","coordinates":[16.503388,43.526373]}},{"type":"Feature","properties":{"ulica":"Dračevac","status":"Izgradeno","ugradeno":"1111-01-01","zona":4},"geometry":{"type":"Point","coordinates":[16.503303,43.526123]}},{"type":"Feature","properties":{"ulica":"Dračevac","status":"Izgradeno","ugradeno":"1111-01-01","zona":4},"geometry":{"type":"Point","coordinates":[16.502993,43.526161]}},{"type":"Feature","properties":{"ulica":"Dračevac","status":"Izgradeno","ugradeno":"1111-01-01","zona":4},"geometry":{"type":"Point","coordinates":[16.503855,43.525738]}},{"type":"Feature","properties":{"ulica":"Dračevac","status":"Izgradeno","ugradeno":"1111-01-01","zona":4},"geometry":{"type":"Point","coordinates":[16.504814,43.525367]}},{"type":"Feature","properties":{"ulica":"Dračevac","status":"Izgradeno","ugradeno":"1111-01-01","zona":4},"geometry":{"type":"Point","coordinates":[16.505185,43.52524]}},{"type":"Feature","properties":{"ulica":"Dračevac","status":"Izgradeno","ugradeno":"1111-01-01","zona":4},"geometry":{"type":"Point","coordinates":[16.505121,43.524977]}},{"type":"Feature","properties":{"ulica":"Dračevac","status":"Izgradeno","ugradeno":"1111-01-01","zona":4},"geometry":{"type":"Point","coordinates":[16.504607,43.52492]}},{"type":"Feature","properties":{"ulica":"Dračevac","status":"Izgradeno","ugradeno":"1111-01-01","zona":4},"geometry":{"type":"Point","coordinates":[16.505381,43.52494]}},{"type":"Feature","properties":{"ulica":"Dračevac","status":"Izgradeno","ugradeno":"1111-01-01","zona":4},"geometry":{"type":"Point","coordinates":[16.505744,43.524885]}},{"type":"Feature","properties":{"ulica":"Dračevac","status":"Izgradeno","ugradeno":"1111-01-01","zona":4},"geometry":{"type":"Point","coordinates":[16.505843,43.524658]}},{"type":"Feature","properties":{"ulica":"Dračevac","status":"Izgradeno","ugradeno":"1111-01-01","zona":4},"geometry":{"type":"Point","coordinates":[16.506343,43.524896]}},{"type":"Feature","properties":{"ulica":"Dračevac","status":"Izgradeno","ugradeno":"1111-01-01","zona":4},"geometry":{"type":"Point","coordinates":[16.505961,43.524404]}},{"type":"Feature","properties":{"ulica":"Dračevac","status":"Izgradeno","ugradeno":"1111-01-01","zona":4},"geometry":{"type":"Point","coordinates":[16.506049,43.524117]}},{"type":"Feature","properties":{"ulica":"Dračevac","status":"Izgradeno","ugradeno":"1111-01-01","zona":4},"geometry":{"type":"Point","coordinates":[16.505978,43.523761]}},{"type":"Feature","properties":{"ulica":"Dračevac","status":"Izgradeno","ugradeno":"1111-01-01","zona":4},"geometry":{"type":"Point","coordinates":[16.5059,43.523455]}},{"type":"Feature","properties":{"ulica":"Dračevac","status":"Izgradeno","ugradeno":"1111-01-01","zona":4},"geometry":{"type":"Point","coordinates":[16.505822,43.523124]}},{"type":"Feature","properties":{"ulica":"Dračevac","status":"Izgradeno","ugradeno":"1111-01-01","zona":4},"geometry":{"type":"Point","coordinates":[16.50566,43.522343]}},{"type":"Feature","properties":{"ulica":"Dračevac","status":"Izgradeno","ugradeno":"1111-01-01","zona":4},"geometry":{"type":"Point","coordinates":[16.505716,43.522072]}},{"type":"Feature","properties":{"ulica":"Dračevac","status":"Izgradeno","ugradeno":"1111-01-01","zona":4},"geometry":{"type":"Point","coordinates":[16.505784,43.521794]}},{"type":"Feature","properties":{"ulica":"Dračevac","status":"Izgradeno","ugradeno":"1111-01-01","zona":4},"geometry":{"type":"Point","coordinates":[16.504719,43.527505]}},{"type":"Feature","properties":{"ulica":"Dračevac","status":"Izgradeno","ugradeno":"1111-01-01","zona":4},"geometry":{"type":"Point","coordinates":[16.50122,43.526637]}},{"type":"Feature","properties":{"ulica":"Dračevac","status":"Izgradeno","ugradeno":"1111-01-01","zona":4},"geometry":{"type":"Point","coordinates":[16.504345,43.525555]}},{"type":"Feature","properties":{"ulica":"Bilice Ii","status":"Izgradeno","ugradeno":"1111-01-01","zona":4},"geometry":{"type":"Point","coordinates":[16.493849,43.527741]}},{"type":"Feature","properties":{"ulica":"Bilice Ii","status":"Izgradeno","ugradeno":"1111-01-01","zona":4},"geometry":{"type":"Point","coordinates":[16.494929,43.525183]}},{"type":"Feature","properties":{"ulica":"Bilice Ii","status":"Izgradeno","ugradeno":"1111-01-01","zona":4},"geometry":{"type":"Point","coordinates":[16.495438,43.52705]}},{"type":"Feature","properties":{"ulica":"Dračevac","status":"Izgradeno","ugradeno":"1111-01-01","zona":4},"geometry":{"type":"Point","coordinates":[16.50354,43.525925]}},{"type":"Feature","properties":{"ulica":"Bilice Ii","status":"Izgradeno","ugradeno":"1111-01-01","zona":4},"geometry":{"type":"Point","coordinates":[16.494267,43.527273]}},{"type":"Feature","properties":{"ulica":"Dračevac","status":"Izgradeno","ugradeno":"1111-01-01","zona":4},"geometry":{"type":"Point","coordinates":[16.500943,43.523178]}},{"type":"Feature","properties":{"ulica":"Mostine","status":"Izgradeno","ugradeno":"1111-01-01","zona":4},"geometry":{"type":"Point","coordinates":[16.491041,43.524839]}},{"type":"Feature","properties":{"ulica":"Mostine","status":"Izgradeno","ugradeno":"1111-01-01","zona":4},"geometry":{"type":"Point","coordinates":[16.49143,43.524927]}},{"type":"Feature","properties":{"ulica":"Mostine","status":"Izgradeno","ugradeno":"1111-01-01","zona":4},"geometry":{"type":"Point","coordinates":[16.491802,43.524939]}},{"type":"Feature","properties":{"ulica":"Mostine","status":"Izgradeno","ugradeno":"1111-01-01","zona":4},"geometry":{"type":"Point","coordinates":[16.492534,43.524716]}},{"type":"Feature","properties":{"ulica":"Mostine","status":"Izgradeno","ugradeno":"1111-01-01","zona":4},"geometry":{"type":"Point","coordinates":[16.492854,43.524669]}},{"type":"Feature","properties":{"ulica":"Mostine","status":"Izgradeno","ugradeno":"1111-01-01","zona":4},"geometry":{"type":"Point","coordinates":[16.493131,43.524666]}},{"type":"Feature","properties":{"ulica":"Mostine","status":"Izgradeno","ugradeno":"1111-01-01","zona":4},"geometry":{"type":"Point","coordinates":[16.49352,43.524659]}},{"type":"Feature","properties":{"ulica":"Mostine","status":"Izgradeno","ugradeno":"1111-01-01","zona":4},"geometry":{"type":"Point","coordinates":[16.493813,43.5247]}},{"type":"Feature","properties":{"ulica":"Mostine","status":"Izgradeno","ugradeno":"1111-01-01","zona":4},"geometry":{"type":"Point","coordinates":[16.494125,43.524725]}},{"type":"Feature","properties":{"ulica":"Mostine","status":"Izgradeno","ugradeno":"1111-01-01","zona":4},"geometry":{"type":"Point","coordinates":[16.494452,43.524827]}},{"type":"Feature","properties":{"ulica":"Mostine","status":"Izgradeno","ugradeno":"1111-01-01","zona":4},"geometry":{"type":"Point","coordinates":[16.495292,43.524926]}},{"type":"Feature","properties":{"ulica":"Mostine","status":"Izgradeno","ugradeno":"1111-01-01","zona":4},"geometry":{"type":"Point","coordinates":[16.495675,43.524914]}},{"type":"Feature","properties":{"ulica":"Mostine","status":"Izgradeno","ugradeno":"1111-01-01","zona":4},"geometry":{"type":"Point","coordinates":[16.496089,43.524777]}},{"type":"Feature","properties":{"ulica":"Mostine","status":"Izgradeno","ugradeno":"1111-01-01","zona":4},"geometry":{"type":"Point","coordinates":[16.496414,43.52471]}},{"type":"Feature","properties":{"ulica":"Bilice Ii","status":"Izgradeno","ugradeno":"1111-01-01","zona":4},"geometry":{"type":"Point","coordinates":[16.495388,43.526701]}},{"type":"Feature","properties":{"ulica":"Dračevac","status":"Izgradeno","ugradeno":"1111-01-01","zona":4},"geometry":{"type":"Point","coordinates":[16.506498,43.524484]}},{"type":"Feature","properties":{"ulica":"Dračevac","status":"Izgradeno","ugradeno":"1111-01-01","zona":4},"geometry":{"type":"Point","coordinates":[16.506355,43.524712]}},{"type":"Feature","properties":{"ulica":"Dračevac","status":"Izgradeno","ugradeno":"1111-01-01","zona":4},"geometry":{"type":"Point","coordinates":[16.50633,43.525287]}},{"type":"Feature","properties":{"ulica":"Dračevac","status":"Izgradeno","ugradeno":"1111-01-01","zona":4},"geometry":{"type":"Point","coordinates":[16.506421,43.52538]}}]}