{"type":"FeatureCollection","name":"PL_ZONE_P","crs":{"type":"name","properties":{"name":"urn:ogc:def:crs:OGC:1.3:CRS84"}},"xy_coordinate_resolution":0.000001,"features":[{"type":"Feature","properties":{"zona":"ZONA III"},"geometry":{"type":"Polygon","coordinates":[[[16.486975858925536,43.52418522715357],[16.487023728824127,43.52397150611139],[16.48712947383484,43.52376901539912],[16.487153238670576,43.52374170939494],[16.489061,43.52524],[16.489665,43.525727],[16.490022,43.526285],[16.490215,43.526767],[16.490287,43.527186],[16.490255,43.527635],[16.490034,43.528245],[16.489629,43.528853],[16.489325,43.529275],[16.489257,43.529274],[16.488401199548882,43.52922890842848],[16.48840681354507,43.529156926873206],[16.488478844003147,43.52895355412517],[16.489419239337558,43.52707864473945],[16.48941925113806,43.52660041057253],[16.48736578397391,43.52498085914065],[16.487186758348138,43.524807562915896],[16.487059047428872,43.524611842110325],[16.48698779169755,43.524401575458576],[16.486975858925536,43.52418522715357]]]}},{"type":"Feature","properties":{"zona":"ZONA V"},"geometry":{"type":"Polygon","coordinates":[[[16.487153238670576,43.52374170939494],[16.487288836817225,43.52358590593809],[16.48749540249165,43.52342954842041],[16.487740855723782,43.52330623664169],[16.488015316246837,43.52322093418681],[16.495379324490408,43.52154278494181],[16.496704775277617,43.52100570450282],[16.496707435158505,43.52100915592822],[16.496759290540364,43.520984678082094],[16.500578710794155,43.51958435741972],[16.500826085388486,43.519513004402995],[16.5010870332416,43.51947475267918],[16.501353204352995,43.519470826252316],[16.505687577147658,43.51968865563678],[16.505969975163335,43.51972286056185],[16.506238115339542,43.51979564445852],[16.506482074120544,43.519904313698135],[16.506692822745016,43.52004484656858],[16.506862561367136,43.52021204209292],[16.506985007725184,43.520399712490125],[16.50724841239555,43.52093024567232],[16.511059305965826,43.523489870370284],[16.511100890256174,43.52352353908603],[16.511022,43.523549],[16.510592,43.52371],[16.510181,43.524133],[16.509924,43.524424],[16.509827,43.524522],[16.509543,43.524846],[16.508854,43.525314],[16.508206,43.525678],[16.507627,43.526],[16.507815,43.526226],[16.507848,43.526318],[16.507529,43.526633],[16.507037,43.526922],[16.506754,43.527036],[16.506147,43.527349],[16.505581,43.527602],[16.505125,43.52774],[16.504776,43.527813],[16.504329,43.528033],[16.503924,43.528151],[16.503586,43.52813],[16.5034,43.528162],[16.503256,43.528232],[16.50295,43.528199],[16.502784,43.528194],[16.502342,43.528234],[16.498924,43.528924],[16.497145,43.528961],[16.495768,43.529076],[16.495151,43.529182],[16.494643,43.529255],[16.494174,43.529305],[16.493475,43.529372],[16.492943,43.529365],[16.492526,43.529344],[16.491887,43.529332],[16.49116,43.529313],[16.490428,43.529296],[16.489325,43.529275],[16.489629,43.528853],[16.490034,43.528245],[16.490255,43.527635],[16.490287,43.527186],[16.490215,43.526767],[16.490022,43.526285],[16.489665,43.525727],[16.489061,43.52524],[16.487153238670576,43.52374170939494]]]}}]}