{"type":"FeatureCollection","name":"JavniPrijevoz_pt","crs":{"type":"name","properties":{"name":"urn:ogc:def:crs:OGC:1.3:CRS84"}},"xy_coordinate_resolution":0.000001,"features":[{"type":"Feature","properties":{"naziv":"SMOKOVIK 1","vrsta":"Zaustavljanje vozila, ulazak/izlazak putnika"},"geometry":{"type":"Point","coordinates":[16.487671,43.523926]}},{"type":"Feature","properties":{"naziv":"BILICE ZATVOR 1","vrsta":"Zaustavljanje vozila, ulazak/izlazak putnika"},"geometry":{"type":"Point","coordinates":[16.496704,43.528931]}},{"type":"Feature","properties":{"naziv":"BILICE ZATVOR 2","vrsta":"Zaustavljanje vozila, ulazak/izlazak putnika"},"geometry":{"type":"Point","coordinates":[16.496704,43.529114]}},{"type":"Feature","properties":{"naziv":"MARINUŠA 1","vrsta":"Zaustavljanje vozila, ulazak/izlazak putnika"},"geometry":{"type":"Point","coordinates":[16.503723,43.528931]}},{"type":"Feature","properties":{"naziv":"MARINUŠA 2","vrsta":"Zaustavljanje vozila, ulazak/izlazak putnika"},"geometry":{"type":"Point","coordinates":[16.503479,43.528931]}},{"type":"Feature","properties":{"naziv":"DRAČEVAC NIRS 2","vrsta":"Zaustavljanje vozila, ulazak/izlazak putnika"},"geometry":{"type":"Point","coordinates":[16.501709,43.527283]}},{"type":"Feature","properties":{"naziv":"DRAČEVAC SUD 1","vrsta":"Zaustavljanje vozila, ulazak/izlazak putnika"},"geometry":{"type":"Point","coordinates":[16.499878,43.526917]}},{"type":"Feature","properties":{"naziv":"DRAČEVAC SUD 2","vrsta":"Zaustavljanje vozila, ulazak/izlazak putnika"},"geometry":{"type":"Point","coordinates":[16.499878,43.526917]}},{"type":"Feature","properties":{"naziv":"DRAČEVAC NIRS 1","vrsta":"Zaustavljanje vozila, ulazak/izlazak putnika"},"geometry":{"type":"Point","coordinates":[16.501709,43.52771]}},{"type":"Feature","properties":{"naziv":"DRAČEVAC","vrsta":"Zaustavljanje vozila, ulazak/izlazak putnika"},"geometry":{"type":"Point","coordinates":[16.496277,43.526917]}}]}