{"type":"FeatureCollection","name":"vn_stup","crs":{"type":"name","properties":{"name":"urn:ogc:def:crs:OGC:1.3:CRS84"}},"xy_coordinate_resolution":0.000001,"features":[{"type":"Feature","properties":{"oznaka":"4ZV166.6","vrsta":"CR","napon":"110 kV","izgraden":"1966-06-06","status":"eksploatacija"},"geometry":{"type":"Point","coordinates":[16.490153,43.522799]}},{"type":"Feature","properties":{"oznaka":"4ZV147.33","vrsta":"CR","napon":"110 kV","izgraden":"1966-06-06","status":"eksploatacija"},"geometry":{"type":"Point","coordinates":[16.508758,43.525167]}},{"type":"Feature","properties":{"oznaka":"4ZV147.36","vrsta":"CR","napon":"110 kV","izgraden":"1966-06-06","status":"eksploatacija"},"geometry":{"type":"Point","coordinates":[16.500376,43.519692]}},{"type":"Feature","properties":{"oznaka":"4ZV166.5","vrsta":"CR","napon":"110 kV","izgraden":"1966-06-06","status":"eksploatacija"},"geometry":{"type":"Point","coordinates":[16.488108,43.52331]}},{"type":"Feature","properties":{"oznaka":"1ZV307.5","vrsta":"SD","napon":"10 kV","izgraden":"1984-01-01","status":"eksploatacija"},"geometry":{"type":"Point","coordinates":[16.499279,43.522631]}},{"type":"Feature","properties":{"oznaka":"4ZV119.4","vrsta":"CR","napon":"110 kV","izgraden":"1966-06-06","status":"eksploatacija"},"geometry":{"type":"Point","coordinates":[16.499435,43.523463]}},{"type":"Feature","properties":{"oznaka":"1ZV303.3","vrsta":"SB","napon":"20 kV","izgraden":"1978-01-01","status":"eksploatacija"},"geometry":{"type":"Point","coordinates":[16.494167,43.522559]}},{"type":"Feature","properties":{"oznaka":"4ZV119.3","vrsta":"CR","napon":"110 kV","izgraden":"1966-06-06","status":"eksploatacija"},"geometry":{"type":"Point","coordinates":[16.500491,43.525852]}},{"type":"Feature","properties":{"oznaka":"1ZV307.2","vrsta":"SD","napon":"10 kV","izgraden":"1984-01-01","status":"eksploatacija"},"geometry":{"type":"Point","coordinates":[16.497448,43.521351]}},{"type":"Feature","properties":{"oznaka":"1ZV303.2","vrsta":"SB","napon":"20 kV","izgraden":"1978-01-01","status":"eksploatacija"},"geometry":{"type":"Point","coordinates":[16.493357,43.522759]}},{"type":"Feature","properties":{"oznaka":"1ZV307.3","vrsta":"SD","napon":"10 kV","izgraden":"1984-01-01","status":"eksploatacija"},"geometry":{"type":"Point","coordinates":[16.498058,43.521778]}},{"type":"Feature","properties":{"oznaka":"4ZV146.83","vrsta":"CR","napon":"110 kV","izgraden":"1966-06-06","status":"eksploatacija"},"geometry":{"type":"Point","coordinates":[16.501573,43.529595]}},{"type":"Feature","properties":{"oznaka":"1ZV307.4","vrsta":"SD","napon":"10 kV","izgraden":"1984-01-01","status":"eksploatacija"},"geometry":{"type":"Point","coordinates":[16.498668,43.522204]}},{"type":"Feature","properties":{"oznaka":"4ZV147.35","vrsta":"CR","napon":"110 kV","izgraden":"1966-06-06","status":"eksploatacija"},"geometry":{"type":"Point","coordinates":[16.50331,43.521948]}},{"type":"Feature","properties":{"oznaka":"1ZV303.1","vrsta":"SDA","napon":"20 kV","izgraden":"1966-06-06","status":"eksploatacija"},"geometry":{"type":"Point","coordinates":[16.49328,43.522327]}},{"type":"Feature","properties":{"oznaka":"4ZV147.34","vrsta":"CR","napon":"110 kV","izgraden":"1966-06-06","status":"eksploatacija"},"geometry":{"type":"Point","coordinates":[16.505508,43.523658]}},{"type":"Feature","properties":{"oznaka":"4ZV166.4","vrsta":"CR","napon":"110 kV","izgraden":"1966-06-06","status":"eksploatacija"},"geometry":{"type":"Point","coordinates":[16.487693,43.524506]}},{"type":"Feature","properties":{"oznaka":"4ZV119.2","vrsta":"CR","napon":"110 kV","izgraden":"1966-06-06","status":"eksploatacija"},"geometry":{"type":"Point","coordinates":[16.501287,43.527653]}},{"type":"Feature","properties":{"oznaka":"4ZV119.1","vrsta":"CR","napon":"110 kV","izgraden":"1966-06-06","status":"eksploatacija"},"geometry":{"type":"Point","coordinates":[16.501513,43.528687]}},{"type":"Feature","properties":{"oznaka":"4ZV119.5","vrsta":"CR","napon":"110 kV","izgraden":"1966-06-06","status":"eksploatacija"},"geometry":{"type":"Point","coordinates":[16.498517,43.521386]}},{"type":"Feature","properties":{"oznaka":"1ZV305.1","vrsta":"SD","napon":"10 kV","izgraden":"1965-01-01","status":"eksploatacija"},"geometry":{"type":"Point","coordinates":[16.494682,43.522044]}},{"type":"Feature","properties":{"oznaka":"1ZV304.1","vrsta":"SB","napon":"20 kV","izgraden":"1988-01-01","status":"eksploatacija"},"geometry":{"type":"Point","coordinates":[16.49406,43.522833]}}]}