{"type":"FeatureCollection","name":"nn_stup_2021","crs":{"type":"name","properties":{"name":"urn:ogc:def:crs:OGC:1.3:CRS84"}},"xy_coordinate_resolution":0.000001,"features":[{"type":"Feature","properties":{"oznaka":"??","izvod":"1TS868-NNI9,KRO-2363","vrsta":"SB","status":"eksploatacija","funkcija":"nosni"},"geometry":{"type":"Point","coordinates":[16.506346,43.52715]}},{"type":"Feature","properties":{"oznaka":"SB","izvod":"1TS1065-NNI10,KRO-2363","vrsta":"SB","status":"eksploatacija","funkcija":"nosni"},"geometry":{"type":"Point","coordinates":[16.502345,43.527854]}},{"type":"Feature","properties":{"oznaka":"??","izvod":"1TS1131-NNI8,ZR.MR ISTOK","vrsta":"SDA","status":"eksploatacija"},"geometry":{"type":"Point","coordinates":[16.489728,43.527302]}},{"type":"Feature","properties":{"oznaka":"s","izvod":"1TS325-NNI1,ISTOČNI IZVOD","vrsta":"SD","status":"eksploatacija"},"geometry":{"type":"Point","coordinates":[16.495878,43.522168]}},{"type":"Feature","properties":{"oznaka":"??","izvod":"1TS868-NNI7,ZR.MR. KOD DRAČEVCA 27","vrsta":"SD","status":"eksploatacija","funkcija":"nosni"},"geometry":{"type":"Point","coordinates":[16.506021,43.524136]}},{"type":"Feature","properties":{"oznaka":"??","vrsta":"SD","status":"eksploatacija"},"geometry":{"type":"Point","coordinates":[16.498889,43.529307]}},{"type":"Feature","properties":{"oznaka":"??","izvod":"1TS868-NNI7,ZR.MR. KOD DRAČEVCA 27","vrsta":"SB","status":"eksploatacija","funkcija":"nosni"},"geometry":{"type":"Point","coordinates":[16.505671,43.522241]}},{"type":"Feature","properties":{"oznaka":"s","izvod":"1TS325-NNI1,ISTOČNI IZVOD","vrsta":"SD","status":"eksploatacija"},"geometry":{"type":"Point","coordinates":[16.496209,43.522094]}},{"type":"Feature","properties":{"oznaka":"s","izvod":"1TS323-NNI1,KRO-2138","vrsta":"SD","status":"eksploatacija"},"geometry":{"type":"Point","coordinates":[16.493168,43.527769]}},{"type":"Feature","properties":{"oznaka":"s","izvod":"1TS325-NNI1,ISTOČNI IZVOD","vrsta":"SD","status":"eksploatacija"},"geometry":{"type":"Point","coordinates":[16.497056,43.52188]}},{"type":"Feature","properties":{"oznaka":"??","izvod":"1TS868-NNI7,ZR.MR. KOD DRAČEVCA 27","vrsta":"SB","status":"eksploatacija","funkcija":"nosni"},"geometry":{"type":"Point","coordinates":[16.505723,43.524909]}},{"type":"Feature","properties":{"oznaka":"s","izvod":"1TS894-NNI2,KRO-2236","vrsta":"SDSS","status":"eksploatacija"},"geometry":{"type":"Point","coordinates":[16.489898,43.525347]}},{"type":"Feature","properties":{"oznaka":"??","izvod":"1TS868-NNI7,ZR.MR. KOD DRAČEVCA 27","vrsta":"SD","status":"eksploatacija","funkcija":"nosni"},"geometry":{"type":"Point","coordinates":[16.505901,43.52347]}},{"type":"Feature","properties":{"oznaka":"s","izvod":"1TS325-NNI1,ISTOČNI IZVOD","vrsta":"SD","status":"eksploatacija"},"geometry":{"type":"Point","coordinates":[16.497828,43.521684]}},{"type":"Feature","properties":{"oznaka":"??","izvod":"1TS1131-NNI8,ZR.MR ISTOK","vrsta":"SD","status":"eksploatacija"},"geometry":{"type":"Point","coordinates":[16.488827,43.525848]}},{"type":"Feature","properties":{"oznaka":"s","izvod":"1TS496-NNI4,JAVNA RASVJETA","vrsta":"SB","status":"eksploatacija","funkcija":"nosni"},"geometry":{"type":"Point","coordinates":[16.500936,43.521716]}},{"type":"Feature","properties":{"oznaka":"??","izvod":"1TS868-NNI8,ZR.MR. KOD DRAČEVCA 23","vrsta":"SB","status":"eksploatacija","funkcija":"nosni"},"geometry":{"type":"Point","coordinates":[16.50399,43.525074]}},{"type":"Feature","properties":{"oznaka":"s","izvod":"1TS894-NNI2,KRO-2236","vrsta":"SDSS","status":"eksploatacija"},"geometry":{"type":"Point","coordinates":[16.489656,43.52519]}},{"type":"Feature","properties":{"oznaka":"s","vrsta":"SD","status":"eksploatacija"},"geometry":{"type":"Point","coordinates":[16.498019,43.521487]}},{"type":"Feature","properties":{"oznaka":"s","izvod":"1TS496-NNI4,JAVNA RASVJETA","vrsta":"SB","status":"eksploatacija","funkcija":"nosni"},"geometry":{"type":"Point","coordinates":[16.500795,43.521341]}},{"type":"Feature","properties":{"oznaka":"s","izvod":"1TS894-NNI2,KRO-2236","vrsta":"SD","status":"eksploatacija"},"geometry":{"type":"Point","coordinates":[16.489385,43.525056]}},{"type":"Feature","properties":{"oznaka":"??","izvod":"1TS868-NNI7,ZR.MR. KOD DRAČEVCA 27","vrsta":"SD","status":"eksploatacija","funkcija":"nosni"},"geometry":{"type":"Point","coordinates":[16.50595,43.524425]}},{"type":"Feature","properties":{"oznaka":"B","vrsta":"SB","status":"eksploatacija"},"geometry":{"type":"Point","coordinates":[16.494523,43.529287]}},{"type":"Feature","properties":{"oznaka":"??","izvod":"1TS868-NNI7,ZR.MR. KOD DRAČEVCA 27","vrsta":"SD","status":"eksploatacija","funkcija":"nosni"},"geometry":{"type":"Point","coordinates":[16.505655,43.522534]}},{"type":"Feature","properties":{"oznaka":"s","izvod":"1TS496-NNI4,JAVNA RASVJETA","vrsta":"SB","status":"eksploatacija","funkcija":"nosni"},"geometry":{"type":"Point","coordinates":[16.501416,43.520762]}},{"type":"Feature","properties":{"oznaka":"??","vrsta":"SD","status":"eksploatacija"},"geometry":{"type":"Point","coordinates":[16.494072,43.529107]}},{"type":"Feature","properties":{"oznaka":"s","izvod":"1TS323-NNI3,KRO-2139 (KRAJ BUNKERA)","vrsta":"SDSS","status":"eksploatacija"},"geometry":{"type":"Point","coordinates":[16.493538,43.526526]}},{"type":"Feature","properties":{"oznaka":"s","izvod":"1TS323-NNI2,ZR.MR. JUGO-ISTOK","vrsta":"SDSS","status":"eksploatacija"},"geometry":{"type":"Point","coordinates":[16.491548,43.523308]}},{"type":"Feature","properties":{"oznaka":"s","izvod":"1TS323-NNI3,KRO-2139 (KRAJ BUNKERA)","vrsta":"SDSS","status":"eksploatacija"},"geometry":{"type":"Point","coordinates":[16.494962,43.527183]}},{"type":"Feature","properties":{"oznaka":"s","izvod":"1TS323-NNI2,ZR.MR. JUGO-ISTOK","vrsta":"SDSS","status":"eksploatacija"},"geometry":{"type":"Point","coordinates":[16.491053,43.523117]}},{"type":"Feature","properties":{"oznaka":"??","izvod":"1TS868-NNI7,ZR.MR. KOD DRAČEVCA 27","vrsta":"SB","status":"eksploatacija","funkcija":"nosni"},"geometry":{"type":"Point","coordinates":[16.504351,43.525547]}},{"type":"Feature","properties":{"oznaka":"s","izvod":"1TS894-NNI2,KRO-2236","vrsta":"SDSS","status":"eksploatacija"},"geometry":{"type":"Point","coordinates":[16.489571,43.524969]}},{"type":"Feature","properties":{"oznaka":"s","izvod":"1TS894-NNI2,KRO-2236","vrsta":"SDSS","status":"eksploatacija"},"geometry":{"type":"Point","coordinates":[16.490316,43.524264]}},{"type":"Feature","properties":{"oznaka":"s","izvod":"1TS323-NNI2,ZR.MR. JUGO-ISTOK","vrsta":"SD","status":"eksploatacija"},"geometry":{"type":"Point","coordinates":[16.491988,43.523372]}},{"type":"Feature","properties":{"oznaka":"s","izvod":"1TS323-NNI2,ZR.MR. JUGO-ISTOK","vrsta":"SD","status":"eksploatacija"},"geometry":{"type":"Point","coordinates":[16.490661,43.523208]}},{"type":"Feature","properties":{"oznaka":"??","izvod":"1TS868-NNI8,ZR.MR. KOD DRAČEVCA 23","vrsta":"SD","status":"eksploatacija","funkcija":"nosni"},"geometry":{"type":"Point","coordinates":[16.50429,43.524199]}},{"type":"Feature","properties":{"oznaka":"s","izvod":"1TS894-NNI2,KRO-2236","vrsta":"SD","status":"eksploatacija"},"geometry":{"type":"Point","coordinates":[16.490067,43.52419]}},{"type":"Feature","properties":{"oznaka":"??","vrsta":"nepoznato","status":"eksploatacija"},"geometry":{"type":"Point","coordinates":[16.497731,43.529205]}},{"type":"Feature","properties":{"oznaka":"s","izvod":"1TS894-NNI2,KRO-2236","vrsta":"SD","status":"eksploatacija"},"geometry":{"type":"Point","coordinates":[16.489814,43.524021]}},{"type":"Feature","properties":{"oznaka":"??","izvod":"1TS868-NNI7,ZR.MR. KOD DRAČEVCA 27","vrsta":"SB","status":"eksploatacija","funkcija":"nosni"},"geometry":{"type":"Point","coordinates":[16.505099,43.525001]}},{"type":"Feature","properties":{"oznaka":"??","izvod":"1TS868-NNI8,ZR.MR. KOD DRAČEVCA 23","vrsta":"SDSS","status":"eksploatacija","funkcija":"nosni"},"geometry":{"type":"Point","coordinates":[16.503,43.526174]}},{"type":"Feature","properties":{"oznaka":"??","izvod":"1TS868-NNI8,ZR.MR. KOD DRAČEVCA 23","vrsta":"SD","status":"eksploatacija","funkcija":"nosni"},"geometry":{"type":"Point","coordinates":[16.502572,43.524018]}},{"type":"Feature","properties":{"oznaka":"s","izvod":"1TS894-NNI2,KRO-2236","vrsta":"SD","status":"eksploatacija"},"geometry":{"type":"Point","coordinates":[16.489562,43.523869]}},{"type":"Feature","properties":{"oznaka":"??","izvod":"1TS868-NNI8,ZR.MR. KOD DRAČEVCA 23","vrsta":"SB","status":"eksploatacija","funkcija":"nosni"},"geometry":{"type":"Point","coordinates":[16.502542,43.523527]}},{"type":"Feature","properties":{"oznaka":"s","izvod":"1TS323-NNI2,ZR.MR. JUGO-ISTOK","vrsta":"SDSS","status":"eksploatacija"},"geometry":{"type":"Point","coordinates":[16.490471,43.523193]}},{"type":"Feature","properties":{"oznaka":"s","izvod":"1TS894-NNI2,KRO-2236","vrsta":"SD","status":"eksploatacija"},"geometry":{"type":"Point","coordinates":[16.489283,43.523636]}},{"type":"Feature","properties":{"oznaka":"??","vrsta":"SDSS","status":"eksploatacija"},"geometry":{"type":"Point","coordinates":[16.499213,43.528719]}},{"type":"Feature","properties":{"oznaka":"??","izvod":"1TS868-NNI8,ZR.MR. KOD DRAČEVCA 23","vrsta":"SDSP","status":"eksploatacija","funkcija":"nosni"},"geometry":{"type":"Point","coordinates":[16.502926,43.525156]}},{"type":"Feature","properties":{"oznaka":"??","izvod":"1TS868-NNI8,ZR.MR. KOD DRAČEVCA 23","vrsta":"SD","status":"eksploatacija","funkcija":"nosni"},"geometry":{"type":"Point","coordinates":[16.503806,43.524191]}},{"type":"Feature","properties":{"oznaka":"s","izvod":"1TS323-NNI2,ZR.MR. JUGO-ISTOK","vrsta":"SD","status":"eksploatacija"},"geometry":{"type":"Point","coordinates":[16.493093,43.525104]}},{"type":"Feature","properties":{"oznaka":"??","izvod":"1TS868-NNI9,KRO-2363","vrsta":"SB","status":"eksploatacija","funkcija":"nosni"},"geometry":{"type":"Point","coordinates":[16.504705,43.527699]}},{"type":"Feature","properties":{"oznaka":"??","vrsta":"SD","status":"eksploatacija"},"geometry":{"type":"Point","coordinates":[16.496825,43.529655]}},{"type":"Feature","properties":{"oznaka":"s","izvod":"1TS323-NNI2,ZR.MR. JUGO-ISTOK","vrsta":"SB","status":"eksploatacija"},"geometry":{"type":"Point","coordinates":[16.493097,43.525391]}},{"type":"Feature","properties":{"oznaka":"??","izvod":"1TS1065-NNI10,KRO-2363","vrsta":"SB","status":"eksploatacija","funkcija":"nosni"},"geometry":{"type":"Point","coordinates":[16.503767,43.52817]}},{"type":"Feature","properties":{"oznaka":"B","vrsta":"SB","status":"eksploatacija"},"geometry":{"type":"Point","coordinates":[16.498871,43.529574]}},{"type":"Feature","properties":{"oznaka":"??","izvod":"1TS868-NNI2,KRO-2129","vrsta":"SB","status":"eksploatacija","funkcija":"nosni"},"geometry":{"type":"Point","coordinates":[16.501601,43.526459]}},{"type":"Feature","properties":{"oznaka":"??","izvod":"1TS868-NNI2,KRO-2129","vrsta":"SD","status":"eksploatacija","funkcija":"nosni"},"geometry":{"type":"Point","coordinates":[16.502272,43.525367]}},{"type":"Feature","properties":{"oznaka":"??","vrsta":"SD","status":"eksploatacija"},"geometry":{"type":"Point","coordinates":[16.499259,43.529573]}},{"type":"Feature","properties":{"oznaka":"??","vrsta":"SD","status":"eksploatacija"},"geometry":{"type":"Point","coordinates":[16.494065,43.529419]}},{"type":"Feature","properties":{"oznaka":"??","vrsta":"SDSP","status":"eksploatacija"},"geometry":{"type":"Point","coordinates":[16.498272,43.529497]}},{"type":"Feature","properties":{"oznaka":"??","izvod":"1TS868-NNI9,KRO-2363","vrsta":"SB","status":"eksploatacija","funkcija":"nosni"},"geometry":{"type":"Point","coordinates":[16.505736,43.527455]}},{"type":"Feature","properties":{"oznaka":"??","vrsta":"SDSS","status":"eksploatacija"},"geometry":{"type":"Point","coordinates":[16.498928,43.528833]}},{"type":"Feature","properties":{"oznaka":"SB","izvod":"1TS1065-NNI10,KRO-2363","vrsta":"SB","status":"eksploatacija","funkcija":"nosni"},"geometry":{"type":"Point","coordinates":[16.5027,43.527864]}},{"type":"Feature","properties":{"oznaka":"s","izvod":"1TS323-NNI2,ZR.MR. JUGO-ISTOK","vrsta":"SD","status":"eksploatacija"},"geometry":{"type":"Point","coordinates":[16.49305,43.523592]}},{"type":"Feature","properties":{"oznaka":"??","izvod":"1TS868-NNI2,KRO-2129","vrsta":"SD","status":"eksploatacija","funkcija":"nosni"},"geometry":{"type":"Point","coordinates":[16.501226,43.527089]}},{"type":"Feature","properties":{"oznaka":"??","izvod":"1TS1131-NNI8,ZR.MR ISTOK","vrsta":"SD","status":"eksploatacija"},"geometry":{"type":"Point","coordinates":[16.489554,43.526915]}},{"type":"Feature","properties":{"oznaka":"??","izvod":"1TS868-NNI2,KRO-2129","vrsta":"SD","status":"eksploatacija","funkcija":"nosni"},"geometry":{"type":"Point","coordinates":[16.501233,43.52492]}},{"type":"Feature","properties":{"oznaka":"s","izvod":"1TS868-NNI8,ZR.MR. KOD DRAČEVCA 23","vrsta":"SD","status":"eksploatacija"},"geometry":{"type":"Point","coordinates":[16.504192,43.525343]}},{"type":"Feature","properties":{"oznaka":"??","izvod":"1TS868-NNI7,ZR.MR. KOD DRAČEVCA 27","vrsta":"SD","status":"eksploatacija","funkcija":"nosni"},"geometry":{"type":"Point","coordinates":[16.504568,43.524928]}},{"type":"Feature","properties":{"oznaka":"s","izvod":"1TS496-NNI4,JAVNA RASVJETA","vrsta":"SB","status":"eksploatacija","funkcija":"nosni"},"geometry":{"type":"Point","coordinates":[16.504301,43.520692]}},{"type":"Feature","properties":{"oznaka":"??","izvod":"1TS868-NNI7,ZR.MR. KOD DRAČEVCA 27","vrsta":"SB","status":"eksploatacija","funkcija":"nosni"},"geometry":{"type":"Point","coordinates":[16.505977,43.523825]}},{"type":"Feature","properties":{"oznaka":"??","izvod":"1TS868-NNI7,ZR.MR. KOD DRAČEVCA 27","vrsta":"SD","status":"eksploatacija","funkcija":"nosni"},"geometry":{"type":"Point","coordinates":[16.505296,43.522215]}},{"type":"Feature","properties":{"oznaka":"s","izvod":"1TS496-NNI4,JAVNA RASVJETA","vrsta":"SB","status":"eksploatacija","funkcija":"nosni"},"geometry":{"type":"Point","coordinates":[16.504709,43.520555]}},{"type":"Feature","properties":{"oznaka":"s","izvod":"1TS496-NNI4,JAVNA RASVJETA","vrsta":"SB","status":"eksploatacija","funkcija":"nosni"},"geometry":{"type":"Point","coordinates":[16.505276,43.52058]}},{"type":"Feature","properties":{"oznaka":"sd","vrsta":"SD","status":"eksploatacija","funkcija":"nosni"},"geometry":{"type":"Point","coordinates":[16.503288,43.520323]}},{"type":"Feature","properties":{"oznaka":"s","izvod":"1TS323-NNI1,KRO-2138","vrsta":"SD","status":"eksploatacija"},"geometry":{"type":"Point","coordinates":[16.493553,43.527725]}},{"type":"Feature","properties":{"oznaka":"SB","izvod":"1TS323-NNI3,KRO-2139 (KRAJ BUNKERA)","vrsta":"SB","status":"eksploatacija"},"geometry":{"type":"Point","coordinates":[16.495063,43.52631]}},{"type":"Feature","properties":{"oznaka":"??","izvod":"1TS868-NNI7,ZR.MR. KOD DRAČEVCA 27","vrsta":"SB","status":"eksploatacija","funkcija":"nosni"},"geometry":{"type":"Point","coordinates":[16.506313,43.524882]}},{"type":"Feature","properties":{"oznaka":"s","izvod":"1TS323-NNI2,ZR.MR. JUGO-ISTOK","vrsta":"SD","status":"eksploatacija"},"geometry":{"type":"Point","coordinates":[16.495449,43.523571]}},{"type":"Feature","properties":{"oznaka":"??","izvod":"1TS868-NNI7,ZR.MR. KOD DRAČEVCA 27","vrsta":"SD","status":"eksploatacija","funkcija":"nosni"},"geometry":{"type":"Point","coordinates":[16.505814,43.523171]}},{"type":"Feature","properties":{"oznaka":"s","izvod":"1TS1117-NNI2,KRO-3079","vrsta":"SD","status":"eksploatacija"},"geometry":{"type":"Point","coordinates":[16.505862,43.519903]}},{"type":"Feature","properties":{"oznaka":"s","izvod":"1TS323-NNI1,KRO-2138","vrsta":"SD","status":"eksploatacija"},"geometry":{"type":"Point","coordinates":[16.493734,43.527695]}},{"type":"Feature","properties":{"oznaka":"s","izvod":"1TS325-NNI1,ISTOČNI IZVOD","vrsta":"SD","status":"eksploatacija"},"geometry":{"type":"Point","coordinates":[16.49538,43.522244]}},{"type":"Feature","properties":{"oznaka":"s","izvod":"1TS1009-NNI4,B.S. ISTOČNI IZVOD","vrsta":"SDSS","status":"eksploatacija"},"geometry":{"type":"Point","coordinates":[16.504632,43.519929]}},{"type":"Feature","properties":{"oznaka":"s","izvod":"1TS894-NNI2,KRO-2236","vrsta":"SD","status":"eksploatacija"},"geometry":{"type":"Point","coordinates":[16.490833,43.525174]}},{"type":"Feature","properties":{"oznaka":"s","izvod":"1TS496-NNI4,JAVNA RASVJETA","vrsta":"SB","status":"eksploatacija","funkcija":"nosni"},"geometry":{"type":"Point","coordinates":[16.505627,43.520697]}},{"type":"Feature","properties":{"oznaka":"s","izvod":"1TS496-NNI4,JAVNA RASVJETA","vrsta":"SB","status":"eksploatacija","funkcija":"nosni"},"geometry":{"type":"Point","coordinates":[16.506236,43.521065]}},{"type":"Feature","properties":{"oznaka":"s","izvod":"1TS894-NNI2,KRO-2236","vrsta":"SD","status":"eksploatacija"},"geometry":{"type":"Point","coordinates":[16.490489,43.525234]}},{"type":"Feature","properties":{"oznaka":"s","izvod":"1TS325-NNI3,KKO-SJEVERNO","vrsta":"SD","status":"eksploatacija"},"geometry":{"type":"Point","coordinates":[16.494136,43.522087]}},{"type":"Feature","properties":{"oznaka":"??","izvod":"1TS868-NNI7,ZR.MR. KOD DRAČEVCA 27","vrsta":"SD","status":"eksploatacija","funkcija":"nosni"},"geometry":{"type":"Point","coordinates":[16.503475,43.525949]}},{"type":"Feature","properties":{"oznaka":"s","izvod":"1TS894-NNI2,KRO-2236","vrsta":"SD","status":"eksploatacija"},"geometry":{"type":"Point","coordinates":[16.490248,43.525274]}},{"type":"Feature","properties":{"oznaka":"s","izvod":"1TS496-NNI4,JAVNA RASVJETA","vrsta":"SB","status":"eksploatacija","funkcija":"nosni"},"geometry":{"type":"Point","coordinates":[16.505944,43.52081]}},{"type":"Feature","properties":{"oznaka":"??","izvod":"1TS868-NNI7,ZR.MR. KOD DRAČEVCA 27","vrsta":"SB","status":"eksploatacija","funkcija":"nosni"},"geometry":{"type":"Point","coordinates":[16.504787,43.525372]}},{"type":"Feature","properties":{"oznaka":"s","izvod":"1TS323-NNI2,ZR.MR. JUGO-ISTOK","vrsta":"SB","status":"eksploatacija"},"geometry":{"type":"Point","coordinates":[16.493049,43.523481]}},{"type":"Feature","properties":{"oznaka":"??","izvod":"1TS868-NNI8,ZR.MR. KOD DRAČEVCA 23","vrsta":"SD","status":"eksploatacija","funkcija":"nosni"},"geometry":{"type":"Point","coordinates":[16.502681,43.524532]}},{"type":"Feature","properties":{"oznaka":"s","izvod":"1TS894-NNI2,KRO-2236","vrsta":"SDSP","status":"eksploatacija"},"geometry":{"type":"Point","coordinates":[16.491226,43.525116]}},{"type":"Feature","properties":{"oznaka":"??","izvod":"1TS868-NNI8,ZR.MR. KOD DRAČEVCA 23","vrsta":"SD","status":"eksploatacija","funkcija":"nosni"},"geometry":{"type":"Point","coordinates":[16.504642,43.524223]}},{"type":"Feature","properties":{"oznaka":"s","izvod":"1TS323-NNI2,ZR.MR. JUGO-ISTOK","vrsta":"SD","status":"eksploatacija"},"geometry":{"type":"Point","coordinates":[16.492363,43.52335]}},{"type":"Feature","properties":{"oznaka":"s","izvod":"1TS323-NNI2,ZR.MR. JUGO-ISTOK","vrsta":"SB","status":"eksploatacija"},"geometry":{"type":"Point","coordinates":[16.492427,43.523562]}},{"type":"Feature","properties":{"oznaka":"s","izvod":"1TS894-NNI2,KRO-2236","vrsta":"SD","status":"eksploatacija"},"geometry":{"type":"Point","coordinates":[16.491039,43.524853]}},{"type":"Feature","properties":{"oznaka":"??","izvod":"1TS868-NNI8,ZR.MR. KOD DRAČEVCA 23","vrsta":"SD","status":"eksploatacija","funkcija":"nosni"},"geometry":{"type":"Point","coordinates":[16.503216,43.525801]}},{"type":"Feature","properties":{"oznaka":"s","izvod":"1TS894-NNI2,KRO-2236","vrsta":"SD","status":"eksploatacija"},"geometry":{"type":"Point","coordinates":[16.490898,43.52453]}},{"type":"Feature","properties":{"oznaka":"??","izvod":"1TS868-NNI8,ZR.MR. KOD DRAČEVCA 23","vrsta":"SD","status":"eksploatacija","funkcija":"nosni"},"geometry":{"type":"Point","coordinates":[16.503032,43.524272]}},{"type":"Feature","properties":{"oznaka":"SD","izvod":"1TS894-NNI2,KRO-2236","vrsta":"SD","status":"eksploatacija"},"geometry":{"type":"Point","coordinates":[16.491466,43.525382]}},{"type":"Feature","properties":{"oznaka":"s","izvod":"1TS894-NNI2,KRO-2236","vrsta":"SD","status":"eksploatacija"},"geometry":{"type":"Point","coordinates":[16.490445,43.524418]}},{"type":"Feature","properties":{"oznaka":"??","vrsta":"SD","status":"eksploatacija"},"geometry":{"type":"Point","coordinates":[16.497891,43.529203]}},{"type":"Feature","properties":{"oznaka":"s","izvod":"1TS323-NNI2,ZR.MR. JUGO-ISTOK","vrsta":"SD","status":"eksploatacija"},"geometry":{"type":"Point","coordinates":[16.492543,43.524423]}},{"type":"Feature","properties":{"oznaka":"D","izvod":"1TS949-NNI3,","vrsta":"SD","status":"eksploatacija"},"geometry":{"type":"Point","coordinates":[16.492288,43.528935]}},{"type":"Feature","properties":{"oznaka":"s","izvod":"1TS323-NNI2,ZR.MR. JUGO-ISTOK","vrsta":"SDSS","status":"eksploatacija"},"geometry":{"type":"Point","coordinates":[16.492179,43.524429]}},{"type":"Feature","properties":{"oznaka":"??","vrsta":"SD","status":"eksploatacija"},"geometry":{"type":"Point","coordinates":[16.498964,43.529061]}},{"type":"Feature","properties":{"oznaka":"D","izvod":"1TS949-NNI3,","vrsta":"SD","status":"eksploatacija"},"geometry":{"type":"Point","coordinates":[16.492342,43.529127]}},{"type":"Feature","properties":{"oznaka":"s","izvod":"1TS323-NNI2,ZR.MR. JUGO-ISTOK","vrsta":"SD","status":"eksploatacija"},"geometry":{"type":"Point","coordinates":[16.49199,43.524174]}},{"type":"Feature","properties":{"oznaka":"??","izvod":"1TS868-NNI9,KRO-2363","vrsta":"SD","status":"eksploatacija","funkcija":"nosni"},"geometry":{"type":"Point","coordinates":[16.504787,43.527983]}},{"type":"Feature","properties":{"oznaka":"??","izvod":"1TS868-NNI8,ZR.MR. KOD DRAČEVCA 23","vrsta":"SD","status":"eksploatacija","funkcija":"nosni"},"geometry":{"type":"Point","coordinates":[16.502832,43.524901]}},{"type":"Feature","properties":{"oznaka":"??","izvod":"1TS1065-NNI10,KRO-2363","vrsta":"SD","status":"eksploatacija","funkcija":"nosni"},"geometry":{"type":"Point","coordinates":[16.50348,43.528118]}},{"type":"Feature","properties":{"oznaka":"D","izvod":"1TS949-NNI3,","vrsta":"SD","status":"eksploatacija"},"geometry":{"type":"Point","coordinates":[16.491359,43.528922]}},{"type":"Feature","properties":{"oznaka":"s","izvod":"1TS323-NNI2,ZR.MR. JUGO-ISTOK","vrsta":"SD","status":"eksploatacija"},"geometry":{"type":"Point","coordinates":[16.493085,43.524715]}},{"type":"Feature","properties":{"oznaka":"??","izvod":"1TS868-NNI2,KRO-2129","vrsta":"SB","status":"eksploatacija","funkcija":"nosni"},"geometry":{"type":"Point","coordinates":[16.50121,43.526652]}},{"type":"Feature","properties":{"oznaka":"??","izvod":"1TS868-NNI2,KRO-2129","vrsta":"SD","status":"eksploatacija","funkcija":"nosni"},"geometry":{"type":"Point","coordinates":[16.502213,43.525026]}},{"type":"Feature","properties":{"oznaka":"??","izvod":"1TS868-NNI2,KRO-2129","vrsta":"SD","status":"eksploatacija","funkcija":"nosni"},"geometry":{"type":"Point","coordinates":[16.502133,43.52603]}},{"type":"Feature","properties":{"oznaka":"s","izvod":"1TS323-NNI2,ZR.MR. JUGO-ISTOK","vrsta":"SD","status":"eksploatacija"},"geometry":{"type":"Point","coordinates":[16.492768,43.524708]}},{"type":"Feature","properties":{"oznaka":"??","vrsta":"SDSS","status":"eksploatacija"},"geometry":{"type":"Point","coordinates":[16.500314,43.529562]}},{"type":"Feature","properties":{"oznaka":"??","izvod":"1TS868-NNI9,KRO-2363","vrsta":"SB","status":"eksploatacija","funkcija":"nosni"},"geometry":{"type":"Point","coordinates":[16.506042,43.527319]}},{"type":"Feature","properties":{"oznaka":"s","izvod":"1TS323-NNI2,ZR.MR. JUGO-ISTOK","vrsta":"SD","status":"eksploatacija"},"geometry":{"type":"Point","coordinates":[16.493085,43.524881]}},{"type":"Feature","properties":{"oznaka":"??","vrsta":"SDSS","status":"eksploatacija"},"geometry":{"type":"Point","coordinates":[16.497787,43.5295]}},{"type":"Feature","properties":{"oznaka":"??","izvod":"1TS1065-NNI10,KRO-2363","vrsta":"SD","status":"eksploatacija","funkcija":"nosni"},"geometry":{"type":"Point","coordinates":[16.502522,43.527718]}},{"type":"Feature","properties":{"oznaka":"??","izvod":"1TS868-NNI2,KRO-2129","vrsta":"SD","status":"eksploatacija","funkcija":"nosni"},"geometry":{"type":"Point","coordinates":[16.501813,43.526217]}},{"type":"Feature","properties":{"oznaka":"SD","izvod":"1TS1065-NNI10,KRO-2363","vrsta":"SDSP","status":"eksploatacija","funkcija":"nosni"},"geometry":{"type":"Point","coordinates":[16.503796,43.527701]}},{"type":"Feature","properties":{"oznaka":"??","vrsta":"SD","status":"eksploatacija"},"geometry":{"type":"Point","coordinates":[16.496299,43.529746]}},{"type":"Feature","properties":{"oznaka":"??","izvod":"1TS1131-NNI8,ZR.MR ISTOK","vrsta":"SD","status":"eksploatacija"},"geometry":{"type":"Point","coordinates":[16.489541,43.52661]}},{"type":"Feature","properties":{"oznaka":"s","izvod":"1TS894-NNI2,KRO-2236","vrsta":"SDSS","status":"eksploatacija"},"geometry":{"type":"Point","coordinates":[16.488726,43.523292]}},{"type":"Feature","properties":{"oznaka":"??","izvod":"1TS868-NNI2,KRO-2129","vrsta":"SD","status":"eksploatacija","funkcija":"nosni"},"geometry":{"type":"Point","coordinates":[16.502158,43.524636]}},{"type":"Feature","properties":{"oznaka":"s","izvod":"1TS325-NNI1,ISTOČNI IZVOD","vrsta":"SD","status":"eksploatacija"},"geometry":{"type":"Point","coordinates":[16.49745,43.521762]}},{"type":"Feature","properties":{"oznaka":"s","izvod":"1TS894-NNI2,KRO-2236","vrsta":"SD","status":"eksploatacija"},"geometry":{"type":"Point","coordinates":[16.488686,43.523525]}},{"type":"Feature","properties":{"oznaka":"s","izvod":"1TS325-NNI1,ISTOČNI IZVOD","vrsta":"SDSS","status":"eksploatacija"},"geometry":{"type":"Point","coordinates":[16.496576,43.522009]}},{"type":"Feature","properties":{"oznaka":"B","izvod":"1TS949-NNI3,","vrsta":"SB","status":"eksploatacija"},"geometry":{"type":"Point","coordinates":[16.491041,43.52867]}},{"type":"Feature","properties":{"oznaka":"s","izvod":"1TS496-NNI4,JAVNA RASVJETA","vrsta":"SB","status":"eksploatacija","funkcija":"nosni"},"geometry":{"type":"Point","coordinates":[16.501148,43.521048]}},{"type":"Feature","properties":{"oznaka":"s","izvod":"1TS894-NNI2,KRO-2236","vrsta":"SD","status":"eksploatacija"},"geometry":{"type":"Point","coordinates":[16.489049,43.523457]}},{"type":"Feature","properties":{"oznaka":"??","izvod":"1TS868-NNI7,ZR.MR. KOD DRAČEVCA 27","vrsta":"SB","status":"eksploatacija","funkcija":"nosni"},"geometry":{"type":"Point","coordinates":[16.505368,43.524941]}},{"type":"Feature","properties":{"oznaka":"s","izvod":"1TS325-NNI1,ISTOČNI IZVOD","vrsta":"SD","status":"eksploatacija"},"geometry":{"type":"Point","coordinates":[16.496525,43.521736]}},{"type":"Feature","properties":{"oznaka":"B","izvod":"1TS949-NNI3,","vrsta":"SB","status":"eksploatacija"},"geometry":{"type":"Point","coordinates":[16.491408,43.52867]}},{"type":"Feature","properties":{"oznaka":"??","izvod":"1TS868-NNI7,ZR.MR. KOD DRAČEVCA 27","vrsta":"SD","status":"eksploatacija","funkcija":"nosni"},"geometry":{"type":"Point","coordinates":[16.506265,43.523763]}},{"type":"Feature","properties":{"oznaka":"s","izvod":"1TS496-NNI4,JAVNA RASVJETA","vrsta":"SB","status":"eksploatacija","funkcija":"nosni"},"geometry":{"type":"Point","coordinates":[16.502354,43.520681]}},{"type":"Feature","properties":{"oznaka":"s","izvod":"1TS868-NNI7,ZR.MR. KOD DRAČEVCA 27","vrsta":"SD","status":"eksploatacija"},"geometry":{"type":"Point","coordinates":[16.505714,43.52198]}},{"type":"Feature","properties":{"oznaka":"??","izvod":"1TS868-NNI7,ZR.MR. KOD DRAČEVCA 27","vrsta":"SB","status":"eksploatacija","funkcija":"nosni"},"geometry":{"type":"Point","coordinates":[16.504769,43.522188]}},{"type":"Feature","properties":{"oznaka":"s","izvod":"1TS325-NNI1,ISTOČNI IZVOD","vrsta":"SD","status":"eksploatacija"},"geometry":{"type":"Point","coordinates":[16.496443,43.52138]}},{"type":"Feature","properties":{"oznaka":"B","izvod":"1TS949-NNI3,","vrsta":"SB","status":"eksploatacija"},"geometry":{"type":"Point","coordinates":[16.491688,43.528682]}},{"type":"Feature","properties":{"oznaka":"s","izvod":"1TS496-NNI4,JAVNA RASVJETA","vrsta":"SB","status":"eksploatacija","funkcija":"nosni"},"geometry":{"type":"Point","coordinates":[16.502865,43.520752]}},{"type":"Feature","properties":{"oznaka":"s","izvod":"1TS868-NNI7,ZR.MR. KOD DRAČEVCA 27","vrsta":"SD","status":"eksploatacija"},"geometry":{"type":"Point","coordinates":[16.505782,43.5217]}},{"type":"Feature","properties":{"oznaka":"B","izvod":"1TS949-NNI3,","vrsta":"SB","status":"eksploatacija"},"geometry":{"type":"Point","coordinates":[16.49217,43.528734]}},{"type":"Feature","properties":{"oznaka":"??","izvod":"1TS868-NNI7,ZR.MR. KOD DRAČEVCA 27","vrsta":"SD","status":"eksploatacija","funkcija":"nosni"},"geometry":{"type":"Point","coordinates":[16.505833,43.524699]}},{"type":"Feature","properties":{"oznaka":"s","izvod":"1TS496-NNI4,JAVNA RASVJETA","vrsta":"SB","status":"eksploatacija","funkcija":"nosni"},"geometry":{"type":"Point","coordinates":[16.503349,43.520793]}},{"type":"Feature","properties":{"oznaka":"s","izvod":"1TS868-NNI7,ZR.MR. KOD DRAČEVCA 27","vrsta":"SD","status":"eksploatacija"},"geometry":{"type":"Point","coordinates":[16.505415,43.521721]}},{"type":"Feature","properties":{"oznaka":"s","izvod":"1TS323-NNI3,KRO-2139 (KRAJ BUNKERA)","vrsta":"SDSS","status":"eksploatacija"},"geometry":{"type":"Point","coordinates":[16.494356,43.527248]}},{"type":"Feature","properties":{"oznaka":"s","izvod":"1TS323-NNI1,KRO-2138","vrsta":"SB","status":"eksploatacija"},"geometry":{"type":"Point","coordinates":[16.492484,43.527437]}},{"type":"Feature","properties":{"oznaka":"??","izvod":"1TS1131-NNI8,ZR.MR ISTOK","vrsta":"SD","status":"eksploatacija"},"geometry":{"type":"Point","coordinates":[16.489489,43.527293]}},{"type":"Feature","properties":{"oznaka":"s","izvod":"1TS496-NNI4,JAVNA RASVJETA","vrsta":"SB","status":"eksploatacija","funkcija":"nosni"},"geometry":{"type":"Point","coordinates":[16.503919,43.520761]}},{"type":"Feature","properties":{"oznaka":"s","izvod":"1TS323-NNI1,KRO-2138","vrsta":"SD","status":"eksploatacija"},"geometry":{"type":"Point","coordinates":[16.492814,43.527666]}},{"type":"Feature","properties":{"oznaka":"s","izvod":"1TS323-NNI3,KRO-2139 (KRAJ BUNKERA)","vrsta":"SDSS","status":"eksploatacija"},"geometry":{"type":"Point","coordinates":[16.494616,43.527415]}},{"type":"Feature","properties":{"oznaka":"s","izvod":"1TS323-NNI2,ZR.MR. JUGO-ISTOK","vrsta":"SD","status":"eksploatacija"},"geometry":{"type":"Point","coordinates":[16.491591,43.52313]}},{"type":"Feature","properties":{"oznaka":"s","izvod":"1TS323-NNI1,KRO-2138","vrsta":"SB","status":"eksploatacija"},"geometry":{"type":"Point","coordinates":[16.493073,43.52778]}},{"type":"Feature","properties":{"oznaka":"s","izvod":"1TS323-NNI3,KRO-2139 (KRAJ BUNKERA)","vrsta":"SD","status":"eksploatacija"},"geometry":{"type":"Point","coordinates":[16.494983,43.526814]}},{"type":"Feature","properties":{"oznaka":"s","izvod":"1TS323-NNI2,ZR.MR. JUGO-ISTOK","vrsta":"SD","status":"eksploatacija"},"geometry":{"type":"Point","coordinates":[16.494502,43.523559]}},{"type":"Feature","properties":{"oznaka":"??","izvod":"1TS868-NNI7,ZR.MR. KOD DRAČEVCA 27","vrsta":"SB","status":"eksploatacija","funkcija":"nosni"},"geometry":{"type":"Point","coordinates":[16.503916,43.525714]}},{"type":"Feature","properties":{"oznaka":"s","izvod":"1TS323-NNI1,KRO-2138","vrsta":"SD","status":"eksploatacija"},"geometry":{"type":"Point","coordinates":[16.493364,43.527745]}},{"type":"Feature","properties":{"oznaka":"s","izvod":"1TS323-NNI3,KRO-2139 (KRAJ BUNKERA)","vrsta":"SDSS","status":"eksploatacija"},"geometry":{"type":"Point","coordinates":[16.494968,43.526579]}},{"type":"Feature","properties":{"oznaka":"s","izvod":"1TS323-NNI3,KRO-2139 (KRAJ BUNKERA)","vrsta":"SD","status":"eksploatacija"},"geometry":{"type":"Point","coordinates":[16.49512,43.52719]}},{"type":"Feature","properties":{"oznaka":"s","izvod":"1TS323-NNI1,KRO-2138","vrsta":"SDSS","status":"eksploatacija"},"geometry":{"type":"Point","coordinates":[16.492312,43.527157]}},{"type":"Feature","properties":{"oznaka":"s","izvod":"1TS1117-NNI2,KRO-3079","vrsta":"SD","status":"eksploatacija"},"geometry":{"type":"Point","coordinates":[16.506316,43.519872]}},{"type":"Feature","properties":{"oznaka":"s","izvod":"1TS323-NNI2,ZR.MR. JUGO-ISTOK","vrsta":"SD","status":"eksploatacija"},"geometry":{"type":"Point","coordinates":[16.493723,43.524744]}},{"type":"Feature","properties":{"oznaka":"s","izvod":"1TS323-NNI1,KRO-2138","vrsta":"SB","status":"eksploatacija"},"geometry":{"type":"Point","coordinates":[16.491627,43.526126]}},{"type":"Feature","properties":{"oznaka":"s","izvod":"1TS323-NNI1,KRO-2138","vrsta":"SD","status":"eksploatacija"},"geometry":{"type":"Point","coordinates":[16.491457,43.526357]}},{"type":"Feature","properties":{"oznaka":"s","izvod":"1TS323-NNI1,KRO-2138","vrsta":"SD","status":"eksploatacija"},"geometry":{"type":"Point","coordinates":[16.492218,43.525697]}},{"type":"Feature","properties":{"oznaka":"s","izvod":"1TS325-NNI1,ISTOČNI IZVOD","vrsta":"SD","status":"eksploatacija"},"geometry":{"type":"Point","coordinates":[16.49485,43.522341]}},{"type":"Feature","properties":{"oznaka":"??","izvod":"1TS868-NNI7,ZR.MR. KOD DRAČEVCA 27","vrsta":"SB","status":"eksploatacija","funkcija":"nosni"},"geometry":{"type":"Point","coordinates":[16.505164,43.52527]}},{"type":"Feature","properties":{"oznaka":"s","izvod":"1TS323-NNI3,KRO-2139 (KRAJ BUNKERA)","vrsta":"SD","status":"eksploatacija"},"geometry":{"type":"Point","coordinates":[16.495577,43.524683]}},{"type":"Feature","properties":{"oznaka":"s","izvod":"1TS323-NNI1,KRO-2138","vrsta":"SD","status":"eksploatacija"},"geometry":{"type":"Point","coordinates":[16.491321,43.526508]}},{"type":"Feature","properties":{"oznaka":"??","izvod":"1TS868-NNI8,ZR.MR. KOD DRAČEVCA 23","vrsta":"SB","status":"eksploatacija","funkcija":"nosni"},"geometry":{"type":"Point","coordinates":[16.502651,43.524293]}},{"type":"Feature","properties":{"oznaka":"s","izvod":"1TS325-NNI3,KKO-SJEVERNO","vrsta":"SD","status":"eksploatacija"},"geometry":{"type":"Point","coordinates":[16.494086,43.522374]}},{"type":"Feature","properties":{"oznaka":"??","izvod":"1TS868-NNI7,ZR.MR. KOD DRAČEVCA 27","vrsta":"SB","status":"eksploatacija","funkcija":"nosni"},"geometry":{"type":"Point","coordinates":[16.505695,43.522857]}},{"type":"Feature","properties":{"oznaka":"SB","izvod":"1TS325-NNI1,ISTOČNI IZVOD","vrsta":"SB","status":"eksploatacija"},"geometry":{"type":"Point","coordinates":[16.494339,43.522429]}},{"type":"Feature","properties":{"oznaka":"??","izvod":"1TS868-NNI8,ZR.MR. KOD DRAČEVCA 23","vrsta":"SB","status":"eksploatacija","funkcija":"nosni"},"geometry":{"type":"Point","coordinates":[16.50489,43.524127]}},{"type":"Feature","properties":{"oznaka":"s","izvod":"1TS323-NNI3,KRO-2139 (KRAJ BUNKERA)","vrsta":"SB","status":"eksploatacija"},"geometry":{"type":"Point","coordinates":[16.493315,43.526392]}},{"type":"Feature","properties":{"oznaka":"s","izvod":"1TS323-NNI1,KRO-2138","vrsta":"SD","status":"eksploatacija"},"geometry":{"type":"Point","coordinates":[16.491851,43.526366]}},{"type":"Feature","properties":{"oznaka":"SD","izvod":"1TS1131-NNI8,ZR.MR ISTOK","vrsta":"SD","status":"eksploatacija"},"geometry":{"type":"Point","coordinates":[16.488978,43.525959]}},{"type":"Feature","properties":{"oznaka":"s","izvod":"1TS323-NNI1,KRO-2138","vrsta":"SDSP","status":"eksploatacija"},"geometry":{"type":"Point","coordinates":[16.492019,43.526588]}},{"type":"Feature","properties":{"oznaka":"s","izvod":"1TS323-NNI1,KRO-2138","vrsta":"SD","status":"eksploatacija"},"geometry":{"type":"Point","coordinates":[16.491884,43.525876]}},{"type":"Feature","properties":{"oznaka":"??","izvod":"1TS868-NNI8,ZR.MR. KOD DRAČEVCA 23","vrsta":"SD","status":"eksploatacija","funkcija":"nosni"},"geometry":{"type":"Point","coordinates":[16.503042,43.525484]}},{"type":"Feature","properties":{"oznaka":"??","izvod":"1TS868-NNI9,KRO-2363","vrsta":"SD","status":"eksploatacija","funkcija":"nosni"},"geometry":{"type":"Point","coordinates":[16.506114,43.528077]}},{"type":"Feature","properties":{"oznaka":"??","izvod":"1TS868-NNI8,ZR.MR. KOD DRAČEVCA 23","vrsta":"SD","status":"eksploatacija","funkcija":"nosni"},"geometry":{"type":"Point","coordinates":[16.503491,43.524191]}},{"type":"Feature","properties":{"oznaka":"s","izvod":"1TS323-NNI1,KRO-2138","vrsta":"SDSS","status":"eksploatacija"},"geometry":{"type":"Point","coordinates":[16.492147,43.526872]}},{"type":"Feature","properties":{"oznaka":"SDBN","izvod":"1TS323-NNI1,KRO-2138","vrsta":"SDBN","status":"eksploatacija"},"geometry":{"type":"Point","coordinates":[16.491608,43.52559]}},{"type":"Feature","properties":{"oznaka":"??","izvod":"1TS868-NNI8,ZR.MR. KOD DRAČEVCA 23","vrsta":"SD","status":"eksploatacija","funkcija":"nosni"},"geometry":{"type":"Point","coordinates":[16.50332,43.526148]}},{"type":"Feature","properties":{"oznaka":"s","izvod":"1TS323-NNI2,ZR.MR. JUGO-ISTOK","vrsta":"SD","status":"eksploatacija"},"geometry":{"type":"Point","coordinates":[16.493502,43.52359]}},{"type":"Feature","properties":{"oznaka":"??","vrsta":"SD","status":"eksploatacija"},"geometry":{"type":"Point","coordinates":[16.497216,43.529632]}},{"type":"Feature","properties":{"oznaka":"??","izvod":"1TS1065-NNI10,KRO-2363","vrsta":"SD","status":"eksploatacija","funkcija":"nosni"},"geometry":{"type":"Point","coordinates":[16.503816,43.527905]}},{"type":"Feature","properties":{"oznaka":"??","izvod":"1TS868-NNI8,ZR.MR. KOD DRAČEVCA 23","vrsta":"SD","status":"eksploatacija","funkcija":"nosni"},"geometry":{"type":"Point","coordinates":[16.502288,43.524304]}},{"type":"Feature","properties":{"oznaka":"B","vrsta":"SB","status":"eksploatacija"},"geometry":{"type":"Point","coordinates":[16.498473,43.529691]}},{"type":"Feature","properties":{"oznaka":"s","izvod":"1TS323-NNI2,ZR.MR. JUGO-ISTOK","vrsta":"SD","status":"eksploatacija"},"geometry":{"type":"Point","coordinates":[16.49407,43.523556]}},{"type":"Feature","properties":{"oznaka":"??","izvod":"1TS1065-NNI10,KRO-2363","vrsta":"SD","status":"eksploatacija","funkcija":"nosni"},"geometry":{"type":"Point","coordinates":[16.502108,43.527716]}},{"type":"Feature","properties":{"oznaka":"??","izvod":"1TS868-NNI2,KRO-2129","vrsta":"SD","status":"eksploatacija","funkcija":"nosni"},"geometry":{"type":"Point","coordinates":[16.501948,43.525471]}},{"type":"Feature","properties":{"oznaka":"??","izvod":"1TS868-NNI8,ZR.MR. KOD DRAČEVCA 23","vrsta":"SD","status":"eksploatacija","funkcija":"nosni"},"geometry":{"type":"Point","coordinates":[16.501941,43.524318]}},{"type":"Feature","properties":{"oznaka":"s","izvod":"1TS323-NNI2,ZR.MR. JUGO-ISTOK","vrsta":"SD","status":"eksploatacija"},"geometry":{"type":"Point","coordinates":[16.494827,43.523569]}},{"type":"Feature","properties":{"oznaka":"??","izvod":"1TS868-NNI9,KRO-2363","vrsta":"SB","status":"eksploatacija","funkcija":"nosni"},"geometry":{"type":"Point","coordinates":[16.505213,43.527607]}},{"type":"Feature","properties":{"oznaka":"s","izvod":"1TS323-NNI2,ZR.MR. JUGO-ISTOK","vrsta":"SD","status":"eksploatacija"},"geometry":{"type":"Point","coordinates":[16.49309,43.524023]}},{"type":"Feature","properties":{"oznaka":"??","izvod":"1TS868-NNI2,KRO-2129","vrsta":"SB","status":"eksploatacija","funkcija":"nosni"},"geometry":{"type":"Point","coordinates":[16.501482,43.526943]}},{"type":"Feature","properties":{"oznaka":"??","vrsta":"SD","status":"eksploatacija"},"geometry":{"type":"Point","coordinates":[16.495836,43.529861]}},{"type":"Feature","properties":{"oznaka":"s","izvod":"1TS323-NNI2,ZR.MR. JUGO-ISTOK","vrsta":"SDSS","status":"eksploatacija"},"geometry":{"type":"Point","coordinates":[16.493085,43.52443]}},{"type":"Feature","properties":{"oznaka":"??","izvod":"1TS1065-NNI10,KRO-2363","vrsta":"SD","status":"eksploatacija","funkcija":"nosni"},"geometry":{"type":"Point","coordinates":[16.502986,43.528104]}},{"type":"Feature","properties":{"oznaka":"??","izvod":"1TS868-NNI2,KRO-2129","vrsta":"SD","status":"eksploatacija","funkcija":"nosni"},"geometry":{"type":"Point","coordinates":[16.501906,43.524991]}},{"type":"Feature","properties":{"oznaka":"??","vrsta":"SDSS","status":"eksploatacija"},"geometry":{"type":"Point","coordinates":[16.499776,43.529576]}},{"type":"Feature","properties":{"oznaka":"??","vrsta":"SD","status":"eksploatacija"},"geometry":{"type":"Point","coordinates":[16.499905,43.52979]}}]}