{"type":"FeatureCollection","name":"nn_ormaric_tocka_2022","crs":{"type":"name","properties":{"name":"urn:ogc:def:crs:OGC:1.3:CRS84"}},"xy_coordinate_resolution":0.000001,"features":[{"type":"Feature","properties":{"oznaka":"KRO2475","izvod":"1TS323-NNI3,KRO-2139 (KRAJ BUNKERA)","vrsta":"KRO","status":"eksploatacija"},"geometry":{"type":"Point","coordinates":[16.494532,43.526129]}},{"type":"Feature","properties":{"oznaka":"KRO1711","izvod":"1TS744-NNI1,KRO-1711","vrsta":"KRO","status":"eksploatacija"},"geometry":{"type":"Point","coordinates":[16.496689,43.528513]}},{"type":"Feature","properties":{"oznaka":"KRO2236","izvod":"1TS894-NNI2,KRO-2236","vrsta":"KRO","status":"eksploatacija"},"geometry":{"type":"Point","coordinates":[16.491179,43.52653]}},{"type":"Feature","properties":{"oznaka":"KRO1989","izvod":"1TS744-NNI1,KRO-1711","vrsta":"KRO","status":"eksploatacija"},"geometry":{"type":"Point","coordinates":[16.497248,43.529151]}},{"type":"Feature","properties":{"oznaka":"KRO2139","izvod":"1TS323-NNI3,KRO-2139 (KRAJ BUNKERA)","vrsta":"KRO","status":"eksploatacija"},"geometry":{"type":"Point","coordinates":[16.493649,43.52576]}},{"type":"Feature","properties":{"oznaka":"KRO2483","izvod":"1TS949-NNI3,","vrsta":"KRO","status":"eksploatacija"},"geometry":{"type":"Point","coordinates":[16.490684,43.529164]}},{"type":"Feature","properties":{"oznaka":"KRO3366","izvod":"1TS323-NNI3,KRO-2139 (KRAJ BUNKERA)","vrsta":"KRO","status":"eksploatacija"},"geometry":{"type":"Point","coordinates":[16.494331,43.526939]}},{"type":"Feature","properties":{"oznaka":"KRO2635","vrsta":"KRO","status":"eksploatacija"},"geometry":{"type":"Point","coordinates":[16.495861,43.529907]}},{"type":"Feature","properties":{"oznaka":"KRO2363","izvod":"1TS1065-NNI10,KRO-2363","vrsta":"KRO","status":"eksploatacija"},"geometry":{"type":"Point","coordinates":[16.503788,43.527284]}},{"type":"Feature","properties":{"oznaka":"KRO2650","izvod":"1TS868-NNI7,ZR.MR. KOD DRAČEVCA 27","vrsta":"KRO","status":"eksploatacija"},"geometry":{"type":"Point","coordinates":[16.505123,43.524368]}},{"type":"Feature","properties":{"oznaka":"KRO3459","izvod":"1TS901-NNI2,KRO-2943","vrsta":"KRO","status":"eksploatacija"},"geometry":{"type":"Point","coordinates":[16.500396,43.528695]}},{"type":"Feature","properties":{"oznaka":"KRO2867","izvod":"1TS868-NNI3,KRO-2867","vrsta":"KRO","status":"eksploatacija"},"geometry":{"type":"Point","coordinates":[16.502977,43.526655]}},{"type":"Feature","properties":{"oznaka":"KRO4075","vrsta":"KRO","status":"eksploatacija"},"geometry":{"type":"Point","coordinates":[16.505631,43.527654]}},{"type":"Feature","properties":{"oznaka":"KRO2136","izvod":"1TS894-NNI2,KRO-2236","vrsta":"KRO","status":"eksploatacija"},"geometry":{"type":"Point","coordinates":[16.490757,43.525386]}},{"type":"Feature","properties":{"oznaka":"KRO2943","izvod":"1TS901-NNI2,KRO-2943","vrsta":"KRO","status":"eksploatacija"},"geometry":{"type":"Point","coordinates":[16.504053,43.529187]}},{"type":"Feature","properties":{"oznaka":"KRO3365","izvod":"1TS323-NNI3,KRO-2139 (KRAJ BUNKERA)","vrsta":"KRO","status":"eksploatacija"},"geometry":{"type":"Point","coordinates":[16.494553,43.526545]}},{"type":"Feature","properties":{"oznaka":"KRO4074","vrsta":"KRO","status":"eksploatacija"},"geometry":{"type":"Point","coordinates":[16.50477,43.527654]}},{"type":"Feature","properties":{"oznaka":"KRO2477","izvod":"1TS323-NNI3,KRO-2139 (KRAJ BUNKERA)","vrsta":"KRO","status":"eksploatacija"},"geometry":{"type":"Point","coordinates":[16.49482,43.524891]}},{"type":"Feature","properties":{"oznaka":"KRO2138","izvod":"1TS323-NNI1,KRO-2138","vrsta":"KRO","status":"eksploatacija"},"geometry":{"type":"Point","coordinates":[16.49219,43.525469]}},{"type":"Feature","properties":{"oznaka":"KRO2137","izvod":"1TS894-NNI2,KRO-2236","vrsta":"KRO","status":"eksploatacija"},"geometry":{"type":"Point","coordinates":[16.491388,43.525419]}},{"type":"Feature","properties":{"oznaka":"KRO3099","vrsta":"KRO","status":"eksploatacija"},"geometry":{"type":"Point","coordinates":[16.498687,43.529123]}},{"type":"Feature","properties":{"oznaka":"KRO1762","izvod":"1TS868-NNI6,KRO-1762","vrsta":"KRO","status":"eksploatacija"},"geometry":{"type":"Point","coordinates":[16.503389,43.526274]}},{"type":"Feature","properties":{"oznaka":"KRO1653","izvod":"1TS744-NNI1,KRO-1711","vrsta":"KRO","status":"eksploatacija"},"geometry":{"type":"Point","coordinates":[16.495798,43.529012]}},{"type":"Feature","properties":{"oznaka":"KRO9383","izvod":"1TS325-NNI2,KRO-CESTAR KB.1 PARALEL","vrsta":"KRO","status":"izgradnja"},"geometry":{"type":"Point","coordinates":[16.494009,43.522634]}},{"type":"Feature","properties":{"oznaka":"KRO1933","izvod":"1TS744-NNI1,KRO-1711","vrsta":"KRO","status":"eksploatacija"},"geometry":{"type":"Point","coordinates":[16.496463,43.529225]}},{"type":"Feature","properties":{"oznaka":"KRO3820","vrsta":"KRO","status":"eksploatacija"},"geometry":{"type":"Point","coordinates":[16.495458,43.529955]}},{"type":"Feature","properties":{"oznaka":"KRO3367","izvod":"1TS323-NNI3,KRO-2139 (KRAJ BUNKERA)","vrsta":"KRO","status":"eksploatacija"},"geometry":{"type":"Point","coordinates":[16.494567,43.527068]}},{"type":"Feature","properties":{"oznaka":"KRO2130","izvod":"1TS868-NNI2,KRO-2129","vrsta":"KRO","status":"eksploatacija"},"geometry":{"type":"Point","coordinates":[16.501799,43.526583]}},{"type":"Feature","properties":{"oznaka":"KRO2357","izvod":"1TS868-NNI4,KRO-2357","vrsta":"KRO","status":"eksploatacija"},"geometry":{"type":"Point","coordinates":[16.502653,43.526971]}},{"type":"Feature","properties":{"oznaka":"KRO2183","vrsta":"KRO","status":"eksploatacija"},"geometry":{"type":"Point","coordinates":[16.494873,43.529313]}},{"type":"Feature","properties":{"oznaka":"KRO2129","izvod":"1TS868-NNI2,KRO-2129","vrsta":"KRO","status":"eksploatacija"},"geometry":{"type":"Point","coordinates":[16.502885,43.526484]}},{"type":"Feature","properties":{"oznaka":"KRO2434","vrsta":"KRO","status":"eksploatacija"},"geometry":{"type":"Point","coordinates":[16.494355,43.529731]}},{"type":"Feature","properties":{"oznaka":"KRO2944","izvod":"1TS901-NNI2,KRO-2943","vrsta":"KRO","status":"eksploatacija"},"geometry":{"type":"Point","coordinates":[16.502191,43.528417]}},{"type":"Feature","properties":{"oznaka":"KRO4202","izvod":"1TS868-NNI9,KRO-2363","vrsta":"KRO","status":"eksploatacija"},"geometry":{"type":"Point","coordinates":[16.501374,43.527493]}},{"type":"Feature","properties":{"oznaka":"KRO2476","izvod":"1TS323-NNI3,KRO-2139 (KRAJ BUNKERA)","vrsta":"KRO","status":"eksploatacija"},"geometry":{"type":"Point","coordinates":[16.494832,43.525424]}}]}