{"type":"FeatureCollection","name":"vn_dionica_2022","crs":{"type":"name","properties":{"name":"urn:ogc:def:crs:OGC:1.3:CRS84"}},"xy_coordinate_resolution":0.000001,"features":[{"type":"Feature","properties":{"vod":"3KV27","oznaka":"3KV27/1","vrsta":"podzemna","vodic":"XHE 49-A 3x(1x185/25), 35 kV"},"geometry":{"type":"LineString","coordinates":[[16.500207809461003,43.53040109856765],[16.500251,43.530381],[16.500264,43.530376],[16.500432,43.530256],[16.500481,43.530195],[16.500499,43.530165],[16.500511,43.530144],[16.500528,43.530104],[16.500545,43.530045],[16.500552,43.53],[16.500562,43.529942],[16.500575,43.529878],[16.500587,43.529811],[16.500596,43.529766],[16.500605,43.529733],[16.500608,43.529731],[16.500611,43.529728],[16.500614,43.529726],[16.500617,43.529724],[16.500628,43.529691],[16.500631,43.529683],[16.500631,43.529679],[16.500626,43.529676],[16.500628,43.529667],[16.500662,43.5296],[16.500697,43.529546],[16.500729,43.529505],[16.500774,43.529456],[16.500787,43.529446],[16.500796,43.52944]]}},{"type":"Feature","properties":{"vod":"1KV733","oznaka":"1KV733/3","vrsta":"podzemna","vodic":"XHE 49-A 3x(1x185/25), 20 kV","izvod":"4TS11-1SNI2,"},"geometry":{"type":"LineString","coordinates":[[16.494892,43.524888],[16.495026,43.524939],[16.495041,43.524938],[16.49507,43.524935],[16.495095,43.524932],[16.49514,43.524928],[16.495189,43.524923],[16.495236,43.52492],[16.495281,43.524919],[16.495329,43.524921],[16.495378,43.524921],[16.495424,43.524922],[16.495442,43.524923],[16.495507,43.524925],[16.495524,43.524925],[16.495557,43.524925],[16.49559,43.524924],[16.495631,43.524919],[16.49566,43.524911],[16.495696,43.524898],[16.495738,43.524883],[16.49579,43.524864],[16.495849,43.524843],[16.495898,43.524825],[16.495953,43.524806],[16.495993,43.524792],[16.496041,43.524777],[16.496098,43.524761],[16.496142,43.524747],[16.496203,43.524728],[16.496261,43.524711],[16.496315,43.524698],[16.496367,43.524684],[16.496427,43.52467],[16.496477,43.524656],[16.496527,43.524643],[16.49657,43.524631],[16.496623,43.524616],[16.496669,43.524602],[16.496716,43.524589],[16.496758,43.524577],[16.496796,43.524563],[16.496837,43.524549],[16.496862,43.524543],[16.496889,43.524532],[16.496925,43.524517],[16.496957,43.524504],[16.496985,43.524489],[16.497008,43.524476],[16.497024,43.524466]]}},{"type":"Feature","properties":{"vod":"ODCJEP MOSTINE 4","oznaka":"1DV222/11","vrsta":"nadzemna","vodic":"Al-Fe 3x50/8","izvod":"4TS11-1SNI2,"},"geometry":{"type":"LineString","coordinates":[[16.494167,43.522559],[16.49406,43.522833]]}},{"type":"Feature","properties":{"vod":"KAREPOVAC - KILA 3","oznaka":"1DV22/1","vrsta":"podzemna","vodic":"XHE 49-A 3x(1x185/25), 20 kV","izvod":"4TS11-1SNI2,"},"geometry":{"type":"LineString","coordinates":[[16.494093,43.522494],[16.494105,43.522516],[16.494129,43.52254],[16.49415,43.522552],[16.494167,43.522559]]}},{"type":"Feature","properties":{"vod":"ODCJEP MOSTINE 4","oznaka":"1DV222/1","vrsta":"podzemna","vodic":"XHE 49-A 3x(1x150/25), 20 kV","izvod":"4TS11-1SNI2,"},"geometry":{"type":"LineString","coordinates":[[16.49406,43.522833],[16.494104,43.522915],[16.494157,43.523013],[16.494195,43.523077],[16.494265,43.523183],[16.494322,43.523258],[16.494386,43.523346],[16.494414,43.523404],[16.494423,43.523421],[16.494457,43.523531],[16.494425,43.523546],[16.494328,43.52357],[16.494236,43.52357],[16.494214,43.523579],[16.494188,43.523591],[16.494139,43.523579],[16.494106,43.52357],[16.494081,43.523567],[16.494064,43.523502],[16.494053,43.523466],[16.494049,43.52345]]}},{"type":"Feature","properties":{"vod":"1KV3766","oznaka":"1KV3766/1","vrsta":"podzemna","vodic":"XHE 49-A 3x(1x185/25), 20 kV"},"geometry":{"type":"LineString","coordinates":[[16.501282,43.520717],[16.501259,43.520723],[16.50122,43.520734],[16.501185,43.520744],[16.501129,43.520758],[16.501072,43.520774],[16.501019,43.520788],[16.50096,43.520803],[16.5009,43.52082],[16.500843,43.520835],[16.50079,43.520849],[16.500719,43.520869],[16.50066,43.520883],[16.500602,43.520899],[16.500544,43.520914],[16.500495,43.520928],[16.500434,43.520945],[16.500374,43.520961],[16.500318,43.520976],[16.50026,43.520992],[16.500202,43.521008],[16.500155,43.521021],[16.500107,43.521034],[16.500057,43.521048],[16.5,43.521064],[16.499946,43.521079],[16.499915,43.521088],[16.499868,43.521102],[16.49985,43.521107],[16.499819,43.521116],[16.49978,43.521127],[16.499726,43.521142],[16.499668,43.521159],[16.499604,43.521179],[16.499546,43.521196],[16.499487,43.521213],[16.499429,43.52123],[16.499372,43.521247],[16.499315,43.521265],[16.499248,43.521285],[16.499192,43.521302],[16.499129,43.52132],[16.499074,43.521337],[16.499002,43.521358],[16.498936,43.521379],[16.498875,43.521397],[16.498806,43.521418],[16.498778,43.521425]]}},{"type":"Feature","properties":{"vod":"1KV733","oznaka":"1KV733/4","vrsta":"podzemna","vodic":"XHE 49-A 3x(1x185/25), 20 kV","izvod":"4TS11-1SNI2,"},"geometry":{"type":"LineString","coordinates":[[16.497954,43.524096],[16.49794,43.524101],[16.497912,43.524114],[16.497888,43.524123],[16.497871,43.52413],[16.497847,43.524139],[16.497824,43.52415],[16.497802,43.524161],[16.49777,43.524173],[16.497739,43.524185],[16.497713,43.524193],[16.497695,43.524202],[16.49769,43.524206],[16.497659,43.524246],[16.497654,43.52425],[16.497629,43.524259],[16.497584,43.524273],[16.497537,43.524289],[16.497488,43.524306],[16.497444,43.524321],[16.497427,43.524327],[16.497389,43.52434],[16.497344,43.524355],[16.497284,43.524376],[16.497231,43.524394],[16.49718,43.524411],[16.497166,43.524416],[16.497133,43.524427],[16.497115,43.524434],[16.497087,43.524443],[16.497058,43.524453],[16.497046,43.524456],[16.497038,43.52446],[16.497033,43.524462],[16.497029,43.524464],[16.497026,43.524465],[16.497024,43.524466]]}},{"type":"Feature","properties":{"vod":"ODCJEP ČISTOĆA","oznaka":"1DV223/13","vrsta":"nadzemna","vodic":"Al-Fe 3x25/4","izvod":"4TS11-1SNI2,"},"geometry":{"type":"LineString","coordinates":[[16.499889,43.523058],[16.497918,43.521712]]}},{"type":"Feature","properties":{"vod":"1KV3766","oznaka":"1KV3766/2","vrsta":"podzemna","vodic":"XHE 49-A 3x(1x185/25), 20 kV"},"geometry":{"type":"LineString","coordinates":[[16.501282,43.520717],[16.50131,43.52071],[16.501345,43.520702],[16.501386,43.520689],[16.501451,43.520673],[16.501513,43.520656],[16.501572,43.52064],[16.501626,43.520629],[16.501679,43.520618],[16.501735,43.520607],[16.50178,43.520599],[16.501828,43.520592],[16.501867,43.520587],[16.501888,43.520583],[16.501923,43.52058],[16.501987,43.520571],[16.502039,43.520565],[16.502104,43.520558],[16.502163,43.520553],[16.502215,43.52055],[16.502281,43.520547],[16.502341,43.520545],[16.502401,43.520546],[16.502461,43.520549],[16.502524,43.520552],[16.502586,43.520556],[16.502649,43.520561],[16.502706,43.520567],[16.502736,43.520573],[16.502801,43.520582],[16.502866,43.520592],[16.50293,43.5206],[16.50299,43.520607],[16.503042,43.520614],[16.503104,43.520622],[16.503152,43.520627],[16.503194,43.520628],[16.503238,43.520628],[16.503266,43.520626],[16.50328,43.520624],[16.503326,43.520626],[16.503387,43.520628],[16.503448,43.520629],[16.503515,43.520629],[16.503568,43.520628],[16.503627,43.520628],[16.503688,43.520626],[16.503747,43.520624],[16.503805,43.520621],[16.503862,43.520618],[16.503924,43.520613],[16.503984,43.520608],[16.504035,43.520602],[16.504092,43.520595],[16.504144,43.520588],[16.504193,43.52058],[16.50425,43.52057],[16.504303,43.52056],[16.504358,43.520548],[16.504414,43.520536],[16.504456,43.520527]]}},{"type":"Feature","properties":{"vod":"ODCJEP DALMASTROJ","oznaka":"1DV221/11","vrsta":"nadzemna","vodic":"Al-Fe 3x50/8","izvod":"4TS11-1SNI2,"},"geometry":{"type":"LineString","coordinates":[[16.494167,43.522559],[16.493357,43.522759],[16.49328,43.522327]]}},{"type":"Feature","properties":{"vod":"1KV781","oznaka":"1KV781/1","vrsta":"podzemna","vodic":"XHP 81-A 3x150/25, 10 kV","izvod":"4TS11-1SNI44,"},"geometry":{"type":"LineString","coordinates":[[16.488903,43.529124],[16.488905,43.52908],[16.488905,43.529079],[16.488905,43.529079],[16.488905,43.529078],[16.488905,43.529077],[16.488905,43.529076],[16.488904,43.529075],[16.488904,43.529074],[16.488903,43.529073],[16.488903,43.529072],[16.488902,43.529071],[16.488902,43.52907],[16.488901,43.529069],[16.4889,43.529069],[16.488899,43.529068],[16.488898,43.529067],[16.488897,43.529066],[16.488896,43.529066],[16.488895,43.529065],[16.488894,43.529065],[16.488893,43.529064],[16.488892,43.529064],[16.488891,43.529063],[16.488889,43.529063],[16.488888,43.529063],[16.488887,43.529062],[16.488886,43.529062],[16.488884,43.529062],[16.488883,43.529062],[16.488882,43.529062],[16.486975858925536,43.52900429548112]]}},{"type":"Feature","properties":{"vod":"ZATVOR - KARABAŠ 3","oznaka":"1KV2142/2","vrsta":"podzemna","vodic":"XHE 49-A 3x(1x185/25), 20 kV","izvod":"4TS11-1SNI2,"},"geometry":{"type":"LineString","coordinates":[[16.499919,43.529118],[16.499909,43.529126],[16.499751,43.529098],[16.499664,43.529107],[16.499285,43.529146],[16.49896,43.529163],[16.49896,43.529163],[16.498953,43.528968]]}},{"type":"Feature","properties":{"vod":"KAREPOVAC - KILA 3","oznaka":"1DV22/2","vrsta":"nadzemna","vodic":"Al-Fe 3x50/8","izvod":"4TS11-1SNI2,"},"geometry":{"type":"LineString","coordinates":[[16.494167,43.522559],[16.496227,43.520498]]}},{"type":"Feature","properties":{"vod":"1KV344","oznaka":"1KV344/1","vrsta":"podzemna","vodic":"XHE 49-A 3x(1x150/25), 20 kV","izvod":"4TS11-1SNI21,"},"geometry":{"type":"LineString","coordinates":[[16.503873,43.529755],[16.503873,43.529754],[16.503873,43.529749],[16.503839,43.529735],[16.503823,43.529729],[16.503819,43.52972],[16.503829,43.529697],[16.503845,43.529641],[16.503875,43.529552],[16.503904,43.529463],[16.50393,43.529382],[16.503954,43.52931],[16.503981,43.529233],[16.504013,43.529185],[16.504062,43.529147],[16.504095,43.529139],[16.504121,43.529144],[16.504139,43.529141],[16.504201,43.529132],[16.504289,43.529146],[16.504366,43.529166],[16.504426,43.529181],[16.504514,43.529203],[16.504612,43.529227],[16.504685,43.529241],[16.50474,43.529255],[16.504897,43.529289],[16.505053,43.529323],[16.50521,43.529364],[16.505328,43.529395],[16.505425,43.529424],[16.50551,43.529453],[16.505611,43.52949],[16.505684,43.529518],[16.505751,43.529543],[16.505838,43.529576],[16.505906,43.529605],[16.505937,43.52962],[16.50594,43.529602],[16.505943,43.529599],[16.50598,43.529552],[16.505983,43.529547],[16.505999,43.529548],[16.506112,43.52959],[16.506222,43.529629],[16.506343,43.52967],[16.506497,43.529724],[16.506575,43.529751],[16.506624,43.529767],[16.506703,43.529792],[16.506796,43.529819],[16.506835,43.529828],[16.506897,43.529844],[16.506986,43.529863],[16.507084,43.529878],[16.507172,43.529887],[16.507191,43.529884],[16.507209,43.52987],[16.507211,43.529856]]}},{"type":"Feature","properties":{"vod":"1KV403","oznaka":"1KV403/3","vrsta":"podzemna","vodic":"XHP 81-A 3x150/25, 10 kV","izvod":"4TS11-1SNI2,"},"geometry":{"type":"LineString","coordinates":[[16.502938,43.526624],[16.502924,43.526613],[16.502915,43.526606],[16.502909,43.526606],[16.502854,43.526615],[16.502776,43.526631],[16.502664,43.526652],[16.502429,43.5267],[16.502284,43.526737],[16.502183,43.52676],[16.502051,43.526782],[16.501978,43.526779],[16.501885,43.526797],[16.501868,43.526821],[16.501856,43.526937],[16.501819,43.527002],[16.501808,43.527008],[16.501795,43.527027],[16.501787,43.527036],[16.501771,43.527039],[16.50176,43.527048],[16.501703,43.527072],[16.50164,43.527099],[16.501596,43.527125]]}},{"type":"Feature","properties":{"vod":"3KV9002","oznaka":"3KV9002/1","vrsta":"podzemna","vodic":"XHE 49-A 3x(1x185/25), 35 kV"},"geometry":{"type":"LineString","coordinates":[[16.501294,43.528501],[16.501316,43.528549],[16.501336,43.528601],[16.501356,43.528664],[16.501357,43.52869],[16.501361,43.528697],[16.501368,43.528704],[16.501375,43.528712],[16.501381,43.528734],[16.501391,43.528796],[16.50139,43.528826],[16.501382,43.528837],[16.50137,43.528839]]}},{"type":"Feature","properties":{"vod":"1KV893","oznaka":"1KV893/2","vrsta":"podzemna","vodic":"IPO 13 3x95, 10 kV","izvod":"4TS11-1SNI54,"},"geometry":{"type":"LineString","coordinates":[[16.488806,43.524831],[16.4889,43.524747],[16.488989,43.524667],[16.489007,43.524655],[16.489042,43.524636],[16.489162,43.524568],[16.489214,43.524539],[16.489295,43.524494],[16.489331,43.524474],[16.489351,43.524462],[16.48941,43.524423],[16.489497,43.524366],[16.489657,43.52426],[16.489764,43.52419],[16.489953,43.524063],[16.490035,43.524007],[16.490122,43.523963],[16.490249,43.523899],[16.490387,43.523837],[16.490449,43.523809],[16.490579,43.523752],[16.490638,43.523727],[16.490808,43.523686],[16.490954,43.523651],[16.491153,43.523605],[16.491181,43.523598],[16.4912,43.523594],[16.491294,43.523562],[16.491534,43.523481],[16.492057,43.523311],[16.492523,43.523156],[16.492801,43.523063],[16.492878,43.522938],[16.493003,43.522872],[16.493003,43.522856],[16.492989,43.522821]]}},{"type":"Feature","properties":{"vod":"3KV27","oznaka":"3KV27/2","vrsta":"podzemna","vodic":"XHE 49-A 3x(1x185/25), 35 kV"},"geometry":{"type":"LineString","coordinates":[[16.500751,43.529248],[16.500749,43.529258],[16.500748,43.529266],[16.50074,43.52929],[16.500733,43.529313],[16.500724,43.529331],[16.500719,43.529338],[16.500713,43.529348],[16.500713,43.529352],[16.500715,43.529355],[16.500809,43.529404],[16.500815,43.52941],[16.500818,43.529416],[16.500815,43.529423],[16.50081,43.529429],[16.500804,43.529432]]}},{"type":"Feature","properties":{"vod":"1KV893","oznaka":"1KV893/1","vrsta":"podzemna","vodic":"XHE 49-A 3x(1x150/25), 20 kV","izvod":"4TS11-1SNI54,"},"geometry":{"type":"LineString","coordinates":[[16.488806,43.524831],[16.4888,43.524835],[16.488791,43.524837],[16.488781,43.524832],[16.488682,43.524779],[16.488612,43.524731],[16.488563,43.524694],[16.488385,43.524563],[16.488227,43.524443],[16.48823,43.524437],[16.48823,43.524437],[16.48823,43.524437],[16.48823,43.524437],[16.48823,43.524436],[16.488229,43.524399],[16.488229,43.524398],[16.488229,43.524398],[16.488229,43.524398],[16.488229,43.524398],[16.48821,43.524368],[16.48821,43.524368],[16.488209,43.524368],[16.488209,43.524368],[16.488209,43.524367],[16.488192,43.524357],[16.488147,43.524297],[16.488147,43.524297],[16.488096,43.524239],[16.488087,43.524219],[16.488087,43.524219],[16.488087,43.524219],[16.488087,43.524219],[16.488087,43.524219],[16.488069,43.524199],[16.488057,43.524186],[16.488057,43.524186],[16.488057,43.524186],[16.488056,43.524186],[16.488056,43.524186],[16.488032,43.524171],[16.487791,43.523969],[16.487728,43.523914],[16.487728,43.523914],[16.487728,43.523914],[16.487728,43.523914],[16.487728,43.523914],[16.487629,43.523832],[16.487629,43.523832],[16.487629,43.523832],[16.487629,43.523832],[16.487629,43.523832],[16.487554,43.523773],[16.487554,43.523773],[16.487554,43.523773],[16.487554,43.523773],[16.487554,43.523773],[16.487518,43.523755],[16.487439,43.523714],[16.487257,43.523592],[16.486975858925536,43.52337647072779]]}},{"type":"Feature","properties":{"vod":"3KV20","oznaka":"3KV20/14","vrsta":"podzemna","vodic":"XHE 49-A 3x(1x185/25), 35 kV"},"geometry":{"type":"LineString","coordinates":[[16.500202040543748,43.53040109856765],[16.500249,43.530379],[16.500262,43.530374],[16.50043,43.530255],[16.500478,43.530194],[16.500497,43.530164],[16.500508,43.530143],[16.500525,43.530103],[16.500542,43.530045],[16.500549,43.53],[16.500559,43.529942],[16.500572,43.529878],[16.500583,43.529811],[16.500593,43.529766],[16.500602,43.529732],[16.500602,43.529731],[16.500603,43.529731],[16.500606,43.529729],[16.500609,43.529727],[16.500611,43.529725],[16.500614,43.529723],[16.500625,43.52969],[16.500628,43.529682],[16.500628,43.52968],[16.500623,43.529677],[16.500625,43.529666],[16.500659,43.529599],[16.500695,43.529545],[16.500727,43.529504],[16.500771,43.529454],[16.500781,43.529445],[16.500804,43.529432]]}},{"type":"Feature","properties":{"vod":"3KV20","oznaka":"3KV20/16","vrsta":"podzemna","vodic":"XHE 49-A 3x(1x185/25), 35 kV"},"geometry":{"type":"LineString","coordinates":[[16.500757,43.529233],[16.500755,43.529239],[16.500752,43.529248],[16.500751,43.529258],[16.50075,43.529266],[16.500742,43.529291],[16.500734,43.529313],[16.500725,43.529331],[16.500721,43.529339],[16.500714,43.529348],[16.500715,43.529352],[16.500716,43.529354],[16.50081,43.529403],[16.500816,43.529409],[16.50082,43.529416],[16.500817,43.529424],[16.500811,43.52943],[16.500796,43.52944]]}},{"type":"Feature","properties":{"vod":"3KV20","oznaka":"3KV20/17","vrsta":"podzemna","vodic":"XHE 49-A 3x(1x185/25), 35 kV"},"geometry":{"type":"LineString","coordinates":[[16.500762,43.529212],[16.500761,43.529217],[16.500759,43.529226],[16.500757,43.529233]]}},{"type":"Feature","properties":{"vod":"1KV341","oznaka":"1KV341/5","vrsta":"podzemna","vodic":"XHP 81-A 3x150/25, 10 kV","izvod":"4TS11-1SNI43,"},"geometry":{"type":"LineString","coordinates":[[16.490538,43.529466],[16.490519,43.529466],[16.490502,43.529467],[16.490463,43.529462],[16.490371,43.529461],[16.490311,43.529462],[16.490237,43.529461],[16.490167,43.529464],[16.490119,43.529467],[16.490061,43.529473],[16.490045,43.529476],[16.489969,43.529486],[16.489912,43.529496],[16.489875,43.529505],[16.489833,43.529516],[16.4898,43.529529],[16.489772,43.529548],[16.489756,43.529574],[16.489732,43.529601],[16.489691,43.529661],[16.489645,43.529745],[16.489619,43.529803],[16.489592,43.529843],[16.489577,43.529869],[16.48957,43.529887],[16.489568,43.5299],[16.489559,43.529928],[16.489549,43.52995],[16.489541,43.529981],[16.489536,43.53001],[16.489534,43.530035],[16.489529,43.530058],[16.489524,43.530079],[16.489518,43.530097],[16.489498,43.530132],[16.489489,43.530153],[16.489476,43.530177],[16.489456,43.530205],[16.489441,43.530232],[16.489432,43.530256],[16.489406,43.530292],[16.489382,43.530315],[16.489351,43.530347],[16.489294,43.530381],[16.489272,43.530385],[16.489248,43.530394],[16.489233802864696,43.53040109856765]]}},{"type":"Feature","properties":{"vod":"1KV1105","oznaka":"1KV1105/2","vrsta":"podzemna","vodic":"XHE 49-A 3x(1x150/25), 20 kV","izvod":"4TS11-1SNI54,"},"geometry":{"type":"LineString","coordinates":[[16.48877,43.52485],[16.488779,43.524834],[16.48868,43.52478],[16.48861,43.524733],[16.488561,43.524695],[16.488383,43.524565],[16.488224,43.524444],[16.488227,43.524436],[16.488226,43.524399],[16.488207,43.524369],[16.48819,43.524358],[16.488145,43.524298],[16.488094,43.52424],[16.488085,43.52422],[16.488067,43.5242],[16.488055,43.524187],[16.48803,43.524173],[16.487789,43.52397],[16.487727,43.523915],[16.487627,43.523833],[16.487552,43.523775],[16.487516,43.523756],[16.487438,43.523716],[16.487255,43.523593],[16.486975858925536,43.5233790039742]]}},{"type":"Feature","properties":{"vod":"1KV1050","oznaka":"1KV1050/3","vrsta":"podzemna","vodic":"XHE 49-A 3x(1x150/25), 20 kV"},"geometry":{"type":"LineString","coordinates":[[16.493213,43.523541],[16.493295,43.52353],[16.493419,43.523515],[16.493537,43.523499],[16.493658,43.523482],[16.493759,43.523473],[16.493814,43.523466],[16.493857,43.523454],[16.494011,43.523426]]}},{"type":"Feature","properties":{"vod":"1KV740","oznaka":"1KV740/6","vrsta":"podzemna","vodic":"XHP 81-A 3x150/25, 10 kV","izvod":"4TS11-1SNI2,"},"geometry":{"type":"LineString","coordinates":[[16.494688080381568,43.53040109856765],[16.494711,43.530343],[16.494739,43.530339],[16.495451,43.530279],[16.495455,43.530277]]}},{"type":"Feature","properties":{"vod":"3KV27","oznaka":"3KV27/3","vrsta":"podzemna","vodic":"XHE 49-A 3x(1x185/25), 35 kV"},"geometry":{"type":"LineString","coordinates":[[16.500695,43.529216],[16.500696,43.529218],[16.500699,43.529224],[16.500703,43.529228],[16.500717,43.529232],[16.500736,43.529234],[16.500747,43.529235],[16.500751,43.529236],[16.500753,43.529239],[16.500751,43.529248]]}},{"type":"Feature","properties":{"vod":"1KV940","oznaka":"1KV940/2","vrsta":"podzemna","vodic":"XHP 81-A 3x150/25, 10 kV","izvod":"4TS11-1SNI2,"},"geometry":{"type":"LineString","coordinates":[[16.501612,43.527119],[16.501572,43.527142],[16.501364,43.527279],[16.501282,43.527326],[16.501222,43.527358],[16.50114,43.527399],[16.501037,43.527435],[16.500956,43.527466],[16.500944,43.527471],[16.500944,43.527473],[16.500944,43.527475],[16.500946,43.527477],[16.500948,43.527478],[16.500952,43.527479],[16.500956,43.52748]]}},{"type":"Feature","properties":{"vod":"3KV24","oznaka":"3KV24/8","vrsta":"podzemna","vodic":"XHE 49-A 3x(1x185/25), 35 kV"},"geometry":{"type":"LineString","coordinates":[[16.500688,43.529218],[16.500686,43.529224],[16.500681,43.529228],[16.500665,43.529232],[16.50065,43.529236],[16.50064,43.529234],[16.500633,43.529226],[16.500632,43.529223],[16.50062,43.529122],[16.500619,43.529119],[16.500624,43.529109],[16.500631,43.529101],[16.500637,43.529095],[16.500644,43.52909],[16.500649,43.529084],[16.500652,43.529073],[16.500651,43.529066]]}},{"type":"Feature","properties":{"vod":"1KV3766","oznaka":"1KV3766/3","vrsta":"podzemna","vodic":"XHE 49-A 3x(1x185/25), 20 kV"},"geometry":{"type":"LineString","coordinates":[[16.498778,43.521425],[16.498766,43.521428],[16.498765,43.521428],[16.49873,43.521439],[16.498693,43.521451],[16.498661,43.521463],[16.49863,43.521475],[16.498593,43.521489],[16.498554,43.521504],[16.49852,43.521517],[16.498486,43.521529],[16.498448,43.521543],[16.498409,43.521558],[16.498371,43.521573],[16.498336,43.521587],[16.498301,43.521599],[16.498265,43.521611],[16.498232,43.521624],[16.498196,43.521638],[16.49816,43.52165],[16.498125,43.521662],[16.498093,43.521673],[16.49806,43.521684],[16.498024,43.521697],[16.49799,43.521709],[16.497963,43.521718],[16.497956,43.521719],[16.497946,43.521721],[16.497936,43.52172],[16.497929,43.521719],[16.497925,43.521716],[16.497918,43.521712]]}},{"type":"Feature","properties":{"vod":"1KV342","oznaka":"1KV342/5","vrsta":"podzemna","vodic":"XHP 81-A 3x150/25, 10 kV","izvod":"4TS11-1SNI5,"},"geometry":{"type":"LineString","coordinates":[[16.490503,43.529452],[16.490501,43.529456],[16.490493,43.52946],[16.490463,43.529461],[16.490371,43.52946],[16.490311,43.529461],[16.490237,43.52946],[16.490167,43.529463],[16.490118,43.529466],[16.490061,43.529472],[16.490044,43.529474],[16.489969,43.529485],[16.489912,43.529495],[16.489874,43.529503],[16.489832,43.529514],[16.489799,43.529527],[16.489771,43.529547],[16.489755,43.529573],[16.489731,43.5296],[16.489689,43.529661],[16.489643,43.529744],[16.489617,43.529803],[16.48959,43.529842],[16.489575,43.529869],[16.489569,43.529886],[16.489566,43.5299],[16.489557,43.529927],[16.489548,43.52995],[16.489539,43.529981],[16.489534,43.53001],[16.489532,43.530035],[16.489528,43.530058],[16.489522,43.530079],[16.489516,43.530097],[16.489497,43.530132],[16.489487,43.530153],[16.489474,43.530177],[16.489454,43.530205],[16.48944,43.530231],[16.48943,43.530256],[16.489404,43.530291],[16.489381,43.530314],[16.48935,43.530346],[16.489293,43.53038],[16.489271,43.530384],[16.489247,43.530393],[16.489229330397844,43.53040109856765]]}},{"type":"Feature","properties":{"vod":"1KV1050","oznaka":"1KV1050/2","vrsta":"podzemna","vodic":"XHE 49-A 3x(1x150/25), 20 kV"},"geometry":{"type":"LineString","coordinates":[[16.493213,43.523541],[16.493085,43.523557],[16.492851,43.523585],[16.49272,43.523601],[16.49256,43.523621],[16.492425,43.523637],[16.492308,43.523652],[16.492196,43.523665],[16.49209,43.523678],[16.491994,43.52369],[16.49183,43.52371],[16.491732,43.523722],[16.491615,43.523739],[16.491496,43.523753],[16.491398,43.523764],[16.491337,43.523772],[16.491249,43.523784],[16.491136,43.523799],[16.491031,43.52381],[16.490998,43.523811],[16.490953,43.523816],[16.490885,43.523822],[16.490865,43.52372],[16.490808,43.523595]]}},{"type":"Feature","properties":{"vod":"1KV940","oznaka":"1KV940/3","vrsta":"podzemna","vodic":"XHP 81-A 3x150/25, 10 kV","izvod":"4TS11-1SNI2,"},"geometry":{"type":"LineString","coordinates":[[16.502935,43.526626],[16.502921,43.526615],[16.502913,43.526608],[16.502909,43.526608],[16.502855,43.526617],[16.502777,43.526634],[16.502665,43.526655],[16.502431,43.526702],[16.502285,43.52674],[16.502184,43.526763],[16.502052,43.526785],[16.501978,43.526782],[16.501887,43.5268],[16.501872,43.526822],[16.501859,43.526937],[16.501822,43.527004],[16.501811,43.52701],[16.501798,43.527028],[16.501789,43.527038],[16.501773,43.527042],[16.501762,43.52705],[16.501705,43.527074],[16.501642,43.527102],[16.501612,43.527119]]}},{"type":"Feature","properties":{"vod":"3KV9","oznaka":"3KV9/6","vrsta":"podzemna","vodic":"XHE 49-A 3x(1x185/25), 35 kV"},"geometry":{"type":"LineString","coordinates":[[16.500755,43.529212],[16.500753,43.529219],[16.500747,43.529224],[16.500729,43.529226],[16.500705,43.529229],[16.500691,43.529231],[16.500666,43.529233],[16.50065,43.529237],[16.500639,43.529235],[16.500632,43.529227],[16.50063,43.529223],[16.500618,43.529123],[16.500617,43.529119],[16.500622,43.529109],[16.500629,43.5291],[16.500636,43.529094],[16.500643,43.529089],[16.500648,43.529083],[16.50065,43.529073],[16.500649,43.529066]]}},{"type":"Feature","properties":{"vod":"ZATVOR - KARABAŠ 3","oznaka":"1KV2142/5","vrsta":"podzemna","vodic":"XHP 81-A 3x150/25, 10 kV","izvod":"4TS11-1SNI2,"},"geometry":{"type":"LineString","coordinates":[[16.498953,43.528948],[16.49896,43.528948]]}},{"type":"Feature","properties":{"vod":"1KV3765","oznaka":"1KV3765/1","vrsta":"podzemna","vodic":"XHE 49-A 3x(1x185/25), 20 kV","izvod":"4TS11-1SNI2,"},"geometry":{"type":"LineString","coordinates":[[16.501311,43.520711],[16.501283,43.520718],[16.50126,43.520724],[16.501221,43.520736],[16.501186,43.520745],[16.501129,43.52076],[16.501073,43.520775],[16.50102,43.520789],[16.500961,43.520804],[16.5009,43.520822],[16.500844,43.520836],[16.500791,43.52085],[16.500719,43.52087],[16.50066,43.520885],[16.500603,43.5209],[16.500545,43.520916],[16.500495,43.52093],[16.500435,43.520946],[16.500375,43.520962],[16.500319,43.520978],[16.500261,43.520993],[16.500202,43.521009],[16.500155,43.521022],[16.500108,43.521035],[16.500058,43.521049],[16.500001,43.521065],[16.499947,43.52108],[16.499915,43.521089],[16.499869,43.521104],[16.49985,43.521109],[16.49982,43.521117],[16.49978,43.521128],[16.499727,43.521144],[16.499669,43.521161],[16.499605,43.52118],[16.499547,43.521197],[16.499488,43.521214],[16.49943,43.521232],[16.499373,43.521248],[16.499316,43.521266],[16.499249,43.521286],[16.499193,43.521303],[16.499129,43.521321],[16.499075,43.521338],[16.499003,43.521359],[16.498936,43.52138],[16.498875,43.521398],[16.498807,43.521419],[16.498778,43.521426]]}},{"type":"Feature","properties":{"vod":"1KV3765","oznaka":"1KV3765/4","vrsta":"podzemna","vodic":"XHE 49-A 3x(1x185/25), 20 kV","izvod":"4TS11-1SNI2,"},"geometry":{"type":"LineString","coordinates":[[16.495441,43.522541],[16.49544,43.522539],[16.495443,43.522536],[16.495448,43.522535],[16.495454,43.522535],[16.495463,43.522538],[16.495479,43.52254],[16.495498,43.52254],[16.495515,43.522541],[16.495535,43.52254],[16.495553,43.522541],[16.495627,43.52254],[16.495648,43.52254],[16.495696,43.522541],[16.49575,43.522541],[16.495818,43.52254],[16.495849,43.52254],[16.49591,43.522537],[16.495978,43.52253],[16.496039,43.522523],[16.496098,43.522514],[16.496152,43.522506],[16.496206,43.522495],[16.496263,43.522482],[16.496332,43.522464],[16.496386,43.522449],[16.496448,43.522432],[16.496507,43.522416],[16.496565,43.522397],[16.496609,43.52238],[16.496654,43.522359],[16.496697,43.522334],[16.496741,43.522306],[16.496777,43.522282],[16.496821,43.522249],[16.496857,43.52222],[16.496889,43.522192],[16.496921,43.522161],[16.49695,43.522127],[16.496979,43.522096],[16.497013,43.522065],[16.49704,43.522039],[16.497052,43.52203],[16.497073,43.522019],[16.497117,43.522001],[16.497161,43.521984],[16.497208,43.521967],[16.497262,43.521948],[16.497328,43.521927],[16.497393,43.521906],[16.497449,43.521887],[16.497505,43.521869],[16.49757,43.521848],[16.497627,43.52183],[16.497683,43.521811],[16.497743,43.521792],[16.497796,43.521774],[16.49785,43.521756],[16.497873,43.521748],[16.497909,43.521734],[16.497924,43.52173],[16.497935,43.521727]]}},{"type":"Feature","properties":{"vod":"3KV9002","oznaka":"3KV9002/126","vrsta":"podzemna","vodic":"XHE 49-A 3x(1x185/25), 35 kV"},"geometry":{"type":"LineString","coordinates":[[16.500653,43.529066],[16.500653,43.529066],[16.500647,43.529056],[16.500644,43.529038],[16.500648,43.529018],[16.500657,43.528998],[16.500669,43.528975],[16.500678,43.528952],[16.500688,43.528937],[16.500698,43.528929],[16.500713,43.528921],[16.500721,43.528916],[16.500738,43.528907],[16.50076,43.528898],[16.50078,43.528894],[16.50081,43.52889],[16.500841,43.528887],[16.500873,43.528884],[16.500903,43.528882],[16.500936,43.52888],[16.500968,43.528878],[16.501003,43.528875],[16.501036,43.528874],[16.501073,43.528871],[16.501115,43.528868],[16.501154,43.528864],[16.501191,43.52886],[16.501229,43.528856],[16.501259,43.528852],[16.501288,43.528849],[16.501317,43.528844],[16.50134,43.528842],[16.501355,43.528841],[16.50137,43.528839]]}},{"type":"Feature","properties":{"vod":"ODCJEP ČISTOĆA","oznaka":"1DV223/11","vrsta":"podzemna","vodic":"XHP 81-A 3x150/25, 10 kV","izvod":"4TS11-1SNI2,"},"geometry":{"type":"LineString","coordinates":[[16.494167,43.522559],[16.494179,43.522558],[16.494199,43.522556],[16.49425,43.522545],[16.494334,43.522528],[16.494505,43.522502],[16.49461,43.522493],[16.494817,43.522488],[16.495032,43.522491],[16.495299,43.522507],[16.495373,43.522517],[16.495429,43.522528]]}},{"type":"Feature","properties":{"vod":"1KV1002","oznaka":"1KV1002/7","vrsta":"podzemna","vodic":"XHE 49-A 3x(1x185/25), 20 kV","izvod":"4TS11-1SNI2,"},"geometry":{"type":"LineString","coordinates":[[16.495394,43.529823],[16.49539,43.529835],[16.495374,43.529843],[16.495349,43.529849],[16.495335,43.529854],[16.495329,43.529862],[16.49533,43.529868],[16.495331,43.52988],[16.495338,43.529899],[16.495346,43.529915],[16.495356,43.529937],[16.495366,43.529955],[16.495372,43.529976],[16.495377,43.529992],[16.49538,43.530012],[16.495388,43.530036],[16.495396,43.530062],[16.495405,43.530094],[16.495415,43.530128],[16.495423,43.530157],[16.495432,43.530185],[16.495439,43.530212],[16.495446,43.530237],[16.495452,43.530258],[16.495455,43.530265],[16.495456,43.530275],[16.495455,43.530277]]}},{"type":"Feature","properties":{"vod":"1KV346","oznaka":"1KV346/1","vrsta":"podzemna","vodic":"XHE 49-A 3x(1x150/25), 20 kV","izvod":"4TS11-1SNI21,"},"geometry":{"type":"LineString","coordinates":[[16.507216,43.529857],[16.507213,43.529872],[16.507213,43.529872],[16.507213,43.529872],[16.507213,43.529873],[16.507213,43.529873],[16.507195,43.529886],[16.507195,43.529886],[16.507195,43.529887],[16.507194,43.529887],[16.507194,43.529887],[16.507172,43.52989],[16.507172,43.529891],[16.507172,43.529891],[16.507172,43.529891],[16.507171,43.529891],[16.507083,43.529881],[16.507083,43.529881],[16.507083,43.529881],[16.507083,43.529881],[16.507083,43.529881],[16.506985,43.529867],[16.506985,43.529867],[16.506985,43.529867],[16.506985,43.529867],[16.506985,43.529867],[16.506976,43.529865],[16.506888,43.529845],[16.506888,43.529845],[16.506888,43.529845],[16.506888,43.529845],[16.506888,43.529845],[16.506788,43.52982],[16.506788,43.52982],[16.506788,43.52982],[16.506788,43.52982],[16.506788,43.52982],[16.506696,43.529794],[16.506696,43.529794],[16.506696,43.529794],[16.506696,43.529794],[16.506696,43.529794],[16.506571,43.529754],[16.50657,43.529754],[16.50649,43.529725],[16.506431,43.529705],[16.506362,43.529681],[16.506289,43.529656],[16.506215,43.529631],[16.506215,43.529631],[16.506106,43.529591],[16.505998,43.529551],[16.505986,43.529551],[16.505944,43.529603],[16.505943,43.529616],[16.505942,43.529621],[16.505942,43.529621],[16.505942,43.529621],[16.505942,43.529621],[16.505941,43.529622],[16.50594,43.529622],[16.50594,43.529623],[16.505939,43.529623],[16.505939,43.529623],[16.505938,43.529623],[16.505936,43.529623],[16.505936,43.529623],[16.505935,43.529623],[16.505935,43.529623],[16.505935,43.529623],[16.505933,43.529622],[16.505933,43.529622],[16.505903,43.529608],[16.505831,43.529578],[16.505743,43.529545],[16.505682,43.529521],[16.505501,43.529455],[16.505416,43.529425],[16.505318,43.529397],[16.505244,43.529377],[16.505194,43.529364],[16.505042,43.529325],[16.504886,43.529291],[16.504738,43.529258],[16.504738,43.529258],[16.504684,43.529244],[16.504603,43.529229],[16.504603,43.529229],[16.504603,43.529229],[16.504603,43.529229],[16.504603,43.529229],[16.504504,43.529205],[16.504504,43.529205],[16.504437,43.529187],[16.504288,43.52915],[16.5042,43.529136],[16.504122,43.529147],[16.504122,43.529147],[16.504122,43.529147],[16.504121,43.529147],[16.504121,43.529147],[16.504095,43.529143],[16.504064,43.52915],[16.504017,43.529187],[16.503986,43.529234],[16.503959,43.529311],[16.503908,43.529464],[16.50388,43.529553],[16.503865,43.529596],[16.50385,43.529642],[16.503836,43.529693],[16.503832,43.529702],[16.50382,43.529699],[16.50375,43.529684],[16.503746,43.529683],[16.503728,43.529684],[16.503725,43.529685],[16.50372,43.529708],[16.503706,43.529761],[16.503683,43.52984],[16.503649,43.529942],[16.503606,43.53005],[16.503591,43.530115],[16.503558,43.530239],[16.50351,43.530381],[16.503503474491023,43.53040109856765]]}},{"type":"Feature","properties":{"vod":"ODCJEP ČISTOĆA","oznaka":"1DV223/12","vrsta":"podzemna","vodic":"XHE 49-A 3x(1x185/25), 20 kV"},"geometry":{"type":"LineString","coordinates":[[16.495429,43.522528],[16.495439,43.522531],[16.495446,43.522531],[16.495453,43.522533],[16.495463,43.522537],[16.495479,43.522539],[16.495498,43.522539],[16.495515,43.522539],[16.495535,43.522539],[16.495553,43.52254],[16.495627,43.522539],[16.495648,43.522539],[16.495696,43.52254],[16.49575,43.52254],[16.495818,43.522539],[16.495849,43.522538],[16.49591,43.522536],[16.495978,43.522529],[16.496039,43.522521],[16.496098,43.522513],[16.496152,43.522504],[16.496205,43.522494],[16.496262,43.522481],[16.496332,43.522463],[16.496386,43.522448],[16.496448,43.522431],[16.496506,43.522415],[16.496564,43.522396],[16.496608,43.522379],[16.496653,43.522357],[16.496696,43.522333],[16.496739,43.522305],[16.496776,43.522281],[16.496819,43.522248],[16.496856,43.522219],[16.496888,43.522191],[16.496919,43.52216],[16.496949,43.522126],[16.496978,43.522096],[16.497011,43.522065],[16.497038,43.522038],[16.497051,43.522029],[16.497072,43.522018],[16.497116,43.522],[16.49716,43.521983],[16.497207,43.521966],[16.497262,43.521947],[16.497327,43.521926],[16.497393,43.521905],[16.497448,43.521886],[16.497504,43.521867],[16.49757,43.521846],[16.497626,43.521829],[16.497682,43.52181],[16.497742,43.52179],[16.497795,43.521772],[16.49785,43.521755],[16.497872,43.521747],[16.497909,43.521733],[16.49792,43.521729],[16.497923,43.521725],[16.497923,43.521719],[16.49792,43.521715],[16.497918,43.521712]]}},{"type":"Feature","properties":{"vod":"3KV9002","oznaka":"3KV9002/50","vrsta":"podzemna","vodic":"XHE 49-A 3x(1x185/25), 35 kV"},"geometry":{"type":"LineString","coordinates":[[16.500686,43.529218],[16.500684,43.529223],[16.50068,43.529227],[16.500664,43.529231],[16.50065,43.529234],[16.500641,43.529233],[16.500635,43.529226],[16.500634,43.529222],[16.500622,43.529122],[16.500621,43.529119],[16.500625,43.52911],[16.500632,43.529101],[16.500638,43.529096],[16.500646,43.529091],[16.500651,43.529084],[16.500654,43.529073],[16.500653,43.529066]]}},{"type":"Feature","properties":{"vod":"1KV3765","oznaka":"1KV3765/3","vrsta":"podzemna","vodic":"XHE 49-A 3x(1x185/25), 20 kV","izvod":"4TS11-1SNI2,"},"geometry":{"type":"LineString","coordinates":[[16.497935,43.521727],[16.497964,43.521719],[16.497991,43.52171],[16.498024,43.521698],[16.498061,43.521686],[16.498094,43.521674],[16.498126,43.521663],[16.498161,43.521651],[16.498197,43.521639],[16.498232,43.521626],[16.498266,43.521613],[16.498302,43.5216],[16.498337,43.521588],[16.498372,43.521574],[16.49841,43.521559],[16.498449,43.521545],[16.498486,43.52153],[16.498521,43.521518],[16.498555,43.521505],[16.498594,43.52149],[16.49863,43.521476],[16.498662,43.521464],[16.498694,43.521452],[16.49873,43.52144],[16.498766,43.52143],[16.498766,43.52143],[16.498778,43.521426]]}},{"type":"Feature","properties":{"vod":"1KV779","oznaka":"1KV779/1","vrsta":"podzemna","vodic":"EPHP 81-A 3x150, 10 kV","izvod":"4TS11-1SNI4,"},"geometry":{"type":"LineString","coordinates":[[16.488318,43.530296],[16.488339,43.530295],[16.488397,43.530273],[16.488417,43.530262],[16.488444,43.530246],[16.488492,43.530223],[16.4886,43.530178],[16.488607,43.53017],[16.488607,43.530144],[16.488609,43.5301],[16.488626,43.530064],[16.488628,43.530033],[16.488623,43.530019],[16.488623,43.529991],[16.488624,43.529968],[16.488626,43.529931],[16.48863,43.529873],[16.488633,43.529846],[16.488638,43.529817],[16.488645,43.529757],[16.488644,43.529742],[16.488654,43.529713],[16.48866,43.529699],[16.488671,43.529678],[16.488677,43.529621],[16.488675,43.529611],[16.488663,43.529606],[16.488647,43.529607],[16.488633,43.529607],[16.488578,43.529605],[16.488431,43.529596],[16.488338,43.529597],[16.488134,43.529593],[16.488082,43.529591],[16.488057,43.52959],[16.488055,43.529589]]}},{"type":"Feature","properties":{"vod":"1KV403","oznaka":"1KV403/2","vrsta":"podzemna","vodic":"XHE 49-A 3x(1x150/25), 20 kV","izvod":"4TS11-1SNI2,"},"geometry":{"type":"LineString","coordinates":[[16.500709,43.52739],[16.500727,43.527404],[16.50078,43.527448],[16.5008,43.527498],[16.500894,43.527498],[16.500935,43.527472],[16.500955,43.527463],[16.501036,43.527432],[16.501138,43.527396],[16.50122,43.527356],[16.501279,43.527324],[16.501361,43.527277],[16.50157,43.52714],[16.501596,43.527125]]}},{"type":"Feature","properties":{"vod":"1KV940","oznaka":"1KV940/1","vrsta":"podzemna","vodic":"XHE 49-A 3x(1x185/25), 20 kV","izvod":"4TS11-1SNI2,"},"geometry":{"type":"LineString","coordinates":[[16.500956,43.52748],[16.500966,43.527481],[16.500976,43.52748],[16.500986,43.527479],[16.500995,43.527476],[16.501167,43.527468],[16.501202,43.527464],[16.501211,43.527462],[16.501219,43.527464],[16.501228,43.527467],[16.501233,43.527472],[16.501239,43.527477],[16.501247,43.527479],[16.501255,43.527481],[16.501264,43.527481],[16.501363,43.527477],[16.501446,43.527475],[16.501558,43.527472],[16.50165,43.527469],[16.501663,43.527469],[16.501676,43.527471],[16.501689,43.527473],[16.5017,43.527477],[16.50171,43.527479],[16.501721,43.527478],[16.501731,43.527478],[16.50174,43.527476],[16.501771,43.527471],[16.50188,43.527471],[16.501925,43.527475],[16.501938,43.527476],[16.501947,43.527484],[16.501955,43.527491],[16.501953,43.527501],[16.501954,43.527548],[16.501957,43.527647],[16.501963,43.527747],[16.501964,43.527819],[16.501966,43.527824],[16.501963,43.527829],[16.50196,43.527834],[16.501954,43.527837],[16.501939,43.527841],[16.501923,43.527838],[16.501908,43.527836],[16.501896,43.527828],[16.501894,43.527826],[16.501894,43.527824],[16.501893,43.527822],[16.501893,43.52782]]}},{"type":"Feature","properties":{"vod":"1KV1108","oznaka":"1KV1108/1","vrsta":"podzemna","vodic":"XHE 49-A 3x(1x150/25), 20 kV","izvod":"4TS11-1SNI2,"},"geometry":{"type":"LineString","coordinates":[[16.496843,43.525336],[16.496128,43.52532],[16.496107,43.52532],[16.496102,43.52532],[16.496096,43.525319],[16.496091,43.525318],[16.496084,43.525317],[16.496077,43.525315],[16.496072,43.525312],[16.496066,43.52531],[16.496059,43.525306],[16.496057,43.525305],[16.496057,43.525304],[16.496055,43.525303],[16.496054,43.525302],[16.495986,43.52523],[16.495944,43.525191],[16.495817,43.525058],[16.495758,43.524983],[16.495713,43.524905],[16.495712,43.524904],[16.495709,43.524903],[16.495705,43.524903],[16.4957,43.524905],[16.495664,43.524918],[16.495633,43.524926],[16.49559,43.524931],[16.495556,43.524933],[16.495523,43.524932],[16.495506,43.524932],[16.495441,43.524931],[16.495423,43.52493],[16.495378,43.524929],[16.495329,43.524928],[16.495281,43.524927],[16.495236,43.524927],[16.49519,43.524931],[16.495141,43.524935],[16.495096,43.52494],[16.495071,43.524942],[16.495042,43.524946],[16.495022,43.524946],[16.49494,43.524942],[16.494929,43.524946],[16.494927,43.524954],[16.494929,43.525084],[16.494931,43.525146],[16.494923,43.525208],[16.494915,43.52527],[16.494897,43.525331],[16.494865,43.525429],[16.494822,43.52555],[16.49479,43.525642],[16.494757,43.525737],[16.494724,43.525832],[16.494711,43.525864],[16.49465,43.525993],[16.494613,43.526048],[16.494597,43.526063],[16.494572,43.526082],[16.494548,43.526092],[16.494537,43.526095],[16.494522,43.526096],[16.494507,43.526096],[16.49449,43.526095],[16.494478,43.526093],[16.494467,43.52609],[16.494349,43.526041],[16.494219,43.525986],[16.49406,43.525918],[16.4939,43.525849],[16.493726,43.525775],[16.493646,43.525735],[16.493608,43.525706],[16.493581,43.525694],[16.493609,43.525609],[16.49349,43.525499],[16.493255,43.525486],[16.493064,43.525476],[16.492925,43.525474],[16.492744,43.525482],[16.492603,43.525483],[16.492596,43.525483],[16.492592,43.52548],[16.492587,43.525476],[16.492589,43.525471],[16.492589,43.525455]]}},{"type":"Feature","properties":{"vod":"1KV1110","oznaka":"1KV1110/1","vrsta":"podzemna","vodic":"XHE 49-A 3x(1x185/25), 20 kV","izvod":"4TS11-1SNI2,"},"geometry":{"type":"LineString","coordinates":[[16.494879,43.524898],[16.49489,43.524892],[16.495025,43.524943],[16.495041,43.524942],[16.495071,43.524939],[16.495095,43.524936],[16.495141,43.524932],[16.495189,43.524927],[16.495236,43.524924],[16.495281,43.524923],[16.495329,43.524925],[16.495378,43.524925],[16.495424,43.524926],[16.495441,43.524927],[16.495506,43.524929],[16.495523,43.524929],[16.495556,43.524929],[16.49559,43.524928],[16.495632,43.524922],[16.495662,43.524915],[16.495698,43.524901],[16.495741,43.524886],[16.495792,43.524867],[16.495851,43.524846],[16.4959,43.524829],[16.495955,43.52481],[16.495995,43.524796],[16.496042,43.524781],[16.4961,43.524764],[16.496144,43.52475],[16.496205,43.524732],[16.496263,43.524715],[16.496317,43.524701],[16.496368,43.524688],[16.496429,43.524674],[16.496479,43.52466],[16.496529,43.524646],[16.496572,43.524634],[16.496625,43.524619],[16.496671,43.524606],[16.496717,43.524593],[16.49676,43.52458],[16.496798,43.524567],[16.496839,43.524553],[16.496864,43.524546],[16.496891,43.524536],[16.496928,43.524521],[16.496959,43.524507],[16.496988,43.524492],[16.497011,43.524479],[16.497026,43.524469]]}},{"type":"Feature","properties":{"vod":"1KV403","oznaka":"1KV403/1","vrsta":"podzemna","vodic":"XHP 81-A 3x150/25, 10 kV","izvod":"4TS11-1SNI2,"},"geometry":{"type":"LineString","coordinates":[[16.500709,43.52739],[16.500626,43.527335],[16.500545,43.52728],[16.500507,43.527255],[16.50048,43.527232],[16.500447,43.527203],[16.500422,43.527177],[16.500397,43.527144],[16.500376,43.527114],[16.500349,43.527072],[16.500337,43.527054],[16.500316,43.527033],[16.500288,43.527011],[16.500257,43.526994],[16.500226,43.52698],[16.500205,43.526973],[16.500176,43.526967],[16.500116,43.526964],[16.500033,43.526962],[16.499986,43.526961],[16.499974,43.52696],[16.499971,43.526958],[16.49997,43.526955],[16.499969,43.526944],[16.499963,43.526892],[16.499961,43.526843],[16.499963,43.526816],[16.499957,43.526808],[16.49995,43.526803],[16.499926,43.5268],[16.499838,43.526803],[16.499726,43.526803],[16.499617,43.526802],[16.499507,43.526802],[16.499424,43.5268],[16.499304,43.526799],[16.499142,43.526795],[16.499011,43.526795],[16.49886,43.526796],[16.498733,43.526794],[16.498603,43.526792],[16.498509,43.526791],[16.498486,43.526784],[16.498477,43.526768],[16.498472,43.526729],[16.498471,43.526696]]}},{"type":"Feature","properties":{"vod":"KARABAŠ 3 - DRAČEVAC 4","oznaka":"1KV404/3","vrsta":"podzemna","vodic":"XHE 49-A 3x(1x185/25), 20 kV","izvod":"4TS11-1SNI2,"},"geometry":{"type":"LineString","coordinates":[[16.501895,43.527821],[16.501895,43.527822],[16.501895,43.527824],[16.501896,43.527826],[16.501897,43.527827],[16.501909,43.527835],[16.501924,43.527837],[16.501939,43.527839],[16.501953,43.527835],[16.501959,43.527833],[16.501961,43.527828],[16.501964,43.527824],[16.501963,43.527819],[16.501961,43.527747],[16.501955,43.527647],[16.501952,43.527548],[16.501952,43.527496],[16.501951,43.527488],[16.501943,43.527482],[16.501936,43.527477],[16.501925,43.527477],[16.50188,43.527473],[16.501772,43.527473],[16.501741,43.527478],[16.501731,43.52748],[16.50172,43.527481],[16.50171,43.527481],[16.501699,43.527479],[16.501688,43.527475],[16.501675,43.527473],[16.501663,43.527471],[16.50165,43.527472],[16.501558,43.527475],[16.501446,43.527477],[16.501363,43.52748],[16.501265,43.527483],[16.501255,43.527485],[16.501245,43.527482],[16.501235,43.52748],[16.501228,43.527474],[16.501224,43.52747],[16.501217,43.527469],[16.501211,43.527467],[16.501204,43.527468],[16.501167,43.527473],[16.500965,43.527491]]}},{"type":"Feature","properties":{"vod":"1KV645","oznaka":"1KV645/1","vrsta":"podzemna","vodic":"IPO 13-A 3x185, 10 kV"},"geometry":{"type":"LineString","coordinates":[[16.492998,43.522406],[16.493173,43.522346],[16.493262,43.522295],[16.49329,43.522264],[16.493223,43.522076],[16.493037,43.521713],[16.492977,43.521699],[16.492442,43.521804]]}},{"type":"Feature","properties":{"vod":"1KV1153","oznaka":"1KV1153/1","vrsta":"podzemna","vodic":"XHE 49-A 3x(1x150/25), 20 kV","izvod":"4TS11-1SNI5,"},"geometry":{"type":"LineString","coordinates":[[16.490569,43.529193],[16.490561,43.529195],[16.490557,43.5292],[16.490553,43.529206],[16.490556,43.529212],[16.490558,43.529216],[16.490559,43.529221],[16.49056,43.529226],[16.490559,43.529231],[16.490556,43.529336],[16.490554,43.529341],[16.490548,43.529344],[16.490541,43.529346],[16.490534,43.529345],[16.490526,43.529344],[16.49052,43.529348],[16.490514,43.529351],[16.490512,43.529357],[16.490505,43.529423],[16.490506,43.529452],[16.490506,43.529452],[16.490507,43.529453],[16.490508,43.529453],[16.490522,43.529452]]}},{"type":"Feature","properties":{"vod":"1KV342","oznaka":"1KV342/6","vrsta":"podzemna","vodic":"XHP 81-A 3x150/25, 10 kV","izvod":"4TS11-1SNI5,"},"geometry":{"type":"LineString","coordinates":[[16.490569,43.529191],[16.49056,43.529193],[16.490555,43.529199],[16.490551,43.529205],[16.490554,43.529212],[16.490556,43.529217],[16.490556,43.529222],[16.490557,43.529226],[16.490557,43.529231],[16.490553,43.529336],[16.490552,43.529341],[16.490546,43.529343],[16.490541,43.529345],[16.490535,43.529344],[16.490526,43.529343],[16.490519,43.529346],[16.490512,43.52935],[16.49051,43.529356],[16.490503,43.529423],[16.490503,43.529452]]}},{"type":"Feature","properties":{"vod":"1KV402","oznaka":"1KV402/1","vrsta":"podzemna","vodic":"XHP 81-A 3x150/25, 10 kV","izvod":"4TS11-1SNI2,"},"geometry":{"type":"LineString","coordinates":[[16.496911,43.525345],[16.496944,43.525346],[16.496992,43.525348],[16.497089,43.52535],[16.49716,43.525353],[16.49724,43.525357],[16.497315,43.525358],[16.497326,43.525358],[16.49733,43.525359],[16.497332,43.525362],[16.497325,43.525455],[16.497328,43.525534],[16.497328,43.525616],[16.497323,43.525744],[16.497323,43.525818],[16.49733,43.52589],[16.497346,43.525923],[16.497356,43.525953],[16.497377,43.525981],[16.497437,43.526015],[16.497473,43.526024],[16.497581,43.526032],[16.497684,43.526032],[16.497794,43.526034],[16.497933,43.526036],[16.497945,43.526036],[16.497951,43.526038],[16.497954,43.526042],[16.497955,43.52607],[16.497954,43.526098],[16.497954,43.526102],[16.497932,43.52613],[16.497935,43.526175],[16.497937,43.526192],[16.497941,43.526229],[16.497944,43.526236],[16.497951,43.526236],[16.498001,43.526229],[16.498044,43.526221],[16.498117,43.526216],[16.498207,43.526203],[16.498215,43.526203],[16.498219,43.526205],[16.498236,43.526219],[16.498264,43.526237],[16.498266,43.526242],[16.498264,43.526257],[16.498266,43.526307],[16.498261,43.526369],[16.498256,43.526444],[16.498255,43.526507],[16.498254,43.526583],[16.498255,43.52662],[16.498256,43.526624],[16.498259,43.526626],[16.498264,43.526628],[16.498283,43.526633],[16.498353,43.52664],[16.498383,43.526642],[16.498426,43.526645],[16.498455,43.526652],[16.498465,43.526658],[16.498469,43.526667]]}},{"type":"Feature","properties":{"vod":"1KV733","oznaka":"1KV733/7","vrsta":"podzemna","vodic":"XHP 81-A 3x150/25, 10 kV","izvod":"4TS11-1SNI2,"},"geometry":{"type":"LineString","coordinates":[[16.496844,43.525333],[16.496128,43.525317],[16.496107,43.525317],[16.496103,43.525317],[16.496097,43.525316],[16.496092,43.525316],[16.496085,43.525314],[16.496079,43.525312],[16.496073,43.52531],[16.496068,43.525307],[16.496062,43.525304],[16.49606,43.525303],[16.496059,43.525302],[16.496057,43.525301],[16.496056,43.5253],[16.495989,43.525229],[16.495989,43.525229],[16.495989,43.525229],[16.495989,43.525229],[16.495988,43.525229],[16.495947,43.52519],[16.49582,43.525056],[16.495761,43.524982],[16.495716,43.524904],[16.495712,43.524901],[16.495707,43.524901],[16.495699,43.524903],[16.495663,43.524916],[16.495632,43.524924],[16.49559,43.524929],[16.495556,43.524931],[16.495523,43.52493],[16.495506,43.524931],[16.495441,43.524929],[16.495423,43.524928],[16.495378,43.524927],[16.495329,43.524926],[16.495281,43.524925],[16.495236,43.524926],[16.49519,43.524929],[16.495141,43.524933],[16.495096,43.524938],[16.495071,43.52494],[16.495042,43.524944],[16.495022,43.524945],[16.494921,43.524937],[16.494908,43.524901],[16.494931,43.524806],[16.494955,43.524765],[16.494973,43.524711],[16.49499,43.524655],[16.495006,43.524588],[16.495025,43.524521],[16.495029,43.524501],[16.495046,43.52443],[16.495064,43.524361],[16.495086,43.524308],[16.495101,43.524264],[16.495135,43.524201],[16.495165,43.524157],[16.495198,43.52408],[16.495212,43.524001],[16.495205,43.523942],[16.495274,43.52383],[16.49531,43.523733],[16.495348,43.523656],[16.495346,43.523589],[16.49534,43.523531],[16.495341,43.523463],[16.495354,43.523398],[16.495385,43.523334],[16.495425,43.523258],[16.495449,43.523208],[16.495494,43.523079],[16.495517,43.523011],[16.495552,43.522907],[16.495555,43.522861],[16.495562,43.522815],[16.495572,43.522756],[16.495547,43.522676],[16.495538,43.522661],[16.495512,43.522635],[16.495497,43.522618],[16.495474,43.522597],[16.495448,43.522562],[16.495445,43.522558],[16.495441,43.522541]]}},{"type":"Feature","properties":{"vod":"1KV740","oznaka":"1KV740/2","vrsta":"podzemna","vodic":"XHP 81-A 3x150/25, 10 kV","izvod":"4TS11-1SNI2,"},"geometry":{"type":"LineString","coordinates":[[16.488788,43.529977],[16.48874,43.530062],[16.48864,43.530251],[16.488553890821716,43.53040109856765]]}},{"type":"Feature","properties":{"vod":"1KV3765","oznaka":"1KV3765/2","vrsta":"podzemna","vodic":"XHE 49-A 3x(1x185/25), 20 kV","izvod":"4TS11-1SNI2,"},"geometry":{"type":"LineString","coordinates":[[16.501311,43.520711],[16.501345,43.520703],[16.501387,43.52069],[16.501452,43.520674],[16.501514,43.520657],[16.501573,43.520642],[16.501627,43.520631],[16.501679,43.520619],[16.501735,43.520609],[16.50178,43.520601],[16.501828,43.520593],[16.501867,43.520588],[16.501889,43.520585],[16.501923,43.520581],[16.501987,43.520573],[16.50204,43.520567],[16.502105,43.52056],[16.502163,43.520554],[16.502215,43.520551],[16.502281,43.520548],[16.502341,43.520547],[16.502401,43.520547],[16.502461,43.52055],[16.502524,43.520553],[16.502586,43.520557],[16.502649,43.520562],[16.502705,43.520569],[16.502735,43.520574],[16.502801,43.520584],[16.502866,43.520593],[16.50293,43.520601],[16.50299,43.520608],[16.503042,43.520615],[16.503104,43.520623],[16.503152,43.520628],[16.503194,43.520629],[16.503238,43.520629],[16.503266,43.520628],[16.50328,43.520625],[16.503326,43.520627],[16.503387,43.520629],[16.503448,43.52063],[16.503515,43.52063],[16.503569,43.52063],[16.503627,43.520629],[16.503688,43.520628],[16.503747,43.520626],[16.503805,43.520623],[16.503862,43.520619],[16.503924,43.520614],[16.503984,43.520609],[16.504035,43.520603],[16.504093,43.520597],[16.504145,43.520589],[16.504194,43.520582],[16.50425,43.520572],[16.504303,43.520562],[16.504358,43.520549],[16.504414,43.520537],[16.504457,43.520528]]}},{"type":"Feature","properties":{"vod":"1KV655","oznaka":"1KV655/1","vrsta":"podzemna","vodic":"EPHP 81-A 3x150, 10 kV","izvod":"4TS11-1SNI54,"},"geometry":{"type":"LineString","coordinates":[[16.492959,43.522789],[16.492934,43.522743],[16.492919,43.522685],[16.492857,43.522461],[16.492852,43.522443],[16.492845,43.522427],[16.492934,43.522398],[16.492978,43.522399]]}},{"type":"Feature","properties":{"vod":"KARABAŠ 3 - DRAČEVAC 4","oznaka":"1KV404/1","vrsta":"podzemna","vodic":"XHE 49-A 3x(1x185/25), 20 kV","izvod":"4TS11-1SNI2,"},"geometry":{"type":"LineString","coordinates":[[16.499913,43.529115],[16.499907,43.52912],[16.499751,43.529092],[16.499663,43.529102],[16.499284,43.52914],[16.498967,43.529157],[16.498961,43.528968]]}},{"type":"Feature","properties":{"vod":"1KV1110","oznaka":"1KV1110/2","vrsta":"podzemna","vodic":"XHE 49-A 3x(1x185/25), 20 kV","izvod":"4TS11-1SNI2,"},"geometry":{"type":"LineString","coordinates":[[16.497956,43.5241],[16.497943,43.524105],[16.497914,43.524118],[16.497891,43.524127],[16.497874,43.524134],[16.49785,43.524142],[16.497827,43.524153],[16.497804,43.524165],[16.497773,43.524176],[16.497741,43.524188],[16.497716,43.524197],[16.497698,43.524205],[16.497695,43.524208],[16.497664,43.524249],[16.497658,43.524253],[16.497631,43.524262],[16.497587,43.524277],[16.49754,43.524293],[16.497491,43.52431],[16.497446,43.524324],[16.49743,43.524331],[16.497391,43.524343],[16.497347,43.524359],[16.497287,43.52438],[16.497233,43.524398],[16.497182,43.524415],[16.497168,43.524419],[16.497135,43.524431],[16.497117,43.524437],[16.49709,43.524447],[16.49706,43.524456],[16.497048,43.52446],[16.49704,43.524463],[16.49703,43.524468],[16.497026,43.524469]]}},{"type":"Feature","properties":{"vod":"ODCJEP DALMASTROJ","oznaka":"1DV221/12","vrsta":"podzemna","vodic":"IPO 13 3x70, 10 kV","izvod":"4TS11-1SNI2,"},"geometry":{"type":"LineString","coordinates":[[16.49328,43.522327],[16.493362,43.522269],[16.493345,43.52223],[16.493292,43.522142],[16.493055,43.521665],[16.493033,43.521658],[16.492989,43.521649],[16.492904,43.521653],[16.492419,43.521772],[16.492416,43.521794]]}},{"type":"Feature","properties":{"vod":"3KV9002","oznaka":"3KV9002/2","vrsta":"podzemna","vodic":"XHE 49-A 3x(1x185/25), 35 kV"},"geometry":{"type":"LineString","coordinates":[[16.501294,43.528501],[16.501281,43.528445]]}},{"type":"Feature","properties":{"vod":"3KV9002","oznaka":"3KV9002/2","vrsta":"podzemna","vodic":"XHE 49-A 3x(1x185/25), 35 kV"},"geometry":{"type":"LineString","coordinates":[[16.501281,43.528445],[16.501269,43.528394],[16.501471,43.528354],[16.501644,43.528323],[16.501828,43.528304],[16.501998,43.528295],[16.502019,43.528296]]}},{"type":"Feature","properties":{"vod":"3KV9002","oznaka":"3KV9002/2","vrsta":"podzemna","vodic":"XHE 49-A 3x(1x185/25), 35 kV"},"geometry":{"type":"LineString","coordinates":[[16.502019,43.528296],[16.502186,43.528299],[16.502326,43.528311],[16.502497,43.528335],[16.502729,43.528378],[16.50285,43.528417],[16.503051,43.528478],[16.503106,43.528505],[16.503128,43.528517],[16.503151,43.52852],[16.503253,43.528514],[16.503336,43.528515],[16.503493,43.528528],[16.503684,43.528548],[16.503832,43.528592],[16.503866,43.528597],[16.503892,43.52859],[16.503944,43.528559],[16.503962,43.528545],[16.504322,43.528601],[16.504341,43.528607],[16.504372,43.5286],[16.504441,43.528564],[16.505764,43.528741],[16.506361,43.528833],[16.507357,43.528988],[16.508068,43.529105],[16.508215,43.529134],[16.508637,43.52921],[16.50902,43.529317],[16.509382,43.529442],[16.509724,43.529589],[16.510048,43.529761],[16.510352,43.529957],[16.510626,43.530168],[16.51079,43.530316],[16.510861,43.530386],[16.51087484035368,43.53040109856765]]}},{"type":"Feature","properties":{"vod":"3KV9","oznaka":"3KV9/5","vrsta":"podzemna","vodic":"XHP 48 3x(1x185/25), 35 kV"},"geometry":{"type":"LineString","coordinates":[[16.494693372524846,43.53040109856765],[16.494715,43.530346],[16.494743,43.530342],[16.495189,43.530306],[16.495326,43.530294],[16.495356,43.530292],[16.495382,43.53029],[16.495425,43.530286],[16.495449,43.530284],[16.49545,43.530282],[16.495447,43.530271],[16.495444,43.530258],[16.495441,43.530245],[16.495438,43.530233],[16.495434,43.530222],[16.49543,43.530206],[16.495425,43.530186],[16.495421,43.530174],[16.495414,43.530148],[16.495409,43.53013],[16.495405,43.530112],[16.495397,43.530084],[16.49539,43.530057],[16.495386,43.530045],[16.495382,43.530034],[16.49538,43.530023],[16.495377,43.530012],[16.495371,43.52999],[16.495364,43.52996],[16.495362,43.529955],[16.495353,43.529935],[16.495344,43.529918],[16.495329,43.529891],[16.495305,43.529796],[16.495268,43.529671],[16.495225,43.529543],[16.495225,43.529523],[16.495232,43.529483],[16.49526,43.529338],[16.495323,43.529265],[16.495361,43.529201],[16.495481,43.529122]]}},{"type":"Feature","properties":{"vod":"3KV9","oznaka":"3KV9/5","vrsta":"podzemna","vodic":"XHP 48 3x(1x185/25), 35 kV"},"geometry":{"type":"LineString","coordinates":[[16.495481,43.529122],[16.495521,43.529096],[16.495837,43.529043],[16.496058,43.529015],[16.496147,43.529006],[16.496182,43.528994],[16.496448,43.528974],[16.496569,43.52895],[16.496685,43.528937],[16.496999,43.528904],[16.497374,43.528879],[16.497502,43.528871],[16.497578,43.528883],[16.49776,43.528885],[16.498036,43.528887],[16.498097,43.528885],[16.498104,43.528885],[16.498171,43.528883],[16.498559,43.52888],[16.498882,43.528873],[16.499285,43.528848]]}},{"type":"Feature","properties":{"vod":"3KV9","oznaka":"3KV9/5","vrsta":"podzemna","vodic":"XHP 48 3x(1x185/25), 35 kV"},"geometry":{"type":"LineString","coordinates":[[16.499285,43.528848],[16.499341,43.528844],[16.499462,43.528817],[16.49949,43.52881],[16.499536,43.52881],[16.499614,43.528781]]}},{"type":"Feature","properties":{"vod":"3KV9","oznaka":"3KV9/5","vrsta":"podzemna","vodic":"XHP 48 3x(1x185/25), 35 kV"},"geometry":{"type":"LineString","coordinates":[[16.499614,43.528781],[16.499639,43.528772],[16.49987,43.528719],[16.500279,43.52864],[16.500288,43.528645]]}},{"type":"Feature","properties":{"vod":"3KV9","oznaka":"3KV9/5","vrsta":"podzemna","vodic":"XHP 48 3x(1x185/25), 35 kV"},"geometry":{"type":"LineString","coordinates":[[16.500288,43.528645],[16.500315,43.528689],[16.500319,43.528702],[16.500328,43.528726],[16.5007,43.528885],[16.5007,43.528901],[16.500693,43.528929],[16.500685,43.528935],[16.500675,43.528951],[16.500666,43.528974],[16.500654,43.528997],[16.500645,43.529017],[16.50064,43.529038],[16.500643,43.529057],[16.500649,43.529066]]}},{"type":"Feature","properties":{"vod":"3KV24","oznaka":"3KV24/7","vrsta":"podzemna","vodic":"XHP 48 3x(1x185/25), 35 kV"},"geometry":{"type":"LineString","coordinates":[[16.494690980001483,43.53040109856765],[16.494713,43.530345],[16.49474,43.530341],[16.495448,43.530281],[16.495446,43.530273],[16.495428,43.530206],[16.495404,43.530117],[16.495393,43.530079],[16.49538,43.530029],[16.495375,43.53001],[16.495368,43.529985],[16.495361,43.529957],[16.495327,43.529892],[16.495303,43.529796],[16.495266,43.529671],[16.495223,43.529543],[16.495222,43.529523],[16.49523,43.529483],[16.495258,43.529337],[16.495321,43.529264],[16.495359,43.5292],[16.495476,43.529123]]}},{"type":"Feature","properties":{"vod":"3KV24","oznaka":"3KV24/7","vrsta":"podzemna","vodic":"XHP 48 3x(1x185/25), 35 kV"},"geometry":{"type":"LineString","coordinates":[[16.495476,43.529123],[16.49552,43.529094],[16.495836,43.529041],[16.496057,43.529013],[16.496147,43.529005],[16.496181,43.528993],[16.496448,43.528972],[16.496568,43.528948],[16.496685,43.528935],[16.496999,43.528902],[16.497373,43.528878],[16.497502,43.528869],[16.497578,43.528881],[16.49776,43.528884],[16.498036,43.528885],[16.498097,43.528883],[16.498104,43.528883],[16.498171,43.528881],[16.498559,43.528878],[16.498882,43.528871],[16.499298,43.528845]]}},{"type":"Feature","properties":{"vod":"3KV24","oznaka":"3KV24/7","vrsta":"podzemna","vodic":"XHP 48 3x(1x185/25), 35 kV"},"geometry":{"type":"LineString","coordinates":[[16.499298,43.528845],[16.499341,43.528842],[16.499461,43.528816],[16.49949,43.528809],[16.499535,43.528808],[16.499601,43.528784]]}},{"type":"Feature","properties":{"vod":"3KV24","oznaka":"3KV24/7","vrsta":"podzemna","vodic":"XHP 48 3x(1x185/25), 35 kV"},"geometry":{"type":"LineString","coordinates":[[16.499601,43.528784],[16.499638,43.52877],[16.49987,43.528718],[16.50028,43.528638],[16.50029,43.528644],[16.50029,43.528645]]}},{"type":"Feature","properties":{"vod":"3KV24","oznaka":"3KV24/7","vrsta":"podzemna","vodic":"XHP 48 3x(1x185/25), 35 kV"},"geometry":{"type":"LineString","coordinates":[[16.50029,43.528645],[16.500317,43.528689],[16.500322,43.528701],[16.50033,43.528725],[16.500702,43.528884],[16.500702,43.52889],[16.500702,43.528901],[16.500695,43.528929],[16.500686,43.528936],[16.500677,43.528951],[16.500668,43.528974],[16.500655,43.528997],[16.500647,43.529017],[16.500642,43.529038],[16.500645,43.529056],[16.500651,43.529066]]}},{"type":"Feature","properties":{"vod":"ZATVOR - KARABAŠ 3","oznaka":"1KV2142/1","vrsta":"podzemna","vodic":"XHP 81-A 3x150/25, 10 kV","izvod":"4TS11-1SNI2,"},"geometry":{"type":"LineString","coordinates":[[16.498118,43.52862],[16.498103,43.528853],[16.498103,43.528855],[16.498103,43.528859],[16.498097,43.528883],[16.498097,43.528885],[16.498096,43.528886],[16.498082,43.528916],[16.498078,43.528931],[16.498076,43.528937]]}},{"type":"Feature","properties":{"vod":"ZATVOR - KARABAŠ 3","oznaka":"1KV2142/1","vrsta":"podzemna","vodic":"XHP 81-A 3x150/25, 10 kV","izvod":"4TS11-1SNI2,"},"geometry":{"type":"LineString","coordinates":[[16.498076,43.528937],[16.498076,43.528938],[16.498073,43.528948],[16.498081,43.528955],[16.49842,43.528963],[16.498477,43.528963],[16.49854,43.528963],[16.498594,43.528962],[16.498628,43.528963],[16.498651,43.528963],[16.498722,43.528956],[16.49882,43.528949],[16.498926,43.528949],[16.498953,43.528948]]}},{"type":"Feature","properties":{"vod":"1KV740","oznaka":"1KV740/5","vrsta":"podzemna","vodic":"XHP 81-A 3x150/25, 10 kV","izvod":"4TS11-1SNI2,"},"geometry":{"type":"LineString","coordinates":[[16.498092,43.528629],[16.498103,43.528859],[16.498104,43.528883],[16.498104,43.528885],[16.498104,43.528889],[16.498078,43.528931],[16.498074,43.528937]]}},{"type":"Feature","properties":{"vod":"1KV740","oznaka":"1KV740/5","vrsta":"podzemna","vodic":"XHP 81-A 3x150/25, 10 kV","izvod":"4TS11-1SNI2,"},"geometry":{"type":"LineString","coordinates":[[16.498074,43.528937],[16.498071,43.528942],[16.498059,43.528953],[16.497889,43.528955],[16.497793,43.528955],[16.497633,43.528954],[16.497509,43.528955],[16.497305,43.528958],[16.497074,43.528974],[16.496881,43.528992],[16.496688,43.529015],[16.496475,43.529041],[16.496404,43.529051],[16.49611,43.52909],[16.495913,43.529117],[16.4957,43.529146],[16.495604,43.529168],[16.495546,43.529201],[16.495489,43.529258],[16.495456,43.529293],[16.495376,43.5294],[16.495338,43.529508],[16.495347,43.529573],[16.49537,43.529664],[16.495403,43.529793],[16.495394,43.529823]]}},{"type":"Feature","properties":{"vod":"KARABAŠ 3 - DRAČEVAC 4","oznaka":"1KV404/2","vrsta":"podzemna","vodic":"XHP 81-A 3x150/25, 10 kV","izvod":"4TS11-1SNI2,"},"geometry":{"type":"LineString","coordinates":[[16.500965,43.527491],[16.500961,43.527495],[16.500957,43.527499],[16.500952,43.527504],[16.500948,43.527509],[16.500946,43.527514],[16.500946,43.527517],[16.500965,43.527543],[16.500978,43.527564],[16.500982,43.52757],[16.500982,43.527573],[16.500978,43.527577],[16.5009,43.527614],[16.500879,43.527628],[16.500875,43.527631],[16.500873,43.527634],[16.500873,43.527642],[16.500906,43.527692],[16.500934,43.527754],[16.500956,43.527889],[16.500954,43.527909],[16.500936,43.528088],[16.500933,43.528102],[16.50093,43.528118],[16.500916,43.528223],[16.500884,43.52828],[16.500874,43.528296],[16.500865,43.52831],[16.500858,43.52832],[16.500848,43.52834],[16.500839,43.528353],[16.500827,43.528363],[16.500814,43.528372],[16.5008,43.528391],[16.500767,43.528423],[16.50076,43.528437],[16.500745,43.528455],[16.500737,43.528461],[16.500728,43.528479],[16.500714,43.528508],[16.5007,43.528532],[16.500692,43.528542],[16.500681,43.528546],[16.500669,43.528568]]}},{"type":"Feature","properties":{"vod":"KARABAŠ 3 - DRAČEVAC 4","oznaka":"1KV404/2","vrsta":"podzemna","vodic":"XHP 81-A 3x150/25, 10 kV","izvod":"4TS11-1SNI2,"},"geometry":{"type":"LineString","coordinates":[[16.500669,43.528568],[16.500666,43.528574],[16.500665,43.528607],[16.500666,43.52862],[16.500657,43.528635],[16.500644,43.528643],[16.500631,43.528645],[16.500612,43.528649],[16.50058,43.528649],[16.500526,43.528659],[16.500452,43.528674],[16.500408,43.528681],[16.500357,43.528691],[16.500322,43.528701],[16.500319,43.528702],[16.500312,43.528703],[16.500277,43.528711],[16.500239,43.528723],[16.500202,43.528736],[16.500171,43.528745],[16.500134,43.528749],[16.500093,43.528757],[16.500024,43.528775],[16.499916,43.528799],[16.499814,43.528817],[16.499745,43.528832],[16.499697,43.528843],[16.499607,43.528864],[16.499552,43.528873],[16.499451,43.528893],[16.499389,43.528905],[16.499304,43.528915],[16.499251,43.528923],[16.499214,43.528931],[16.499096,43.528944],[16.49902,43.528952],[16.498972,43.528947],[16.49896,43.528948]]}},{"type":"Feature","properties":{"vod":"1KV3766","oznaka":"1KV3766/5","vrsta":"podzemna","vodic":"XHE 49-A 3x(1x185/25), 20 kV"},"geometry":{"type":"LineString","coordinates":[[16.506247,43.521096],[16.506245,43.521096],[16.506234,43.521094],[16.506218,43.521092],[16.506214,43.521089]]}},{"type":"Feature","properties":{"vod":"1KV3766","oznaka":"1KV3766/5","vrsta":"podzemna","vodic":"XHE 49-A 3x(1x185/25), 20 kV"},"geometry":{"type":"LineString","coordinates":[[16.506214,43.521089],[16.506212,43.521088],[16.506208,43.521081],[16.506209,43.521071],[16.50622,43.52104],[16.50623,43.521003],[16.506241,43.520966],[16.506251,43.520931],[16.506259,43.5209],[16.506264,43.520877],[16.506271,43.520856],[16.506283,43.520834],[16.506295,43.520816],[16.506308,43.520803],[16.506312,43.520798],[16.506312,43.520793],[16.50628,43.52075],[16.506276,43.520748],[16.506269,43.520748],[16.506243,43.520753],[16.506207,43.520757],[16.506181,43.520761],[16.506146,43.520762],[16.506108,43.520758],[16.506076,43.520751],[16.506033,43.520737],[16.505979,43.52072],[16.505927,43.520703],[16.505869,43.520684],[16.505809,43.520665],[16.505757,43.520648],[16.505706,43.520631],[16.505651,43.520613],[16.505596,43.520596],[16.505537,43.520577],[16.505475,43.520555],[16.505441,43.520543],[16.505395,43.520524],[16.505349,43.520508],[16.505292,43.52049],[16.505242,43.520475],[16.505194,43.520462],[16.505146,43.520451],[16.505107,43.520443],[16.50506,43.520438],[16.505006,43.520438],[16.504958,43.52044],[16.504901,43.520448],[16.504845,43.520458],[16.504787,43.520467],[16.504727,43.520478],[16.504665,43.520488],[16.504614,43.520497],[16.50455,43.520509],[16.504498,43.520519],[16.504456,43.520527]]}},{"type":"Feature","properties":{"vod":"1KV3765","oznaka":"1KV3765/5","vrsta":"podzemna","vodic":"XHE 49-A 3x(1x185/25), 20 kV","izvod":"4TS11-1SNI2,"},"geometry":{"type":"LineString","coordinates":[[16.506246,43.521098],[16.506244,43.521097],[16.506233,43.521095],[16.506218,43.521093],[16.506214,43.52109]]}},{"type":"Feature","properties":{"vod":"1KV3765","oznaka":"1KV3765/5","vrsta":"podzemna","vodic":"XHE 49-A 3x(1x185/25), 20 kV","izvod":"4TS11-1SNI2,"},"geometry":{"type":"LineString","coordinates":[[16.506214,43.52109],[16.50621,43.521089],[16.506206,43.521082],[16.506207,43.521071],[16.506218,43.521039],[16.506228,43.521003],[16.50624,43.520966],[16.506249,43.520931],[16.506257,43.5209],[16.506262,43.520876],[16.50627,43.520855],[16.506281,43.520833],[16.506293,43.520815],[16.506306,43.520802],[16.506311,43.520797],[16.50631,43.520794],[16.506279,43.520751],[16.506275,43.520749],[16.50627,43.520749],[16.506243,43.520754],[16.506208,43.520759],[16.506181,43.520762],[16.506146,43.520763],[16.506108,43.520759],[16.506075,43.520753],[16.506032,43.520738],[16.505978,43.520721],[16.505927,43.520704],[16.505868,43.520685],[16.505809,43.520666],[16.505756,43.520649],[16.505705,43.520632],[16.50565,43.520614],[16.505596,43.520597],[16.505537,43.520578],[16.505474,43.520557],[16.50544,43.520544],[16.505394,43.520526],[16.505348,43.520509],[16.505291,43.520491],[16.505242,43.520476],[16.505193,43.520463],[16.505145,43.520452],[16.505107,43.520444],[16.50506,43.520439],[16.505006,43.520439],[16.504959,43.520441],[16.504901,43.52045],[16.504845,43.520459],[16.504788,43.520469],[16.504727,43.52048],[16.504666,43.52049],[16.504615,43.520499],[16.50455,43.52051],[16.504499,43.52052],[16.504457,43.520528]]}},{"type":"Feature","properties":{"vod":"1KV1105","oznaka":"1KV1105/1","vrsta":"podzemna","vodic":"IPO 13 3x95, 10 kV","izvod":"4TS11-1SNI54,"},"geometry":{"type":"LineString","coordinates":[[16.486975858925536,43.52557554668738],[16.487033,43.525572],[16.487971,43.525366],[16.488006,43.525358],[16.488664,43.524975],[16.488693,43.524945]]}},{"type":"Feature","properties":{"vod":"1KV1105","oznaka":"1KV1105/1","vrsta":"podzemna","vodic":"IPO 13 3x95, 10 kV","izvod":"4TS11-1SNI54,"},"geometry":{"type":"LineString","coordinates":[[16.488693,43.524945],[16.488697,43.524941],[16.488743,43.524907],[16.48877,43.52485]]}},{"type":"Feature","properties":{"vod":"1KV1050","oznaka":"1KV1050/1","vrsta":"podzemna","vodic":"XHE 49-A 3x(1x150/25), 20 kV"},"geometry":{"type":"LineString","coordinates":[[16.486975858925536,43.52514221388056],[16.487078,43.525119],[16.487288,43.525078],[16.487292,43.525077],[16.487304,43.525066],[16.48732,43.525062],[16.487338,43.525065],[16.48744,43.525047],[16.487505,43.525015],[16.48755,43.524989],[16.487599,43.524954],[16.487663,43.524892],[16.487697,43.524844],[16.487743,43.524761],[16.487779,43.52471],[16.487843,43.52464],[16.487909,43.524575],[16.487985,43.524512],[16.488023,43.524484],[16.488066,43.524453]]}},{"type":"Feature","properties":{"vod":"1KV1050","oznaka":"1KV1050/1","vrsta":"podzemna","vodic":"XHE 49-A 3x(1x150/25), 20 kV"},"geometry":{"type":"LineString","coordinates":[[16.488066,43.524453],[16.48808,43.524443],[16.488203,43.524341],[16.488259,43.524311],[16.488329,43.524287],[16.488412,43.524265],[16.488503,43.524245],[16.488571,43.524231],[16.488606,43.524231],[16.488755,43.524208],[16.488776,43.524201],[16.488786,43.524198],[16.488815,43.524197],[16.488913,43.524186],[16.489066,43.524169],[16.489199,43.524158],[16.489267,43.524135],[16.489453,43.524079],[16.489599,43.524043],[16.489679,43.524024],[16.489763,43.523998],[16.489838,43.523964],[16.489893,43.523933],[16.48994,43.523897],[16.489985,43.523854],[16.49003,43.523812],[16.490079,43.523769],[16.490132,43.523728],[16.490177,43.523703],[16.490236,43.523688],[16.490313,43.523682],[16.490427,43.523667],[16.490564,43.523647],[16.490659,43.523629],[16.490776,43.523602],[16.490808,43.523595],[16.49081,43.523598]]}},{"type":"Feature","properties":{"vod":"1KV740","oznaka":"1KV740/1","vrsta":"podzemna","vodic":"XHE 49-A 3x(1x150/25), 20 kV","izvod":"4TS11-1SNI2,"},"geometry":{"type":"LineString","coordinates":[[16.491114,43.526522],[16.491019,43.526563],[16.490992,43.526579],[16.490833,43.526766],[16.490737,43.526873],[16.490375,43.527002],[16.490302,43.527041],[16.490267,43.527049]]}},{"type":"Feature","properties":{"vod":"1KV740","oznaka":"1KV740/1","vrsta":"podzemna","vodic":"XHE 49-A 3x(1x150/25), 20 kV","izvod":"4TS11-1SNI2,"},"geometry":{"type":"LineString","coordinates":[[16.490267,43.527049],[16.490154,43.527075],[16.490137,43.527102],[16.490086,43.5272],[16.489997,43.527309],[16.489916,43.527444],[16.489894,43.527484],[16.489871,43.527544],[16.489851,43.527625],[16.489836,43.527667],[16.489819,43.527695],[16.489821,43.527789],[16.489853,43.527918],[16.489874,43.528048],[16.489873,43.52817],[16.489759,43.528434],[16.489647,43.528624],[16.489378,43.529004],[16.48923,43.529233],[16.489208,43.529267]]}},{"type":"Feature","properties":{"vod":"1KV740","oznaka":"1KV740/1","vrsta":"podzemna","vodic":"XHE 49-A 3x(1x150/25), 20 kV","izvod":"4TS11-1SNI2,"},"geometry":{"type":"LineString","coordinates":[[16.489208,43.529267],[16.489184,43.529302],[16.489126,43.529399],[16.489059,43.529507],[16.488998,43.5296],[16.488936,43.529698],[16.488834,43.529895],[16.488818,43.529924],[16.488803,43.52995],[16.488788,43.529977]]}},{"type":"Feature","properties":{"vod":"1KV343","oznaka":"1KV343/6","vrsta":"podzemna","vodic":"XHP 81-A 3x150/25, 10 kV","izvod":"4TS11-1SNI2,"},"geometry":{"type":"LineString","coordinates":[[16.48855293430754,43.53040109856765],[16.488639,43.530251],[16.488739,43.530061],[16.488824,43.529911],[16.488935,43.529698],[16.488996,43.5296],[16.489058,43.529507],[16.489124,43.529398],[16.489183,43.529302],[16.489206,43.529267]]}},{"type":"Feature","properties":{"vod":"1KV343","oznaka":"1KV343/6","vrsta":"podzemna","vodic":"XHP 81-A 3x150/25, 10 kV","izvod":"4TS11-1SNI2,"},"geometry":{"type":"LineString","coordinates":[[16.489206,43.529267],[16.489229,43.529233],[16.489377,43.529004],[16.489646,43.528624],[16.489757,43.528433],[16.489872,43.52817],[16.489873,43.528048],[16.489852,43.527919],[16.489819,43.527789],[16.489817,43.527695],[16.489835,43.527667],[16.48985,43.527625],[16.48987,43.527544],[16.489893,43.527483],[16.489914,43.527443],[16.489996,43.527309],[16.490085,43.527199],[16.490136,43.527102],[16.490153,43.527074],[16.490267,43.527048]]}},{"type":"Feature","properties":{"vod":"1KV343","oznaka":"1KV343/6","vrsta":"podzemna","vodic":"XHP 81-A 3x150/25, 10 kV","izvod":"4TS11-1SNI2,"},"geometry":{"type":"LineString","coordinates":[[16.490267,43.527048],[16.490301,43.52704],[16.490374,43.527001],[16.490736,43.526872],[16.490832,43.526765],[16.490991,43.526578],[16.491018,43.526562],[16.49111,43.526519]]}},{"type":"Feature","properties":{"vod":"1KV780","oznaka":"1KV780/1","vrsta":"podzemna","vodic":"XHP 81-A 3x150/25, 10 kV","izvod":"4TS11-1SNI44,"},"geometry":{"type":"LineString","coordinates":[[16.488934,43.529126],[16.488935,43.529104],[16.488935,43.529103],[16.488935,43.529102],[16.488935,43.529101],[16.488936,43.5291],[16.488936,43.529099],[16.488937,43.529098],[16.488937,43.529097],[16.488938,43.529096],[16.488938,43.529096],[16.488939,43.529095],[16.48894,43.529094],[16.488941,43.529093],[16.488942,43.529092],[16.488942,43.529092],[16.488943,43.529091],[16.488944,43.52909],[16.488946,43.52909],[16.488947,43.529089],[16.488948,43.529089],[16.488949,43.529088],[16.48895,43.529088],[16.488951,43.529088],[16.488953,43.529087],[16.488954,43.529087],[16.488955,43.529087],[16.488957,43.529087],[16.488958,43.529087],[16.488959,43.529087],[16.488961,43.529087],[16.489013,43.529088],[16.489014,43.529088],[16.489015,43.529088],[16.489017,43.529089],[16.489018,43.529089],[16.489019,43.529089],[16.48902,43.529089],[16.489022,43.52909],[16.489023,43.52909],[16.489024,43.529091],[16.489025,43.529091],[16.489026,43.529092],[16.489027,43.529092],[16.489028,43.529093],[16.489029,43.529094],[16.48903,43.529094],[16.489031,43.529095],[16.489032,43.529096],[16.489033,43.529097],[16.489033,43.529097],[16.489034,43.529098],[16.489034,43.529099],[16.489035,43.5291],[16.489035,43.529101],[16.489036,43.529102],[16.489036,43.529103],[16.489036,43.529104],[16.489036,43.529105],[16.489036,43.529106],[16.489036,43.529107],[16.489032,43.529203],[16.489032,43.529204],[16.489032,43.529205],[16.489032,43.529206],[16.489032,43.529207],[16.489032,43.529209],[16.489032,43.52921],[16.489032,43.529211],[16.489031,43.529212],[16.489031,43.529213],[16.489031,43.529214],[16.489031,43.529216],[16.48903,43.529217],[16.48903,43.529218],[16.48903,43.529219],[16.489029,43.52922],[16.489029,43.529221],[16.489029,43.529222],[16.489028,43.529224],[16.489028,43.529225],[16.489027,43.529226],[16.489027,43.529227],[16.489026,43.529228],[16.489026,43.529229],[16.489025,43.52923],[16.489025,43.529231],[16.489024,43.529233],[16.489024,43.529234],[16.489023,43.529235],[16.489022,43.529236],[16.48901,43.529257]]}},{"type":"Feature","properties":{"vod":"1KV780","oznaka":"1KV780/1","vrsta":"podzemna","vodic":"XHP 81-A 3x150/25, 10 kV","izvod":"4TS11-1SNI44,"},"geometry":{"type":"LineString","coordinates":[[16.48901,43.529257],[16.488904,43.529434],[16.4889,43.529441],[16.488895,43.529447],[16.48889,43.529454],[16.488885,43.52946],[16.488879,43.529466],[16.488873,43.529472],[16.488866,43.529478],[16.48886,43.529484],[16.488852,43.529489],[16.488845,43.529494],[16.488837,43.529499],[16.488829,43.529504],[16.488821,43.529509],[16.488812,43.529513],[16.488804,43.529517],[16.488795,43.529521],[16.488785,43.529524],[16.488776,43.529527],[16.488767,43.52953],[16.488757,43.529532],[16.488747,43.529535],[16.488737,43.529537],[16.488727,43.529538],[16.488717,43.52954],[16.488707,43.529541],[16.488696,43.529541],[16.488686,43.529542],[16.488676,43.529542],[16.488665,43.529542],[16.487994,43.529518],[16.487992,43.529518],[16.487991,43.529518],[16.48799,43.529518],[16.487988,43.529518],[16.487987,43.529518],[16.487986,43.529519],[16.487984,43.529519],[16.487983,43.529519],[16.487982,43.52952],[16.487981,43.52952],[16.48798,43.52952],[16.487979,43.529521],[16.487977,43.529522],[16.487976,43.529522],[16.487975,43.529523],[16.487974,43.529523],[16.487974,43.529524],[16.487973,43.529525],[16.487972,43.529526],[16.487971,43.529527],[16.487971,43.529527],[16.48797,43.529528],[16.487969,43.529529],[16.487969,43.52953],[16.487969,43.529531],[16.487968,43.529532],[16.487968,43.529533],[16.487968,43.529534],[16.487968,43.529535],[16.487966,43.529561]]}}]}