{"type":"FeatureCollection","name":"Energetika_2022_Visokonaponska_110_kV_i_220_kV___dionica","crs":{"type":"name","properties":{"name":"urn:ogc:def:crs:OGC:1.3:CRS84"}},"xy_coordinate_resolution":0.000001,"features":[{"type":"Feature","properties":{"vod":"D 196","oznaka":"4DV196/1","vrsta":"nadzemna","napon":"110 kV"},"geometry":{"type":"LineString","coordinates":[[16.501388,43.529242],[16.501573,43.529595],[16.501777,43.530204],[16.501789358891244,43.53040109856765]]}},{"type":"Feature","properties":{"vod":"D 179","oznaka":"4DV179/1","vrsta":"nadzemna","napon":"110 kV"},"geometry":{"type":"LineString","coordinates":[[16.487837,43.524273],[16.487736,43.524566],[16.486975858925536,43.52435659985028]]}},{"type":"Feature","properties":{"vod":"D 166","oznaka":"4DV166/1","vrsta":"nadzemna","napon":"110 kV"},"geometry":{"type":"LineString","coordinates":[[16.496603786039035,43.519470826252316],[16.496814,43.519583],[16.496658,43.52012],[16.493959,43.520999],[16.491614,43.521548],[16.490117,43.522761],[16.488056,43.523275],[16.487737,43.524194]]}},{"type":"Feature","properties":{"vod":"D 166","oznaka":"4DV166/1","vrsta":"nadzemna","napon":"110 kV"},"geometry":{"type":"LineString","coordinates":[[16.487737,43.524194],[16.48765,43.524446],[16.486975858925536,43.52426041806495]]}},{"type":"Feature","properties":{"vod":"D 1481","oznaka":"4DV1481/123","vrsta":"nadzemna","napon":"110 kV"},"geometry":{"type":"LineString","coordinates":[[16.510719679067627,43.53040109856765],[16.510898,43.526095],[16.50923,43.525325],[16.508995,43.525216]]}},{"type":"Feature","properties":{"vod":"D 1481","oznaka":"4DV1481/123","vrsta":"nadzemna","napon":"110 kV"},"geometry":{"type":"LineString","coordinates":[[16.508995,43.525216],[16.505548,43.523623],[16.500162691447667,43.519470826252316]]}},{"type":"Feature","properties":{"vod":"D 1471","oznaka":"4DV1471/1","vrsta":"nadzemna","napon":"110 kV"},"geometry":{"type":"LineString","coordinates":[[16.510592883845657,43.53040109856765],[16.510674,43.528451],[16.510772,43.526144],[16.509101,43.525378],[16.508895,43.525283]]}},{"type":"Feature","properties":{"vod":"D 1471","oznaka":"4DV1471/1","vrsta":"nadzemna","napon":"110 kV"},"geometry":{"type":"LineString","coordinates":[[16.508895,43.525283],[16.508725,43.525205],[16.505469,43.523693],[16.503265,43.521979],[16.500331,43.519723],[16.500002339478062,43.519470826252316]]}},{"type":"Feature","properties":{"vod":"D 119","oznaka":"4DV119/1","vrsta":"nadzemna","napon":"110 kV"},"geometry":{"type":"LineString","coordinates":[[16.501448,43.529253],[16.501575,43.528687],[16.501512,43.528398]]}},{"type":"Feature","properties":{"vod":"D 119","oznaka":"4DV119/1","vrsta":"nadzemna","napon":"110 kV"},"geometry":{"type":"LineString","coordinates":[[16.501512,43.528398],[16.501348,43.527643],[16.50055,43.525838],[16.499494,43.523449],[16.498576,43.521372],[16.497911,43.519869],[16.497050767917464,43.519470826252316]]}},{"type":"Feature","properties":{"vod":"D 179","oznaka":"4DV179/1","vrsta":"nadzemna","napon":"110 kV"},"geometry":{"type":"LineString","coordinates":[[16.501326,43.529238],[16.50145,43.528687],[16.501392,43.528422]]}},{"type":"Feature","properties":{"vod":"D 179","oznaka":"4DV179/1","vrsta":"nadzemna","napon":"110 kV"},"geometry":{"type":"LineString","coordinates":[[16.501392,43.528422],[16.501227,43.527664],[16.500432,43.525866],[16.499376,43.523477],[16.498458,43.5214],[16.497819,43.519955],[16.496734,43.520194],[16.494003,43.521083],[16.491684,43.521626],[16.490188,43.522838],[16.488159,43.523345],[16.487837,43.524273]]}},{"type":"Feature","properties":{"vod":"D 118","oznaka":"4DV118/2","vrsta":"nadzemna","napon":"110 kV"},"geometry":{"type":"LineString","coordinates":[[16.502625,43.528031],[16.507736,43.525937]]}},{"type":"Feature","properties":{"vod":"D 118","oznaka":"4DV118/2","vrsta":"nadzemna","napon":"110 kV"},"geometry":{"type":"LineString","coordinates":[[16.507736,43.525937],[16.509101,43.525378],[16.50923,43.525325],[16.511531842227498,43.52438169037006]]}}]}