{"type":"FeatureCollection","name":"Split_HT_nadzemne_trase","crs":{"type":"name","properties":{"name":"urn:ogc:def:crs:OGC:1.3:CRS84"}},"xy_coordinate_resolution":0.000001,"features":[{"type":"Feature","properties":{},"geometry":{"type":"LineString","coordinates":[[16.489789,43.526519],[16.490056,43.526733]]}},{"type":"Feature","properties":{},"geometry":{"type":"LineString","coordinates":[[16.489638,43.528183],[16.489761,43.527657]]}},{"type":"Feature","properties":{},"geometry":{"type":"LineString","coordinates":[[16.48701,43.524075],[16.486975858925536,43.52407043933213]]}},{"type":"Feature","properties":{},"geometry":{"type":"LineString","coordinates":[[16.491762,43.528888],[16.491792,43.528929]]}},{"type":"Feature","properties":{},"geometry":{"type":"LineString","coordinates":[[16.489951,43.526966],[16.489908,43.527318]]}},{"type":"Feature","properties":{},"geometry":{"type":"LineString","coordinates":[[16.489735,43.527513],[16.489811,43.527473]]}},{"type":"Feature","properties":{},"geometry":{"type":"LineString","coordinates":[[16.494175,43.529247],[16.493652,43.529312]]}},{"type":"Feature","properties":{},"geometry":{"type":"LineString","coordinates":[[16.489729,43.526501],[16.489789,43.526519]]}},{"type":"Feature","properties":{},"geometry":{"type":"LineString","coordinates":[[16.494198,43.528861],[16.494175,43.529247]]}},{"type":"Feature","properties":{},"geometry":{"type":"LineString","coordinates":[[16.493295,43.52918],[16.493373,43.529214]]}},{"type":"Feature","properties":{},"geometry":{"type":"LineString","coordinates":[[16.489229,43.528121],[16.489638,43.528183]]}},{"type":"Feature","properties":{},"geometry":{"type":"LineString","coordinates":[[16.493295,43.52918],[16.493244,43.529227]]}},{"type":"Feature","properties":{},"geometry":{"type":"LineString","coordinates":[[16.49247,43.529256],[16.492119,43.529295]]}},{"type":"Feature","properties":{},"geometry":{"type":"LineString","coordinates":[[16.494234,43.528824],[16.494198,43.528861]]}},{"type":"Feature","properties":{},"geometry":{"type":"LineString","coordinates":[[16.490056,43.526733],[16.489951,43.526966]]}},{"type":"Feature","properties":{},"geometry":{"type":"LineString","coordinates":[[16.489833,43.526663],[16.490056,43.526733]]}},{"type":"Feature","properties":{},"geometry":{"type":"LineString","coordinates":[[16.492612,43.529255],[16.492544,43.529209]]}},{"type":"Feature","properties":{},"geometry":{"type":"LineString","coordinates":[[16.488718,43.528106],[16.489229,43.528121]]}},{"type":"Feature","properties":{},"geometry":{"type":"LineString","coordinates":[[16.492544,43.529209],[16.49247,43.529256]]}},{"type":"Feature","properties":{},"geometry":{"type":"LineString","coordinates":[[16.487094,43.524076],[16.48701,43.524075]]}},{"type":"Feature","properties":{},"geometry":{"type":"LineString","coordinates":[[16.489757,43.526645],[16.489833,43.526663]]}},{"type":"Feature","properties":{},"geometry":{"type":"LineString","coordinates":[[16.494446,43.52924],[16.494175,43.529247]]}},{"type":"Feature","properties":{},"geometry":{"type":"LineString","coordinates":[[16.493244,43.529227],[16.492612,43.529255]]}},{"type":"Feature","properties":{},"geometry":{"type":"LineString","coordinates":[[16.493682,43.528931],[16.494175,43.529247]]}},{"type":"Feature","properties":{},"geometry":{"type":"LineString","coordinates":[[16.489803,43.527561],[16.489735,43.527513]]}},{"type":"Feature","properties":{},"geometry":{"type":"LineString","coordinates":[[16.491792,43.528929],[16.492119,43.529295]]}},{"type":"Feature","properties":{},"geometry":{"type":"LineString","coordinates":[[16.493373,43.529214],[16.493652,43.529312]]}},{"type":"Feature","properties":{},"geometry":{"type":"LineString","coordinates":[[16.494183,43.529316],[16.494175,43.529247]]}},{"type":"Feature","properties":{},"geometry":{"type":"LineString","coordinates":[[16.49376,43.528878],[16.493682,43.528931]]}},{"type":"Feature","properties":{},"geometry":{"type":"LineString","coordinates":[[16.489811,43.527473],[16.489908,43.527318]]}},{"type":"Feature","properties":{},"geometry":{"type":"LineString","coordinates":[[16.489761,43.527657],[16.489803,43.527561]]}},{"type":"Feature","properties":{},"geometry":{"type":"LineString","coordinates":[[16.494525,43.529195],[16.494446,43.52924]]}}]}