{"type":"FeatureCollection","name":"Split_HT_zdenci","crs":{"type":"name","properties":{"name":"urn:ogc:def:crs:OGC:1.3:CRS84"}},"xy_coordinate_resolution":0.000001,"features":[{"type":"Feature","properties":{"oznaka":"553","tip":"TIP_70/70","dubina":900},"geometry":{"type":"Point","coordinates":[16.505757,43.522813]}},{"type":"Feature","properties":{"oznaka":"484","tip":"TIP_70/70","dubina":700},"geometry":{"type":"Point","coordinates":[16.503272,43.520689]}},{"type":"Feature","properties":{"oznaka":"540","tip":"TIP_80/80","dubina":500,"adresa":"BILICE II 15"},"geometry":{"type":"Point","coordinates":[16.493769,43.527756]}},{"type":"Feature","properties":{"oznaka":"546","tip":"TIP_70/70","dubina":900,"adresa":"BILICE II 9"},"geometry":{"type":"Point","coordinates":[16.492639,43.527582]}},{"type":"Feature","properties":{"oznaka":"505","tip":"TIP_50/50","dubina":400},"geometry":{"type":"Point","coordinates":[16.497146,43.524477]}},{"type":"Feature","properties":{"oznaka":"480","tip":"TIP_40/40","dubina":500},"geometry":{"type":"Point","coordinates":[16.505171,43.520267]}},{"type":"Feature","properties":{"oznaka":"586","tip":"TIP_40/40","dubina":500,"adresa":"DRAeEVAC 40"},"geometry":{"type":"Point","coordinates":[16.503815,43.525595]}},{"type":"Feature","properties":{"oznaka":"565","tip":"TIP_40/40","dubina":500,"adresa":"DRAeEVAC 12"},"geometry":{"type":"Point","coordinates":[16.502482,43.523412]}},{"type":"Feature","properties":{"oznaka":"549","tip":"TIP_30/30","dubina":450,"adresa":"BILICE II 11"},"geometry":{"type":"Point","coordinates":[16.493142,43.528238]}},{"type":"Feature","properties":{"oznaka":"490","tip":"TIP_40/40","dubina":500},"geometry":{"type":"Point","coordinates":[16.498597,43.521189]}},{"type":"Feature","properties":{"oznaka":"532","tip":"D1","adresa":"BILICE II 25"},"geometry":{"type":"Point","coordinates":[16.494439,43.52727]}},{"type":"Feature","properties":{"oznaka":"765","tip":"TIP_40/40","dubina":600},"geometry":{"type":"Point","coordinates":[16.494089,43.524817]}},{"type":"Feature","properties":{"oznaka":"797","tip":"D0","adresa":"DRAeEVAC 14"},"geometry":{"type":"Point","coordinates":[16.502154,43.524971]}},{"type":"Feature","properties":{"oznaka":"243","tip":"TIP_80/80","dubina":800},"geometry":{"type":"Point","coordinates":[16.501116,43.528449]}},{"type":"Feature","properties":{"oznaka":"24","tip":"Nepoznato","dubina":900,"adresa":"PUT MOSTINA 11"},"geometry":{"type":"Point","coordinates":[16.489244,43.525478]}},{"type":"Feature","properties":{"oznaka":"545","tip":"TIP_70/70","dubina":900,"adresa":"BILICE II 9"},"geometry":{"type":"Point","coordinates":[16.492842,43.527601]}},{"type":"Feature","properties":{"oznaka":"1499","tip":"TIP_80/80","dubina":800},"geometry":{"type":"Point","coordinates":[16.49507,43.524535]}},{"type":"Feature","properties":{"oznaka":"610","tip":"TIP_40/40","dubina":400},"geometry":{"type":"Point","coordinates":[16.502061,43.525898]}},{"type":"Feature","properties":{"oznaka":"794","tip":"TIP_40/40","dubina":400,"adresa":"DRAeEVAC 14"},"geometry":{"type":"Point","coordinates":[16.50222,43.525204]}},{"type":"Feature","properties":{"oznaka":"808","tip":"TIP_40/40","dubina":500},"geometry":{"type":"Point","coordinates":[16.504669,43.5201]}},{"type":"Feature","properties":{"oznaka":"623","tip":"TIP_70/70","dubina":500},"geometry":{"type":"Point","coordinates":[16.504383,43.527916]}},{"type":"Feature","properties":{"oznaka":"544","tip":"TIP_70/70","dubina":800},"geometry":{"type":"Point","coordinates":[16.493509,43.527681]}},{"type":"Feature","properties":{"oznaka":"515","tip":"TIP_70/70","dubina":900},"geometry":{"type":"Point","coordinates":[16.494158,43.526005]}},{"type":"Feature","properties":{"oznaka":"471","tip":"TIP_40/40","dubina":500,"adresa":"MAGISTRALA-SOLIN 56"},"geometry":{"type":"Point","coordinates":[16.489663,43.524525]}},{"type":"Feature","properties":{"oznaka":"564","tip":"TIP_40/40","dubina":500,"adresa":"DRAeEVAC 12"},"geometry":{"type":"Point","coordinates":[16.502546,43.52362]}},{"type":"Feature","properties":{"oznaka":"109","tip":"Nepoznato","dubina":900},"geometry":{"type":"Point","coordinates":[16.490137,43.52673]}},{"type":"Feature","properties":{"oznaka":"474","tip":"TIP_70/70","dubina":700},"geometry":{"type":"Point","coordinates":[16.506912,43.520535]}},{"type":"Feature","properties":{"oznaka":"566","tip":"TIP_40/40","dubina":500,"adresa":"DRAeEVAC 12"},"geometry":{"type":"Point","coordinates":[16.502424,43.523215]}},{"type":"Feature","properties":{"oznaka":"487","tip":"TIP_40/40","dubina":400},"geometry":{"type":"Point","coordinates":[16.500419,43.521373]}},{"type":"Feature","properties":{"oznaka":"551","tip":"TIP_70/70","dubina":900},"geometry":{"type":"Point","coordinates":[16.505829,43.521749]}},{"type":"Feature","properties":{"oznaka":"539","tip":"TIP_70/70","dubina":800,"adresa":"BILICE II 23"},"geometry":{"type":"Point","coordinates":[16.493867,43.527769]}},{"type":"Feature","properties":{"oznaka":"579","tip":"TIP_70/70","dubina":800,"adresa":"DRAeEVAC 56"},"geometry":{"type":"Point","coordinates":[16.504624,43.525474]}},{"type":"Feature","properties":{"oznaka":"581","tip":"TIP_70/70","dubina":700,"adresa":"DRAeEVAC 29"},"geometry":{"type":"Point","coordinates":[16.50459,43.52595]}},{"type":"Feature","properties":{"oznaka":"573","tip":"TIP_70/70","dubina":700,"adresa":"DRAeEVAC 53"},"geometry":{"type":"Point","coordinates":[16.505539,43.525278]}},{"type":"Feature","properties":{"oznaka":"495","tip":"TIP_40/40","dubina":600,"adresa":"KAREPOVAC 1"},"geometry":{"type":"Point","coordinates":[16.496887,43.522483]}},{"type":"Feature","properties":{"oznaka":"524","tip":"TIP_70/70","dubina":800,"adresa":"MOSTINE 2"},"geometry":{"type":"Point","coordinates":[16.490932,43.525091]}},{"type":"Feature","properties":{"oznaka":"559","tip":"TIP_80/80","dubina":1000,"adresa":"DRAeEVAC 88"},"geometry":{"type":"Point","coordinates":[16.503513,43.524153]}},{"type":"Feature","properties":{"oznaka":"574","tip":"TIP_70/70","dubina":900,"adresa":"DRAeEVAC 72"},"geometry":{"type":"Point","coordinates":[16.505141,43.525004]}},{"type":"Feature","properties":{"oznaka":"842","tip":"Nepoznato","dubina":900},"geometry":{"type":"Point","coordinates":[16.492448,43.528493]}},{"type":"Feature","properties":{"oznaka":"239","tip":"TIP_30/30","dubina":600,"adresa":"DRAeEVAC 1"},"geometry":{"type":"Point","coordinates":[16.499634,43.528217]}},{"type":"Feature","properties":{"oznaka":"231","tip":"Nepoznato","adresa":"DRAeEVAC 2"},"geometry":{"type":"Point","coordinates":[16.495802,43.529047]}},{"type":"Feature","properties":{"oznaka":"25","tip":"Nepoznato","dubina":900},"geometry":{"type":"Point","coordinates":[16.489807,43.526112]}},{"type":"Feature","properties":{"oznaka":"841","tip":"Nepoznato","dubina":900,"adresa":"BILICE II 4"},"geometry":{"type":"Point","coordinates":[16.49115,43.526791]}},{"type":"Feature","properties":{"oznaka":"584","tip":"TIP_40/40","dubina":600,"adresa":"DRAeEVAC 46"},"geometry":{"type":"Point","coordinates":[16.503902,43.525362]}},{"type":"Feature","properties":{"oznaka":"468","tip":"TIP_80/80","dubina":800},"geometry":{"type":"Point","coordinates":[16.489509,43.524115]}},{"type":"Feature","properties":{"oznaka":"478","tip":"TIP_70/70","dubina":800},"geometry":{"type":"Point","coordinates":[16.504513,43.520507]}},{"type":"Feature","properties":{"oznaka":"792","tip":"D0"},"geometry":{"type":"Point","coordinates":[16.495478,43.524894]}},{"type":"Feature","properties":{"oznaka":"518","tip":"TIP_70/70","dubina":900},"geometry":{"type":"Point","coordinates":[16.49325,43.526447]}},{"type":"Feature","properties":{"oznaka":"463","tip":"TIP_40/40","dubina":300,"adresa":"MOSTINE 9"},"geometry":{"type":"Point","coordinates":[16.4915,43.522968]}},{"type":"Feature","properties":{"oznaka":"775","tip":"TIP_80/80","dubina":1600},"geometry":{"type":"Point","coordinates":[16.50085,43.527334]}},{"type":"Feature","properties":{"oznaka":"509","tip":"TIP_70/70","dubina":900,"adresa":"BILICE II 38"},"geometry":{"type":"Point","coordinates":[16.494859,43.5254]}},{"type":"Feature","properties":{"oznaka":"511","tip":"TIP_70/70","dubina":900},"geometry":{"type":"Point","coordinates":[16.494622,43.526212]}},{"type":"Feature","properties":{"oznaka":"596","tip":"TIP_70/70","dubina":800,"adresa":"DRAeEVAC 19"},"geometry":{"type":"Point","coordinates":[16.503731,43.526525]}},{"type":"Feature","properties":{"oznaka":"23","tip":"Nepoznato","dubina":900},"geometry":{"type":"Point","coordinates":[16.488454,43.524848]}},{"type":"Feature","properties":{"oznaka":"770","tip":"TIP_70/70","dubina":900},"geometry":{"type":"Point","coordinates":[16.500235,43.521135]}},{"type":"Feature","properties":{"oznaka":"607","tip":"TIP_70/70","dubina":1000,"adresa":"DRAeEVAC 10"},"geometry":{"type":"Point","coordinates":[16.501437,43.526492]}},{"type":"Feature","properties":{"oznaka":"568","tip":"TIP_40/40","dubina":600,"adresa":"DRAeEVAC 14"},"geometry":{"type":"Point","coordinates":[16.502087,43.52433]}},{"type":"Feature","properties":{"oznaka":"769","tip":"TIP_40/40","dubina":600},"geometry":{"type":"Point","coordinates":[16.500524,43.521729]}},{"type":"Feature","properties":{"oznaka":"516","tip":"TIP_70/70","dubina":600},"geometry":{"type":"Point","coordinates":[16.493694,43.525794]}},{"type":"Feature","properties":{"oznaka":"497","tip":"TIP_80/80","dubina":900},"geometry":{"type":"Point","coordinates":[16.494745,43.522574]}},{"type":"Feature","properties":{"oznaka":"622","tip":"TIP_70/70","dubina":800},"geometry":{"type":"Point","coordinates":[16.50475,43.527722]}},{"type":"Feature","properties":{"oznaka":"473","tip":"TIP_40/40","dubina":300,"adresa":"PUT SV. I"},"geometry":{"type":"Point","coordinates":[16.506379,43.519881]}},{"type":"Feature","properties":{"oznaka":"592","tip":"TIP_50/50","dubina":600,"adresa":"DRAeEVAC 26"},"geometry":{"type":"Point","coordinates":[16.502866,43.525823]}},{"type":"Feature","properties":{"oznaka":"616","tip":"TIP_150/130","dubina":2100},"geometry":{"type":"Point","coordinates":[16.500925,43.527764]}},{"type":"Feature","properties":{"oznaka":"585","tip":"TIP_70/70","dubina":600,"adresa":"DRAeEVAC 40"},"geometry":{"type":"Point","coordinates":[16.503915,43.525744]}},{"type":"Feature","properties":{"oznaka":"734","tip":"TIP_40/40","dubina":300,"adresa":"DRAeEVAC 56"},"geometry":{"type":"Point","coordinates":[16.504589,43.525417]}},{"type":"Feature","properties":{"oznaka":"460","tip":"TIP_40/40","dubina":600,"adresa":"PUT MOSTINA 40"},"geometry":{"type":"Point","coordinates":[16.491796,43.523134]}},{"type":"Feature","properties":{"oznaka":"600","tip":"TIP_70/70","dubina":800,"adresa":"DRAeEVAC 16"},"geometry":{"type":"Point","coordinates":[16.502521,43.526657]}},{"type":"Feature","properties":{"oznaka":"555","tip":"TIP_30/30","dubina":200,"adresa":"DRAeEVAC 73"},"geometry":{"type":"Point","coordinates":[16.506672,43.523597]}},{"type":"Feature","properties":{"oznaka":"508","tip":"TIP_40/40","dubina":300,"adresa":"BILICE II 42"},"geometry":{"type":"Point","coordinates":[16.494918,43.525118]}},{"type":"Feature","properties":{"oznaka":"479","tip":"TIP_40/40","dubina":500},"geometry":{"type":"Point","coordinates":[16.504943,43.520351]}},{"type":"Feature","properties":{"oznaka":"465","tip":"TIP_40/40","dubina":500,"adresa":"PUT MOSTINA 24"},"geometry":{"type":"Point","coordinates":[16.490462,43.523449]}},{"type":"Feature","properties":{"oznaka":"493","tip":"TIP_70/70","dubina":900},"geometry":{"type":"Point","coordinates":[16.497093,43.52207]}},{"type":"Feature","properties":{"oznaka":"494","tip":"TIP_70/70","dubina":800},"geometry":{"type":"Point","coordinates":[16.496112,43.522557]}},{"type":"Feature","properties":{"oznaka":"506","tip":"TIP_70/70","dubina":800},"geometry":{"type":"Point","coordinates":[16.497049,43.524387]}},{"type":"Feature","properties":{"oznaka":"259","tip":"Nepoznato"},"geometry":{"type":"Point","coordinates":[16.496076,43.528583]}},{"type":"Feature","properties":{"oznaka":"522","tip":"TIP_40/40","dubina":400,"adresa":"BILICE II 12"},"geometry":{"type":"Point","coordinates":[16.492213,43.525534]}},{"type":"Feature","properties":{"oznaka":"504","tip":"TIP_70/70","dubina":800,"adresa":"BILICE II 46"},"geometry":{"type":"Point","coordinates":[16.496227,43.524696]}},{"type":"Feature","properties":{"oznaka":"624","tip":"TIP_40/40","dubina":500,"adresa":"DRAeEVAC 7"},"geometry":{"type":"Point","coordinates":[16.503935,43.527888]}},{"type":"Feature","properties":{"oznaka":"528","tip":"TIP_70/70","dubina":900,"adresa":"MOSTINE 3"},"geometry":{"type":"Point","coordinates":[16.492576,43.524671]}},{"type":"Feature","properties":{"oznaka":"629","tip":"TIP_70/70","dubina":900},"geometry":{"type":"Point","coordinates":[16.505609,43.527545]}},{"type":"Feature","properties":{"oznaka":"612","tip":"TIP_70/70","dubina":900,"adresa":"DRAeEVAC 4"},"geometry":{"type":"Point","coordinates":[16.501097,43.527324]}},{"type":"Feature","properties":{"oznaka":"267","tip":"D1"},"geometry":{"type":"Point","coordinates":[16.493655,43.52934]}},{"type":"Feature","properties":{"oznaka":"577","tip":"TIP_40/40","dubina":500,"adresa":"DRAeEVAC 66"},"geometry":{"type":"Point","coordinates":[16.503265,43.525209]}},{"type":"Feature","properties":{"oznaka":"462","tip":"TIP_40/40","dubina":600,"adresa":"PUT MOSTINA 32"},"geometry":{"type":"Point","coordinates":[16.490938,43.523168]}},{"type":"Feature","properties":{"oznaka":"588","tip":"TIP_40/40","dubina":600,"adresa":"DRAeEVAC 38"},"geometry":{"type":"Point","coordinates":[16.503391,43.525664]}},{"type":"Feature","properties":{"oznaka":"583","tip":"TIP_70/70","dubina":600,"adresa":"DRAeEVAC 44"},"geometry":{"type":"Point","coordinates":[16.504133,43.525661]}},{"type":"Feature","properties":{"oznaka":"608","tip":"TIP_70/70","dubina":900,"adresa":"DRAeEVAC 8"},"geometry":{"type":"Point","coordinates":[16.501877,43.526242]}},{"type":"Feature","properties":{"oznaka":"503","tip":"TIP_70/70","dubina":600},"geometry":{"type":"Point","coordinates":[16.495691,43.524874]}},{"type":"Feature","properties":{"oznaka":"547","tip":"TIP_30/20","dubina":100,"adresa":"BILICE II 22"},"geometry":{"type":"Point","coordinates":[16.492612,43.527369]}},{"type":"Feature","properties":{"oznaka":"601","tip":"TIP_70/70","dubina":1100,"adresa":"DRAeEVAC 16"},"geometry":{"type":"Point","coordinates":[16.501877,43.526765]}},{"type":"Feature","properties":{"oznaka":"500","tip":"Nepoznato"},"geometry":{"type":"Point","coordinates":[16.496074,43.527961]}},{"type":"Feature","properties":{"oznaka":"519","tip":"TIP_70/70","dubina":900},"geometry":{"type":"Point","coordinates":[16.493261,43.525522]}},{"type":"Feature","properties":{"oznaka":"589","tip":"TIP_70/70","dubina":600,"adresa":"DRAeEVAC 23"},"geometry":{"type":"Point","coordinates":[16.503405,43.526125]}},{"type":"Feature","properties":{"oznaka":"597","tip":"TIP_70/70","dubina":900,"adresa":"DRAeEVAC 21"},"geometry":{"type":"Point","coordinates":[16.504174,43.526447]}},{"type":"Feature","properties":{"oznaka":"591","tip":"TIP_50/50","dubina":500,"adresa":"DRAeEVAC 18"},"geometry":{"type":"Point","coordinates":[16.502999,43.526139]}},{"type":"Feature","properties":{"oznaka":"628","tip":"TIP_40/40","dubina":500},"geometry":{"type":"Point","coordinates":[16.50376,43.528151]}},{"type":"Feature","properties":{"oznaka":"611","tip":"TIP_80/80","dubina":900,"adresa":"DRAeEVAC 4"},"geometry":{"type":"Point","coordinates":[16.501293,43.527252]}},{"type":"Feature","properties":{"oznaka":"839","tip":"TIP_40/40"},"geometry":{"type":"Point","coordinates":[16.500675,43.521991]}},{"type":"Feature","properties":{"oznaka":"513","tip":"TIP_70/70","dubina":900,"adresa":"BILICE II 27"},"geometry":{"type":"Point","coordinates":[16.495394,43.526952]}},{"type":"Feature","properties":{"oznaka":"533","tip":"TIP_80/80","dubina":900,"adresa":"BILICE II 25"},"geometry":{"type":"Point","coordinates":[16.494598,43.527341]}},{"type":"Feature","properties":{"oznaka":"541","tip":"TIP_80/80","dubina":1000,"adresa":"BILICE II 15"},"geometry":{"type":"Point","coordinates":[16.493736,43.527787]}},{"type":"Feature","properties":{"oznaka":"548","tip":"TIP_70/70","dubina":800,"adresa":"BILICE II 13"},"geometry":{"type":"Point","coordinates":[16.492989,43.527834]}},{"type":"Feature","properties":{"oznaka":"625","tip":"TIP_80/80","dubina":800},"geometry":{"type":"Point","coordinates":[16.500446,43.527367]}},{"type":"Feature","properties":{"oznaka":"590","tip":"TIP_50/50","dubina":400,"adresa":"DRAeEVAC 30"},"geometry":{"type":"Point","coordinates":[16.50329,43.526082]}},{"type":"Feature","properties":{"oznaka":"580","tip":"TIP_40/40","dubina":400,"adresa":"DRAeEVAC 56"},"geometry":{"type":"Point","coordinates":[16.504471,43.525256]}},{"type":"Feature","properties":{"oznaka":"838","tip":"TIP_40/40"},"geometry":{"type":"Point","coordinates":[16.500484,43.521755]}},{"type":"Feature","properties":{"oznaka":"552","tip":"TIP_80/80","dubina":1000},"geometry":{"type":"Point","coordinates":[16.505606,43.522319]}},{"type":"Feature","properties":{"oznaka":"536","tip":"TIP_70/70","dubina":800},"geometry":{"type":"Point","coordinates":[16.495401,43.527725]}},{"type":"Feature","properties":{"oznaka":"550","tip":"D0"},"geometry":{"type":"Point","coordinates":[16.506027,43.521411]}},{"type":"Feature","properties":{"oznaka":"1537","tip":"TIP_80/80","dubina":800},"geometry":{"type":"Point","coordinates":[16.495701,43.527711]}},{"type":"Feature","properties":{"oznaka":"798","tip":"D0","adresa":"DRAeEVAC 9"},"geometry":{"type":"Point","coordinates":[16.503951,43.527153]}},{"type":"Feature","properties":{"oznaka":"469","tip":"TIP_30/30","dubina":400,"adresa":"PUT MOSTINA 22"},"geometry":{"type":"Point","coordinates":[16.489428,43.524025]}},{"type":"Feature","properties":{"oznaka":"507","tip":"TIP_50/50","dubina":400,"adresa":"BILICE II 46"},"geometry":{"type":"Point","coordinates":[16.496922,43.524362]}},{"type":"Feature","properties":{"oznaka":"534","tip":"TIP_70/70","dubina":900,"adresa":"BILICE II 25"},"geometry":{"type":"Point","coordinates":[16.494911,43.52738]}},{"type":"Feature","properties":{"oznaka":"461","tip":"TIP_80/80","dubina":700},"geometry":{"type":"Point","coordinates":[16.491121,43.52353]}},{"type":"Feature","properties":{"oznaka":"523","tip":"TIP_70/70","dubina":1000,"adresa":"BILICE II 14"},"geometry":{"type":"Point","coordinates":[16.491426,43.52543]}},{"type":"Feature","properties":{"oznaka":"458","tip":"TIP_40/40","dubina":600},"geometry":{"type":"Point","coordinates":[16.491852,43.523272]}},{"type":"Feature","properties":{"oznaka":"760","tip":"TIP_70/70","dubina":900},"geometry":{"type":"Point","coordinates":[16.488732,43.524129]}},{"type":"Feature","properties":{"oznaka":"1266","tip":"Nepoznato"},"geometry":{"type":"Point","coordinates":[16.490673,43.529157]}},{"type":"Feature","properties":{"oznaka":"492","tip":"TIP_70/70","dubina":800},"geometry":{"type":"Point","coordinates":[16.498104,43.521719]}},{"type":"Feature","properties":{"oznaka":"796","tip":"D0","adresa":"DRAeEVAC 14"},"geometry":{"type":"Point","coordinates":[16.501451,43.525132]}},{"type":"Feature","properties":{"oznaka":"602","tip":"TIP_70/70","dubina":1000},"geometry":{"type":"Point","coordinates":[16.501423,43.526853]}},{"type":"Feature","properties":{"oznaka":"496","tip":"TIP_80/80","dubina":900},"geometry":{"type":"Point","coordinates":[16.495599,43.522631]}},{"type":"Feature","properties":{"oznaka":"527","tip":"TIP_70/70","dubina":1000},"geometry":{"type":"Point","coordinates":[16.491806,43.524834]}},{"type":"Feature","properties":{"oznaka":"795","tip":"D0","adresa":"DRAeEVAC 14"},"geometry":{"type":"Point","coordinates":[16.501803,43.525195]}},{"type":"Feature","properties":{"oznaka":"132","tip":"TIP_170/170","dubina":2000,"adresa":"ZORANInEVA 33"},"geometry":{"type":"Point","coordinates":[16.497395,43.528953]}},{"type":"Feature","properties":{"oznaka":"563","tip":"TIP_40/40","dubina":400,"adresa":"DRAeEVAC 8"},"geometry":{"type":"Point","coordinates":[16.502595,43.524105]}},{"type":"Feature","properties":{"oznaka":"520","tip":"TIP_70/70","dubina":800},"geometry":{"type":"Point","coordinates":[16.492588,43.525527]}},{"type":"Feature","properties":{"oznaka":"128","tip":"Nepoznato"},"geometry":{"type":"Point","coordinates":[16.500812,43.52838]}},{"type":"Feature","properties":{"oznaka":"537","tip":"TIP_80/80","dubina":800},"geometry":{"type":"Point","coordinates":[16.495755,43.527789]}},{"type":"Feature","properties":{"oznaka":"466","tip":"TIP_30/30","dubina":500,"adresa":"PUT MOSTINA 28"},"geometry":{"type":"Point","coordinates":[16.490376,43.523098]}},{"type":"Feature","properties":{"oznaka":"558","tip":"TIP_70/70","dubina":900,"adresa":"DRAeEVAC 92"},"geometry":{"type":"Point","coordinates":[16.504623,43.524185]}},{"type":"Feature","properties":{"oznaka":"582","tip":"Nepoznato","adresa":"DRAeEVAC 33"},"geometry":{"type":"Point","coordinates":[16.504588,43.526234]}},{"type":"Feature","properties":{"oznaka":"556","tip":"TIP_70/70","dubina":900},"geometry":{"type":"Point","coordinates":[16.505958,43.523986]}},{"type":"Feature","properties":{"oznaka":"560","tip":"TIP_40/40","dubina":500,"adresa":"DRAeEVAC 68"},"geometry":{"type":"Point","coordinates":[16.503575,43.524397]}},{"type":"Feature","properties":{"oznaka":"525","tip":"TIP_70/70","dubina":1000},"geometry":{"type":"Point","coordinates":[16.490517,43.524794]}},{"type":"Feature","properties":{"oznaka":"456","tip":"TIP_70/70","dubina":800},"geometry":{"type":"Point","coordinates":[16.4941,43.522648]}},{"type":"Feature","properties":{"oznaka":"257","tip":"D1"},"geometry":{"type":"Point","coordinates":[16.491428,43.529265]}},{"type":"Feature","properties":{"oznaka":"538","tip":"TIP_70/70","dubina":900,"adresa":"BILICE II 25"},"geometry":{"type":"Point","coordinates":[16.494113,43.527415]}},{"type":"Feature","properties":{"oznaka":"599","tip":"TIP_40/40","dubina":700,"adresa":"DRAeEVAC 18"},"geometry":{"type":"Point","coordinates":[16.502766,43.526381]}},{"type":"Feature","properties":{"oznaka":"464","tip":"TIP_100/80","dubina":700,"adresa":"PUT MOSTINA 24"},"geometry":{"type":"Point","coordinates":[16.490507,43.523617]}},{"type":"Feature","properties":{"oznaka":"620","tip":"TIP_70/70","dubina":900},"geometry":{"type":"Point","coordinates":[16.504226,43.527164]}},{"type":"Feature","properties":{"oznaka":"238","tip":"TIP_30/30","dubina":500,"adresa":"DRAeEVAC 1"},"geometry":{"type":"Point","coordinates":[16.499548,43.528429]}},{"type":"Feature","properties":{"oznaka":"230","tip":"TIP_80/80","dubina":900},"geometry":{"type":"Point","coordinates":[16.496187,43.529005]}},{"type":"Feature","properties":{"oznaka":"598","tip":"TIP_70/70","dubina":600,"adresa":"DRAeEVAC 20"},"geometry":{"type":"Point","coordinates":[16.502856,43.526604]}},{"type":"Feature","properties":{"oznaka":"557","tip":"TIP_80/80","dubina":1000,"adresa":"DRAeEVAC 82"},"geometry":{"type":"Point","coordinates":[16.505221,43.524139]}},{"type":"Feature","properties":{"oznaka":"1136","tip":"D1","dubina":900,"adresa":"BILICE II 25"},"geometry":{"type":"Point","coordinates":[16.494545,43.526519]}},{"type":"Feature","properties":{"oznaka":"619","tip":"TIP_70/70","dubina":900},"geometry":{"type":"Point","coordinates":[16.503103,43.527398]}},{"type":"Feature","properties":{"oznaka":"604","tip":"TIP_40/40","dubina":300,"adresa":"DRAeEVAC 10"},"geometry":{"type":"Point","coordinates":[16.501069,43.526397]}},{"type":"Feature","properties":{"oznaka":"531","tip":"TIP_100/80","dubina":700,"adresa":"BILICE II 26"},"geometry":{"type":"Point","coordinates":[16.494253,43.527225]}},{"type":"Feature","properties":{"oznaka":"603","tip":"TIP_70/70","dubina":800,"adresa":"DRAeEVAC 10"},"geometry":{"type":"Point","coordinates":[16.501251,43.526727]}},{"type":"Feature","properties":{"oznaka":"517","tip":"TIP_80/80","dubina":900,"adresa":"BILICE II 32"},"geometry":{"type":"Point","coordinates":[16.493428,43.526142]}},{"type":"Feature","properties":{"oznaka":"454","tip":"TIP_80/80","dubina":900},"geometry":{"type":"Point","coordinates":[16.493431,43.522485]}},{"type":"Feature","properties":{"oznaka":"475","tip":"TIP_70/70","dubina":800},"geometry":{"type":"Point","coordinates":[16.50614,43.520847]}},{"type":"Feature","properties":{"oznaka":"793","tip":"TIP_40/40","dubina":400,"adresa":"DRAeEVAC 14"},"geometry":{"type":"Point","coordinates":[16.501937,43.52544]}},{"type":"Feature","properties":{"oznaka":"477","tip":"TIP_70/70","dubina":900},"geometry":{"type":"Point","coordinates":[16.504535,43.520566]}},{"type":"Feature","properties":{"oznaka":"844","tip":"Nepoznato","dubina":900},"geometry":{"type":"Point","coordinates":[16.495975,43.527777]}},{"type":"Feature","properties":{"oznaka":"617","tip":"TIP_50/50","dubina":800},"geometry":{"type":"Point","coordinates":[16.501419,43.527408]}},{"type":"Feature","properties":{"oznaka":"476","tip":"TIP_90/90","dubina":900},"geometry":{"type":"Point","coordinates":[16.505468,43.520603]}},{"type":"Feature","properties":{"oznaka":"535","tip":"TIP_70/70","dubina":900,"adresa":"BILICE II 29"},"geometry":{"type":"Point","coordinates":[16.495405,43.527383]}},{"type":"Feature","properties":{"oznaka":"244","tip":"TIP_80/80","dubina":800},"geometry":{"type":"Point","coordinates":[16.501793,43.528323]}},{"type":"Feature","properties":{"oznaka":"22","tip":"Nepoznato","dubina":900},"geometry":{"type":"Point","coordinates":[16.487706,43.524273]}},{"type":"Feature","properties":{"oznaka":"500","tip":"TIP_70/70","dubina":500,"adresa":"BILICE II 44"},"geometry":{"type":"Point","coordinates":[16.49492,43.524961]}},{"type":"Feature","properties":{"oznaka":"845","tip":"Nepoznato","dubina":900},"geometry":{"type":"Point","coordinates":[16.499067,43.527704]}},{"type":"Feature","properties":{"oznaka":"510","tip":"TIP_40/40","dubina":500,"adresa":"BILICE II 38"},"geometry":{"type":"Point","coordinates":[16.494925,43.52541]}},{"type":"Feature","properties":{"oznaka":"567","tip":"TIP_40/40","dubina":600,"adresa":"DRAeEVAC 14"},"geometry":{"type":"Point","coordinates":[16.502115,43.524462]}},{"type":"Feature","properties":{"oznaka":"631","tip":"TIP_70/70","dubina":600},"geometry":{"type":"Point","coordinates":[16.506371,43.527198]}},{"type":"Feature","properties":{"oznaka":"234","tip":"TIP_80/80","dubina":500,"adresa":"ZORANInEVA 25"},"geometry":{"type":"Point","coordinates":[16.496648,43.528932]}},{"type":"Feature","properties":{"oznaka":"235","tip":"TIP_80/80","dubina":1200},"geometry":{"type":"Point","coordinates":[16.496791,43.528604]}},{"type":"Feature","properties":{"oznaka":"237","tip":"Nepoznato"},"geometry":{"type":"Point","coordinates":[16.497786,43.528313]}},{"type":"Feature","properties":{"oznaka":"609","tip":"TIP_30/30","dubina":400,"adresa":"DRAeEVAC 8"},"geometry":{"type":"Point","coordinates":[16.502092,43.526071]}},{"type":"Feature","properties":{"oznaka":"618","tip":"TIP_70/70","dubina":900},"geometry":{"type":"Point","coordinates":[16.502387,43.527431]}},{"type":"Feature","properties":{"oznaka":"488","tip":"TIP_80/80","dubina":1000},"geometry":{"type":"Point","coordinates":[16.499578,43.52125]}},{"type":"Feature","properties":{"oznaka":"621","tip":"TIP_70/70","dubina":600},"geometry":{"type":"Point","coordinates":[16.504986,43.527636]}},{"type":"Feature","properties":{"oznaka":"762","tip":"D1"},"geometry":{"type":"Point","coordinates":[16.488049,43.524368]}},{"type":"Feature","properties":{"oznaka":"501","tip":"TIP_40/40","dubina":400},"geometry":{"type":"Point","coordinates":[16.494471,43.524828]}},{"type":"Feature","properties":{"oznaka":"236","tip":"Nepoznato"},"geometry":{"type":"Point","coordinates":[16.49741,43.528661]}},{"type":"Feature","properties":{"oznaka":"512","tip":"TIP_70/70","dubina":900,"adresa":"BILICE II 33"},"geometry":{"type":"Point","coordinates":[16.495426,43.526395]}},{"type":"Feature","properties":{"oznaka":"240","tip":"D0","adresa":"DRAeEVAC 1"},"geometry":{"type":"Point","coordinates":[16.499358,43.528294]}},{"type":"Feature","properties":{"oznaka":"605","tip":"TIP_40/40","dubina":600,"adresa":"DRAeEVAC 5"},"geometry":{"type":"Point","coordinates":[16.500755,43.526865]}},{"type":"Feature","properties":{"oznaka":"499","tip":"TIP_80/80","dubina":800},"geometry":{"type":"Point","coordinates":[16.495263,43.524057]}},{"type":"Feature","properties":{"oznaka":"632","tip":"TIP_70/70","dubina":900},"geometry":{"type":"Point","coordinates":[16.502379,43.527499]}},{"type":"Feature","properties":{"oznaka":"467","tip":"TIP_80/80","dubina":800},"geometry":{"type":"Point","coordinates":[16.490028,43.523825]}},{"type":"Feature","properties":{"oznaka":"521","tip":"TIP_70/70","dubina":700,"adresa":"BILICE II 12"},"geometry":{"type":"Point","coordinates":[16.492214,43.525511]}},{"type":"Feature","properties":{"oznaka":"593","tip":"TIP_40/40","dubina":700,"adresa":"DRAeEVAC 23"},"geometry":{"type":"Point","coordinates":[16.50395,43.52605]}},{"type":"Feature","properties":{"oznaka":"843","tip":"Nepoznato","dubina":900},"geometry":{"type":"Point","coordinates":[16.494906,43.527939]}},{"type":"Feature","properties":{"oznaka":"514","tip":"TIP_40/40","dubina":500,"adresa":"BILICE II 31"},"geometry":{"type":"Point","coordinates":[16.495199,43.526926]}},{"type":"Feature","properties":{"oznaka":"561","tip":"TIP_80/80","dubina":1000,"adresa":"DRAeEVAC 8"},"geometry":{"type":"Point","coordinates":[16.502655,43.524264]}},{"type":"Feature","properties":{"oznaka":"613","tip":"TIP_70/70","dubina":900},"geometry":{"type":"Point","coordinates":[16.500953,43.527379]}},{"type":"Feature","properties":{"oznaka":"614","tip":"TIP_70/70","dubina":900},"geometry":{"type":"Point","coordinates":[16.500897,43.527417]}},{"type":"Feature","properties":{"oznaka":"33","tip":"TIP_170/170","dubina":2000,"adresa":"ZORANInEVA 27"},"geometry":{"type":"Point","coordinates":[16.496869,43.528978]}},{"type":"Feature","properties":{"oznaka":"569","tip":"TIP_80/80","dubina":800,"adresa":"DRAeEVAC 80"},"geometry":{"type":"Point","coordinates":[16.505908,43.52445]}},{"type":"Feature","properties":{"oznaka":"486","tip":"TIP_70/70","dubina":900},"geometry":{"type":"Point","coordinates":[16.500205,43.521073]}},{"type":"Feature","properties":{"oznaka":"489","tip":"TIP_70/70","dubina":900},"geometry":{"type":"Point","coordinates":[16.498735,43.521503]}},{"type":"Feature","properties":{"oznaka":"530","tip":"TIP_70/70","dubina":600,"adresa":"BILICE II 25"},"geometry":{"type":"Point","coordinates":[16.494426,43.526871]}},{"type":"Feature","properties":{"oznaka":"491","tip":"TIP_40/40","dubina":500},"geometry":{"type":"Point","coordinates":[16.498552,43.521042]}},{"type":"Feature","properties":{"oznaka":"485","tip":"TIP_70/70","dubina":800},"geometry":{"type":"Point","coordinates":[16.501007,43.52086]}},{"type":"Feature","properties":{"oznaka":"481","tip":"TIP_40/40","dubina":600},"geometry":{"type":"Point","coordinates":[16.504551,43.519913]}},{"type":"Feature","properties":{"oznaka":"595","tip":"TIP_70/70","dubina":700},"geometry":{"type":"Point","coordinates":[16.503376,43.52657]}},{"type":"Feature","properties":{"oznaka":"455","tip":"TIP_70/70","dubina":800},"geometry":{"type":"Point","coordinates":[16.493265,43.522847]}},{"type":"Feature","properties":{"oznaka":"483","tip":"TIP_70/70","dubina":700},"geometry":{"type":"Point","coordinates":[16.502338,43.520604]}},{"type":"Feature","properties":{"oznaka":"269","tip":"D1"},"geometry":{"type":"Point","coordinates":[16.493094,43.529326]}},{"type":"Feature","properties":{"oznaka":"470","tip":"TIP_80/80","dubina":800,"adresa":"MOSTINE 1"},"geometry":{"type":"Point","coordinates":[16.48992,43.524375]}},{"type":"Feature","properties":{"oznaka":"542","tip":"TIP_50/50","dubina":600,"adresa":"BILICE II 15"},"geometry":{"type":"Point","coordinates":[16.493794,43.527929]}},{"type":"Feature","properties":{"oznaka":"572","tip":"TIP_80/80","dubina":800},"geometry":{"type":"Point","coordinates":[16.50555,43.524923]}},{"type":"Feature","properties":{"oznaka":"594","tip":"TIP_70/70","dubina":1000,"adresa":"DRAeEVAC 22"},"geometry":{"type":"Point","coordinates":[16.503303,43.526483]}},{"type":"Feature","properties":{"oznaka":"576","tip":"TIP_40/40","dubina":500,"adresa":"DRAeEVAC 50"},"geometry":{"type":"Point","coordinates":[16.503946,43.525054]}},{"type":"Feature","properties":{"oznaka":"578","tip":"TIP_70/70","dubina":900,"adresa":"DRAeEVAC 58"},"geometry":{"type":"Point","coordinates":[16.504936,43.525343]}},{"type":"Feature","properties":{"oznaka":"761","tip":"TIP_40/40","dubina":600,"adresa":"MAGISTRALA-SOLIN 52"},"geometry":{"type":"Point","coordinates":[16.488283,43.523833]}},{"type":"Feature","properties":{"oznaka":"575","tip":"TIP_40/40","dubina":500,"adresa":"DRAeEVAC 66"},"geometry":{"type":"Point","coordinates":[16.504636,43.52496]}},{"type":"Feature","properties":{"oznaka":"570","tip":"TIP_70/70","dubina":900,"adresa":"DRAeEVAC 60"},"geometry":{"type":"Point","coordinates":[16.506407,43.524499]}},{"type":"Feature","properties":{"oznaka":"529","tip":"TIP_70/70","dubina":900,"adresa":"MOSTINE 6"},"geometry":{"type":"Point","coordinates":[16.493272,43.524655]}},{"type":"Feature","properties":{"oznaka":"1545","tip":"TIP_70/70","dubina":900},"geometry":{"type":"Point","coordinates":[16.501742,43.5274]}},{"type":"Feature","properties":{"oznaka":"562","tip":"TIP_40/40","dubina":600,"adresa":"DRAeEVAC 14"},"geometry":{"type":"Point","coordinates":[16.502666,43.524369]}},{"type":"Feature","properties":{"oznaka":"498","tip":"TIP_80/80","dubina":800,"adresa":"MOSTINE 7"},"geometry":{"type":"Point","coordinates":[16.495404,43.523548]}},{"type":"Feature","properties":{"oznaka":"615","tip":"TIP_70/70","dubina":800},"geometry":{"type":"Point","coordinates":[16.501052,43.527745]}},{"type":"Feature","properties":{"oznaka":"526","tip":"TIP_70/70","dubina":900},"geometry":{"type":"Point","coordinates":[16.491749,43.52492]}},{"type":"Feature","properties":{"oznaka":"571","tip":"TIP_70/70","dubina":900,"adresa":"DRAeEVAC 64"},"geometry":{"type":"Point","coordinates":[16.506431,43.525223]}},{"type":"Feature","properties":{"oznaka":"606","tip":"TIP_40/40","dubina":500},"geometry":{"type":"Point","coordinates":[16.500441,43.52668]}},{"type":"Feature","properties":{"oznaka":"457","tip":"TIP_70/70","dubina":600},"geometry":{"type":"Point","coordinates":[16.491893,43.523321]}},{"type":"Feature","properties":{"oznaka":"459","tip":"TIP_40/40","dubina":600},"geometry":{"type":"Point","coordinates":[16.491636,43.523306]}},{"type":"Feature","properties":{"oznaka":"587","tip":"TIP_70/70","dubina":900,"adresa":"DRAeEVAC 27"},"geometry":{"type":"Point","coordinates":[16.503574,43.525937]}},{"type":"Feature","properties":{"oznaka":"554","tip":"TIP_70/70","dubina":600},"geometry":{"type":"Point","coordinates":[16.505839,43.523507]}}]}