{"type":"FeatureCollection","name":"DTK_sahte_2022","crs":{"type":"name","properties":{"name":"urn:ogc:def:crs:OGC:1.3:CRS84"}},"xy_coordinate_resolution":0.000001,"features":[{"type":"Feature","properties":{},"geometry":{"type":"Point","coordinates":[16.495613,43.522626]}},{"type":"Feature","properties":{},"geometry":{"type":"Point","coordinates":[16.495652,43.52261]}},{"type":"Feature","properties":{},"geometry":{"type":"Point","coordinates":[16.496126,43.522551]}},{"type":"Feature","properties":{},"geometry":{"type":"Point","coordinates":[16.4969,43.522477]}},{"type":"Feature","properties":{},"geometry":{"type":"Point","coordinates":[16.497106,43.522064]}},{"type":"Feature","properties":{},"geometry":{"type":"Point","coordinates":[16.498118,43.521714]}},{"type":"Feature","properties":{},"geometry":{"type":"Point","coordinates":[16.498748,43.521497]}},{"type":"Feature","properties":{},"geometry":{"type":"Point","coordinates":[16.498611,43.521183]}},{"type":"Feature","properties":{},"geometry":{"type":"Point","coordinates":[16.498566,43.521037]}},{"type":"Feature","properties":{},"geometry":{"type":"Point","coordinates":[16.498585,43.521031]}},{"type":"Feature","properties":{},"geometry":{"type":"Point","coordinates":[16.499591,43.521245]}},{"type":"Feature","properties":{},"geometry":{"type":"Point","coordinates":[16.500251,43.521148]}},{"type":"Feature","properties":{},"geometry":{"type":"Point","coordinates":[16.500249,43.521129]}},{"type":"Feature","properties":{},"geometry":{"type":"Point","coordinates":[16.500219,43.521067]}},{"type":"Feature","properties":{},"geometry":{"type":"Point","coordinates":[16.500432,43.521368]}},{"type":"Feature","properties":{},"geometry":{"type":"Point","coordinates":[16.500538,43.521724]}},{"type":"Feature","properties":{},"geometry":{"type":"Point","coordinates":[16.500498,43.521749]}},{"type":"Feature","properties":{},"geometry":{"type":"Point","coordinates":[16.500688,43.521986]}},{"type":"Feature","properties":{},"geometry":{"type":"Point","coordinates":[16.50102,43.520854]}},{"type":"Feature","properties":{},"geometry":{"type":"Point","coordinates":[16.502351,43.520599]}},{"type":"Feature","properties":{},"geometry":{"type":"Point","coordinates":[16.503286,43.520683]}},{"type":"Feature","properties":{},"geometry":{"type":"Point","coordinates":[16.504548,43.52056]}},{"type":"Feature","properties":{},"geometry":{"type":"Point","coordinates":[16.504527,43.520501]}},{"type":"Feature","properties":{},"geometry":{"type":"Point","coordinates":[16.504957,43.520345]}},{"type":"Feature","properties":{},"geometry":{"type":"Point","coordinates":[16.505185,43.520262]}},{"type":"Feature","properties":{},"geometry":{"type":"Point","coordinates":[16.504565,43.519907]}},{"type":"Feature","properties":{},"geometry":{"type":"Point","coordinates":[16.504588,43.519903]}},{"type":"Feature","properties":{},"geometry":{"type":"Point","coordinates":[16.505482,43.520597]}},{"type":"Feature","properties":{},"geometry":{"type":"Point","coordinates":[16.506132,43.520852]}},{"type":"Feature","properties":{},"geometry":{"type":"Point","coordinates":[16.506154,43.520841]}},{"type":"Feature","properties":{},"geometry":{"type":"Point","coordinates":[16.506041,43.521406]}},{"type":"Feature","properties":{},"geometry":{"type":"Point","coordinates":[16.505843,43.521744]}},{"type":"Feature","properties":{},"geometry":{"type":"Point","coordinates":[16.50562,43.522313]}},{"type":"Feature","properties":{},"geometry":{"type":"Point","coordinates":[16.505771,43.522808]}},{"type":"Feature","properties":{},"geometry":{"type":"Point","coordinates":[16.505852,43.523502]}},{"type":"Feature","properties":{},"geometry":{"type":"Point","coordinates":[16.506686,43.523592]}},{"type":"Feature","properties":{},"geometry":{"type":"Point","coordinates":[16.505971,43.523981]}},{"type":"Feature","properties":{},"geometry":{"type":"Point","coordinates":[16.505235,43.524134]}},{"type":"Feature","properties":{},"geometry":{"type":"Point","coordinates":[16.504637,43.52418]}},{"type":"Feature","properties":{},"geometry":{"type":"Point","coordinates":[16.503527,43.524148]}},{"type":"Feature","properties":{},"geometry":{"type":"Point","coordinates":[16.503589,43.524391]}},{"type":"Feature","properties":{},"geometry":{"type":"Point","coordinates":[16.502669,43.524259]}},{"type":"Feature","properties":{},"geometry":{"type":"Point","coordinates":[16.502688,43.524279]}},{"type":"Feature","properties":{},"geometry":{"type":"Point","coordinates":[16.502679,43.524364]}},{"type":"Feature","properties":{},"geometry":{"type":"Point","coordinates":[16.502129,43.524456]}},{"type":"Feature","properties":{},"geometry":{"type":"Point","coordinates":[16.5021,43.524325]}},{"type":"Feature","properties":{},"geometry":{"type":"Point","coordinates":[16.502609,43.524099]}},{"type":"Feature","properties":{},"geometry":{"type":"Point","coordinates":[16.502559,43.523615]}},{"type":"Feature","properties":{},"geometry":{"type":"Point","coordinates":[16.502496,43.523406]}},{"type":"Feature","properties":{},"geometry":{"type":"Point","coordinates":[16.502438,43.52321]}},{"type":"Feature","properties":{},"geometry":{"type":"Point","coordinates":[16.505921,43.524444]}},{"type":"Feature","properties":{},"geometry":{"type":"Point","coordinates":[16.50642,43.524493]}},{"type":"Feature","properties":{},"geometry":{"type":"Point","coordinates":[16.506444,43.525218]}},{"type":"Feature","properties":{},"geometry":{"type":"Point","coordinates":[16.505564,43.524918]}},{"type":"Feature","properties":{},"geometry":{"type":"Point","coordinates":[16.505552,43.525272]}},{"type":"Feature","properties":{},"geometry":{"type":"Point","coordinates":[16.505154,43.524998]}},{"type":"Feature","properties":{},"geometry":{"type":"Point","coordinates":[16.504949,43.525338]}},{"type":"Feature","properties":{},"geometry":{"type":"Point","coordinates":[16.504637,43.525469]}},{"type":"Feature","properties":{},"geometry":{"type":"Point","coordinates":[16.504603,43.525412]}},{"type":"Feature","properties":{},"geometry":{"type":"Point","coordinates":[16.504484,43.525251]}},{"type":"Feature","properties":{},"geometry":{"type":"Point","coordinates":[16.50452,43.525272]}},{"type":"Feature","properties":{},"geometry":{"type":"Point","coordinates":[16.504604,43.525945]}},{"type":"Feature","properties":{},"geometry":{"type":"Point","coordinates":[16.504601,43.526229]}},{"type":"Feature","properties":{},"geometry":{"type":"Point","coordinates":[16.504188,43.526442]}},{"type":"Feature","properties":{},"geometry":{"type":"Point","coordinates":[16.504254,43.526336]}},{"type":"Feature","properties":{},"geometry":{"type":"Point","coordinates":[16.503744,43.526519]}},{"type":"Feature","properties":{},"geometry":{"type":"Point","coordinates":[16.503724,43.526595]}},{"type":"Feature","properties":{},"geometry":{"type":"Point","coordinates":[16.503389,43.526565]}},{"type":"Feature","properties":{},"geometry":{"type":"Point","coordinates":[16.503458,43.52668]}},{"type":"Feature","properties":{},"geometry":{"type":"Point","coordinates":[16.503393,43.526531]}},{"type":"Feature","properties":{},"geometry":{"type":"Point","coordinates":[16.503316,43.526478]}},{"type":"Feature","properties":{},"geometry":{"type":"Point","coordinates":[16.503419,43.52612]}},{"type":"Feature","properties":{},"geometry":{"type":"Point","coordinates":[16.503303,43.526077]}},{"type":"Feature","properties":{},"geometry":{"type":"Point","coordinates":[16.503012,43.526134]}},{"type":"Feature","properties":{},"geometry":{"type":"Point","coordinates":[16.502994,43.526156]}},{"type":"Feature","properties":{},"geometry":{"type":"Point","coordinates":[16.502879,43.525818]}},{"type":"Feature","properties":{},"geometry":{"type":"Point","coordinates":[16.502074,43.525893]}},{"type":"Feature","properties":{},"geometry":{"type":"Point","coordinates":[16.502105,43.526065]}},{"type":"Feature","properties":{},"geometry":{"type":"Point","coordinates":[16.50189,43.526237]}},{"type":"Feature","properties":{},"geometry":{"type":"Point","coordinates":[16.501926,43.526251]}},{"type":"Feature","properties":{},"geometry":{"type":"Point","coordinates":[16.50145,43.526486]}},{"type":"Feature","properties":{},"geometry":{"type":"Point","coordinates":[16.501082,43.526392]}},{"type":"Feature","properties":{},"geometry":{"type":"Point","coordinates":[16.500454,43.526675]}},{"type":"Feature","properties":{},"geometry":{"type":"Point","coordinates":[16.500768,43.52686]}},{"type":"Feature","properties":{},"geometry":{"type":"Point","coordinates":[16.501264,43.526722]}},{"type":"Feature","properties":{},"geometry":{"type":"Point","coordinates":[16.501234,43.526739]}},{"type":"Feature","properties":{},"geometry":{"type":"Point","coordinates":[16.501436,43.526848]}},{"type":"Feature","properties":{},"geometry":{"type":"Point","coordinates":[16.501473,43.526903]}},{"type":"Feature","properties":{},"geometry":{"type":"Point","coordinates":[16.50189,43.52676]}},{"type":"Feature","properties":{},"geometry":{"type":"Point","coordinates":[16.502535,43.526651]}},{"type":"Feature","properties":{},"geometry":{"type":"Point","coordinates":[16.502779,43.526376]}},{"type":"Feature","properties":{},"geometry":{"type":"Point","coordinates":[16.50289,43.526333]}},{"type":"Feature","properties":{},"geometry":{"type":"Point","coordinates":[16.502874,43.526309]}},{"type":"Feature","properties":{},"geometry":{"type":"Point","coordinates":[16.50287,43.526598]}},{"type":"Feature","properties":{},"geometry":{"type":"Point","coordinates":[16.500459,43.527362]}},{"type":"Feature","properties":{},"geometry":{"type":"Point","coordinates":[16.500246,43.527026]}},{"type":"Feature","properties":{},"geometry":{"type":"Point","coordinates":[16.500689,43.527414]}},{"type":"Feature","properties":{},"geometry":{"type":"Point","coordinates":[16.500937,43.527757]}},{"type":"Feature","properties":{},"geometry":{"type":"Point","coordinates":[16.500942,43.528137]}},{"type":"Feature","properties":{},"geometry":{"type":"Point","coordinates":[16.501065,43.52774]}},{"type":"Feature","properties":{},"geometry":{"type":"Point","coordinates":[16.50091,43.527412]}},{"type":"Feature","properties":{},"geometry":{"type":"Point","coordinates":[16.500863,43.527329]}},{"type":"Feature","properties":{},"geometry":{"type":"Point","coordinates":[16.500849,43.527306]}},{"type":"Feature","properties":{},"geometry":{"type":"Point","coordinates":[16.500965,43.527373]}},{"type":"Feature","properties":{},"geometry":{"type":"Point","coordinates":[16.50111,43.527319]}},{"type":"Feature","properties":{},"geometry":{"type":"Point","coordinates":[16.501306,43.527247]}},{"type":"Feature","properties":{},"geometry":{"type":"Point","coordinates":[16.501432,43.527402]}},{"type":"Feature","properties":{},"geometry":{"type":"Point","coordinates":[16.501987,43.527462]}},{"type":"Feature","properties":{},"geometry":{"type":"Point","coordinates":[16.502391,43.527494]}},{"type":"Feature","properties":{},"geometry":{"type":"Point","coordinates":[16.502399,43.527425]}},{"type":"Feature","properties":{},"geometry":{"type":"Point","coordinates":[16.5024,43.527403]}},{"type":"Feature","properties":{},"geometry":{"type":"Point","coordinates":[16.503118,43.527391]}},{"type":"Feature","properties":{},"geometry":{"type":"Point","coordinates":[16.504239,43.527159]}},{"type":"Feature","properties":{},"geometry":{"type":"Point","coordinates":[16.503773,43.528146]}},{"type":"Feature","properties":{},"geometry":{"type":"Point","coordinates":[16.503771,43.528187]}},{"type":"Feature","properties":{},"geometry":{"type":"Point","coordinates":[16.503978,43.528188]}},{"type":"Feature","properties":{},"geometry":{"type":"Point","coordinates":[16.503948,43.527883]}},{"type":"Feature","properties":{},"geometry":{"type":"Point","coordinates":[16.504395,43.527911]}},{"type":"Feature","properties":{},"geometry":{"type":"Point","coordinates":[16.504384,43.527894]}},{"type":"Feature","properties":{},"geometry":{"type":"Point","coordinates":[16.504762,43.527717]}},{"type":"Feature","properties":{},"geometry":{"type":"Point","coordinates":[16.504998,43.527631]}},{"type":"Feature","properties":{},"geometry":{"type":"Point","coordinates":[16.505622,43.52754]}},{"type":"Feature","properties":{},"geometry":{"type":"Point","coordinates":[16.505658,43.527634]}},{"type":"Feature","properties":{},"geometry":{"type":"Point","coordinates":[16.506385,43.527193]}},{"type":"Feature","properties":{},"geometry":{"type":"Point","coordinates":[16.503964,43.526045]}},{"type":"Feature","properties":{},"geometry":{"type":"Point","coordinates":[16.503587,43.525932]}},{"type":"Feature","properties":{},"geometry":{"type":"Point","coordinates":[16.503621,43.525939]}},{"type":"Feature","properties":{},"geometry":{"type":"Point","coordinates":[16.503404,43.525658]}},{"type":"Feature","properties":{},"geometry":{"type":"Point","coordinates":[16.503416,43.525565]}},{"type":"Feature","properties":{},"geometry":{"type":"Point","coordinates":[16.503928,43.525739]}},{"type":"Feature","properties":{},"geometry":{"type":"Point","coordinates":[16.503795,43.525622]}},{"type":"Feature","properties":{},"geometry":{"type":"Point","coordinates":[16.503828,43.525589]}},{"type":"Feature","properties":{},"geometry":{"type":"Point","coordinates":[16.503718,43.525555]}},{"type":"Feature","properties":{},"geometry":{"type":"Point","coordinates":[16.504146,43.525656]}},{"type":"Feature","properties":{},"geometry":{"type":"Point","coordinates":[16.503915,43.525357]}},{"type":"Feature","properties":{},"geometry":{"type":"Point","coordinates":[16.503278,43.525204]}},{"type":"Feature","properties":{},"geometry":{"type":"Point","coordinates":[16.503959,43.525048]}},{"type":"Feature","properties":{},"geometry":{"type":"Point","coordinates":[16.504649,43.524955]}},{"type":"Feature","properties":{},"geometry":{"type":"Point","coordinates":[16.506925,43.52053]}},{"type":"Feature","properties":{},"geometry":{"type":"Point","coordinates":[16.50595,43.51991]}},{"type":"Feature","properties":{},"geometry":{"type":"Point","coordinates":[16.506393,43.519876]}},{"type":"Feature","properties":{},"geometry":{"type":"Point","coordinates":[16.493444,43.52248]}},{"type":"Feature","properties":{},"geometry":{"type":"Point","coordinates":[16.49333,43.522599]}},{"type":"Feature","properties":{},"geometry":{"type":"Point","coordinates":[16.493278,43.522842]}},{"type":"Feature","properties":{},"geometry":{"type":"Point","coordinates":[16.494113,43.522642]}},{"type":"Feature","properties":{},"geometry":{"type":"Point","coordinates":[16.494072,43.522597]}},{"type":"Feature","properties":{},"geometry":{"type":"Point","coordinates":[16.494758,43.522568]}},{"type":"Feature","properties":{},"geometry":{"type":"Point","coordinates":[16.495418,43.523543]}},{"type":"Feature","properties":{},"geometry":{"type":"Point","coordinates":[16.495276,43.524051]}},{"type":"Feature","properties":{},"geometry":{"type":"Point","coordinates":[16.494931,43.524972]}},{"type":"Feature","properties":{},"geometry":{"type":"Point","coordinates":[16.494908,43.524964]}},{"type":"Feature","properties":{},"geometry":{"type":"Point","coordinates":[16.495704,43.524869]}},{"type":"Feature","properties":{},"geometry":{"type":"Point","coordinates":[16.49624,43.52469]}},{"type":"Feature","properties":{},"geometry":{"type":"Point","coordinates":[16.497159,43.524472]}},{"type":"Feature","properties":{},"geometry":{"type":"Point","coordinates":[16.497062,43.524382]}},{"type":"Feature","properties":{},"geometry":{"type":"Point","coordinates":[16.496935,43.524356]}},{"type":"Feature","properties":{},"geometry":{"type":"Point","coordinates":[16.494483,43.524823]}},{"type":"Feature","properties":{},"geometry":{"type":"Point","coordinates":[16.494102,43.524812]}},{"type":"Feature","properties":{},"geometry":{"type":"Point","coordinates":[16.494931,43.525113]}},{"type":"Feature","properties":{},"geometry":{"type":"Point","coordinates":[16.494872,43.525394]}},{"type":"Feature","properties":{},"geometry":{"type":"Point","coordinates":[16.494938,43.525405]}},{"type":"Feature","properties":{},"geometry":{"type":"Point","coordinates":[16.494667,43.526176]}},{"type":"Feature","properties":{},"geometry":{"type":"Point","coordinates":[16.494635,43.526207]}},{"type":"Feature","properties":{},"geometry":{"type":"Point","coordinates":[16.495439,43.526389]}},{"type":"Feature","properties":{},"geometry":{"type":"Point","coordinates":[16.495427,43.526521]}},{"type":"Feature","properties":{},"geometry":{"type":"Point","coordinates":[16.495407,43.526947]}},{"type":"Feature","properties":{},"geometry":{"type":"Point","coordinates":[16.495391,43.526917]}},{"type":"Feature","properties":{},"geometry":{"type":"Point","coordinates":[16.495212,43.526921]}},{"type":"Feature","properties":{},"geometry":{"type":"Point","coordinates":[16.494171,43.526]}},{"type":"Feature","properties":{},"geometry":{"type":"Point","coordinates":[16.494439,43.526866]}},{"type":"Feature","properties":{},"geometry":{"type":"Point","coordinates":[16.494266,43.52722]}},{"type":"Feature","properties":{},"geometry":{"type":"Point","coordinates":[16.493776,43.527048]}},{"type":"Feature","properties":{},"geometry":{"type":"Point","coordinates":[16.494452,43.527264]}},{"type":"Feature","properties":{},"geometry":{"type":"Point","coordinates":[16.49461,43.527335]}},{"type":"Feature","properties":{},"geometry":{"type":"Point","coordinates":[16.494924,43.527375]}},{"type":"Feature","properties":{},"geometry":{"type":"Point","coordinates":[16.495417,43.527377]}},{"type":"Feature","properties":{},"geometry":{"type":"Point","coordinates":[16.495413,43.52772]}},{"type":"Feature","properties":{},"geometry":{"type":"Point","coordinates":[16.495768,43.527783]}},{"type":"Feature","properties":{},"geometry":{"type":"Point","coordinates":[16.491809,43.523128]}},{"type":"Feature","properties":{},"geometry":{"type":"Point","coordinates":[16.491649,43.523301]}},{"type":"Feature","properties":{},"geometry":{"type":"Point","coordinates":[16.491862,43.523259]}},{"type":"Feature","properties":{},"geometry":{"type":"Point","coordinates":[16.491865,43.523267]}},{"type":"Feature","properties":{},"geometry":{"type":"Point","coordinates":[16.491905,43.523316]}},{"type":"Feature","properties":{},"geometry":{"type":"Point","coordinates":[16.491133,43.523524]}},{"type":"Feature","properties":{},"geometry":{"type":"Point","coordinates":[16.490951,43.523163]}},{"type":"Feature","properties":{},"geometry":{"type":"Point","coordinates":[16.491512,43.522963]}},{"type":"Feature","properties":{},"geometry":{"type":"Point","coordinates":[16.490388,43.523093]}},{"type":"Feature","properties":{},"geometry":{"type":"Point","coordinates":[16.490475,43.523443]}},{"type":"Feature","properties":{},"geometry":{"type":"Point","coordinates":[16.490508,43.523449]}},{"type":"Feature","properties":{},"geometry":{"type":"Point","coordinates":[16.490519,43.523612]}},{"type":"Feature","properties":{},"geometry":{"type":"Point","coordinates":[16.49046,43.523839]}},{"type":"Feature","properties":{},"geometry":{"type":"Point","coordinates":[16.489441,43.524019]}},{"type":"Feature","properties":{},"geometry":{"type":"Point","coordinates":[16.489522,43.52411]}},{"type":"Feature","properties":{},"geometry":{"type":"Point","coordinates":[16.489567,43.524162]}},{"type":"Feature","properties":{},"geometry":{"type":"Point","coordinates":[16.490041,43.52382]}},{"type":"Feature","properties":{},"geometry":{"type":"Point","coordinates":[16.489932,43.52437]}},{"type":"Feature","properties":{},"geometry":{"type":"Point","coordinates":[16.489675,43.52452]}},{"type":"Feature","properties":{},"geometry":{"type":"Point","coordinates":[16.490529,43.524788]}},{"type":"Feature","properties":{},"geometry":{"type":"Point","coordinates":[16.490944,43.525085]}},{"type":"Feature","properties":{},"geometry":{"type":"Point","coordinates":[16.491439,43.525425]}},{"type":"Feature","properties":{},"geometry":{"type":"Point","coordinates":[16.492226,43.525505]}},{"type":"Feature","properties":{},"geometry":{"type":"Point","coordinates":[16.492225,43.525528]}},{"type":"Feature","properties":{},"geometry":{"type":"Point","coordinates":[16.492188,43.525521]}},{"type":"Feature","properties":{},"geometry":{"type":"Point","coordinates":[16.4926,43.525521]}},{"type":"Feature","properties":{},"geometry":{"type":"Point","coordinates":[16.491761,43.524914]}},{"type":"Feature","properties":{},"geometry":{"type":"Point","coordinates":[16.491819,43.524829]}},{"type":"Feature","properties":{},"geometry":{"type":"Point","coordinates":[16.492622,43.524681]}},{"type":"Feature","properties":{},"geometry":{"type":"Point","coordinates":[16.492589,43.524665]}},{"type":"Feature","properties":{},"geometry":{"type":"Point","coordinates":[16.493285,43.524649]}},{"type":"Feature","properties":{},"geometry":{"type":"Point","coordinates":[16.493273,43.525516]}},{"type":"Feature","properties":{},"geometry":{"type":"Point","coordinates":[16.493707,43.525789]}},{"type":"Feature","properties":{},"geometry":{"type":"Point","coordinates":[16.49344,43.526137]}},{"type":"Feature","properties":{},"geometry":{"type":"Point","coordinates":[16.493272,43.526444]}},{"type":"Feature","properties":{},"geometry":{"type":"Point","coordinates":[16.493263,43.526442]}},{"type":"Feature","properties":{},"geometry":{"type":"Point","coordinates":[16.492625,43.527364]}},{"type":"Feature","properties":{},"geometry":{"type":"Point","coordinates":[16.492652,43.527576]}},{"type":"Feature","properties":{},"geometry":{"type":"Point","coordinates":[16.492854,43.527596]}},{"type":"Feature","properties":{},"geometry":{"type":"Point","coordinates":[16.493018,43.527839]}},{"type":"Feature","properties":{},"geometry":{"type":"Point","coordinates":[16.493002,43.527828]}},{"type":"Feature","properties":{},"geometry":{"type":"Point","coordinates":[16.493154,43.528232]}},{"type":"Feature","properties":{},"geometry":{"type":"Point","coordinates":[16.49368,43.52792]}},{"type":"Feature","properties":{},"geometry":{"type":"Point","coordinates":[16.493807,43.527924]}},{"type":"Feature","properties":{},"geometry":{"type":"Point","coordinates":[16.493749,43.527801]}},{"type":"Feature","properties":{},"geometry":{"type":"Point","coordinates":[16.493748,43.527781]}},{"type":"Feature","properties":{},"geometry":{"type":"Point","coordinates":[16.493781,43.52775]}},{"type":"Feature","properties":{},"geometry":{"type":"Point","coordinates":[16.493879,43.527764]}},{"type":"Feature","properties":{},"geometry":{"type":"Point","coordinates":[16.493521,43.527676]}},{"type":"Feature","properties":{},"geometry":{"type":"Point","coordinates":[16.494126,43.527409]}},{"type":"Feature","properties":{},"geometry":{"type":"Point","coordinates":[16.491439,43.52926]}},{"type":"Feature","properties":{},"geometry":{"type":"Point","coordinates":[16.491883,43.529366]}},{"type":"Feature","properties":{},"geometry":{"type":"Point","coordinates":[16.497393,43.528952]}},{"type":"Feature","properties":{},"geometry":{"type":"Point","coordinates":[16.496881,43.528973]}},{"type":"Feature","properties":{},"geometry":{"type":"Point","coordinates":[16.496204,43.529058]}},{"type":"Feature","properties":{},"geometry":{"type":"Point","coordinates":[16.4956,43.529159]}},{"type":"Feature","properties":{},"geometry":{"type":"Point","coordinates":[16.495332,43.52947]}},{"type":"Feature","properties":{},"geometry":{"type":"Point","coordinates":[16.49534,43.529593]}},{"type":"Feature","properties":{},"geometry":{"type":"Point","coordinates":[16.495418,43.529909]}},{"type":"Feature","properties":{},"geometry":{"type":"Point","coordinates":[16.490901,43.526674]}},{"type":"Feature","properties":{},"geometry":{"type":"Point","coordinates":[16.490639,43.526827]}},{"type":"Feature","properties":{},"geometry":{"type":"Point","coordinates":[16.490169,43.526941]}},{"type":"Feature","properties":{},"geometry":{"type":"Point","coordinates":[16.489127,43.530144]}},{"type":"Feature","properties":{},"geometry":{"type":"Point","coordinates":[16.489726,43.528549]}},{"type":"Feature","properties":{},"geometry":{"type":"Point","coordinates":[16.488938,43.525237]}},{"type":"Feature","properties":{},"geometry":{"type":"Point","coordinates":[16.487765,43.52434]}}]}