{"type":"FeatureCollection","name":"Split_HT_stupovi","crs":{"type":"name","properties":{"name":"urn:ogc:def:crs:OGC:1.3:CRS84"}},"xy_coordinate_resolution":0.000001,"features":[{"type":"Feature","properties":{"namjena":"Telekomunikacijski","uzemljenje":"NE"},"geometry":{"type":"Point","coordinates":[16.489951,43.526966]}},{"type":"Feature","properties":{"namjena":"Telekomunikacijski","uzemljenje":"NE"},"geometry":{"type":"Point","coordinates":[16.490056,43.526733]}},{"type":"Feature","properties":{"namjena":"Telekomunikacijski","uzemljenje":"NE"},"geometry":{"type":"Point","coordinates":[16.492119,43.529295]}},{"type":"Feature","properties":{"namjena":"Telekomunikacijski","uzemljenje":"NE"},"geometry":{"type":"Point","coordinates":[16.489908,43.527318]}},{"type":"Feature","properties":{"namjena":"Telekomunikacijski","uzemljenje":"NE"},"geometry":{"type":"Point","coordinates":[16.493652,43.529312]}},{"type":"Feature","properties":{"namjena":"Telekomunikacijski","uzemljenje":"NE"},"geometry":{"type":"Point","coordinates":[16.489761,43.527657]}},{"type":"Feature","properties":{"namjena":"Telekomunikacijski","uzemljenje":"NE"},"geometry":{"type":"Point","coordinates":[16.494175,43.529247]}},{"type":"Feature","properties":{"namjena":"Telekomunikacijski","uzemljenje":"NE"},"geometry":{"type":"Point","coordinates":[16.489638,43.528183]}},{"type":"Feature","properties":{"namjena":"Telekomunikacijski","uzemljenje":"NE"},"geometry":{"type":"Point","coordinates":[16.489229,43.528121]}}]}