{"type":"FeatureCollection","name":"sn_trafostanica_poligon_2022","crs":{"type":"name","properties":{"name":"urn:ogc:def:crs:OGC:1.3:CRS84"}},"xy_coordinate_resolution":0.000001,"features":[{"type":"Feature","properties":{"oznaka":"1TS773","naziv":"BILICE 4","izvedba":"KTS"},"geometry":{"type":"Polygon","coordinates":[[[16.488901,43.529138],[16.488902,43.529156],[16.488927,43.529156],[16.488926,43.529138],[16.488901,43.529138]]]}},{"type":"Feature","properties":{"oznaka":"1TS949","naziv":"MERKATOR","izvedba":"KTS"},"geometry":{"type":"Polygon","coordinates":[[[16.490523,43.529475],[16.490582,43.529475],[16.490583,43.529431],[16.490523,43.529431],[16.490523,43.529475]]]}},{"type":"Feature","properties":{"oznaka":"1TS323","naziv":"MOSTINE","adresa":"BILICE II 14","izvedba":"TOR"},"geometry":{"type":"Polygon","coordinates":[[[16.49256,43.525482],[16.492608,43.525482],[16.492607,43.52543],[16.492559,43.52543],[16.49256,43.525482]]]}},{"type":"Feature","properties":{"oznaka":"1TS744","naziv":"ZATVOR","adresa":"DRAČEVAC 2C","izvedba":"KTS"},"geometry":{"type":"Polygon","coordinates":[[[16.498088,43.528589],[16.498088,43.528607],[16.498113,43.528606],[16.498113,43.528588],[16.498088,43.528589]]]}},{"type":"Feature","properties":{"oznaka":"1TS1065","naziv":"DRAČEVAC 4 (NIRS)","izvedba":"KTS"},"geometry":{"type":"Polygon","coordinates":[[[16.501887,43.527819],[16.501954,43.527828],[16.501953,43.527798],[16.501887,43.52779],[16.501887,43.527819]]]}},{"type":"Feature","properties":{"oznaka":"1TS894","naziv":"MOSTINE 2","izvedba":"KTS"},"geometry":{"type":"Polygon","coordinates":[[[16.491135,43.526543],[16.491182,43.526518],[16.491152,43.526488],[16.491104,43.526512],[16.491135,43.526543]]]}},{"type":"Feature","properties":{"oznaka":"1TS496","naziv":"ČISTOĆA","izvedba":"slobodnostojeća"},"geometry":{"type":"Polygon","coordinates":[[[16.499893,43.52306],[16.499894,43.523078],[16.499918,43.523078],[16.499918,43.52306],[16.499893,43.52306]]]}},{"type":"Feature","properties":{"oznaka":"1TS769","naziv":"DRAČEVAC 2","izvedba":"KTS"},"geometry":{"type":"Polygon","coordinates":[[[16.496844,43.525314],[16.496843,43.525357],[16.496888,43.525358],[16.49689,43.525315],[16.496844,43.525314]]]}},{"type":"Feature","properties":{"oznaka":"1TS951","naziv":"MOSTINE 4","izvedba":"TOR"},"geometry":{"type":"Polygon","coordinates":[[[16.493977,43.523426],[16.494011,43.523422],[16.494018,43.523454],[16.494098,43.523444],[16.49408,43.523366],[16.493965,43.523381],[16.493977,43.523426]]]}},{"type":"Feature","properties":{"oznaka":"1TS868","naziv":"DRAČEVAC 3","izvedba":"KTS"},"geometry":{"type":"Polygon","coordinates":[[[16.502895,43.526658],[16.502959,43.526659],[16.502961,43.52662],[16.502896,43.526619],[16.502895,43.526658]]]}},{"type":"Feature","properties":{"oznaka":"1TS768","naziv":"DRAČEVAC 1","izvedba":"KTS"},"geometry":{"type":"Polygon","coordinates":[[[16.498422,43.526697],[16.498481,43.526697],[16.498481,43.526664],[16.498422,43.526664],[16.498422,43.526697]]]}},{"type":"Feature","properties":{"oznaka":"1TS361","naziv":"DALMASTROJ 1","izvedba":"slobodnostojeća"},"geometry":{"type":"Polygon","coordinates":[[[16.492936,43.522431],[16.492986,43.522415],[16.492978,43.522399],[16.492927,43.522415],[16.492936,43.522431]]]}},{"type":"Feature","properties":{"oznaka":"1TS1038","naziv":"MORĐIN 2","izvedba":"KTS"},"geometry":{"type":"Polygon","coordinates":[[[16.490567,43.529226],[16.490614,43.529227],[16.490614,43.529191],[16.490568,43.52919],[16.490567,43.529226]]]}},{"type":"Feature","properties":{"oznaka":"1TS325","naziv":"KAREPOVAC","izvedba":"KTS"},"geometry":{"type":"Polygon","coordinates":[[[16.494077,43.522474],[16.494084,43.522495],[16.494103,43.522492],[16.494096,43.52247],[16.494077,43.522474]]]}},{"type":"Feature","properties":{"oznaka":"1TS385","naziv":"DALMASTROJ 3","izvedba":"KTS"},"geometry":{"type":"Polygon","coordinates":[[[16.492943,43.522846],[16.493065,43.522812],[16.493047,43.522777],[16.492924,43.522811],[16.492943,43.522846]]]}}]}