{"type":"FeatureCollection","name":"sn_trafostanica_tocka_2022","crs":{"type":"name","properties":{"name":"urn:ogc:def:crs:OGC:1.3:CRS84"}},"xy_coordinate_resolution":0.000001,"features":[{"type":"Feature","properties":{"oznaka":"1TS125000","naziv":"KARABAŠ 3","izvedba":"KTS","napon":"10 kV"},"geometry":{"type":"Point","coordinates":[16.499914,43.5291]}},{"type":"Feature","properties":{"oznaka":"1TS951","naziv":"MOSTINE 4","izvedba":"TOR","napon":"10 kV"},"geometry":{"type":"Point","coordinates":[16.494043,43.523402]}},{"type":"Feature","properties":{"oznaka":"1TS325","naziv":"KAREPOVAC","izvedba":"KTS","napon":"10 kV"},"geometry":{"type":"Point","coordinates":[16.494091,43.522483]}},{"type":"Feature","properties":{"oznaka":"1TS894","naziv":"MOSTINE 2","izvedba":"KTS","napon":"10 kV"},"geometry":{"type":"Point","coordinates":[16.491131,43.526538]}},{"type":"Feature","properties":{"oznaka":"1TS773","naziv":"BILICE 4","izvedba":"KTS","napon":"10 kV"},"geometry":{"type":"Point","coordinates":[16.488914,43.529147]}},{"type":"Feature","properties":{"oznaka":"1TS361","naziv":"DALMASTROJ 1","izvedba":"slobodnostojeća","napon":"10 kV"},"geometry":{"type":"Point","coordinates":[16.492956,43.522415]}},{"type":"Feature","properties":{"oznaka":"1TS496","naziv":"ČISTOĆA","izvedba":"slobodnostojeća","napon":"10 kV"},"geometry":{"type":"Point","coordinates":[16.499906,43.523069]}},{"type":"Feature","properties":{"oznaka":"1TS769","naziv":"DRAČEVAC 2","izvedba":"KTS","napon":"10 kV"},"geometry":{"type":"Point","coordinates":[16.496863,43.525337]}},{"type":"Feature","properties":{"oznaka":"1TS1038","naziv":"MORĐIN 2","izvedba":"KTS","napon":"10 kV"},"geometry":{"type":"Point","coordinates":[16.490592,43.529209]}},{"type":"Feature","properties":{"oznaka":"1TS868","naziv":"DRAČEVAC 3","izvedba":"KTS","napon":"10 kV"},"geometry":{"type":"Point","coordinates":[16.502927,43.52664]}},{"type":"Feature","properties":{"oznaka":"1TS744","naziv":"ZATVOR","izvedba":"KTS","napon":"10 kV"},"geometry":{"type":"Point","coordinates":[16.498101,43.528597]}},{"type":"Feature","properties":{"oznaka":"1TS385","naziv":"DALMASTROJ 3","izvedba":"KTS","napon":"10 kV"},"geometry":{"type":"Point","coordinates":[16.493003,43.522808]}},{"type":"Feature","properties":{"oznaka":"1TS949","naziv":"MERKATOR","izvedba":"KTS","napon":"10 kV"},"geometry":{"type":"Point","coordinates":[16.490551,43.529454]}},{"type":"Feature","properties":{"oznaka":"1TS1235","naziv":"KAREPOVAC 2","izvedba":"KTS","napon":"10 kV"},"geometry":{"type":"Point","coordinates":[16.506256,43.52111]}},{"type":"Feature","properties":{"oznaka":"1TS1065","naziv":"DRAČEVAC 4 (NIRS)","izvedba":"KTS","napon":"10 kV"},"geometry":{"type":"Point","coordinates":[16.501919,43.527808]}},{"type":"Feature","properties":{"oznaka":"1TS768","naziv":"DRAČEVAC 1","izvedba":"KTS","napon":"10 kV"},"geometry":{"type":"Point","coordinates":[16.498451,43.52668]}},{"type":"Feature","properties":{"oznaka":"1TS323","naziv":"MOSTINE","izvedba":"TOR","napon":"10 kV"},"geometry":{"type":"Point","coordinates":[16.492566,43.525487]}}]}