{"type":"FeatureCollection","name":"vn_trafostanica_poligon_2022","crs":{"type":"name","properties":{"name":"urn:ogc:def:crs:OGC:1.3:CRS84"}},"xy_coordinate_resolution":0.000001,"features":[{"type":"Feature","properties":{"oznaka":"4TS3","naziv":"110 METERIZE","prijenos":"110/35 kV"},"geometry":{"type":"Polygon","coordinates":[[[16.500642,43.529225],[16.500891,43.529203],[16.500895,43.529222],[16.501021,43.529213],[16.501008,43.529124],[16.500986,43.529126],[16.500976,43.529074],[16.500873,43.529083],[16.500875,43.5291],[16.500628,43.529122],[16.500642,43.529225]]]}}]}