{"type":"FeatureCollection","name":"Ulice","crs":{"type":"name","properties":{"name":"urn:ogc:def:crs:OGC:1.3:CRS84"}},"xy_coordinate_resolution":0.000001,"features":[{"type":"Feature","properties":{"naziv":"Dračevac","sifra":"0592001601","naselje":"Split"},"geometry":{"type":"MultiLineString","coordinates":[[[16.505959,43.524002],[16.505644,43.522312],[16.505481,43.522348],[16.505184,43.522364],[16.504944,43.522359],[16.504831,43.522333],[16.504647,43.522266],[16.504315,43.522287],[16.504208,43.522317]],[[16.504498,43.52418],[16.504951,43.524154],[16.505298,43.524128],[16.505552,43.524077],[16.505959,43.524002]],[[16.504498,43.52418],[16.504272,43.524164],[16.504032,43.524138],[16.503798,43.524138],[16.503537,43.524144],[16.503155,43.524205],[16.502858,43.524262],[16.502674,43.524257]],[[16.502674,43.524257],[16.502582,43.523825],[16.502533,43.523511],[16.502412,43.523166]],[[16.504541,43.524931],[16.504421,43.524833],[16.504442,43.524715],[16.504506,43.524596],[16.504548,43.524504],[16.504555,43.524365],[16.504498,43.52418]],[[16.504541,43.524931],[16.503841,43.525044],[16.503742,43.524915],[16.503657,43.524442]],[[16.50514,43.525004],[16.504909,43.524993],[16.50469,43.524957],[16.504541,43.524931]],[[16.50514,43.525004],[16.505412,43.524976],[16.50565,43.524941],[16.505741,43.524822],[16.505846,43.524598],[16.505941,43.524305],[16.50598,43.524162],[16.505959,43.524002]],[[16.50461,43.525465],[16.504682,43.525438],[16.505095,43.525271],[16.505119,43.525184],[16.50514,43.525004]],[[16.50461,43.525465],[16.504668,43.525574],[16.504654,43.525759],[16.504569,43.525934],[16.504605,43.526099],[16.504619,43.52633]],[[16.5014,43.526827],[16.501302,43.526722],[16.501288,43.526629],[16.501613,43.526418],[16.501847,43.526238],[16.502045,43.525945],[16.501917,43.52543],[16.502243,43.525404],[16.502151,43.524792],[16.502186,43.524694],[16.502207,43.524576],[16.502681,43.524468],[16.502674,43.524257]],[[16.5014,43.526827],[16.50147,43.526805],[16.501722,43.526761],[16.501891,43.526759],[16.502064,43.526773],[16.503175,43.526529],[16.503292,43.526472],[16.503333,43.526397],[16.503363,43.526223],[16.503419,43.526061],[16.503593,43.525892],[16.504108,43.525656],[16.50461,43.525465]],[[16.50103,43.527835],[16.501013,43.527713],[16.500954,43.52758],[16.500951,43.527457],[16.501033,43.527385],[16.501271,43.52732],[16.501483,43.527317],[16.501749,43.527283],[16.501874,43.527189],[16.50183,43.527128],[16.501659,43.527049],[16.501544,43.526938],[16.5014,43.526827]]]}},{"type":"Feature","properties":{"naziv":"Karepovac","sifra":"0592001682","naselje":"Split"},"geometry":{"type":"MultiLineString","coordinates":[[[16.504933,43.520337],[16.504799,43.520153],[16.50464,43.52006],[16.504577,43.519859],[16.504577,43.519588],[16.504577,43.519470826252316]],[[16.504933,43.520337],[16.505087,43.520287],[16.505185,43.52019],[16.505208,43.52008],[16.5052,43.519976],[16.50528,43.519942]],[[16.497259,43.520404],[16.497117,43.520496],[16.496958,43.520606],[16.496855,43.52075],[16.496729,43.520928],[16.496713,43.521061],[16.497045,43.521026],[16.497433,43.520997],[16.497742,43.521009],[16.498154,43.521084],[16.49847,43.521044],[16.498597,43.52113],[16.498698,43.521468]],[[16.504492,43.520538],[16.504799,43.520395],[16.504933,43.520337]],[[16.504492,43.520538],[16.504765,43.520494],[16.50509,43.52047],[16.505655,43.520645],[16.506314,43.520868]],[[16.498698,43.521468],[16.500329,43.521033],[16.501493,43.520687],[16.50192,43.520599],[16.502255,43.520548],[16.502854,43.520601],[16.503546,43.520653],[16.5043,43.520568],[16.504492,43.520538]],[[16.496148,43.52254],[16.496435,43.522454],[16.496722,43.522349],[16.496924,43.522217],[16.497116,43.522052],[16.497541,43.521863],[16.498698,43.521468]]]}},{"type":"Feature","properties":{"naziv":"ULICA ZNG","sifra":"0592003078","naselje":"Split"},"geometry":{"type":"LineString","coordinates":[[16.486975858925536,43.52361972011486],[16.487227,43.523812],[16.487481,43.52401],[16.488741,43.52495],[16.489032,43.525178],[16.489312,43.525412],[16.489583,43.525652],[16.489729,43.525825],[16.489861,43.526003],[16.489979,43.526186],[16.490082,43.526374],[16.490171,43.526566],[16.49022,43.526724],[16.490256,43.526884],[16.490277,43.527045],[16.490284,43.527206],[16.490277,43.527368],[16.490255,43.527529],[16.49022,43.527707],[16.49017,43.527883],[16.490106,43.528056],[16.490028,43.528227],[16.489937,43.528394],[16.489832,43.528556],[16.489668,43.528806],[16.489498,43.529053],[16.48934,43.529268]]}},{"type":"Feature","properties":{"naziv":"PUT MOSTINA","sifra":"0592001795","naselje":"Split"},"geometry":{"type":"LineString","coordinates":[[16.486975858925536,43.52509753594907],[16.487187,43.525056],[16.487299,43.525027],[16.487406,43.524991],[16.48751,43.524949],[16.48757,43.52492],[16.487623,43.524883],[16.487666,43.52484],[16.487728,43.524745],[16.487799,43.524654],[16.487879,43.524567],[16.487968,43.524484],[16.488043,43.524429]]}},{"type":"Feature","properties":{"naziv":"PUT SV.IŽIDORA","sifra":"0272192964","naselje":"Kamen"},"geometry":{"type":"LineString","coordinates":[[16.506626942084104,43.519470826252316],[16.506655,43.519555],[16.506734,43.519746],[16.506829,43.520044],[16.506885,43.520633]]}},{"type":"Feature","properties":{"naziv":"PUT SV.IŽIDORA","sifra":"0592002964","naselje":"Split"},"geometry":{"type":"MultiLineString","coordinates":[[[16.506611275417438,43.519470826252316],[16.506649,43.519584],[16.506721,43.51975],[16.506763,43.519883]],[[16.506763,43.519883],[16.5066,43.51988],[16.506268,43.519902],[16.505965,43.519889]],[[16.506763,43.519883],[16.506817,43.520052],[16.506868,43.520635]]]}},{"type":"Feature","properties":{"naziv":"Mostine","sifra":"0592001796","naselje":"Split"},"geometry":{"type":"LineString","coordinates":[[16.488043,43.524429],[16.488055,43.524421],[16.488153,43.524367],[16.488259,43.524322],[16.488373,43.524287],[16.488613,43.524207],[16.488966,43.524141],[16.489367,43.524129],[16.489672,43.52403],[16.489949,43.523877],[16.490169,43.523718],[16.490381,43.523607],[16.490763,43.523582],[16.491172,43.523509],[16.491738,43.523379],[16.492377,43.523174],[16.493144,43.522879],[16.493329,43.522815],[16.494444,43.522584],[16.495619,43.522575],[16.49594,43.522566],[16.496148,43.52254]]}},{"type":"Feature","properties":{"naziv":"Bilice II","sifra":"0592001553","naselje":"Split"},"geometry":{"type":"MultiLineString","coordinates":[[[16.489597,43.525649],[16.489966,43.525535],[16.490434,43.525405],[16.490987,43.525412],[16.491661,43.52544],[16.492304,43.525475],[16.492988,43.525503],[16.493199,43.525507],[16.494612,43.526197],[16.496644,43.526732]],[[16.491737,43.526157],[16.491381,43.526331],[16.490994,43.526524],[16.491,43.526601],[16.4911,43.526686],[16.49136,43.526751],[16.491647,43.526825],[16.491954,43.526952],[16.49223,43.527122],[16.492341,43.527299],[16.492421,43.527492],[16.492458,43.527558],[16.492777,43.527561]],[[16.492777,43.527561],[16.492931,43.527698],[16.493101,43.528076],[16.493124,43.528185],[16.493046,43.528281],[16.492927,43.528326],[16.492786,43.528328],[16.492445,43.528332]],[[16.492777,43.527561],[16.493597,43.527679],[16.493756,43.527775],[16.493941,43.527872],[16.494047,43.527957],[16.494159,43.528184],[16.494275,43.528385],[16.49444,43.528686],[16.494578,43.528937],[16.494726,43.52923]]]}},{"type":"Feature","properties":{"naziv":"Bilice I","sifra":"0592001551","naselje":"Split"},"geometry":{"type":"MultiLineString","coordinates":[[[16.487663,43.524843],[16.487711,43.524872],[16.487751,43.524906],[16.487784,43.524944],[16.487809,43.524986],[16.487915,43.525168],[16.488007,43.525355],[16.488084,43.525545],[16.488145,43.525738],[16.488191,43.525933],[16.488197,43.525987],[16.488218,43.52604],[16.488253,43.526088],[16.4883,43.52613],[16.488359,43.526164],[16.488426,43.526188],[16.488481,43.526198],[16.488531,43.526218],[16.488573,43.526246],[16.488603,43.526281],[16.488621,43.52632],[16.488625,43.526361],[16.488623,43.52661],[16.488607,43.526858],[16.488575,43.527106],[16.488552,43.527242]],[[16.488552,43.527242],[16.4886,43.527243],[16.489091,43.527233],[16.489163,43.527226],[16.489236,43.527227],[16.489308,43.527236],[16.490282,43.527277]],[[16.486975858925536,43.52727605824753],[16.487029,43.527266],[16.487311,43.527227],[16.487623,43.52722],[16.487934,43.527219],[16.488246,43.527225],[16.488423,43.527239],[16.488552,43.527242]]]}}]}