{"type":"FeatureCollection","name":"Ulice_Buffer","crs":{"type":"name","properties":{"name":"urn:ogc:def:crs:OGC:1.3:CRS84"}},"xy_coordinate_resolution":0.000001,"features":[{"type":"Feature","properties":{"naziv":"PUT MOSTINA","naselje":"Split"},"geometry":{"type":"Polygon","coordinates":[[[16.48716506202871,43.5247743126571],[16.487238,43.52475],[16.487315,43.524719],[16.487337,43.524708],[16.487343,43.524704],[16.487346,43.524701],[16.487392,43.52463],[16.487395,43.524626],[16.487405,43.524612],[16.487476,43.524521],[16.487478,43.524519],[16.48749,43.524504],[16.48757,43.524417],[16.487586,43.524401],[16.487675,43.524318],[16.487689,43.524306],[16.487705,43.524293],[16.487707,43.524291],[16.487783,43.524237],[16.487799,43.524226],[16.487817,43.524215],[16.487837,43.524205],[16.487879,43.524187],[16.487901,43.52418],[16.487924,43.524174],[16.487947,43.524169],[16.487971,43.524165],[16.487995,43.524162],[16.488019,43.52416],[16.488043,43.524159],[16.488068,43.52416],[16.488092,43.524162],[16.488116,43.524165],[16.488139,43.524169],[16.488163,43.524174],[16.488185,43.52418],[16.488207,43.524187],[16.488229,43.524196],[16.488249,43.524205],[16.488269,43.524215],[16.488288,43.524226],[16.488306,43.524239],[16.488322,43.524251],[16.488338,43.524265],[16.488352,43.524279],[16.488365,43.524294],[16.488376,43.52431],[16.488386,43.524326],[16.488395,43.524343],[16.488402,43.52436],[16.488407,43.524377],[16.488411,43.524394],[16.488414,43.524412],[16.488414,43.524447],[16.488411,43.524465],[16.488407,43.524482],[16.488402,43.524499],[16.488395,43.524516],[16.488386,43.524533],[16.488376,43.524549],[16.488365,43.524565],[16.488352,43.52458],[16.488338,43.524594],[16.488322,43.524608],[16.488306,43.52462],[16.488304,43.524622],[16.488246,43.524663],[16.48818,43.524725],[16.488115,43.524796],[16.488057,43.52487],[16.488001,43.524956],[16.487999,43.52496],[16.487987,43.524975],[16.487974,43.52499],[16.487965,43.525],[16.487922,43.525043],[16.487917,43.525047],[16.487902,43.525061],[16.487885,43.525074],[16.487879,43.525078],[16.487827,43.525115],[16.487815,43.525123],[16.487796,43.525134],[16.487776,43.525144],[16.487715,43.525174],[16.487695,43.525183],[16.487692,43.525184],[16.48764674740085,43.52520245251616],[16.48736578397391,43.52498085914065],[16.487186758348138,43.524807562915896],[16.48716506202871,43.5247743126571]]]}},{"type":"Feature","properties":{"naziv":"Bilice I","naselje":"Split"},"geometry":{"type":"MultiPolygon","coordinates":[[[[16.487292,43.524843],[16.487293,43.524825],[16.487295,43.524808],[16.487299,43.52479],[16.487305,43.524773],[16.487312,43.524756],[16.48732,43.52474],[16.487342,43.524708],[16.487355,43.524693],[16.487369,43.524679],[16.487384,43.524665],[16.487401,43.524652],[16.487419,43.52464],[16.487437,43.524629],[16.487457,43.524618],[16.487478,43.524609],[16.487499,43.524601],[16.487521,43.524594],[16.487544,43.524587],[16.487567,43.524582],[16.487591,43.524578],[16.487615,43.524575],[16.487663,43.524573],[16.487688,43.524574],[16.487712,43.524575],[16.487736,43.524578],[16.487759,43.524582],[16.487783,43.524587],[16.487805,43.524594],[16.487828,43.524601],[16.487849,43.524609],[16.48787,43.524619],[16.487889,43.524629],[16.487903,43.524637],[16.48795,43.524666],[16.487955,43.524669],[16.487973,43.524681],[16.48799,43.524694],[16.487991,43.524695],[16.488031,43.524729],[16.488046,43.524742],[16.48806,43.524756],[16.488065,43.524762],[16.488098,43.5248],[16.488106,43.524809],[16.488117,43.524825],[16.488125,43.524836],[16.488149,43.524878],[16.488151,43.52488],[16.488257,43.525063],[16.488258,43.525065],[16.488265,43.525077],[16.488357,43.525264],[16.488359,43.525268],[16.488363,43.525278],[16.48844,43.525469],[16.488445,43.525484],[16.488507,43.525677],[16.488509,43.525685],[16.488511,43.525692],[16.488557,43.525887],[16.488559,43.525898],[16.488562,43.525913],[16.488563107024067,43.525925177264725],[16.48736578397391,43.52498085914065],[16.487311175960276,43.524927998760674],[16.487305,43.524913],[16.487299,43.524896],[16.487295,43.524878],[16.487293,43.524861],[16.487292,43.524843]]],[[[16.488578514909758,43.52593732932821],[16.4886,43.525942],[16.488623,43.525949],[16.488645,43.525956],[16.488658,43.525961],[16.488708,43.52598],[16.488716,43.525984],[16.488737,43.525993],[16.488757,43.526004],[16.488776,43.526015],[16.488783,43.52602],[16.488825,43.526048],[16.488835,43.526055],[16.488852,43.526068],[16.488867,43.526081],[16.488881,43.526096],[16.488884,43.5261],[16.488915,43.526134],[16.488925,43.526146],[16.488936,43.526161],[16.488946,43.526177],[16.488955,43.526194],[16.488956,43.526196],[16.488974,43.526235],[16.48898,43.52625],[16.488981523020183,43.52625517826862],[16.488578514909758,43.52593732932821]]],[[[16.489208909051506,43.52749798989461],[16.489419239337558,43.52707864473945],[16.489419242019967,43.526969935910614],[16.490304,43.527008],[16.490307,43.527008],[16.490331,43.527009],[16.490355,43.527012],[16.490378,43.527016],[16.490402,43.527021],[16.490424,43.527028],[16.490447,43.527035],[16.490468,43.527043],[16.490489,43.527053],[16.490508,43.527063],[16.490527,43.527074],[16.490545,43.527086],[16.490561,43.527099],[16.490577,43.527113],[16.490591,43.527127],[16.490604,43.527142],[16.490615,43.527158],[16.490625,43.527174],[16.490634,43.52719],[16.490641,43.527207],[16.490646,43.527224],[16.49065,43.527242],[16.490653,43.52726],[16.490653,43.527295],[16.49065,43.527312],[16.490646,43.52733],[16.490641,43.527347],[16.490634,43.527364],[16.490625,43.527381],[16.490615,43.527397],[16.490604,43.527412],[16.490591,43.527427],[16.490577,43.527442],[16.490545,43.527468],[16.490527,43.52748],[16.490508,43.527491],[16.490488,43.527502],[16.490468,43.527511],[16.490424,43.527527],[16.490402,43.527533],[16.490378,43.527538],[16.490355,43.527542],[16.490331,43.527545],[16.490307,43.527547],[16.490261,43.527547],[16.489287,43.527506],[16.489284,43.527506],[16.48926,43.527504],[16.489245,43.527502],[16.489208909051506,43.52749798989461]]]]}},{"type":"Feature","properties":{"naziv":"Dračevac","naselje":"Split"},"geometry":{"type":"Polygon","coordinates":[[[16.50058,43.52746],[16.500583,43.527422],[16.500593,43.527385],[16.50061,43.52735],[16.500634,43.527316],[16.500665,43.527285],[16.500748,43.527213],[16.500781,43.527187],[16.500818,43.527165],[16.500859,43.527146],[16.500904,43.527132],[16.501141,43.527067],[16.50118,43.527058],[16.501189,43.527057],[16.501148,43.527026],[16.501131,43.527012],[16.501107,43.526993],[16.501093,43.526978],[16.501073,43.526956],[16.500995,43.526873],[16.500965,43.526835],[16.500945,43.526794],[16.500933,43.526751],[16.500919,43.526659],[16.500917,43.526616],[16.500925,43.526574],[16.500941,43.526533],[16.500966,43.526495],[16.500999,43.52646],[16.501039,43.526429],[16.501354,43.526224],[16.501538,43.526082],[16.501658,43.525905],[16.501552,43.525476],[16.501546,43.525436],[16.501549,43.525395],[16.501561,43.525355],[16.501581,43.525316],[16.501608,43.525281],[16.501643,43.525249],[16.501684,43.525221],[16.50173,43.525197],[16.50178,43.525179],[16.501834,43.525167],[16.501782,43.524821],[16.50178,43.524788],[16.501783,43.524756],[16.501792,43.524723],[16.501821,43.524642],[16.501839,43.524541],[16.501852,43.524498],[16.501874,43.524457],[16.501905,43.52442],[16.501944,43.524386],[16.501989,43.524357],[16.502041,43.524335],[16.502096,43.524318],[16.502303,43.524271],[16.502303,43.524264],[16.502302,43.524257],[16.502215,43.523866],[16.502213,43.523855],[16.502167,43.52356],[16.502053,43.523232],[16.502043,43.523191],[16.502042,43.523148],[16.50205,43.523106],[16.502068,43.523066],[16.502093,43.523028],[16.502127,43.522993],[16.502168,43.522963],[16.502214,43.522938],[16.502266,43.522918],[16.502321,43.522904],[16.502378,43.522897],[16.502437,43.522897],[16.502494,43.522903],[16.50255,43.522915],[16.502602,43.522934],[16.50265,43.522958],[16.502691,43.522988],[16.502726,43.523022],[16.502753,43.523059],[16.502772,43.5231],[16.502892,43.523444],[16.502899,43.523466],[16.502901,43.52348],[16.50295,43.523789],[16.502986,43.523958],[16.503062,43.523944],[16.503074,43.523942],[16.503456,43.52388],[16.503506,43.523874],[16.503527,43.523874],[16.503788,43.523869],[16.503798,43.523868],[16.504032,43.523868],[16.504062,43.523869],[16.504086,43.523871],[16.504317,43.523896],[16.504501,43.523909],[16.504918,43.523885],[16.505229,43.523862],[16.505453,43.523816],[16.505461,43.523815],[16.505546,43.523799],[16.505328,43.522627],[16.505211,43.522633],[16.505173,43.522634],[16.504933,43.522629],[16.504883,43.522625],[16.504833,43.522616],[16.504721,43.522591],[16.504682,43.52258],[16.504665,43.522575],[16.504574,43.522542],[16.504401,43.522552],[16.504346,43.522568],[16.504291,43.522581],[16.504233,43.522587],[16.504175,43.522586],[16.504118,43.522579],[16.504062,43.522566],[16.504011,43.522546],[16.503964,43.522521],[16.503923,43.52249],[16.50389,43.522456],[16.503864,43.522418],[16.503847,43.522377],[16.503838,43.522335],[16.503839,43.522293],[16.503849,43.522251],[16.503867,43.522211],[16.503894,43.522174],[16.503929,43.52214],[16.503971,43.52211],[16.504018,43.522086],[16.504071,43.522067],[16.504177,43.522036],[16.504223,43.522025],[16.504283,43.522017],[16.504616,43.521997],[16.504667,43.521996],[16.504717,43.522001],[16.504766,43.52201],[16.504813,43.522024],[16.50497,43.522082],[16.505006,43.52209],[16.505176,43.522093],[16.505413,43.522081],[16.505536,43.522054],[16.505593,43.522045],[16.505651,43.522042],[16.505709,43.522046],[16.505766,43.522057],[16.505819,43.522074],[16.505868,43.522097],[16.505912,43.522125],[16.505949,43.522158],[16.505978,43.522195],[16.505999,43.522234],[16.506012,43.522276],[16.506325,43.523957],[16.506326,43.523965],[16.506327,43.523976],[16.50633,43.524001],[16.506349,43.524137],[16.50635,43.524176],[16.506344,43.524215],[16.506305,43.524358],[16.506302,43.524368],[16.506207,43.52466],[16.506197,43.524685],[16.506092,43.52491],[16.506066,43.524952],[16.505974,43.525073],[16.505945,43.525105],[16.505909,43.525135],[16.505868,43.52516],[16.505822,43.52518],[16.505773,43.525196],[16.505721,43.525206],[16.505483,43.52524],[16.50546,43.525323],[16.505445,43.525361],[16.505424,43.525397],[16.505395,43.52543],[16.505361,43.52546],[16.50532,43.525486],[16.505275,43.525507],[16.505038,43.525603],[16.505025,43.525774],[16.50502,43.525804],[16.505005,43.525848],[16.504951,43.52596],[16.504971,43.526057],[16.504976,43.526087],[16.50499,43.526318],[16.504988,43.526361],[16.504977,43.526402],[16.504957,43.526442],[16.504929,43.526479],[16.504893,43.526513],[16.50485,43.526542],[16.504802,43.526565],[16.504749,43.526583],[16.504693,43.526595],[16.504635,43.5266],[16.504577,43.526599],[16.50452,43.526591],[16.504465,43.526576],[16.504414,43.526556],[16.504368,43.52653],[16.504329,43.526499],[16.504296,43.526464],[16.504271,43.526425],[16.504255,43.526384],[16.504248,43.526342],[16.504235,43.526126],[16.504203,43.525976],[16.504198,43.525934],[16.503849,43.526094],[16.50376,43.52618],[16.503728,43.526273],[16.503702,43.526431],[16.503693,43.526464],[16.503678,43.526497],[16.503637,43.526572],[16.503613,43.526608],[16.503581,43.526642],[16.503543,43.526672],[16.503499,43.526697],[16.503379,43.526755],[16.503324,43.526777],[16.503282,43.526788],[16.502178,43.52703],[16.502203,43.527064],[16.502225,43.527103],[16.50224,43.527144],[16.502245,43.527186],[16.502241,43.527228],[16.502229,43.527269],[16.502207,43.527308],[16.502178,43.527344],[16.502141,43.527377],[16.502016,43.527471],[16.501973,43.527499],[16.501924,43.527522],[16.50187,43.527538],[16.501814,43.527549],[16.501547,43.527583],[16.501513,43.527587],[16.501489,43.527587],[16.501348,43.527589],[16.501366,43.527629],[16.501379,43.527668],[16.501383,43.527686],[16.5014,43.527808],[16.501401,43.527851],[16.501393,43.527893],[16.501376,43.527933],[16.501351,43.527971],[16.501318,43.528006],[16.501278,43.528037],[16.501231,43.528063],[16.50118,43.528083],[16.501125,43.528097],[16.501068,43.528104],[16.50101,43.528105],[16.500952,43.528099],[16.500896,43.528087],[16.500844,43.528069],[16.500796,43.528045],[16.500754,43.528015],[16.500718,43.527982],[16.500691,43.527944],[16.500672,43.527904],[16.500661,43.527863],[16.500648,43.527769],[16.500601,43.527664],[16.500588,43.527625],[16.500583,43.527585],[16.50058,43.52746]],[[16.50202,43.526498],[16.50203,43.526499],[16.502977,43.526291],[16.502995,43.52619],[16.502997,43.526179],[16.503003,43.526158],[16.503059,43.525996],[16.503074,43.525962],[16.503095,43.525929],[16.503122,43.525899],[16.503299,43.525728],[16.503342,43.525693],[16.503393,43.525665],[16.503909,43.525427],[16.503936,43.525416],[16.504407,43.525238],[16.504439,43.525225],[16.503921,43.525308],[16.503863,43.525314],[16.503803,43.525313],[16.503745,43.525305],[16.503689,43.525291],[16.503637,43.52527],[16.50359,43.525243],[16.50355,43.525212],[16.503517,43.525176],[16.503417,43.525046],[16.503397,43.525015],[16.503383,43.524983],[16.503374,43.52495],[16.503289,43.524477],[16.503288,43.524461],[16.503242,43.524468],[16.503048,43.524505],[16.503035,43.524547],[16.503013,43.524588],[16.502983,43.524625],[16.502944,43.524658],[16.502899,43.524687],[16.502848,43.524709],[16.502792,43.524726],[16.502538,43.524784],[16.502527,43.524812],[16.502612,43.525375],[16.502614,43.525416],[16.502607,43.525457],[16.502592,43.525497],[16.502568,43.525535],[16.502537,43.525569],[16.502498,43.5256],[16.502454,43.525626],[16.502405,43.525647],[16.502352,43.525662],[16.50241,43.525898],[16.502416,43.525941],[16.502412,43.525983],[16.502399,43.526024],[16.502378,43.526064],[16.50218,43.526357],[16.502152,43.526392],[16.502117,43.526423],[16.50202,43.526498]],[[16.504025,43.52441],[16.504074,43.52468],[16.504076,43.52467],[16.504091,43.524627],[16.504096,43.524616],[16.504157,43.524504],[16.504179,43.524455],[16.504181,43.524427],[16.504025,43.52441]],[[16.504846,43.524705],[16.504962,43.524725],[16.505109,43.524733],[16.505126,43.524733],[16.50535,43.524709],[16.505405,43.524701],[16.505489,43.524523],[16.505542,43.524359],[16.505397,43.524388],[16.505389,43.52439],[16.505335,43.524397],[16.504989,43.524423],[16.504981,43.524423],[16.504923,43.524426],[16.504919,43.524514],[16.504914,43.524548],[16.5049,43.524589],[16.504857,43.524683],[16.504846,43.524705]]]}},{"type":"Feature","properties":{"naziv":"Karepovac","naselje":"Split"},"geometry":{"type":"Polygon","coordinates":[[[16.495778,43.522517],[16.495788,43.522475],[16.495806,43.522435],[16.495833,43.522397],[16.495867,43.522363],[16.495909,43.522333],[16.495956,43.522309],[16.496008,43.52229],[16.496281,43.522208],[16.496511,43.522124],[16.496657,43.522029],[16.496832,43.521878],[16.496874,43.521847],[16.496923,43.521821],[16.497347,43.521633],[16.497383,43.521619],[16.498161,43.521353],[16.498123,43.521353],[16.498064,43.521346],[16.497687,43.521277],[16.497443,43.521268],[16.49709,43.521294],[16.496765,43.521328],[16.49671,43.521331],[16.496654,43.521327],[16.4966,43.521318],[16.496549,43.521303],[16.496501,43.521282],[16.496458,43.521257],[16.49642,43.521227],[16.496389,43.521193],[16.496366,43.521157],[16.496361067457972,43.5211449769288],[16.496704775277617,43.52100570450282],[16.496707435158505,43.52100915592822],[16.496759290540364,43.520984678082094],[16.497458734480972,43.5207282397388],[16.497761,43.520739],[16.497773,43.52074],[16.497832,43.520747],[16.498167,43.520808],[16.498406,43.520778],[16.498463,43.520774],[16.49852,43.520776],[16.498576,43.520785],[16.498629,43.520799],[16.498678,43.52082],[16.498723,43.520846],[16.498851,43.520933],[16.498889,43.520963],[16.49892,43.520997],[16.498944,43.521034],[16.49896,43.521073],[16.49897,43.521108],[16.500195,43.520781],[16.501353,43.520437],[16.501393,43.520426],[16.50182,43.520339],[16.501829,43.520338],[16.501843,43.520335],[16.502178,43.520283],[16.502218,43.520279],[16.502259,43.520278],[16.5023,43.52028],[16.502895,43.520332],[16.503536,43.520381],[16.504232,43.520303],[16.504348,43.520284],[16.504394,43.520262],[16.504354,43.520232],[16.504321,43.520198],[16.504296,43.520161],[16.504279,43.520121],[16.504215,43.519919],[16.504211,43.519903],[16.504206,43.519859],[16.504206,43.51961419710416],[16.504948,43.519651487252226],[16.504948,43.519777],[16.504997,43.51975],[16.505013,43.519743],[16.505093,43.519709],[16.505147,43.51969],[16.505204,43.519677],[16.505264,43.519672],[16.505323,43.519674],[16.505382,43.519682],[16.505438,43.519697],[16.50549,43.519719],[16.505536,43.519746],[16.505576,43.519779],[16.505608,43.519816],[16.505632,43.519856],[16.505646,43.519898],[16.505651,43.519941],[16.505646,43.519985],[16.505632,43.520027],[16.505608,43.520067],[16.505576,43.520104],[16.505575,43.520119],[16.505552,43.520229],[16.505545,43.520256],[16.505533,43.520283],[16.505517,43.520309],[16.505802,43.520397],[16.505811,43.5204],[16.50647,43.520623],[16.506521,43.520644],[16.506566,43.52067],[16.506606,43.520701],[16.506638,43.520737],[16.506662,43.520775],[16.506678,43.520816],[16.506685,43.520858],[16.506682,43.5209],[16.506671,43.520942],[16.50665,43.520982],[16.506622,43.521019],[16.506586,43.521052],[16.506543,43.52108],[16.506494,43.521104],[16.506441,43.521122],[16.506385,43.521133],[16.506327,43.521138],[16.506269,43.521136],[16.506212,43.521128],[16.506157,43.521113],[16.505504,43.520892],[16.505033,43.520745],[16.504824,43.520761],[16.504583,43.520799],[16.504571,43.520801],[16.504523,43.520807],[16.504379,43.520832],[16.504356,43.520835],[16.503602,43.52092],[16.503555,43.520923],[16.503508,43.520921],[16.502812,43.520869],[16.502272,43.520821],[16.502009,43.520862],[16.501614,43.520942],[16.50047,43.521283],[16.500457,43.521286],[16.498855,43.521713],[16.498847,43.521716],[16.498825,43.521722],[16.497717,43.522101],[16.497361,43.52226],[16.497208,43.522392],[16.497174,43.522417],[16.496969,43.52255],[16.496925,43.522575],[16.496889,43.52259],[16.496603,43.522695],[16.496584,43.522702],[16.496575,43.522704],[16.496288,43.52279],[16.496233,43.522803],[16.496175,43.522809],[16.496117,43.522809],[16.49606,43.522802],[16.496004,43.522789],[16.495953,43.522769],[16.495906,43.522744],[16.495865,43.522714],[16.495831,43.522679],[16.495805,43.522642],[16.495787,43.522601],[16.495778,43.522559],[16.495778,43.522517]]]}},{"type":"Feature","properties":{"naziv":"ULICA ZNG","naselje":"Split"},"geometry":{"type":"Polygon","coordinates":[[[16.48700892333459,43.52403760703801],[16.487023728824127,43.52397150611139],[16.48712947383484,43.52376901539912],[16.487288836817225,43.52358590593809],[16.487366600268576,43.52352704378564],[16.487497,43.523627],[16.48775,43.523823],[16.489007,43.524762],[16.489013,43.524767],[16.489304,43.524994],[16.489311,43.525],[16.489592,43.525234],[16.489599,43.525241],[16.48987,43.525481],[16.489876,43.525486],[16.489899,43.525511],[16.490045,43.525683],[16.490055,43.525696],[16.490187,43.525875],[16.490197,43.525888],[16.490315,43.526072],[16.490323,43.526086],[16.490427,43.526274],[16.490434,43.526287],[16.490523,43.52648],[16.490533,43.526507],[16.490582,43.526664],[16.490587,43.52668],[16.490622,43.526841],[16.490625,43.526858],[16.490646,43.527019],[16.490648,43.527036],[16.490655,43.527198],[16.490655,43.527215],[16.490648,43.527377],[16.490646,43.527394],[16.490625,43.527555],[16.490623,43.527568],[16.490587,43.527746],[16.490586,43.527751],[16.490583,43.527761],[16.490534,43.527937],[16.490529,43.527953],[16.490465,43.528126],[16.490459,43.528142],[16.49038,43.528313],[16.490373,43.528327],[16.490282,43.528494],[16.490273,43.528509],[16.490167,43.528672],[16.490003,43.528922],[16.49,43.528927],[16.48983,43.529174],[16.489826,43.529179],[16.489667,43.529396],[16.489636,43.529432],[16.489597,43.529463],[16.489552,43.52949],[16.489502,43.529511],[16.489448,43.529527],[16.489391,43.529536],[16.489333,43.529538],[16.489275,43.529534],[16.489219,43.529524],[16.489165,43.529507],[16.489116,43.529484],[16.489073,43.529456],[16.489036,43.529423],[16.489006,43.529386],[16.488985,43.529347],[16.488973,43.529306],[16.488969,43.529263],[16.488975,43.529221],[16.488989,43.52918],[16.489013,43.529141],[16.489168,43.528929],[16.489335,43.528687],[16.489496,43.528441],[16.489596,43.528286],[16.48968,43.528134],[16.489751,43.527979],[16.489809,43.527821],[16.489854,43.52766],[16.489887,43.527497],[16.489906,43.527351],[16.489912,43.527206],[16.489906,43.527062],[16.489887,43.526918],[16.489856,43.526775],[16.489813,43.526639],[16.489734,43.526468],[16.489638,43.526294],[16.489529,43.526124],[16.489407,43.525959],[16.48928,43.525809],[16.489029,43.525586],[16.488756,43.525359],[16.488472,43.525136],[16.487216,43.524198],[16.48721,43.524194],[16.48700892333459,43.52403760703801]]]}},{"type":"Feature","properties":{"naziv":"PUT SV.IŽIDORA","naselje":"Kamen"},"geometry":{"type":"Polygon","coordinates":[[[16.50639051501364,43.519863529519405],[16.506482074120544,43.519904313698135],[16.506692822745016,43.52004484656858],[16.506862561367136,43.52021204209292],[16.506985007725184,43.520399712490125],[16.50718084478171,43.52079415521829],[16.507165,43.52081],[16.507123,43.52084],[16.507076,43.520864],[16.507024,43.520883],[16.506968,43.520896],[16.50691,43.520902],[16.506852,43.520902],[16.506795,43.520895],[16.50674,43.520881],[16.506688,43.520862],[16.506641,43.520836],[16.5066,43.520806],[16.506567,43.520772],[16.506541,43.520734],[16.506523,43.520693],[16.506515,43.520651],[16.506461,43.520084],[16.50639051501364,43.519863529519405]]]}},{"type":"Feature","properties":{"naziv":"PUT SV.IŽIDORA","naselje":"Split"},"geometry":{"type":"Polygon","coordinates":[[[16.505595,43.519873],[16.505602,43.519831],[16.505619,43.51979],[16.505645,43.519752],[16.505678,43.519717],[16.505711869354244,43.51969159798432],[16.505969975163335,43.51972286056185],[16.506238115339542,43.51979564445852],[16.506482074120544,43.519904313698135],[16.506692822745016,43.52004484656858],[16.506862561367136,43.52021204209292],[16.506985007725184,43.520399712490125],[16.50717647944307,43.52078536282673],[16.507147,43.520814],[16.507105,43.520843],[16.507057,43.520867],[16.507005,43.520886],[16.506949,43.520899],[16.506892,43.520905],[16.506834,43.520904],[16.506776,43.520897],[16.506721,43.520883],[16.50667,43.520863],[16.506623,43.520838],[16.506582,43.520807],[16.506549,43.520773],[16.506523,43.520735],[16.506506,43.520694],[16.506498,43.520652],[16.506455,43.52016],[16.5063,43.520171],[16.506246,43.520171],[16.505943,43.520158],[16.505886,43.520152],[16.50583,43.52014],[16.505777,43.520122],[16.50573,43.520097],[16.505688,43.520068],[16.505652,43.520034],[16.505625,43.519997],[16.505606,43.519957],[16.505596,43.519915],[16.505595,43.519873]]]}},{"type":"Feature","properties":{"naziv":"Mostine","naselje":"Split"},"geometry":{"type":"Polygon","coordinates":[[[16.487672,43.524425],[16.487678,43.524383],[16.487692,43.524342],[16.487715,43.524304],[16.487746,43.524268],[16.487784,43.524237],[16.487804,43.524222],[16.48783,43.524206],[16.487928,43.524152],[16.48795,43.524141],[16.487967,43.524133],[16.488073,43.524088],[16.488113,43.524074],[16.488223,43.52404],[16.488461,43.523961],[16.488521,43.523945],[16.488874,43.523879],[16.488935,43.523872],[16.48895,43.523871],[16.489281,43.523861],[16.489482,43.523796],[16.489705,43.523673],[16.489907,43.523527],[16.489917,43.52352],[16.489951,43.523499],[16.490163,43.523388],[16.490205,43.523369],[16.490251,43.523354],[16.490298,43.523344],[16.490347,43.523338],[16.490701,43.523315],[16.491072,43.523248],[16.491607,43.523126],[16.492215,43.522931],[16.492971,43.52264],[16.492986,43.522635],[16.493171,43.522571],[16.49318,43.522568],[16.493227,43.522556],[16.494342,43.522324],[16.49439,43.522316],[16.49444,43.522314],[16.49561,43.522305],[16.495901,43.522297],[16.496084,43.522274],[16.496117,43.52227],[16.496179,43.52227],[16.496237,43.522278],[16.496294,43.522291],[16.496346,43.522311],[16.496394,43.522337],[16.496435,43.522368],[16.496469,43.522404],[16.496495,43.522443],[16.496511,43.522485],[16.496519,43.522527],[16.496517,43.522571],[16.496505,43.522613],[16.496485,43.522654],[16.496455,43.522691],[16.496418,43.522725],[16.496374,43.522754],[16.496324,43.522777],[16.496269,43.522795],[16.496212,43.522806],[16.496004,43.522832],[16.495971,43.522835],[16.495955,43.522836],[16.495634,43.522845],[16.495623,43.522845],[16.494497,43.522853],[16.49346,43.523069],[16.49331,43.523121],[16.49255,43.523413],[16.492527,43.523421],[16.491887,43.523626],[16.491849,43.523637],[16.491283,43.523766],[16.491261,43.523771],[16.490851,43.523844],[16.490796,43.523851],[16.490516,43.523869],[16.49041,43.523925],[16.49021,43.524069],[16.4902,43.524076],[16.490173,43.524092],[16.489897,43.524245],[16.489875,43.524256],[16.489823,43.524277],[16.489517,43.524376],[16.489473,43.524388],[16.489428,43.524395],[16.489382,43.524399],[16.48902,43.52441],[16.488737,43.524462],[16.488528,43.524533],[16.488519,43.524535],[16.488425,43.524564],[16.488359,43.524592],[16.488296,43.524627],[16.488251,43.524653],[16.488201,43.524674],[16.488147,43.524689],[16.48809,43.524697],[16.488032,43.524699],[16.487975,43.524695],[16.487919,43.524684],[16.487866,43.524667],[16.487818,43.524644],[16.487775,43.524616],[16.487738,43.524583],[16.487709,43.524547],[16.487688,43.524508],[16.487676,43.524467],[16.487672,43.524425]]]}},{"type":"Feature","properties":{"naziv":"Bilice II","naselje":"Split"},"geometry":{"type":"MultiPolygon","coordinates":[[[[16.489226,43.525632],[16.489235,43.52559],[16.489252,43.525549],[16.489278,43.525511],[16.489311,43.525477],[16.489352,43.525446],[16.489398,43.525421],[16.48945,43.525401],[16.48982,43.525286],[16.489833,43.525283],[16.490302,43.525152],[16.490347,43.525142],[16.490394,43.525136],[16.490441,43.525135],[16.490994,43.525142],[16.491008,43.525142],[16.491685,43.52517],[16.492329,43.525206],[16.493004,43.525233],[16.49321,43.525237],[16.493261,43.525241],[16.493311,43.52525],[16.493359,43.525264],[16.493404,43.525282],[16.494781,43.525954],[16.496771,43.526479],[16.496824,43.526496],[16.496872,43.526519],[16.496915,43.526548],[16.496952,43.526581],[16.496981,43.526618],[16.497001,43.526658],[16.497013,43.526699],[16.497015,43.526741],[16.497009,43.526784],[16.496993,43.526824],[16.496969,43.526863],[16.496937,43.526898],[16.496898,43.52693],[16.496852,43.526956],[16.496802,43.526977],[16.496747,43.526992],[16.49669,43.527],[16.496632,43.527002],[16.496574,43.526998],[16.496518,43.526986],[16.494486,43.526451],[16.494463,43.526444],[16.494407,43.526422],[16.493081,43.525775],[16.492977,43.525773],[16.492967,43.525772],[16.492284,43.525745],[16.492276,43.525744],[16.491636,43.525709],[16.490973,43.525682],[16.4905,43.525676],[16.490104,43.525785],[16.489742,43.525898],[16.489687,43.525911],[16.48963,43.525918],[16.489572,43.525919],[16.489514,43.525912],[16.489459,43.5259],[16.489406,43.525881],[16.489359,43.525857],[16.489317,43.525827],[16.489283,43.525793],[16.489256,43.525756],[16.489237,43.525716],[16.489227,43.525674],[16.489226,43.525632]]],[[[16.490624,43.526537],[16.490625,43.526498],[16.490634,43.526459],[16.490651,43.526422],[16.490675,43.526386],[16.490705,43.526354],[16.490742,43.526325],[16.490785,43.526301],[16.491173,43.526107],[16.491532,43.525932],[16.491583,43.525911],[16.491637,43.525897],[16.491694,43.525889],[16.491753,43.525887],[16.49181,43.525892],[16.491866,43.525904],[16.491919,43.525922],[16.491967,43.525945],[16.49201,43.525974],[16.492046,43.526007],[16.492074,43.526044],[16.492094,43.526084],[16.492105,43.526125],[16.492108,43.526167],[16.492101,43.526209],[16.492085,43.52625],[16.492061,43.526289],[16.492029,43.526324],[16.491989,43.526355],[16.491944,43.526381],[16.49163,43.526534],[16.49177,43.52657],[16.491796,43.526577],[16.49183,43.52659],[16.492138,43.526717],[16.492157,43.526726],[16.492194,43.526746],[16.49247,43.526916],[16.492509,43.526943],[16.492541,43.526975],[16.492568,43.52701],[16.492679,43.527187],[16.492692,43.527212],[16.492697,43.527222],[16.492725,43.527291],[16.492747,43.527292],[16.492808,43.527292],[16.492849,43.527297],[16.492868,43.527299],[16.493668,43.527414],[16.493713,43.527422],[16.493756,43.527435],[16.493797,43.527451],[16.493834,43.527471],[16.493983,43.527561],[16.494157,43.527652],[16.494193,43.527673],[16.494216,43.52769],[16.494322,43.527775],[16.494352,43.527803],[16.494378,43.527833],[16.494397,43.527866],[16.494505,43.528086],[16.494617,43.52828],[16.49462,43.528285],[16.494785,43.528586],[16.494922,43.528837],[16.494926,43.528844],[16.495074,43.529137],[16.49509,43.529178],[16.495097,43.52922],[16.495095,43.529262],[16.495083,43.529304],[16.495063,43.529343],[16.495035,43.52938],[16.494998,43.529414],[16.494956,43.529442],[16.494907,43.529466],[16.494854,43.529484],[16.494798,43.529495],[16.49474,43.5295],[16.494682,43.529498],[16.494625,43.52949],[16.49457,43.529475],[16.49452,43.529455],[16.494474,43.529428],[16.494434,43.529397],[16.494402,43.529362],[16.494378,43.529324],[16.494231,43.529034],[16.494095,43.528786],[16.493932,43.528488],[16.493817,43.52829],[16.493809,43.528275],[16.493723,43.528098],[16.493693,43.528075],[16.49354,43.527995],[16.493518,43.527983],[16.493432,43.52793],[16.493426,43.52793],[16.493454,43.527991],[16.493468,43.528033],[16.493491,43.528144],[16.493495,43.528181],[16.493493,43.528218],[16.493483,43.528254],[16.493466,43.528289],[16.493444,43.528322],[16.493365,43.528418],[16.493336,43.528449],[16.493301,43.528477],[16.493262,43.5285],[16.493218,43.52852],[16.493098,43.528565],[16.493046,43.528582],[16.49299,43.528592],[16.492933,43.528596],[16.492793,43.528598],[16.492451,43.528602],[16.492393,43.5286],[16.492336,43.528591],[16.492282,43.528575],[16.492232,43.528554],[16.492187,43.528527],[16.492148,43.528495],[16.492117,43.528459],[16.492094,43.52842],[16.492079,43.528379],[16.492074,43.528337],[16.492077,43.528295],[16.49209,43.528253],[16.492111,43.528214],[16.492141,43.528178],[16.492178,43.528145],[16.492221,43.528117],[16.49227,43.528094],[16.492324,43.528077],[16.49238,43.528066],[16.492438,43.528062],[16.492703,43.528059],[16.4926,43.52783],[16.492452,43.527828],[16.492398,43.527824],[16.492346,43.527815],[16.492296,43.527801],[16.492249,43.527781],[16.492207,43.527757],[16.49217,43.527728],[16.492139,43.527696],[16.492115,43.527661],[16.492078,43.527595],[16.49207,43.52758],[16.492065,43.52757],[16.491993,43.527395],[16.491927,43.527289],[16.491741,43.527174],[16.491492,43.527071],[16.491238,43.527006],[16.490979,43.526941],[16.490934,43.526927],[16.490892,43.526909],[16.490853,43.526887],[16.490819,43.526862],[16.490719,43.526777],[16.490689,43.526749],[16.490665,43.526717],[16.490647,43.526684],[16.490635,43.52665],[16.490629,43.526614],[16.490624,43.526537]]]]}}]}