{"type":"FeatureCollection","name":"vodovod_vod","crs":{"type":"name","properties":{"name":"urn:ogc:def:crs:OGC:1.3:CRS84"}},"xy_coordinate_resolution":0.000001,"features":[{"type":"Feature","properties":{"tip":"Magistralni","promjer":150,"upravitelj":"Grad Split"},"geometry":{"type":"LineString","coordinates":[[16.500943,43.527861],[16.500947,43.527824]]}},{"type":"Feature","properties":{"tip":"Distributivni","promjer":100,"materijal":"AC","godina":1987,"upravitelj":"Grad Split"},"geometry":{"type":"LineString","coordinates":[[16.501376,43.526975],[16.501455,43.526848]]}},{"type":"Feature","properties":{"tip":"Distributivni","promjer":150,"upravitelj":"Grad Split"},"geometry":{"type":"LineString","coordinates":[[16.501743,43.52731],[16.501989,43.527284]]}},{"type":"Feature","properties":{"tip":"Distributivni","promjer":100,"materijal":"AC","godina":1987,"upravitelj":"Grad Split"},"geometry":{"type":"LineString","coordinates":[[16.501242,43.527412],[16.501315,43.527128],[16.501376,43.526975]]}},{"type":"Feature","properties":{"tip":"Magistralni","promjer":150,"upravitelj":"Grad Solin"},"geometry":{"type":"LineString","coordinates":[[16.50385,43.529772],[16.504092,43.529076]]}},{"type":"Feature","properties":{"tip":"Distributivni","promjer":150,"materijal":"NL","godina":1987,"upravitelj":"Grad Split"},"geometry":{"type":"LineString","coordinates":[[16.49091,43.523573],[16.490934,43.523727]]}},{"type":"Feature","properties":{"tip":"Distributivni","promjer":100,"materijal":"AC","godina":1987,"upravitelj":"Grad Split"},"geometry":{"type":"LineString","coordinates":[[16.501455,43.526848],[16.501361,43.526787]]}},{"type":"Feature","properties":{"tip":"Distributivni","promjer":100,"materijal":"AC","godina":1987,"upravitelj":"Grad Split"},"geometry":{"type":"LineString","coordinates":[[16.501455,43.526848],[16.501508,43.526878]]}},{"type":"Feature","properties":{"tip":"Distributivni","promjer":100,"materijal":"AC","godina":1987,"upravitelj":"Grad Split"},"geometry":{"type":"LineString","coordinates":[[16.501989,43.527284],[16.501973,43.527261],[16.50195,43.527225],[16.501878,43.527172],[16.501706,43.527114],[16.501621,43.527081],[16.501587,43.527051],[16.501539,43.526996],[16.501529,43.526977],[16.501518,43.526932],[16.501514,43.526896]]}},{"type":"Feature","properties":{"tip":"Distributivni","promjer":100,"godina":1987,"upravitelj":"Grad Split"},"geometry":{"type":"LineString","coordinates":[[16.502082,43.526774],[16.502741,43.526647],[16.503329,43.526527]]}},{"type":"Feature","properties":{"tip":"Distributivni","promjer":100,"materijal":"AC","godina":1987,"upravitelj":"Grad Split"},"geometry":{"type":"LineString","coordinates":[[16.501514,43.526896],[16.502082,43.526774]]}},{"type":"Feature","properties":{"tip":"Distributivni","promjer":100,"godina":1987,"upravitelj":"Grad Split"},"geometry":{"type":"LineString","coordinates":[[16.503391,43.526127],[16.504023,43.526037]]}},{"type":"Feature","properties":{"tip":"Distributivni","promjer":100,"godina":1987,"upravitelj":"Grad Split"},"geometry":{"type":"LineString","coordinates":[[16.50358,43.525937],[16.503384,43.525651]]}},{"type":"Feature","properties":{"tip":"Distributivni","promjer":100,"upravitelj":"Grad Split"},"geometry":{"type":"LineString","coordinates":[[16.494235,43.527235],[16.494949,43.527471]]}},{"type":"Feature","properties":{"tip":"Distributivni","promjer":100,"upravitelj":"Grad Split"},"geometry":{"type":"LineString","coordinates":[[16.493889,43.527706],[16.494235,43.527235]]}},{"type":"Feature","properties":{"tip":"Distributivni","promjer":100,"godina":1987,"upravitelj":"Grad Split"},"geometry":{"type":"LineString","coordinates":[[16.502232,43.525216],[16.502176,43.525003]]}},{"type":"Feature","properties":{"tip":"Distributivni","promjer":100,"godina":1987,"upravitelj":"Grad Split"},"geometry":{"type":"LineString","coordinates":[[16.50517,43.52501],[16.505532,43.524946]]}},{"type":"Feature","properties":{"tip":"Distributivni","promjer":150,"upravitelj":"Grad Split"},"geometry":{"type":"LineString","coordinates":[[16.497448,43.528896],[16.497423,43.528671],[16.497421,43.528664]]}},{"type":"Feature","properties":{"tip":"Distributivni","promjer":50,"upravitelj":"Grad Split"},"geometry":{"type":"LineString","coordinates":[[16.499654,43.528772],[16.499639,43.528487]]}},{"type":"Feature","properties":{"tip":"Distributivni","promjer":38,"upravitelj":"Grad Split"},"geometry":{"type":"LineString","coordinates":[[16.497458,43.52899],[16.497365,43.528993]]}},{"type":"Feature","properties":{"tip":"Distributivni","promjer":38,"upravitelj":"Grad Split"},"geometry":{"type":"LineString","coordinates":[[16.497458,43.52899],[16.497646,43.528987]]}},{"type":"Feature","properties":{"tip":"Distributivni","upravitelj":"Grad Split"},"geometry":{"type":"LineString","coordinates":[[16.497448,43.528896],[16.497458,43.52899]]}},{"type":"Feature","properties":{"tip":"Distributivni","promjer":125,"upravitelj":"Grad Split"},"geometry":{"type":"LineString","coordinates":[[16.496087,43.529029],[16.496057,43.528921]]}},{"type":"Feature","properties":{"tip":"Distributivni","promjer":63,"upravitelj":"Grad Split"},"geometry":{"type":"LineString","coordinates":[[16.496108,43.529096],[16.49601,43.529109]]}},{"type":"Feature","properties":{"tip":"Distributivni","promjer":63,"upravitelj":"Grad Split"},"geometry":{"type":"LineString","coordinates":[[16.496108,43.529096],[16.496458,43.529044]]}},{"type":"Feature","properties":{"tip":"Distributivni","promjer":50,"upravitelj":"Grad Split"},"geometry":{"type":"LineString","coordinates":[[16.496087,43.529029],[16.496108,43.529096]]}},{"type":"Feature","properties":{"tip":"Magistralni","promjer":150,"upravitelj":"Grad Split"},"geometry":{"type":"LineString","coordinates":[[16.500947,43.527824],[16.500943,43.527732],[16.500848,43.52749],[16.500616,43.52726],[16.500326,43.527017],[16.500164,43.526911]]}},{"type":"Feature","properties":{"tip":"Distributivni","promjer":100,"upravitelj":"Grad Split"},"geometry":{"type":"LineString","coordinates":[[16.501179,43.527485],[16.501242,43.527412]]}},{"type":"Feature","properties":{"tip":"Distributivni","upravitelj":"Grad Split"},"geometry":{"type":"LineString","coordinates":[[16.501743,43.52731],[16.501748,43.527358]]}},{"type":"Feature","properties":{"tip":"Distributivni","promjer":150,"upravitelj":"Grad Split"},"geometry":{"type":"LineString","coordinates":[[16.501989,43.527284],[16.502117,43.52727]]}},{"type":"Feature","properties":{"tip":"Distributivni","promjer":150,"upravitelj":"Grad Split"},"geometry":{"type":"LineString","coordinates":[[16.50168,43.527315],[16.501743,43.52731]]}},{"type":"Feature","properties":{"tip":"Distributivni","promjer":150,"upravitelj":"Grad Split"},"geometry":{"type":"LineString","coordinates":[[16.501592,43.527384],[16.50168,43.527315]]}},{"type":"Feature","properties":{"tip":"Distributivni","promjer":100,"upravitelj":"Grad Split"},"geometry":{"type":"LineString","coordinates":[[16.497423,43.528671],[16.497435,43.528672]]}},{"type":"Feature","properties":{"tip":"Distributivni","upravitelj":"Grad Split"},"geometry":{"type":"LineString","coordinates":[[16.490934,43.523727],[16.4907,43.523752]]}},{"type":"Feature","properties":{"tip":"Distributivni","promjer":50,"materijal":"POC","upravitelj":"Grad Solin"},"geometry":{"type":"LineString","coordinates":[[16.490568,43.529386],[16.491021,43.52936]]}},{"type":"Feature","properties":{"tip":"Distributivni","promjer":40,"materijal":"PEHD","upravitelj":"Grad Split"},"geometry":{"type":"LineString","coordinates":[[16.506317,43.525087],[16.506394,43.52524]]}},{"type":"Feature","properties":{"tip":"Distributivni","promjer":25,"materijal":"PEHD","upravitelj":"Grad Split"},"geometry":{"type":"LineString","coordinates":[[16.506317,43.525087],[16.506012,43.525125]]}},{"type":"Feature","properties":{"tip":"Distributivni","promjer":63,"upravitelj":"Grad Split"},"geometry":{"type":"LineString","coordinates":[[16.504837,43.524452],[16.504816,43.524135]]}},{"type":"Feature","properties":{"tip":"Distributivni","promjer":110,"upravitelj":"Grad Split"},"geometry":{"type":"LineString","coordinates":[[16.488703,43.524137],[16.488434,43.524151]]}},{"type":"Feature","properties":{"tip":"Distributivni","promjer":100,"upravitelj":"Grad Split"},"geometry":{"type":"LineString","coordinates":[[16.501508,43.526878],[16.501514,43.526896]]}},{"type":"Feature","properties":{"tip":"Distributivni","promjer":100,"godina":1987,"upravitelj":"Grad Split"},"geometry":{"type":"LineString","coordinates":[[16.503391,43.526127],[16.503329,43.526527]]}},{"type":"Feature","properties":{"tip":"Distributivni","promjer":100,"godina":15896,"upravitelj":"Grad Split"},"geometry":{"type":"LineString","coordinates":[[16.505969,43.523996],[16.50591,43.523768],[16.505743,43.523004],[16.505774,43.522827]]}},{"type":"Feature","properties":{"tip":"Distributivni","upravitelj":"Grad Solin"},"geometry":{"type":"LineString","coordinates":[[16.493458334759104,43.53040109856765],[16.493661,43.530178],[16.493875,43.52998],[16.494205,43.529675],[16.494367,43.52955],[16.494431,43.529468]]}},{"type":"Feature","properties":{"tip":"Distributivni","promjer":110,"materijal":"PEHD","upravitelj":"Grad Solin"},"geometry":{"type":"LineString","coordinates":[[16.505767,43.527571],[16.505882,43.527795],[16.506024,43.527998],[16.506185,43.528308],[16.506818,43.5284],[16.507185,43.528474],[16.507665,43.528642],[16.507781,43.528735],[16.507834,43.528873]]}},{"type":"Feature","properties":{"tip":"Distributivni","promjer":160,"materijal":"PEHD","upravitelj":"Grad Solin"},"geometry":{"type":"LineString","coordinates":[[16.504092,43.529076],[16.504279,43.528318],[16.50443,43.528022],[16.504754,43.52785],[16.505222,43.527711],[16.505612,43.527621],[16.505767,43.527571]]}},{"type":"Feature","properties":{"tip":"Distributivni","promjer":100,"materijal":"AC","godina":1987,"upravitelj":"Grad Split"},"geometry":{"type":"LineString","coordinates":[[16.50239,43.523186],[16.502356,43.52296],[16.502299,43.522894],[16.502229,43.522904],[16.501904,43.522977],[16.50142,43.523095],[16.500914,43.523209],[16.50073,43.523264],[16.49997,43.523503],[16.499388,43.52364],[16.49882,43.523802],[16.4985,43.523923],[16.4981,43.524081],[16.497603,43.524241],[16.497069,43.524449],[16.496311,43.524699],[16.49564,43.524905]]}},{"type":"Feature","properties":{"tip":"Distributivni","promjer":100,"godina":1987,"upravitelj":"Grad Split"},"geometry":{"type":"LineString","coordinates":[[16.504586,43.525482],[16.504623,43.525536],[16.504647,43.525612],[16.504652,43.525678],[16.50461,43.525798],[16.50457,43.525978],[16.504561,43.526086],[16.504594,43.526277]]}},{"type":"Feature","properties":{"tip":"Distributivni","promjer":100,"upravitelj":"Grad Split"},"geometry":{"type":"LineString","coordinates":[[16.501376,43.526975],[16.501454,43.526909],[16.501508,43.526878]]}},{"type":"Feature","properties":{"tip":"Magistralni","upravitelj":"Grad Split"},"geometry":{"type":"LineString","coordinates":[[16.495554,43.522601],[16.494909,43.522563],[16.494322,43.522621],[16.493434,43.522796],[16.491859,43.52337],[16.491472,43.523497],[16.49091,43.523573]]}},{"type":"Feature","properties":{"tip":"Magistralni","promjer":150,"upravitelj":"Grad Solin"},"geometry":{"type":"LineString","coordinates":[[16.504092,43.529076],[16.504294,43.528987],[16.505318,43.529236],[16.505619,43.529349],[16.506086,43.529543]]}},{"type":"Feature","properties":{"tip":"Distributivni","promjer":80,"godina":1987,"upravitelj":"Grad Split"},"geometry":{"type":"LineString","coordinates":[[16.504816,43.524135],[16.504906,43.524137],[16.505387,43.524121],[16.505594,43.524053],[16.505969,43.523996]]}},{"type":"Feature","properties":{"tip":"Distributivni","upravitelj":"Grad Split"},"geometry":{"type":"LineString","coordinates":[[16.502876,43.527463],[16.503311,43.527329],[16.503606,43.527227],[16.503893,43.527157],[16.504225,43.527184],[16.50455,43.52728],[16.504705,43.527415],[16.50486,43.527586]]}},{"type":"Feature","properties":{"tip":"Distributivni","promjer":110,"upravitelj":"Grad Solin"},"geometry":{"type":"LineString","coordinates":[[16.492211,43.529333],[16.491789,43.52933],[16.49179,43.529265],[16.491785,43.529263]]}},{"type":"Feature","properties":{"tip":"Distributivni","promjer":150,"upravitelj":"Grad Solin"},"geometry":{"type":"LineString","coordinates":[[16.490383,43.529514],[16.491565,43.529537],[16.492203,43.529542],[16.49221,43.529339],[16.492211,43.529333]]}},{"type":"Feature","properties":{"tip":"Magistralni","promjer":300,"materijal":"PEHD","upravitelj":"Grad Split"},"geometry":{"type":"LineString","coordinates":[[16.495554,43.522601],[16.496119,43.522565],[16.496747,43.522519],[16.497138,43.522505],[16.497323,43.522506],[16.498907,43.521945],[16.499947,43.521685]]}},{"type":"Feature","properties":{"tip":"Distributivni","promjer":80,"godina":1987,"upravitelj":"Grad Split"},"geometry":{"type":"LineString","coordinates":[[16.50239,43.523186],[16.502426,43.523342],[16.502543,43.523669],[16.502581,43.5237],[16.502622,43.524116],[16.502632,43.52424],[16.502942,43.524204],[16.503496,43.524119],[16.504062,43.524113],[16.504816,43.524135]]}},{"type":"Feature","properties":{"tip":"Distributivni","promjer":32,"upravitelj":"Grad Split"},"geometry":{"type":"LineString","coordinates":[[16.50239,43.523186],[16.502348,43.523011],[16.502317,43.522957],[16.502262,43.522918],[16.502017,43.522976],[16.501536,43.523099],[16.500878,43.523241],[16.500378,43.523421],[16.500091,43.523496],[16.499879,43.523534],[16.499578,43.523618],[16.499211,43.523705]]}},{"type":"Feature","properties":{"tip":"Distributivni","promjer":150,"materijal":"NL","upravitelj":"Grad Split"},"geometry":{"type":"LineString","coordinates":[[16.511414644441153,43.519470826252316],[16.511187,43.519503],[16.51089,43.519545],[16.510647,43.519578],[16.510352,43.519619],[16.510095,43.519656],[16.509836,43.519692],[16.509506,43.519738],[16.509245,43.519775],[16.508959,43.519815],[16.508762,43.519843],[16.508558,43.519871],[16.508383,43.519896],[16.508123,43.519933],[16.507539,43.520014],[16.507225,43.52006],[16.506977,43.520093],[16.506726,43.52013],[16.506417,43.520173],[16.506338,43.520184],[16.506144,43.520211],[16.505855,43.520252],[16.505584,43.52029],[16.505511,43.5203],[16.505374,43.520322],[16.505207,43.520351],[16.505003,43.520392],[16.50479,43.520441],[16.504713,43.520461],[16.50461,43.520488],[16.504382,43.520553],[16.504197,43.520611],[16.503987,43.520684],[16.503873,43.520726],[16.503794,43.520758],[16.503604,43.520835],[16.503423,43.520916],[16.503293,43.520977],[16.503167,43.521042],[16.503044,43.521106],[16.502884,43.521191],[16.502668,43.521307],[16.502445,43.521426],[16.502186,43.521563],[16.501936,43.521697],[16.501759,43.521792],[16.50168,43.521834],[16.50146,43.52195],[16.501272,43.522043],[16.501101,43.522121],[16.501001,43.522166],[16.500957,43.522184],[16.50073,43.522272],[16.500526,43.522346],[16.500329,43.52241],[16.500259,43.522431],[16.500136,43.522467],[16.499947,43.522518],[16.499795,43.522555],[16.499701,43.522576],[16.499533,43.522611],[16.49941,43.522635],[16.499112,43.522684],[16.498809,43.522727],[16.49858,43.522758],[16.498501,43.522769],[16.498276,43.522801],[16.497987,43.522841],[16.497696,43.522883],[16.49742,43.522921],[16.49711,43.522965],[16.496872,43.522997],[16.496567,43.52304],[16.496321,43.523075],[16.496049,43.523113],[16.49598,43.523123],[16.495542,43.523184],[16.495426,43.5232],[16.495227,43.523228],[16.495149,43.523238],[16.495049,43.523251],[16.494877,43.523273],[16.494611,43.523306],[16.494238,43.523353],[16.494144,43.523365],[16.494098,43.523371],[16.493134,43.523472],[16.492274,43.52358],[16.491422,43.523686],[16.490934,43.523727]]}},{"type":"Feature","properties":{"tip":"Distributivni","promjer":150,"upravitelj":"Grad Split"},"geometry":{"type":"LineString","coordinates":[[16.500947,43.527824],[16.501135,43.527836],[16.50155,43.527426],[16.501592,43.527384]]}},{"type":"Feature","properties":{"tip":"Distributivni","promjer":150,"upravitelj":"Grad Split"},"geometry":{"type":"LineString","coordinates":[[16.501592,43.527384],[16.501629,43.52729],[16.501647,43.527288]]}},{"type":"Feature","properties":{"tip":"Distributivni","promjer":200,"upravitelj":"Grad Split"},"geometry":{"type":"LineString","coordinates":[[16.501179,43.527485],[16.501461,43.52743],[16.50155,43.527426],[16.501683,43.527421],[16.501912,43.527424],[16.502134,43.527432],[16.502378,43.52745],[16.502489,43.527457],[16.502713,43.527457],[16.502876,43.527463]]}},{"type":"Feature","properties":{"tip":"Distributivni","promjer":200,"upravitelj":"Grad Split"},"geometry":{"type":"LineString","coordinates":[[16.500947,43.527824],[16.50104,43.527812],[16.50114,43.527631],[16.50119,43.527524],[16.501191,43.527495],[16.501179,43.527485]]}},{"type":"Feature","properties":{"tip":"Distributivni","promjer":80,"materijal":"SL","upravitelj":"Grad Solin"},"geometry":{"type":"LineString","coordinates":[[16.494922,43.52975],[16.494968,43.52978],[16.494979,43.529787],[16.495033,43.52982],[16.495107,43.529847],[16.495189,43.529865],[16.495271,43.529871],[16.495357,43.52987]]}},{"type":"Feature","properties":{"tip":"Magistralni","promjer":150,"upravitelj":"Grad Solin"},"geometry":{"type":"LineString","coordinates":[[16.495496726068154,43.53040109856765],[16.495428,43.530138],[16.495351,43.529873]]}},{"type":"Feature","properties":{"tip":"Magistralni","promjer":150,"upravitelj":"Grad Split"},"geometry":{"type":"LineString","coordinates":[[16.496087,43.529029],[16.49647,43.52898],[16.496595,43.528967]]}},{"type":"Feature","properties":{"tip":"Magistralni","promjer":150,"upravitelj":"Grad Split"},"geometry":{"type":"LineString","coordinates":[[16.497448,43.528896],[16.497761,43.528891],[16.498464,43.528884],[16.498538,43.528882],[16.499092,43.528853],[16.499412,43.528825],[16.499654,43.528772]]}},{"type":"Feature","properties":{"tip":"Magistralni","promjer":150,"upravitelj":"Grad Split"},"geometry":{"type":"LineString","coordinates":[[16.499654,43.528772],[16.500717,43.528621],[16.500906,43.528453],[16.50091,43.528441],[16.50097,43.528292],[16.501015,43.52809],[16.500987,43.527984],[16.500943,43.527861]]}},{"type":"Feature","properties":{"tip":"Distributivni","promjer":100,"upravitelj":"Grad Split"},"geometry":{"type":"LineString","coordinates":[[16.496595,43.528967],[16.496561,43.528659],[16.496717,43.528648]]}},{"type":"Feature","properties":{"tip":"Magistralni","promjer":150,"upravitelj":"Grad Split"},"geometry":{"type":"LineString","coordinates":[[16.496595,43.528967],[16.496859,43.528938],[16.496962,43.528926],[16.497448,43.528896]]}},{"type":"Feature","properties":{"tip":"Distributivni","promjer":80,"materijal":"SL","upravitelj":"Grad Solin"},"geometry":{"type":"LineString","coordinates":[[16.495357,43.52987],[16.495807,43.529856],[16.495903,43.529842],[16.496056,43.529799],[16.496162,43.529769],[16.496408,43.529709],[16.496547,43.529685],[16.49678,43.529661],[16.496943,43.529646],[16.49713,43.529636],[16.497332,43.529609],[16.497505,43.529573],[16.497673,43.529538],[16.497885,43.529502],[16.498046,43.529469],[16.498125,43.529461],[16.498256,43.529469],[16.498468,43.529487],[16.498659,43.529519],[16.498883,43.529552],[16.49904,43.52958],[16.49919,43.529594],[16.499313,43.5296],[16.499559,43.529597],[16.499842,43.52959],[16.500073,43.529585],[16.500483,43.529559]]}},{"type":"Feature","properties":{"tip":"Distributivni","promjer":150,"upravitelj":"Grad Solin"},"geometry":{"type":"LineString","coordinates":[[16.490394907520145,43.53040109856765],[16.490394,43.530353],[16.489903,43.530349],[16.489908,43.529513],[16.490383,43.529514]]}},{"type":"Feature","properties":{"tip":"Distributivni","promjer":100,"upravitelj":"Grad Solin"},"geometry":{"type":"LineString","coordinates":[[16.490383,43.529514],[16.490386,43.529378],[16.490568,43.529386]]}},{"type":"Feature","properties":{"tip":"Distributivni","promjer":100,"godina":5961,"upravitelj":"Grad Split"},"geometry":{"type":"LineString","coordinates":[[16.502176,43.525003],[16.502126,43.524817],[16.50218,43.524579],[16.502404,43.524527]]}},{"type":"Feature","properties":{"tip":"Distributivni","promjer":100,"godina":7948,"upravitelj":"Grad Split"},"geometry":{"type":"LineString","coordinates":[[16.503366,43.526551],[16.503329,43.526527],[16.503366,43.526551],[16.50411,43.526457],[16.503366,43.526551]]}},{"type":"Feature","properties":{"tip":"Distributivni","promjer":100,"upravitelj":"Grad Split"},"geometry":{"type":"LineString","coordinates":[[16.494235,43.527235],[16.494341,43.527094],[16.494585,43.526217]]}},{"type":"Feature","properties":{"tip":"Distributivni","promjer":100,"upravitelj":"Grad Split"},"geometry":{"type":"LineString","coordinates":[[16.494585,43.526217],[16.493307,43.525537],[16.491501,43.525441],[16.491469,43.525445]]}},{"type":"Feature","properties":{"tip":"Distributivni","promjer":160,"materijal":"PEHD","upravitelj":"Grad Solin"},"geometry":{"type":"LineString","coordinates":[[16.505767,43.527571],[16.50596,43.52751],[16.506297,43.527341],[16.506429,43.527243]]}},{"type":"Feature","properties":{"tip":"Distributivni","promjer":63,"materijal":"PEHD","upravitelj":"Grad Split"},"geometry":{"type":"LineString","coordinates":[[16.488703,43.524137],[16.489218,43.524026],[16.489266,43.524001],[16.489289,43.523968],[16.489209,43.523827]]}},{"type":"Feature","properties":{"tip":"Distributivni","promjer":50,"upravitelj":"Grad Split"},"geometry":{"type":"LineString","coordinates":[[16.491469,43.525445],[16.491463,43.525584],[16.491507,43.525822],[16.491594,43.525967],[16.491763,43.526152],[16.491692,43.5262]]}},{"type":"Feature","properties":{"tip":"Distributivni","promjer":63,"upravitelj":"Grad Split"},"geometry":{"type":"LineString","coordinates":[[16.491692,43.5262],[16.491136,43.526472],[16.491112,43.526451]]}},{"type":"Feature","properties":{"tip":"Distributivni","promjer":200,"upravitelj":"Grad Solin"},"geometry":{"type":"LineString","coordinates":[[16.495144461260836,43.53040109856765],[16.495009,43.529923],[16.494849,43.529882],[16.493753,43.528188],[16.493844,43.527867],[16.493889,43.527706]]}},{"type":"Feature","properties":{"tip":"Distributivni","promjer":100,"godina":5961,"upravitelj":"Grad Split"},"geometry":{"type":"LineString","coordinates":[[16.502232,43.525216],[16.501138,43.525094],[16.501195,43.52489],[16.502176,43.525003]]}},{"type":"Feature","properties":{"tip":"Distributivni","promjer":100,"godina":17883,"upravitelj":"Grad Split"},"geometry":{"type":"LineString","coordinates":[[16.501361,43.526787],[16.501227,43.526654],[16.501435,43.526533],[16.501407,43.526503],[16.501822,43.526274],[16.502021,43.525936],[16.502016,43.525863],[16.501895,43.525428],[16.50223,43.525399],[16.502232,43.525216]]}},{"type":"Feature","properties":{"tip":"Distributivni","promjer":100,"godina":7948,"upravitelj":"Grad Split"},"geometry":{"type":"LineString","coordinates":[[16.505532,43.524946],[16.505552,43.525229],[16.505535,43.52539],[16.505494,43.52547],[16.505539,43.525639]]}},{"type":"Feature","properties":{"tip":"Distributivni","promjer":40,"materijal":"PEHD","godina":11922,"upravitelj":"Grad Split"},"geometry":{"type":"LineString","coordinates":[[16.505871,43.524481],[16.50616,43.524466],[16.506322,43.524485],[16.506389,43.524516],[16.506395,43.524564],[16.506343,43.524939],[16.506317,43.525087]]}},{"type":"Feature","properties":{"tip":"Distributivni","promjer":100,"godina":7948,"upravitelj":"Grad Split"},"geometry":{"type":"LineString","coordinates":[[16.505871,43.524481],[16.505949,43.524291],[16.505988,43.524164],[16.50599,43.524077],[16.505969,43.523996]]}},{"type":"Feature","properties":{"tip":"Distributivni","promjer":100,"godina":7948,"upravitelj":"Grad Split"},"geometry":{"type":"LineString","coordinates":[[16.505532,43.524946],[16.505692,43.524889],[16.505739,43.524833],[16.50583,43.524581],[16.505871,43.524481]]}},{"type":"Feature","properties":{"tip":"Distributivni","promjer":100,"godina":11922,"upravitelj":"Grad Split"},"geometry":{"type":"LineString","coordinates":[[16.50517,43.52501],[16.504815,43.524996],[16.504695,43.52497],[16.504578,43.524955],[16.504471,43.524953],[16.504269,43.524981],[16.503926,43.52505]]}},{"type":"Feature","properties":{"tip":"Distributivni","promjer":100,"godina":5961,"upravitelj":"Grad Split"},"geometry":{"type":"LineString","coordinates":[[16.50358,43.525937],[16.503771,43.525815],[16.503979,43.525729],[16.504586,43.525482]]}},{"type":"Feature","properties":{"tip":"Distributivni","promjer":100,"godina":5961,"upravitelj":"Grad Split"},"geometry":{"type":"LineString","coordinates":[[16.503391,43.526127],[16.503406,43.526048],[16.503515,43.525978],[16.50358,43.525937]]}},{"type":"Feature","properties":{"tip":"Distributivni","promjer":100,"godina":11922,"upravitelj":"Grad Split"},"geometry":{"type":"LineString","coordinates":[[16.504586,43.525482],[16.505105,43.525278],[16.505151,43.52523],[16.505179,43.525166],[16.50517,43.52501]]}},{"type":"Feature","properties":{"tip":"Distributivni","promjer":150,"upravitelj":"Grad Split"},"geometry":{"type":"LineString","coordinates":[[16.501647,43.527288],[16.501973,43.527261],[16.501985,43.52726]]}},{"type":"Feature","properties":{"tip":"Distributivni","promjer":110,"upravitelj":"Grad Solin"},"geometry":{"type":"LineString","coordinates":[[16.492211,43.529333],[16.49221,43.529339],[16.49221,43.529339],[16.493827,43.529313]]}},{"type":"Feature","properties":{"tip":"Distributivni","promjer":100},"geometry":{"type":"LineString","coordinates":[[16.494585,43.526217],[16.494919,43.525313],[16.494945,43.52484],[16.495196,43.524044],[16.495367,43.523636],[16.495572,43.522797],[16.495554,43.522601]]}},{"type":"Feature","properties":{"tip":"Magistralni","promjer":300,"materijal":"PEHD","godina":3974,"upravitelj":"Grad Split"},"geometry":{"type":"LineString","coordinates":[[16.489365,43.524103],[16.489504,43.524063],[16.489629,43.524032],[16.489826,43.523962],[16.489888,43.523931],[16.489899,43.523924],[16.48999,43.523842],[16.490037,43.523799],[16.490084,43.523757],[16.490132,43.523724],[16.490167,43.523703],[16.490215,43.523689],[16.490265,43.523677],[16.490279,43.523674],[16.490347,43.523662],[16.49042,43.523649],[16.490494,43.523637],[16.490566,43.523625],[16.49064,43.523612],[16.490712,43.5236],[16.490785,43.523588],[16.490858,43.523578],[16.49091,43.523573]]}},{"type":"Feature","properties":{"tip":"Magistralni","promjer":300,"materijal":"NL"},"geometry":{"type":"LineString","coordinates":[[16.486975858925536,43.525134897799184],[16.487016,43.525125],[16.487161,43.525098],[16.487301,43.52507],[16.487377,43.525055],[16.487514,43.525012],[16.487567,43.524973],[16.487644,43.524912],[16.487693,43.524838],[16.487757,43.524739],[16.487789,43.52469],[16.487807,43.524666],[16.487831,43.524642],[16.487922,43.524558],[16.487988,43.524502],[16.488089,43.524421],[16.488209,43.524332],[16.488262,43.524308],[16.488302,43.524291],[16.48837,43.524276],[16.488453,43.524253],[16.488512,43.524241],[16.488576,43.524226],[16.488725,43.524208],[16.488789,43.524201],[16.488928,43.524185],[16.489223,43.524153],[16.489233,43.524151],[16.489294,43.524125],[16.489365,43.524103]]}},{"type":"Feature","properties":{"tip":"Magistralni","promjer":150,"upravitelj":"Grad Solin"},"geometry":{"type":"LineString","coordinates":[[16.495494481044602,43.53040109856765],[16.49549,43.530385],[16.495464,43.530287],[16.495405,43.530057]]}},{"type":"Feature","properties":{"tip":"Magistralni","promjer":150,"upravitelj":"Grad Solin"},"geometry":{"type":"LineString","coordinates":[[16.495405,43.530057],[16.495388,43.529987]]}},{"type":"Feature","properties":{"tip":"Magistralni","promjer":100,"upravitelj":"Grad Solin"},"geometry":{"type":"LineString","coordinates":[[16.495388,43.529987],[16.495395,43.529986],[16.495463,43.529977]]}},{"type":"Feature","properties":{"tip":"Magistralni","promjer":150,"upravitelj":"Grad Solin"},"geometry":{"type":"LineString","coordinates":[[16.495388,43.529987],[16.495357,43.52987]]}},{"type":"Feature","properties":{"tip":"Magistralni","promjer":150,"upravitelj":"Grad Solin"},"geometry":{"type":"LineString","coordinates":[[16.495325,43.529773],[16.495308,43.529715]]}},{"type":"Feature","properties":{"tip":"Magistralni","promjer":100,"upravitelj":"Grad Solin"},"geometry":{"type":"LineString","coordinates":[[16.495405,43.530057],[16.495413,43.530055]]}},{"type":"Feature","properties":{"tip":"Magistralni","promjer":150,"upravitelj":"Grad Solin"},"geometry":{"type":"LineString","coordinates":[[16.495308,43.529715],[16.495282,43.529605],[16.495288,43.52951],[16.495311,43.529384],[16.495332,43.529315],[16.495379,43.529248],[16.495431,43.5292],[16.495521,43.529141],[16.495623,43.529101],[16.495764,43.529072],[16.496087,43.529029]]}},{"type":"Feature","properties":{"tip":"Magistralni","promjer":150,"upravitelj":"Grad Solin"},"geometry":{"type":"LineString","coordinates":[[16.495357,43.52987],[16.495325,43.529773]]}}]}