{"type":"FeatureCollection","name":"mreza_vodoopskrbnog_sustava","crs":{"type":"name","properties":{"name":"urn:ogc:def:crs:OGC:1.3:CRS84"}},"xy_coordinate_resolution":0.000001,"features":[{"type":"Feature","properties":{"naziv":"Vodoopskrbna mreža Split Istok"},"geometry":{"type":"Polygon","coordinates":[[[16.486975858925536,43.52418522715357],[16.487023728824127,43.52397150611139],[16.48712947383484,43.52376901539912],[16.487288836817225,43.52358590593809],[16.48749540249165,43.52342954842041],[16.487740855723782,43.52330623664169],[16.488015316246837,43.52322093418681],[16.495379324490408,43.52154278494181],[16.496704775277617,43.52100570450282],[16.496707435158505,43.52100915592822],[16.496759290540364,43.520984678082094],[16.500578710794155,43.51958435741972],[16.500826085388486,43.519513004402995],[16.5010870332416,43.51947475267918],[16.501353204352995,43.519470826252316],[16.505687577147658,43.51968865563678],[16.505969975163335,43.51972286056185],[16.506238115339542,43.51979564445852],[16.506482074120544,43.519904313698135],[16.506692822745016,43.52004484656858],[16.506862561367136,43.52021204209292],[16.506985007725184,43.520399712490125],[16.50724841239555,43.52093024567232],[16.508026955849097,43.52145316215251],[16.504581,43.521645],[16.496195,43.523596],[16.495349,43.52368],[16.489604,43.524962],[16.487868717178884,43.52537751812136],[16.48736578397391,43.52498085914065],[16.487186758348138,43.524807562915896],[16.487059047428872,43.524611842110325],[16.48698779169755,43.524401575458576],[16.486975858925536,43.52418522715357]]]}},{"type":"Feature","properties":{"naziv":"Vodoopskrbna mreža Solin"},"geometry":{"type":"Polygon","coordinates":[[[16.48788634236033,43.525391418946434],[16.495349,43.52368],[16.496195,43.523596],[16.504581,43.521645],[16.508026955849097,43.52145316215251],[16.511059305965826,43.523489870370284],[16.511244339681177,43.52363968289595],[16.511387826410935,43.523811787309704],[16.51148478305827,43.52400020710879],[16.511531842227498,43.52419839916385],[16.511527369216505,43.52439948092549],[16.511471518850986,43.524596469425965],[16.51136623017786,43.524782523777276],[16.51121515919239,43.52495118274459],[16.511023551926407,43.52509658914323],[16.504199989454648,43.529390663613206],[16.50395708291512,43.529514996005084],[16.50368493677999,43.52960184275053],[16.503394411259933,43.52964773812784],[16.49592701038486,43.53027004505362],[16.495800597132206,43.53027663794149],[16.48992108990981,43.53040109856765],[16.4896321533397,43.53038677202579],[16.489352512539014,43.53033215158891],[16.489092753906142,43.53023930503769],[16.488862711045286,43.53011174727645],[16.488671092459214,43.52995430725031],[16.48852515186316,43.52977294511338],[16.488430413603798,43.52957452657402],[16.48839046357586,43.529366562963624],[16.48840681354507,43.529156926873206],[16.488478844003147,43.52895355412517],[16.489419239337558,43.52707864473945],[16.48941925113806,43.52660041057253],[16.48788634236033,43.525391418946434]]]}}]}