{"type":"FeatureCollection","name":"vodovod_kanal","crs":{"type":"name","properties":{"name":"urn:ogc:def:crs:OGC:1.3:CRS84"}},"xy_coordinate_resolution":0.000001,"features":[{"type":"Feature","properties":{"naziv":"Novi kanal","sirina":900,"visina":900,"oblik":"kružni","upravitelj":"Grad Solin"},"geometry":{"type":"LineString","coordinates":[[16.495055,43.530317],[16.494766,43.529298]]}},{"type":"Feature","properties":{"oblik":"pravokutni","upravitelj":"Grad Split"},"geometry":{"type":"LineString","coordinates":[[16.494669,43.528989],[16.494184,43.528028],[16.494044,43.527859],[16.493936,43.527776],[16.493346,43.527364],[16.493207,43.527264],[16.493026,43.527092],[16.492535,43.526538],[16.492024,43.525985],[16.491552,43.525513],[16.491159,43.525192],[16.490708,43.524874],[16.489989,43.524383],[16.488974,43.523683],[16.488829,43.523595],[16.48866,43.523565],[16.487904,43.523452],[16.487685,43.52336],[16.487452,43.52322],[16.487109,43.522951],[16.486975858925536,43.5228574208448]]}},{"type":"Feature","properties":{"naziv":"Novi kanal","sirina":1000,"visina":1000,"oblik":"kružni","upravitelj":"Grad Solin"},"geometry":{"type":"LineString","coordinates":[[16.494766,43.529298],[16.494597,43.528932],[16.494014,43.527921],[16.493841,43.527765],[16.493305,43.527411],[16.493122,43.527265],[16.492962,43.527096],[16.492059,43.526108],[16.491577,43.525594],[16.491401,43.525456],[16.490591,43.524864],[16.489783,43.524311],[16.489012,43.523771],[16.488776,43.523662],[16.488644,43.52361],[16.488259,43.523582],[16.487974,43.523535],[16.487626,43.523414],[16.487495,43.523327],[16.487183,43.523073],[16.486975858925536,43.52291669109105]]}},{"type":"Feature","properties":{"naziv":"Stari kanal","upravitelj":"Grad Split"},"geometry":{"type":"LineString","coordinates":[[16.494922,43.52975],[16.494836,43.529431],[16.494669,43.528989]]}},{"type":"Feature","properties":{"naziv":"Stari kanal","oblik":"pravokutni","upravitelj":"Grad Solin"},"geometry":{"type":"LineString","coordinates":[[16.49509736524574,43.53040109856765],[16.495064,43.530283],[16.494922,43.52975]]}}]}