{"type":"FeatureCollection","name":"vodovod_zatvarac","crs":{"type":"name","properties":{"name":"urn:ogc:def:crs:OGC:1.3:CRS84"}},"xy_coordinate_resolution":0.000001,"features":[{"type":"Feature","properties":{"tip":"Mreža","status":"Rad"},"geometry":{"type":"Point","coordinates":[16.50239,43.523186]}},{"type":"Feature","properties":{"tip":"Mreža","tlacna_zona":"Visoka Niska","status":"Rad"},"geometry":{"type":"Point","coordinates":[16.504818,43.524163]}},{"type":"Feature","properties":{"tip":"Mreža","tlacna_zona":"Visoka Niska","status":"Rad"},"geometry":{"type":"Point","coordinates":[16.505971,43.524002]}},{"type":"Feature","properties":{"tip":"Mreža","tlacna_zona":"Visoka Niska","status":"Rad"},"geometry":{"type":"Point","coordinates":[16.505961,43.523997]}},{"type":"Feature","properties":{"tip":"Mreža","tlacna_zona":"Visoka Niska","status":"Rad"},"geometry":{"type":"Point","coordinates":[16.505968,43.52399]}},{"type":"Feature","properties":{"tip":"Mreža","tlacna_zona":"Visoka Niska","status":"Rad"},"geometry":{"type":"Point","coordinates":[16.493844,43.527867]}},{"type":"Feature","properties":{"tip":"Mreža","tlacna_zona":"Visoka Niska","status":"Rad"},"geometry":{"type":"Point","coordinates":[16.488695,43.524138]}},{"type":"Feature","properties":{"tip":"Mreža","tlacna_zona":"Visoka Niska","status":"Rad"},"geometry":{"type":"Point","coordinates":[16.502646,43.524239]}},{"type":"Feature","properties":{"tip":"Mreža","tlacna_zona":"Visoka Niska","status":"Rad"},"geometry":{"type":"Point","coordinates":[16.502631,43.52423]}},{"type":"Feature","properties":{"tip":"Hidrantski","tlacna_zona":"Visoka Niska","status":"Rad"},"geometry":{"type":"Point","coordinates":[16.50091,43.528441]}},{"type":"Feature","properties":{},"geometry":{"type":"Point","coordinates":[16.495413,43.530055]}},{"type":"Feature","properties":{},"geometry":{"type":"Point","coordinates":[16.495455,43.529982]}},{"type":"Feature","properties":{},"geometry":{"type":"Point","coordinates":[16.495395,43.529986]}}]}