{"type":"FeatureCollection","name":"vodovod_spoj","crs":{"type":"name","properties":{"name":"urn:ogc:def:crs:OGC:1.3:CRS84"}},"xy_coordinate_resolution":0.000001,"features":[{"type":"Feature","properties":{"tlacna_zona":"Visoka Niska","sustav":"Vodovodni sustav Split - Pogon istok","upravitelj":"Grad Split"},"geometry":{"type":"Point","coordinates":[16.499947,43.521685]}},{"type":"Feature","properties":{"tlacna_zona":"Visoka Niska","sustav":"Vodovodni sustav Split - Pogon istok","upravitelj":"Grad Split"},"geometry":{"type":"Point","coordinates":[16.505774,43.522827]}},{"type":"Feature","properties":{"tlacna_zona":"Visoka Niska","sustav":"Split istok","upravitelj":"Grad Split"},"geometry":{"type":"Point","coordinates":[16.499211,43.523705]}},{"type":"Feature","properties":{"tlacna_zona":"Visoka Niska","sustav":"Vodovodni sustav Split - Pogon istok","upravitelj":"Grad Split"},"geometry":{"type":"Point","coordinates":[16.4907,43.523752]}},{"type":"Feature","properties":{"tlacna_zona":"Visoka Niska","sustav":"Vodovodni sustav Split - Pogon istok","upravitelj":"Grad Split"},"geometry":{"type":"Point","coordinates":[16.489209,43.523827]}},{"type":"Feature","properties":{"tlacna_zona":"Visoka Niska","sustav":"Vodovodni sustav Split - Pogon istok","upravitelj":"Grad Split"},"geometry":{"type":"Point","coordinates":[16.488434,43.524151]}},{"type":"Feature","properties":{"tlacna_zona":"Visoka Niska","sustav":"Vodovodni sustav Solin","upravitelj":"Grad Split"},"geometry":{"type":"Point","coordinates":[16.504837,43.524452]}},{"type":"Feature","properties":{"tlacna_zona":"Visoka Niska","sustav":"Vodovodni sustav Solin","upravitelj":"Grad Split"},"geometry":{"type":"Point","coordinates":[16.502404,43.524527]}},{"type":"Feature","properties":{"tlacna_zona":"Visoka Niska","sustav":"Split istok","upravitelj":"Grad Split"},"geometry":{"type":"Point","coordinates":[16.49564,43.524905]}},{"type":"Feature","properties":{"tlacna_zona":"Visoka Niska","sustav":"Vodovodni sustav Split - Pogon istok","upravitelj":"Grad Split"},"geometry":{"type":"Point","coordinates":[16.503926,43.52505]}},{"type":"Feature","properties":{"tlacna_zona":"Visoka Niska","sustav":"Vodovodni sustav Split - Pogon istok","upravitelj":"Grad Split"},"geometry":{"type":"Point","coordinates":[16.506012,43.525125]}},{"type":"Feature","properties":{"tlacna_zona":"Visoka Niska","sustav":"Vodovodni sustav Split - Pogon istok","upravitelj":"Grad Split"},"geometry":{"type":"Point","coordinates":[16.506394,43.52524]}},{"type":"Feature","properties":{"tlacna_zona":"Visoka Niska","sustav":"Vodovodni sustav Split - Pogon istok","upravitelj":"Grad Split"},"geometry":{"type":"Point","coordinates":[16.505539,43.525639]}},{"type":"Feature","properties":{"tlacna_zona":"Visoka Niska","sustav":"Vodovodni sustav Split - Pogon istok","upravitelj":"Grad Split"},"geometry":{"type":"Point","coordinates":[16.503384,43.525651]}},{"type":"Feature","properties":{"tlacna_zona":"Visoka Niska","sustav":"Vodovodni sustav Split - Pogon istok","upravitelj":"Grad Split"},"geometry":{"type":"Point","coordinates":[16.504023,43.526037]}},{"type":"Feature","properties":{"tlacna_zona":"Visoka Niska","sustav":"Vodovodni sustav Split - Pogon istok","upravitelj":"Grad Split"},"geometry":{"type":"Point","coordinates":[16.504594,43.526277]}},{"type":"Feature","properties":{"tlacna_zona":"Visoka Niska","sustav":"Vodovodni sustav Split - Pogon istok","upravitelj":"Grad Split"},"geometry":{"type":"Point","coordinates":[16.491112,43.526451]}},{"type":"Feature","properties":{"tlacna_zona":"Visoka Niska","sustav":"Vodovodni sustav Split - Pogon istok","upravitelj":"Grad Split"},"geometry":{"type":"Point","coordinates":[16.502082,43.526774]}},{"type":"Feature","properties":{"tlacna_zona":"Visoka Niska","sustav":"Vodovodni sustav Solin","upravitelj":"Grad Split"},"geometry":{"type":"Point","coordinates":[16.500164,43.526911]}},{"type":"Feature","properties":{"tlacna_zona":"CS Kunčeva Greda Stara / VS Sutikva Stara","sustav":"Vodovodni sustav Solin","upravitelj":"Grad Split"},"geometry":{"type":"Point","coordinates":[16.506429,43.527243]}},{"type":"Feature","properties":{"tlacna_zona":"Visoka Niska","sustav":"Vodovodni sustav Solin","upravitelj":"Grad Split"},"geometry":{"type":"Point","coordinates":[16.501748,43.527358]}},{"type":"Feature","properties":{"tlacna_zona":"Visoka Niska","sustav":"Vodovodni sustav Split - Pogon istok","upravitelj":"Grad Split"},"geometry":{"type":"Point","coordinates":[16.494949,43.527471]}},{"type":"Feature","properties":{"tlacna_zona":"Visoka Niska","sustav":"Vodovodni sustav Solin","upravitelj":"Grad Split"},"geometry":{"type":"Point","coordinates":[16.50486,43.527586]}},{"type":"Feature","properties":{"tlacna_zona":"Visoka Niska","sustav":"Vodovodni sustav Solin","upravitelj":"Grad Split"},"geometry":{"type":"Point","coordinates":[16.499639,43.528487]}},{"type":"Feature","properties":{"tlacna_zona":"Visoka Niska","sustav":"Vodovodni sustav Solin","upravitelj":"Grad Split"},"geometry":{"type":"Point","coordinates":[16.496717,43.528648]}},{"type":"Feature","properties":{"tlacna_zona":"Visoka Niska","sustav":"Vodovodni sustav Solin","upravitelj":"Grad Split"},"geometry":{"type":"Point","coordinates":[16.497421,43.528664]}},{"type":"Feature","properties":{"tlacna_zona":"Visoka Niska","sustav":"Vodovodni sustav Solin","upravitelj":"Grad Split"},"geometry":{"type":"Point","coordinates":[16.497423,43.528671]}},{"type":"Feature","properties":{"tlacna_zona":"Visoka Niska","sustav":"Vodovodni sustav Solin","upravitelj":"Grad Split"},"geometry":{"type":"Point","coordinates":[16.496057,43.528921]}},{"type":"Feature","properties":{"tlacna_zona":"Visoka Niska","sustav":"Vodovodni sustav Solin","upravitelj":"Grad Split"},"geometry":{"type":"Point","coordinates":[16.497646,43.528987]}},{"type":"Feature","properties":{"tlacna_zona":"Visoka Niska","sustav":"Vodovodni sustav Solin","upravitelj":"Grad Split"},"geometry":{"type":"Point","coordinates":[16.497365,43.528993]}},{"type":"Feature","properties":{"tlacna_zona":"Visoka Niska","sustav":"Vodovodni sustav Solin","upravitelj":"Grad Split"},"geometry":{"type":"Point","coordinates":[16.496458,43.529044]}},{"type":"Feature","properties":{"tlacna_zona":"Visoka Niska","sustav":"Vodovodni sustav Solin","upravitelj":"Grad Split"},"geometry":{"type":"Point","coordinates":[16.49601,43.529109]}},{"type":"Feature","properties":{"tlacna_zona":"Visoka Niska","sustav":"Vodovodni sustav Solin","upravitelj":"Grad Solin"},"geometry":{"type":"Point","coordinates":[16.491785,43.529263]}},{"type":"Feature","properties":{"tlacna_zona":"Visoka Niska","sustav":"Vodovodni sustav Solin","upravitelj":"Grad Split"},"geometry":{"type":"Point","coordinates":[16.493827,43.529313]}},{"type":"Feature","properties":{"tlacna_zona":"Visoka Niska","sustav":"Vodovodni sustav Solin","upravitelj":"Grad Solin"},"geometry":{"type":"Point","coordinates":[16.491021,43.52936]}},{"type":"Feature","properties":{"tlacna_zona":"Visoka Niska","sustav":"Vodovodni sustav Solin","upravitelj":"Grad Solin"},"geometry":{"type":"Point","coordinates":[16.494431,43.529468]}},{"type":"Feature","properties":{"tlacna_zona":"Visoka Niska","sustav":"Vodovodni sustav Solin","upravitelj":"Grad Solin"},"geometry":{"type":"Point","coordinates":[16.500483,43.529559]}},{"type":"Feature","properties":{"tlacna_zona":"Visoka Niska","sustav":"Vodovodni sustav Solin","upravitelj":"Grad Solin"},"geometry":{"type":"Point","coordinates":[16.494922,43.52975]}},{"type":"Feature","properties":{"tlacna_zona":"CS Kunčeva Greda Stara / VS Sutikva Stara","sustav":"Vodovodni sustav Solin","upravitelj":"Grad Solin"},"geometry":{"type":"Point","coordinates":[16.505767,43.527571]}},{"type":"Feature","properties":{"tlacna_zona":"CS Kunčeva Greda Stara / VS Sutikva Stara","sustav":"Vodovodni sustav Solin","upravitelj":"Grad Solin"},"geometry":{"type":"Point","coordinates":[16.504092,43.529076]}},{"type":"Feature","properties":{"tlacna_zona":"Visoka Niska","sustav":"Vodovodni sustav Solin","upravitelj":"Grad Split"},"geometry":{"type":"Point","coordinates":[16.50239,43.523186]}},{"type":"Feature","properties":{"tlacna_zona":"Visoka Niska","sustav":"Vodovodni sustav Solin","upravitelj":"Grad Split"},"geometry":{"type":"Point","coordinates":[16.504816,43.524135]}},{"type":"Feature","properties":{"tlacna_zona":"Visoka Niska","sustav":"Vodovodni sustav Split - Pogon istok","upravitelj":"Grad Split"},"geometry":{"type":"Point","coordinates":[16.505969,43.523996]}},{"type":"Feature","properties":{"tlacna_zona":"Visoka Niska","sustav":"Vodovodni sustav Split - Pogon istok","upravitelj":"Grad Split"},"geometry":{"type":"Point","coordinates":[16.506317,43.525087]}},{"type":"Feature","properties":{"tlacna_zona":"Visoka Niska","sustav":"Vodovodni sustav Split - Pogon istok","upravitelj":"Grad Split"},"geometry":{"type":"Point","coordinates":[16.505871,43.524481]}},{"type":"Feature","properties":{"tlacna_zona":"Visoka Niska","sustav":"Vodovodni sustav Split - Pogon istok","upravitelj":"Grad Split"},"geometry":{"type":"Point","coordinates":[16.505532,43.524946]}},{"type":"Feature","properties":{"tlacna_zona":"Visoka Niska","sustav":"Vodovodni sustav Split - Pogon istok","upravitelj":"Grad Split"},"geometry":{"type":"Point","coordinates":[16.50517,43.52501]}},{"type":"Feature","properties":{"tlacna_zona":"Visoka Niska","sustav":"Vodovodni sustav Split - Pogon istok","upravitelj":"Grad Split"},"geometry":{"type":"Point","coordinates":[16.504586,43.525482]}},{"type":"Feature","properties":{"tlacna_zona":"Visoka Niska","sustav":"Vodovodni sustav Split - Pogon istok","upravitelj":"Grad Split"},"geometry":{"type":"Point","coordinates":[16.50358,43.525937]}},{"type":"Feature","properties":{"tlacna_zona":"Visoka Niska","sustav":"Vodovodni sustav Split - Pogon istok","upravitelj":"Grad Split"},"geometry":{"type":"Point","coordinates":[16.503391,43.526127]}},{"type":"Feature","properties":{"tlacna_zona":"Visoka Niska","sustav":"Vodovodni sustav Split - Pogon istok","upravitelj":"Grad Split"},"geometry":{"type":"Point","coordinates":[16.503329,43.526527]}},{"type":"Feature","properties":{"tlacna_zona":"Visoka Niska","sustav":"Vodovodni sustav Split - Pogon istok","upravitelj":"Grad Split"},"geometry":{"type":"Point","coordinates":[16.502176,43.525003]}},{"type":"Feature","properties":{"tlacna_zona":"Visoka Niska","sustav":"Vodovodni sustav Split - Pogon istok","upravitelj":"Grad Split"},"geometry":{"type":"Point","coordinates":[16.502232,43.525216]}},{"type":"Feature","properties":{"tlacna_zona":"Visoka Niska","sustav":"Vodovodni sustav Split - Pogon istok","upravitelj":"Grad Split"},"geometry":{"type":"Point","coordinates":[16.501361,43.526787]}},{"type":"Feature","properties":{"tlacna_zona":"Visoka Niska","sustav":"Vodovodni sustav Split - Pogon istok","upravitelj":"Grad Split"},"geometry":{"type":"Point","coordinates":[16.501455,43.526848]}},{"type":"Feature","properties":{"tlacna_zona":"Visoka Niska","sustav":"Vodovodni sustav Split - Pogon istok","upravitelj":"Grad Split"},"geometry":{"type":"Point","coordinates":[16.501376,43.526975]}},{"type":"Feature","properties":{"tlacna_zona":"Visoka Niska","sustav":"Vodovodni sustav Solin","upravitelj":"Grad Split"},"geometry":{"type":"Point","coordinates":[16.501989,43.527284]}},{"type":"Feature","properties":{"tlacna_zona":"Visoka Niska","sustav":"Vodovodni sustav Solin","upravitelj":"Grad Split"},"geometry":{"type":"Point","coordinates":[16.501743,43.52731]}},{"type":"Feature","properties":{"tlacna_zona":"Visoka Niska","sustav":"Vodovodni sustav Solin","upravitelj":"Grad Split"},"geometry":{"type":"Point","coordinates":[16.502876,43.527463]}},{"type":"Feature","properties":{"tlacna_zona":"Visoka Niska","sustav":"Vodovodni sustav Solin","upravitelj":"Grad Split"},"geometry":{"type":"Point","coordinates":[16.499654,43.528772]}},{"type":"Feature","properties":{"tlacna_zona":"Visoka Niska","sustav":"Vodovodni sustav Solin","upravitelj":"Grad Split"},"geometry":{"type":"Point","coordinates":[16.497458,43.52899]}},{"type":"Feature","properties":{"tlacna_zona":"Visoka Niska","sustav":"Vodovodni sustav Solin","upravitelj":"Grad Split"},"geometry":{"type":"Point","coordinates":[16.497448,43.528896]}},{"type":"Feature","properties":{"tlacna_zona":"Visoka Niska","sustav":"Vodovodni sustav Solin","upravitelj":"Grad Split"},"geometry":{"type":"Point","coordinates":[16.496595,43.528967]}},{"type":"Feature","properties":{"tlacna_zona":"Visoka Niska","sustav":"Vodovodni sustav Solin","upravitelj":"Grad Split"},"geometry":{"type":"Point","coordinates":[16.496108,43.529096]}},{"type":"Feature","properties":{"tlacna_zona":"Visoka Niska","sustav":"Vodovodni sustav Solin","upravitelj":"Grad Split"},"geometry":{"type":"Point","coordinates":[16.496087,43.529029]}},{"type":"Feature","properties":{"tlacna_zona":"Visoka Niska","sustav":"Vodovodni sustav Solin","upravitelj":"Grad Solin"},"geometry":{"type":"Point","coordinates":[16.495357,43.52987]}},{"type":"Feature","properties":{"tlacna_zona":"Visoka Niska","sustav":"Vodovodni sustav Solin","upravitelj":"Grad Solin"},"geometry":{"type":"Point","coordinates":[16.490568,43.529386]}},{"type":"Feature","properties":{"tlacna_zona":"Visoka Niska","sustav":"Vodovodni sustav Solin","upravitelj":"Grad Solin"},"geometry":{"type":"Point","coordinates":[16.490383,43.529514]}},{"type":"Feature","properties":{"tlacna_zona":"Visoka Niska","sustav":"Vodovodni sustav Solin","upravitelj":"Grad Solin"},"geometry":{"type":"Point","coordinates":[16.492211,43.529333]}},{"type":"Feature","properties":{"tlacna_zona":"Visoka Niska","sustav":"Vodovodni sustav Solin","upravitelj":"Grad Split"},"geometry":{"type":"Point","coordinates":[16.493889,43.527706]}},{"type":"Feature","properties":{"tlacna_zona":"Visoka Niska","sustav":"Vodovodni sustav Split - Pogon istok","upravitelj":"Grad Split"},"geometry":{"type":"Point","coordinates":[16.494235,43.527235]}},{"type":"Feature","properties":{"tlacna_zona":"Visoka Niska","sustav":"Vodovodni sustav Split - Pogon istok","upravitelj":"Grad Split"},"geometry":{"type":"Point","coordinates":[16.494585,43.526217]}},{"type":"Feature","properties":{"tlacna_zona":"Visoka Niska","sustav":"Vodovodni sustav Split - Pogon istok","upravitelj":"Grad Split"},"geometry":{"type":"Point","coordinates":[16.491469,43.525445]}},{"type":"Feature","properties":{"tlacna_zona":"Visoka Niska","sustav":"Vodovodni sustav Split - Pogon istok","upravitelj":"Grad Split"},"geometry":{"type":"Point","coordinates":[16.491692,43.5262]}},{"type":"Feature","properties":{"tlacna_zona":"Visoka Niska","sustav":"Vodovodni sustav Split - Pogon istok","upravitelj":"Grad Split"},"geometry":{"type":"Point","coordinates":[16.495554,43.522601]}},{"type":"Feature","properties":{"tlacna_zona":"Visoka Niska","sustav":"Vodovodni sustav Split - Pogon istok","upravitelj":"Grad Split"},"geometry":{"type":"Point","coordinates":[16.490934,43.523727]}},{"type":"Feature","properties":{"tlacna_zona":"Visoka Niska","sustav":"Vodovodni sustav Split - Pogon istok","upravitelj":"Grad Split"},"geometry":{"type":"Point","coordinates":[16.488703,43.524137]}},{"type":"Feature","properties":{"tlacna_zona":"Visoka Niska","sustav":"Vodovodni sustav Solin","upravitelj":"Grad Solin","status":"Radi"},"geometry":{"type":"Point","coordinates":[16.489162,43.529335]}},{"type":"Feature","properties":{"tlacna_zona":"Visoka Niska","sustav":"Vodovodni sustav Solin","upravitelj":"Grad Solin","status":"Radi"},"geometry":{"type":"Point","coordinates":[16.489578,43.529549]}},{"type":"Feature","properties":{"tlacna_zona":"Visoka Niska","sustav":"Vodovodni sustav Solin","upravitelj":"Grad Solin","status":"Radi"},"geometry":{"type":"Point","coordinates":[16.489142,43.529372]}},{"type":"Feature","properties":{"tlacna_zona":"Visoka Niska","sustav":"Vodovodni sustav Solin","upravitelj":"Grad Solin","status":"Radi"},"geometry":{"type":"Point","coordinates":[16.488739,43.529398]}},{"type":"Feature","properties":{"tlacna_zona":"Visoka Niska","sustav":"Vodovodni sustav Solin","upravitelj":"Grad Split","status":"Radi"},"geometry":{"type":"Point","coordinates":[16.49743,43.528563]}},{"type":"Feature","properties":{"tlacna_zona":"Visoka Niska","sustav":"Vodovodni sustav Solin","upravitelj":"Grad Split","status":"Radi"},"geometry":{"type":"Point","coordinates":[16.497435,43.528186]}},{"type":"Feature","properties":{"tlacna_zona":"Visoka Niska","sustav":"Vodovodni sustav Solin","upravitelj":"Grad Split","status":"Radi"},"geometry":{"type":"Point","coordinates":[16.497772,43.528483]}},{"type":"Feature","properties":{"tlacna_zona":"Visoka Niska","sustav":"Vodovodni sustav Solin","upravitelj":"Grad Split","status":"Radi"},"geometry":{"type":"Point","coordinates":[16.497435,43.528672]}},{"type":"Feature","properties":{"tlacna_zona":"Visoka Niska","sustav":"Vodovodni sustav Solin","upravitelj":"Grad Solin","status":"Radi"},"geometry":{"type":"Point","coordinates":[16.493324,43.530108]}},{"type":"Feature","properties":{"tlacna_zona":"Visoka Niska","sustav":"Vodovodni sustav Solin","upravitelj":"Grad Solin","status":"Radi"},"geometry":{"type":"Point","coordinates":[16.492865,43.530174]}},{"type":"Feature","properties":{"tlacna_zona":"Visoka Niska","sustav":"Vodovodni sustav Solin","upravitelj":"Grad Solin","status":"Radi"},"geometry":{"type":"Point","coordinates":[16.492508,43.530168]}},{"type":"Feature","properties":{"tlacna_zona":"Visoka Niska","sustav":"Vodovodni sustav Solin","upravitelj":"Grad Solin","status":"Radi"},"geometry":{"type":"Point","coordinates":[16.493473,43.530165]}},{"type":"Feature","properties":{"tlacna_zona":"Visoka Niska","sustav":"Vodovodni sustav Solin","upravitelj":"Grad Split","status":"Radi"},"geometry":{"type":"Point","coordinates":[16.501592,43.527384]}},{"type":"Feature","properties":{"tlacna_zona":"Visoka Niska","sustav":"Vodovodni sustav Solin","upravitelj":"Grad Split","status":"Radi"},"geometry":{"type":"Point","coordinates":[16.50168,43.527315]}},{"type":"Feature","properties":{"tlacna_zona":"Visoka Niska","sustav":"Vodovodni sustav Solin","upravitelj":"Grad Split","status":"Radi"},"geometry":{"type":"Point","coordinates":[16.502117,43.52727]}},{"type":"Feature","properties":{"tlacna_zona":"Visoka Niska","sustav":"Vodovodni sustav Solin","upravitelj":"Grad Split","status":"Radi"},"geometry":{"type":"Point","coordinates":[16.501647,43.527288]}},{"type":"Feature","properties":{"tlacna_zona":"Visoka Niska","sustav":"Vodovodni sustav Solin","upravitelj":"Grad Split","status":"Radi"},"geometry":{"type":"Point","coordinates":[16.501985,43.52726]}},{"type":"Feature","properties":{"tlacna_zona":"Visoka Niska","sustav":"Vodovodni sustav Solin","upravitelj":"Grad Split","status":"Radi"},"geometry":{"type":"Point","coordinates":[16.501179,43.527485]}},{"type":"Feature","properties":{"tlacna_zona":"Visoka Niska","sustav":"Vodovodni sustav Solin","upravitelj":"Grad Split","status":"Radi"},"geometry":{"type":"Point","coordinates":[16.501242,43.527412]}},{"type":"Feature","properties":{"tlacna_zona":"Visoka Niska","sustav":"Vodovodni sustav Solin","upravitelj":"Grad Split","status":"Radi"},"geometry":{"type":"Point","coordinates":[16.501508,43.526878]}},{"type":"Feature","properties":{"tlacna_zona":"Visoka Niska","sustav":"Vodovodni sustav Solin","upravitelj":"Grad Split","status":"Radi"},"geometry":{"type":"Point","coordinates":[16.501514,43.526896]}},{"type":"Feature","properties":{"tlacna_zona":"Visoka Niska","sustav":"Vodovodni sustav Solin","upravitelj":"Grad Split","status":"Radi"},"geometry":{"type":"Point","coordinates":[16.500943,43.527861]}},{"type":"Feature","properties":{"tlacna_zona":"Visoka Niska","sustav":"Vodovodni sustav Solin","upravitelj":"Grad Split","status":"Radi"},"geometry":{"type":"Point","coordinates":[16.500947,43.527824]}}]}