{"type":"FeatureCollection","name":"Javne_zelene_povrsine_ZP","crs":{"type":"name","properties":{"name":"urn:ogc:def:crs:OGC:1.3:CRS84"}},"xy_coordinate_resolution":0.000001,"features":[{"type":"Feature","properties":{"naziv":"ZP Kamen","povrsina":2536175.4732,"kotar":"Kamen"},"geometry":{"type":"Polygon","coordinates":[[[16.505756,43.522318],[16.50585,43.521864],[16.506338,43.520826],[16.506875,43.520647],[16.50683287057407,43.52018279614021],[16.506862561367136,43.52021204209292],[16.506985007725184,43.520399712490125],[16.50724841239555,43.52093024567232],[16.511059305965826,43.523489870370284],[16.51109808790322,43.52352127016129],[16.511025,43.523545],[16.510595,43.523706],[16.510232,43.524079],[16.510184,43.524129],[16.510056,43.524166],[16.509997,43.524183],[16.509895,43.524204],[16.509378,43.524312],[16.508712,43.524407],[16.508264,43.524384],[16.507372,43.524028],[16.507264,43.523889],[16.506999,43.523545],[16.506516,43.523207],[16.505839,43.522819],[16.505756,43.522318]]]}},{"type":"Feature","properties":{"naziv":"ZP Neslanovac","povrsina":956021.966935,"kotar":"Gradski kotar Neslanovac"},"geometry":{"type":"Polygon","coordinates":[[[16.486975858925536,43.52418522715357],[16.487023728824127,43.52397150611139],[16.48712947383484,43.52376901539912],[16.487156159956868,43.523738352811435],[16.488051,43.524441],[16.489064,43.525236],[16.489668,43.525723],[16.490024,43.526281],[16.490218,43.526763],[16.49029,43.527183],[16.490258,43.527631],[16.490037,43.528241],[16.489631,43.528849],[16.489384,43.529194],[16.489328,43.529271],[16.48926,43.52927],[16.48840152251835,43.52922476737748],[16.48840681354507,43.529156926873206],[16.488478844003147,43.52895355412517],[16.489419239337558,43.52707864473945],[16.48941925113806,43.52660041057253],[16.48736578397391,43.52498085914065],[16.487186758348138,43.524807562915896],[16.487059047428872,43.524611842110325],[16.48698779169755,43.524401575458576],[16.486975858925536,43.52418522715357]]]}},{"type":"Feature","properties":{"naziv":"ZP Mejaši","povrsina":3603213.24225,"kotar":"Gradski kotar Mejaši"},"geometry":{"type":"Polygon","coordinates":[[[16.487156159956868,43.523738352811435],[16.487288836817225,43.52358590593809],[16.48749540249165,43.52342954842041],[16.487740855723782,43.52330623664169],[16.488015316246837,43.52322093418681],[16.495379324490408,43.52154278494181],[16.496704775277617,43.52100570450282],[16.496707435158505,43.52100915592822],[16.496759290540364,43.520984678082094],[16.500578710794155,43.51958435741972],[16.500826085388486,43.519513004402995],[16.5010870332416,43.51947475267918],[16.501353204352995,43.519470826252316],[16.505687577147658,43.51968865563678],[16.505969975163335,43.51972286056185],[16.506238115339542,43.51979564445852],[16.506482074120544,43.519904313698135],[16.506692822745016,43.52004484656858],[16.50683287057407,43.52018279614021],[16.506875,43.520647],[16.506338,43.520826],[16.50585,43.521864],[16.505756,43.522318],[16.505839,43.522819],[16.506516,43.523207],[16.506999,43.523545],[16.507264,43.523889],[16.507372,43.524028],[16.508264,43.524384],[16.508712,43.524407],[16.509378,43.524312],[16.509895,43.524204],[16.509997,43.524183],[16.510056,43.524166],[16.510184,43.524129],[16.509927,43.52442],[16.509905,43.524442],[16.50983,43.524518],[16.509546,43.524843],[16.509104,43.525142],[16.509001,43.525212],[16.508857,43.52531],[16.508209,43.525674],[16.50763,43.525996],[16.507687,43.526065],[16.507817,43.526222],[16.507851,43.526315],[16.50779,43.526374],[16.507531,43.526629],[16.507073,43.526898],[16.50704,43.526918],[16.506757,43.527032],[16.506356,43.527239],[16.50615,43.527345],[16.505894,43.52746],[16.505584,43.527598],[16.505548,43.527609],[16.505513,43.52762],[16.505128,43.527736],[16.504803,43.527804],[16.504779,43.527809],[16.504446,43.527973],[16.504413,43.527989],[16.504332,43.528029],[16.504222,43.528167],[16.503895,43.528173],[16.503589,43.528126],[16.503403,43.528158],[16.503259,43.528228],[16.502952,43.528195],[16.502787,43.52819],[16.502344,43.52823],[16.500931,43.528515],[16.500253,43.528652],[16.499609,43.528782],[16.498927,43.52892],[16.497148,43.528957],[16.495771,43.529072],[16.495154,43.529178],[16.494742,43.529237],[16.494646,43.529251],[16.494177,43.529301],[16.493478,43.529369],[16.492946,43.529362],[16.492529,43.52934],[16.49189,43.529328],[16.491163,43.529309],[16.490607,43.529294],[16.490601,43.528619],[16.490428,43.528615],[16.490221,43.528757],[16.489803,43.52928],[16.489432,43.529273],[16.489367,43.529272],[16.489328,43.529271],[16.489384,43.529194],[16.489631,43.528849],[16.490037,43.528241],[16.490258,43.527631],[16.49029,43.527183],[16.490218,43.526763],[16.490024,43.526281],[16.489668,43.525723],[16.489064,43.525236],[16.488051,43.524441],[16.487156159956868,43.523738352811435]]]}}]}