{"type":"FeatureCollection","name":"Javne_zelene_povrsine_Komunalna_oprema","crs":{"type":"name","properties":{"name":"urn:ogc:def:crs:OGC:1.3:CRS84"}},"xy_coordinate_resolution":0.000001,"features":[{"type":"Feature","properties":{"vrsta":"Klupa","zelena_povrsina":"ZP Mejaši"},"geometry":{"type":"Point","coordinates":[16.501541,43.52708]}},{"type":"Feature","properties":{"vrsta":"Stol Picnic","zelena_povrsina":"ZP Mejaši"},"geometry":{"type":"Point","coordinates":[16.501738,43.527217]}},{"type":"Feature","properties":{"vrsta":"Klupa","zelena_povrsina":"ZP Mejaši"},"geometry":{"type":"Point","coordinates":[16.501459,43.527062]}},{"type":"Feature","properties":{"vrsta":"Klupa","zelena_povrsina":"ZP Mejaši"},"geometry":{"type":"Point","coordinates":[16.501501,43.527062]}},{"type":"Feature","properties":{"vrsta":"Klupa"},"geometry":{"type":"Point","coordinates":[16.501481,43.527081]}},{"type":"Feature","properties":{"vrsta":"Klupa","zelena_povrsina":"ZP Mejaši"},"geometry":{"type":"Point","coordinates":[16.501416,43.527125]}}]}