{"type":"FeatureCollection","name":"Zgrade","crs":{"type":"name","properties":{"name":"urn:ogc:def:crs:OGC:1.3:CRS84"}},"xy_coordinate_resolution":0.000001,"features":[{"type":"Feature","properties":{"broj":"6","ulica":"Bilice I","sruseno":"NE"},"geometry":{"type":"Polygon","coordinates":[[[16.489804,43.527482],[16.489651,43.527477],[16.489639,43.527582],[16.489791,43.527593],[16.489804,43.527482]]]}},{"type":"Feature","properties":{"broj":"4","ulica":"Bilice II","sruseno":"NE"},"geometry":{"type":"Polygon","coordinates":[[[16.491211,43.526637],[16.49115,43.526563],[16.491074,43.526599],[16.49114,43.526671],[16.491211,43.526637]]]}},{"type":"Feature","properties":{"broj":"6","ulica":"Bilice II","sruseno":"NE"},"geometry":{"type":"Polygon","coordinates":[[[16.49193,43.526057],[16.491855,43.525952],[16.491736,43.525999],[16.49182,43.5261],[16.49193,43.526057]]]}},{"type":"Feature","properties":{"broj":"7","ulica":"Bilice II","sruseno":"NE"},"geometry":{"type":"Polygon","coordinates":[[[16.492711,43.527788],[16.4926,43.52778],[16.492592,43.527842],[16.492703,43.52785],[16.492711,43.527788]]]}},{"type":"Feature","properties":{"broj":"8","ulica":"Bilice II","sruseno":"NE"},"geometry":{"type":"Polygon","coordinates":[[[16.49203,43.526286],[16.491936,43.526178],[16.491812,43.526227],[16.491908,43.526341],[16.49203,43.526286]]]}},{"type":"Feature","properties":{"broj":"9","ulica":"Bilice II","sruseno":"NE"},"geometry":{"type":"Polygon","coordinates":[[[16.492757,43.527641],[16.492625,43.527633],[16.492602,43.527721],[16.492745,43.52773],[16.492757,43.527641]]]}},{"type":"Feature","properties":{"broj":"10","ulica":"Bilice II","sruseno":"NE"},"geometry":{"type":"Polygon","coordinates":[[[16.492378,43.526042],[16.492295,43.525904],[16.492155,43.525945],[16.492248,43.526087],[16.492378,43.526042]]]}},{"type":"Feature","properties":{"broj":"11","ulica":"Bilice II","sruseno":"NE"},"geometry":{"type":"Polygon","coordinates":[[[16.493362,43.528319],[16.493371,43.528138],[16.493276,43.528136],[16.493274,43.528174],[16.49322,43.528173],[16.493216,43.528248],[16.493176,43.528247],[16.493164,43.528314],[16.493362,43.528319]]]}},{"type":"Feature","properties":{"broj":"12","ulica":"Bilice II","sruseno":"NE"},"geometry":{"type":"Polygon","coordinates":[[[16.492172,43.525634],[16.492158,43.525535],[16.491991,43.525547],[16.492008,43.525648],[16.492172,43.525634]]]}},{"type":"Feature","properties":{"broj":"13","ulica":"Bilice II","sruseno":"NE"},"geometry":{"type":"Polygon","coordinates":[[[16.493455,43.527846],[16.493273,43.527833],[16.493268,43.527929],[16.493496,43.527947],[16.493502,43.527889],[16.493447,43.527885],[16.493455,43.527846]]]}},{"type":"Feature","properties":{"broj":"14","ulica":"Bilice II","sruseno":"NE"},"geometry":{"type":"Polygon","coordinates":[[[16.49228,43.525313],[16.492117,43.525308],[16.492114,43.525413],[16.492276,43.525417],[16.49228,43.525313]]]}},{"type":"Feature","properties":{"broj":"15","ulica":"Bilice II","sruseno":"NE"},"geometry":{"type":"Polygon","coordinates":[[[16.493677,43.527786],[16.493553,43.527783],[16.493547,43.527923],[16.493671,43.527925],[16.493677,43.527786]]]}},{"type":"Feature","properties":{"broj":"16","ulica":"Bilice II","sruseno":"NE"},"geometry":{"type":"Polygon","coordinates":[[[16.493017,43.525606],[16.493013,43.525552],[16.49291,43.525556],[16.492917,43.52561],[16.493017,43.525606]]]}},{"type":"Feature","properties":{"broj":"17","ulica":"Bilice II","sruseno":"NE"},"geometry":{"type":"Polygon","coordinates":[[[16.493916,43.528176],[16.49392,43.528084],[16.493979,43.528086],[16.49399,43.527971],[16.493796,43.527967],[16.493787,43.528173],[16.493916,43.528176]]]}},{"type":"Feature","properties":{"broj":"18","ulica":"Bilice II","sruseno":"NE"},"geometry":{"type":"Polygon","coordinates":[[[16.493109,43.526445],[16.493048,43.526358],[16.492983,43.526379],[16.492949,43.526333],[16.492888,43.526355],[16.492971,43.526487],[16.493109,43.526445]]]}},{"type":"Feature","properties":{"broj":"18A","ulica":"Bilice II","sruseno":"NE"},"geometry":{"type":"Polygon","coordinates":[[[16.492841,43.526399],[16.492789,43.526315],[16.492705,43.526347],[16.492756,43.526429],[16.492841,43.526399]]]}},{"type":"Feature","properties":{"broj":"19","ulica":"Bilice II","sruseno":"NE"},"geometry":{"type":"Polygon","coordinates":[[[16.493902,43.528812],[16.493703,43.528807],[16.493689,43.528921],[16.493897,43.528925],[16.493902,43.528812]]]}},{"type":"Feature","properties":{"broj":"20","ulica":"Bilice II","sruseno":"NE"},"geometry":{"type":"Polygon","coordinates":[[[16.493373,43.526569],[16.493281,43.526532],[16.49317,43.52669],[16.493273,43.526721],[16.493373,43.526569]]]}},{"type":"Feature","properties":{"broj":"21","ulica":"Bilice II","sruseno":"NE"},"geometry":{"type":"Polygon","coordinates":[[[16.494617,43.529223],[16.494613,43.52913],[16.494481,43.529135],[16.494481,43.529226],[16.494617,43.529223]]]}},{"type":"Feature","properties":{"broj":"21A","ulica":"Bilice II","sruseno":"NE"},"geometry":{"type":"Polygon","coordinates":[[[16.49265,43.529144],[16.492502,43.52914],[16.492491,43.529239],[16.492646,43.529242],[16.49265,43.529144]]]}},{"type":"Feature","properties":{"broj":"22","ulica":"Bilice II","sruseno":"NE"},"geometry":{"type":"Polygon","coordinates":[[[16.492733,43.527315],[16.4927,43.527193],[16.492614,43.527204],[16.492645,43.527323],[16.492733,43.527315]]]}},{"type":"Feature","properties":{"broj":"23","ulica":"Bilice II","sruseno":"NE"},"geometry":{"type":"Polygon","coordinates":[[[16.494086,43.52765],[16.493965,43.527648],[16.493959,43.527732],[16.494083,43.527736],[16.494086,43.52765]]]}},{"type":"Feature","properties":{"broj":"24","ulica":"Bilice II","sruseno":"NE"},"geometry":{"type":"Polygon","coordinates":[[[16.492583,43.526997],[16.492512,43.526907],[16.492397,43.526949],[16.492455,43.52704],[16.492583,43.526997]]]}},{"type":"Feature","properties":{"broj":"25","ulica":"Bilice II","sruseno":"NE"},"geometry":{"type":"Polygon","coordinates":[[[16.494359,43.527439],[16.494235,43.527354],[16.494161,43.527428],[16.494284,43.527503],[16.494359,43.527439]]]}},{"type":"Feature","properties":{"broj":"26","ulica":"Bilice II","sruseno":"NE"},"geometry":{"type":"Polygon","coordinates":[[[16.494113,43.527093],[16.49397,43.527065],[16.493924,43.527161],[16.494012,43.527179],[16.493993,43.527234],[16.49416,43.527263],[16.494206,43.527156],[16.494098,43.527134],[16.494113,43.527093]]]}},{"type":"Feature","properties":{"broj":"27","ulica":"Bilice II","sruseno":"NE"},"geometry":{"type":"Polygon","coordinates":[[[16.495135,43.527196],[16.495014,43.527191],[16.495011,43.527312],[16.49513,43.527315],[16.495135,43.527196]]]}},{"type":"Feature","properties":{"broj":"27A","ulica":"Bilice II","sruseno":"NE"},"geometry":{"type":"Polygon","coordinates":[[[16.495346,43.52704],[16.495216,43.527037],[16.495212,43.527119],[16.495342,43.527122],[16.495346,43.52704]]]}},{"type":"Feature","properties":{"broj":"28","ulica":"Bilice II","sruseno":"NE"},"geometry":{"type":"Polygon","coordinates":[[[16.493792,43.527059],[16.493799,43.527018],[16.493878,43.527021],[16.493884,43.526963],[16.493805,43.526959],[16.493811,43.526922],[16.493698,43.526915],[16.493677,43.52705],[16.493792,43.527059]]]}},{"type":"Feature","properties":{"broj":"29","ulica":"Bilice II","sruseno":"NE"},"geometry":{"type":"Polygon","coordinates":[[[16.495377,43.527291],[16.495365,43.527216],[16.495243,43.527227],[16.495256,43.527299],[16.495377,43.527291]]]}},{"type":"Feature","properties":{"broj":"30","ulica":"Bilice II","sruseno":"NE"},"geometry":{"type":"Polygon","coordinates":[[[16.49432,43.526844],[16.494301,43.526712],[16.494148,43.526728],[16.494169,43.526858],[16.49432,43.526844]]]}},{"type":"Feature","properties":{"broj":"31A","ulica":"Bilice II","sruseno":"NE"},"geometry":{"type":"Polygon","coordinates":[[[16.495183,43.526832],[16.495068,43.526823],[16.49505,43.526917],[16.495171,43.52693],[16.495183,43.526832]]]}},{"type":"Feature","properties":{"broj":"31A","ulica":"Bilice II","sruseno":"NE"},"geometry":{"type":"Polygon","coordinates":[[[16.495315,43.526843],[16.495183,43.526832],[16.495171,43.52693],[16.495299,43.526943],[16.495315,43.526843]]]}},{"type":"Feature","properties":{"broj":"32","ulica":"Bilice II","sruseno":"NE"},"geometry":{"type":"Polygon","coordinates":[[[16.493857,43.525968],[16.493741,43.525932],[16.4937,43.525999],[16.493818,43.526034],[16.493857,43.525968]]]}},{"type":"Feature","properties":{"broj":"33","ulica":"Bilice II","sruseno":"NE"},"geometry":{"type":"Polygon","coordinates":[[[16.495404,43.526451],[16.495259,43.526435],[16.495235,43.526534],[16.495381,43.526555],[16.495404,43.526451]]]}},{"type":"Feature","properties":{"broj":"34","ulica":"Bilice II","sruseno":"NE"},"geometry":{"type":"Polygon","coordinates":[[[16.494929,43.526136],[16.494797,43.526117],[16.494773,43.526198],[16.49502,43.526238],[16.495031,43.526205],[16.494978,43.526197],[16.494986,43.526171],[16.494921,43.526161],[16.494929,43.526136]]]}},{"type":"Feature","properties":{"broj":"36","ulica":"Bilice II","sruseno":"NE"},"geometry":{"type":"Polygon","coordinates":[[[16.495085,43.525653],[16.494971,43.525653],[16.494969,43.525764],[16.495083,43.525763],[16.495085,43.525653]]]}},{"type":"Feature","properties":{"broj":"38","ulica":"Bilice II","sruseno":"NE"},"geometry":{"type":"Polygon","coordinates":[[[16.495118,43.525442],[16.494953,43.525439],[16.494945,43.525526],[16.495111,43.525532],[16.495118,43.525442]]]}},{"type":"Feature","properties":{"broj":"40","ulica":"Bilice II","sruseno":"NE"},"geometry":{"type":"Polygon","coordinates":[[[16.495197,43.525233],[16.495017,43.525213],[16.494991,43.525321],[16.495173,43.525344],[16.495197,43.525233]]]}},{"type":"Feature","properties":{"broj":"42","ulica":"Bilice II","sruseno":"NE"},"geometry":{"type":"Polygon","coordinates":[[[16.495173,43.525344],[16.494991,43.525321],[16.494974,43.525391],[16.495156,43.525417],[16.495173,43.525344]]]}},{"type":"Feature","properties":{"broj":"2","ulica":"Dračevac","sruseno":"NE"},"geometry":{"type":"Polygon","coordinates":[[[16.499184,43.528734],[16.499191,43.528588],[16.499233,43.528589],[16.499236,43.528458],[16.499117,43.528455],[16.499113,43.528542],[16.499045,43.528542],[16.499037,43.52873],[16.499184,43.528734]]]}},{"type":"Feature","properties":{"broj":"2A","ulica":"Dračevac","sruseno":"NE"},"geometry":{"type":"Polygon","coordinates":[[[16.496887,43.528464],[16.496887,43.528354],[16.496696,43.528354],[16.496691,43.528464],[16.496887,43.528464]]]}},{"type":"Feature","properties":{"broj":"2B","ulica":"Dračevac","sruseno":"NE"},"geometry":{"type":"Polygon","coordinates":[[[16.497085,43.528464],[16.497085,43.528353],[16.496887,43.528354],[16.496887,43.528464],[16.497085,43.528464]]]}},{"type":"Feature","properties":{"broj":"2C","ulica":"Dračevac","sruseno":"NE"},"geometry":{"type":"Polygon","coordinates":[[[16.498303,43.528623],[16.49832,43.528251],[16.49781,43.528244],[16.497793,43.528613],[16.498303,43.528623]],[[16.497884,43.528543],[16.497891,43.528372],[16.498227,43.528375],[16.498219,43.528551],[16.497884,43.528543]]]}},{"type":"Feature","properties":{"broj":"3","ulica":"Dračevac","sruseno":"NE"},"geometry":{"type":"Polygon","coordinates":[[[16.500707,43.527017],[16.500702,43.526942],[16.500607,43.526945],[16.500611,43.52702],[16.500707,43.527017]]]}},{"type":"Feature","properties":{"broj":"4","ulica":"Dračevac","sruseno":"NE"},"geometry":{"type":"Polygon","coordinates":[[[16.501265,43.527207],[16.501253,43.527115],[16.50106,43.527129],[16.501076,43.527251],[16.501213,43.527242],[16.501209,43.527211],[16.501265,43.527207]]]}},{"type":"Feature","properties":{"broj":"6","ulica":"Dračevac","sruseno":"NE"},"geometry":{"type":"Polygon","coordinates":[[[16.502488,43.527791],[16.502484,43.527673],[16.502338,43.527676],[16.502342,43.527794],[16.502488,43.527791]]]}},{"type":"Feature","properties":{"broj":"7","ulica":"Dračevac","sruseno":"NE"},"geometry":{"type":"Polygon","coordinates":[[[16.504095,43.52812],[16.504085,43.528025],[16.503936,43.528034],[16.50394,43.52807],[16.503912,43.528072],[16.503918,43.52813],[16.504095,43.52812]]]}},{"type":"Feature","properties":{"broj":"8A","ulica":"Dračevac","sruseno":"NE"},"geometry":{"type":"Polygon","coordinates":[[[16.501706,43.526612],[16.501641,43.526563],[16.50153,43.526643],[16.501595,43.526691],[16.501706,43.526612]]]}},{"type":"Feature","properties":{"broj":"8D","ulica":"Dračevac","sruseno":"NE"},"geometry":{"type":"Polygon","coordinates":[[[16.502185,43.526191],[16.502089,43.526121],[16.502001,43.526187],[16.502102,43.526252],[16.502185,43.526191]]]}},{"type":"Feature","properties":{"broj":"10","ulica":"Dračevac","sruseno":"NE"},"geometry":{"type":"Polygon","coordinates":[[[16.500434,43.526342],[16.500381,43.526289],[16.500267,43.526349],[16.50032,43.526402],[16.500434,43.526342]]]}},{"type":"Feature","properties":{"broj":"10C","ulica":"Dračevac","sruseno":"NE"},"geometry":{"type":"Polygon","coordinates":[[[16.501406,43.526507],[16.501305,43.526385],[16.501231,43.526418],[16.501261,43.526454],[16.501246,43.526461],[16.501317,43.526546],[16.501406,43.526507]]]}},{"type":"Feature","properties":{"broj":"12","ulica":"Dračevac","sruseno":"NE"},"geometry":{"type":"Polygon","coordinates":[[[16.502936,43.523696],[16.502932,43.523591],[16.502802,43.523593],[16.502807,43.523699],[16.502936,43.523696]]]}},{"type":"Feature","properties":{"broj":"12A","ulica":"Dračevac","sruseno":"NE"},"geometry":{"type":"Polygon","coordinates":[[[16.502517,43.523656],[16.502474,43.523543],[16.502328,43.523572],[16.502371,43.523685],[16.502517,43.523656]]]}},{"type":"Feature","properties":{"broj":"12B","ulica":"Dračevac","sruseno":"NE"},"geometry":{"type":"Polygon","coordinates":[[[16.502435,43.523546],[16.502398,43.523436],[16.502297,43.523454],[16.502328,43.523566],[16.502435,43.523546]]]}},{"type":"Feature","properties":{"broj":"33","ulica":"Dračevac","sruseno":"NE"},"geometry":{"type":"Polygon","coordinates":[[[16.504558,43.52622],[16.504533,43.526137],[16.504395,43.526159],[16.50442,43.526242],[16.504558,43.52622]]]}},{"type":"Feature","properties":{"broj":"60","ulica":"Dračevac","sruseno":"NE"},"geometry":{"type":"Polygon","coordinates":[[[16.506355,43.524558],[16.50622,43.524548],[16.506205,43.524663],[16.506341,43.524672],[16.506355,43.524558]]]}},{"type":"Feature","properties":{"broj":"64","ulica":"Dračevac","sruseno":"NE"},"geometry":{"type":"Polygon","coordinates":[[[16.506397,43.525194],[16.506367,43.525085],[16.506239,43.525103],[16.506248,43.525134],[16.506116,43.525153],[16.506143,43.525253],[16.506297,43.525231],[16.506291,43.525209],[16.506397,43.525194]]]}},{"type":"Feature","properties":{"broj":"1","ulica":"Karepovac","sruseno":"NE"},"geometry":{"type":"Polygon","coordinates":[[[16.496953,43.522443],[16.496939,43.522385],[16.496789,43.522407],[16.496803,43.522463],[16.496953,43.522443]]]}},{"type":"Feature","properties":{"broj":"2","ulica":"Karepovac","sruseno":"NE"},"geometry":{"type":"Polygon","coordinates":[[[16.497203,43.522404],[16.497182,43.522356],[16.497077,43.522382],[16.497097,43.522427],[16.497203,43.522404]]]}},{"type":"Feature","properties":{"broj":"3","ulica":"Karepovac","sruseno":"NE"},"geometry":{"type":"Polygon","coordinates":[[[16.498279,43.521244],[16.498238,43.521191],[16.498121,43.521234],[16.498159,43.521287],[16.498279,43.521244]]]}},{"type":"Feature","properties":{"broj":"56","ulica":"Magistrala-Solin","sruseno":"NE"},"geometry":{"type":"Polygon","coordinates":[[[16.489627,43.52462],[16.489538,43.524527],[16.489384,43.524598],[16.489479,43.524689],[16.489627,43.52462]]]}},{"type":"Feature","properties":{"broj":"1","ulica":"Mostine","sruseno":"NE"},"geometry":{"type":"Polygon","coordinates":[[[16.490544,43.524551],[16.490469,43.52446],[16.490296,43.52453],[16.490369,43.52462],[16.490544,43.524551]]]}},{"type":"Feature","properties":{"broj":"2","ulica":"Mostine","sruseno":"NE"},"geometry":{"type":"Polygon","coordinates":[[[16.490944,43.524692],[16.490734,43.524665],[16.490707,43.524762],[16.490935,43.524807],[16.490944,43.524692]]]}},{"type":"Feature","properties":{"broj":"7A","ulica":"Mostine","sruseno":"NE"},"geometry":{"type":"Polygon","coordinates":[[[16.495295,43.52366],[16.495278,43.523561],[16.495143,43.523578],[16.495164,43.523671],[16.495295,43.52366]]]}},{"type":"Feature","properties":{"broj":"58","ulica":"Magistrala-Solin","sruseno":"NE"},"geometry":{"type":"Polygon","coordinates":[[[16.489386,43.524939],[16.48932,43.524824],[16.489132,43.524877],[16.489184,43.524958],[16.48928,43.524925],[16.489308,43.524963],[16.489386,43.524939]]]}},{"type":"Feature","properties":{"broj":"77","ulica":"Magistrala-Solin","sruseno":"NE"},"geometry":{"type":"Polygon","coordinates":[[[16.487175,43.524124],[16.487166,43.524015],[16.487035,43.524019],[16.487043,43.524129],[16.487175,43.524124]]]}},{"type":"Feature","properties":{"broj":"89","ulica":"Magistrala-Solin","sruseno":"NE"},"geometry":{"type":"Polygon","coordinates":[[[16.489834,43.526537],[16.489796,43.526439],[16.489675,43.526466],[16.48972,43.526559],[16.489834,43.526537]]]}},{"type":"Feature","properties":{"broj":"7","ulica":"Mostine","sruseno":"NE"},"geometry":{"type":"Polygon","coordinates":[[[16.493906,43.524892],[16.493891,43.524795],[16.493605,43.524813],[16.49362,43.524914],[16.493906,43.524892]]]}},{"type":"Feature","properties":{"broj":"60","ulica":"Magistrala-Solin","sruseno":"NE"},"geometry":{"type":"Polygon","coordinates":[[[16.489937,43.525098],[16.489929,43.524992],[16.489855,43.524996],[16.489857,43.525051],[16.489797,43.525053],[16.489797,43.525107],[16.489937,43.525098]]]}},{"type":"Feature","properties":{"broj":"77B","ulica":"Magistrala-Solin","sruseno":"NE"},"geometry":{"type":"Polygon","coordinates":[[[16.487004,43.52409],[16.486998,43.52399],[16.486933,43.523992],[16.486928,43.524035],[16.48689,43.524038],[16.48689,43.524095],[16.487004,43.52409]]]}},{"type":"Feature","properties":{"broj":"58A","ulica":"Magistrala-Solin","sruseno":"NE"},"geometry":{"type":"Polygon","coordinates":[[[16.489574,43.524885],[16.489511,43.524768],[16.489355,43.524814],[16.489419,43.524933],[16.489574,43.524885]]]}},{"type":"Feature","properties":{"broj":"13","ulica":"Mostine","sruseno":"NE"},"geometry":{"type":"Polygon","coordinates":[[[16.493885,43.522611],[16.493854,43.522522],[16.493751,43.522538],[16.493785,43.522629],[16.493885,43.522611]]]}},{"type":"Feature","properties":{"broj":"28","ulica":"PUT MOSTINA","sruseno":"NE"},"geometry":{"type":"Polygon","coordinates":[[[16.490279,43.523046],[16.490245,43.522993],[16.490126,43.523018],[16.490187,43.523166],[16.490318,43.523139],[16.490279,43.523046]]]}},{"type":"Feature","properties":{"broj":"4","ulica":"Mostine","sruseno":"NE"},"geometry":{"type":"Polygon","coordinates":[[[16.492675,43.524618],[16.492649,43.524492],[16.492521,43.524504],[16.492544,43.524631],[16.492675,43.524618]]]}},{"type":"Feature","properties":{"broj":"5","ulica":"Mostine","sruseno":"NE"},"geometry":{"type":"Polygon","coordinates":[[[16.492945,43.524618],[16.492934,43.524529],[16.492794,43.524537],[16.492806,43.524624],[16.492945,43.524618]]]}},{"type":"Feature","properties":{"broj":"12","ulica":"Mostine","sruseno":"NE"},"geometry":{"type":"Polygon","coordinates":[[[16.493933,43.52279],[16.49389,43.522713],[16.493827,43.522731],[16.49384,43.522751],[16.493675,43.522794],[16.493694,43.522831],[16.493622,43.522853],[16.493649,43.522897],[16.493842,43.522848],[16.493828,43.522817],[16.493933,43.52279]]]}},{"type":"Feature","properties":{"broj":"3","ulica":"Mostine","sruseno":"NE"},"geometry":{"type":"Polygon","coordinates":[[[16.492531,43.524658],[16.492515,43.524588],[16.492365,43.524603],[16.492383,43.524675],[16.492531,43.524658]]]}},{"type":"Feature","properties":{"broj":"11","ulica":"Mostine","sruseno":"NE"},"geometry":{"type":"Polygon","coordinates":[[[16.49332,43.523057],[16.493259,43.522948],[16.493057,43.523001],[16.493115,43.523107],[16.49332,43.523057]]]}},{"type":"Feature","properties":{"broj":"6","ulica":"Mostine","sruseno":"NE"},"geometry":{"type":"Polygon","coordinates":[[[16.493604,43.524737],[16.493576,43.524638],[16.493334,43.524668],[16.493346,43.524718],[16.493516,43.524696],[16.493533,43.524747],[16.493604,43.524737]]]}},{"type":"Feature","properties":{"broj":"10","ulica":"Mostine","sruseno":"NE"},"geometry":{"type":"Polygon","coordinates":[[[16.491862,43.523001],[16.4918,43.522877],[16.491695,43.522904],[16.491762,43.523025],[16.491862,43.523001]]]}},{"type":"Feature","properties":{"broj":"93","ulica":"PUT SV.IŽIDORA","sruseno":"NE"},"geometry":{"type":"Polygon","coordinates":[[[16.506462,43.519831],[16.50644,43.519733],[16.506272,43.519754],[16.50629,43.51983],[16.506323,43.519826],[16.506328,43.519847],[16.506462,43.519831]]]}},{"type":"Feature","properties":{"broj":"8","ulica":"Dračevac","sruseno":"NE"},"geometry":{"type":"Polygon","coordinates":[[[16.502606,43.524231],[16.502599,43.524129],[16.502414,43.524135],[16.502422,43.524265],[16.502522,43.524261],[16.502521,43.524234],[16.502606,43.524231]]]}},{"type":"Feature","properties":{"broj":"89/1","ulica":"Magistrala-Solin","sruseno":"NE"},"geometry":{"type":"Polygon","coordinates":[[[16.48972,43.526559],[16.489694,43.526506],[16.489643,43.526516],[16.489665,43.526595],[16.489734,43.526591],[16.48972,43.526559]]]}},{"type":"Feature","properties":{"broj":"12B","ulica":"Bilice II","sruseno":"NE"},"geometry":{"type":"Polygon","coordinates":[[[16.491323,43.525631],[16.491294,43.52555],[16.4911,43.525583],[16.491134,43.525668],[16.491323,43.525631]]]}},{"type":"Feature","properties":{"broj":"5","ulica":"Dračevac","sruseno":"NE"},"geometry":{"type":"Polygon","coordinates":[[[16.500768,43.527017],[16.500766,43.526941],[16.500702,43.526942],[16.500707,43.527017],[16.500768,43.527017]]]}},{"type":"Feature","properties":{"broj":"74","ulica":"Dračevac","sruseno":"NE"},"geometry":{"type":"Polygon","coordinates":[[[16.505603,43.524561],[16.505382,43.524557],[16.50538,43.524624],[16.505412,43.524625],[16.505411,43.524668],[16.5056,43.524671],[16.505603,43.524561]]]}},{"type":"Feature","properties":{"broj":"68B","ulica":"Dračevac","sruseno":"NE"},"geometry":{"type":"Polygon","coordinates":[[[16.503602,43.524536],[16.503575,43.524433],[16.503424,43.524453],[16.503451,43.524557],[16.503602,43.524536]]]}},{"type":"Feature","properties":{"broj":"10D","ulica":"Dračevac","sruseno":"NE"},"geometry":{"type":"Polygon","coordinates":[[[16.501476,43.526439],[16.501397,43.526344],[16.501305,43.526385],[16.501406,43.526507],[16.501432,43.526496],[16.501409,43.526468],[16.501476,43.526439]]]}},{"type":"Feature","properties":{"broj":"88","ulica":"Dračevac","sruseno":"NE"},"geometry":{"type":"Polygon","coordinates":[[[16.503649,43.524094],[16.50364,43.523997],[16.503528,43.524003],[16.503538,43.524099],[16.503649,43.524094]]]}},{"type":"Feature","properties":{"broj":"28","ulica":"Dračevac","sruseno":"NE"},"geometry":{"type":"Polygon","coordinates":[[[16.503106,43.525778],[16.503075,43.525674],[16.502916,43.525703],[16.502949,43.525803],[16.503106,43.525778]]]}},{"type":"Feature","properties":{"broj":"32","ulica":"Dračevac","sruseno":"NE"},"geometry":{"type":"Polygon","coordinates":[[[16.503482,43.525888],[16.503442,43.525811],[16.503337,43.52584],[16.503377,43.525917],[16.503482,43.525888]]]}},{"type":"Feature","properties":{"broj":"38","ulica":"Dračevac","sruseno":"NE"},"geometry":{"type":"Polygon","coordinates":[[[16.503629,43.525693],[16.503566,43.525598],[16.50344,43.525642],[16.503503,43.525737],[16.503629,43.525693]]]}},{"type":"Feature","properties":{"broj":"50","ulica":"Dračevac","sruseno":"NE"},"geometry":{"type":"Polygon","coordinates":[[[16.503886,43.525248],[16.503915,43.525236],[16.503921,43.525244],[16.504026,43.525191],[16.503934,43.525073],[16.503862,43.525103],[16.503888,43.525137],[16.503821,43.525165],[16.503886,43.525248]]]}},{"type":"Feature","properties":{"broj":"51","ulica":"Dračevac","sruseno":"NE"},"geometry":{"type":"Polygon","coordinates":[[[16.505554,43.525153],[16.505525,43.525066],[16.505399,43.525088],[16.505428,43.525175],[16.505554,43.525153]]]}},{"type":"Feature","properties":{"broj":"14","ulica":"Dračevac","sruseno":"NE"},"geometry":{"type":"Polygon","coordinates":[[[16.502182,43.525354],[16.502167,43.525249],[16.50203,43.525259],[16.502044,43.525364],[16.502182,43.525354]]]}},{"type":"Feature","properties":{"broj":"10/1","ulica":"Bilice I","sruseno":"NE"},"geometry":{"type":"Polygon","coordinates":[[[16.48938,43.527315],[16.489198,43.527311],[16.489196,43.527387],[16.489376,43.527392],[16.48938,43.527315]]]}},{"type":"Feature","properties":{"broj":"52","ulica":"Magistrala-Solin","sruseno":"NE"},"geometry":{"type":"Polygon","coordinates":[[[16.488467,43.523804],[16.488455,43.523745],[16.488403,43.523751],[16.488379,43.523666],[16.488259,43.523681],[16.488299,43.523828],[16.488467,43.523804]]]}},{"type":"Feature","properties":{"broj":"66","ulica":"Dračevac","sruseno":"NE"},"geometry":{"type":"Polygon","coordinates":[[[16.5051,43.525128],[16.505065,43.52507],[16.504934,43.52511],[16.504988,43.525202],[16.505095,43.525169],[16.505076,43.525136],[16.5051,43.525128]]]}},{"type":"Feature","properties":{"broj":"6A","ulica":"Dračevac","sruseno":"NE"},"geometry":{"type":"Polygon","coordinates":[[[16.502905,43.527704],[16.502899,43.527627],[16.502734,43.527634],[16.502741,43.52772],[16.502905,43.527704]]]}},{"type":"Feature","properties":{"broj":"68C","ulica":"Dračevac","sruseno":"NE"},"geometry":{"type":"Polygon","coordinates":[[[16.50353,43.52437],[16.503523,43.524261],[16.503399,43.524266],[16.503406,43.524374],[16.50353,43.52437]]]}},{"type":"Feature","properties":{"broj":"15","ulica":"Dračevac","sruseno":"NE"},"geometry":{"type":"Polygon","coordinates":[[[16.503278,43.526831],[16.503013,43.526828],[16.503009,43.526936],[16.503074,43.526994],[16.503204,43.526997],[16.503274,43.526943],[16.503278,43.526831]]]}},{"type":"Feature","properties":{"broj":"28A","ulica":"Dračevac","sruseno":"NE"},"geometry":{"type":"Polygon","coordinates":[[[16.502975,43.525638],[16.502901,43.525541],[16.502809,43.525574],[16.502875,43.525673],[16.502975,43.525638]]]}},{"type":"Feature","properties":{"broj":"36","ulica":"Dračevac","sruseno":"NE"},"geometry":{"type":"Polygon","coordinates":[[[16.503523,43.525562],[16.503463,43.525472],[16.503369,43.525506],[16.50343,43.525596],[16.503523,43.525562]]]}},{"type":"Feature","properties":{"broj":"46","ulica":"Dračevac","sruseno":"NE"},"geometry":{"type":"Polygon","coordinates":[[[16.504146,43.525425],[16.50408,43.525334],[16.503941,43.525388],[16.504007,43.525478],[16.504146,43.525425]]]}},{"type":"Feature","properties":{"broj":"66B","ulica":"Dračevac","sruseno":"NE"},"geometry":{"type":"Polygon","coordinates":[[[16.504245,43.52512],[16.504163,43.525031],[16.504045,43.525089],[16.504128,43.525178],[16.504245,43.52512]]]}},{"type":"Feature","properties":{"broj":"55","ulica":"Dračevac","sruseno":"NE"},"geometry":{"type":"Polygon","coordinates":[[[16.505435,43.525607],[16.505428,43.525521],[16.505269,43.525528],[16.505277,43.525644],[16.505378,43.525639],[16.505375,43.52561],[16.505435,43.525607]]]}},{"type":"Feature","properties":{"broj":"25B","ulica":"Bilice II","sruseno":"NE"},"geometry":{"type":"Polygon","coordinates":[[[16.494909,43.527511],[16.494889,43.527399],[16.49473,43.527413],[16.494748,43.527524],[16.494909,43.527511]]]}},{"type":"Feature","properties":{"broj":"4A","ulica":"Dračevac","sruseno":"NE"},"geometry":{"type":"Polygon","coordinates":[[[16.501108,43.527071],[16.501075,43.526996],[16.50099,43.527016],[16.501007,43.527053],[16.500993,43.527057],[16.501009,43.527095],[16.501108,43.527071]]]}},{"type":"Feature","properties":{"broj":"11","ulica":"Dračevac","sruseno":"NE"},"geometry":{"type":"Polygon","coordinates":[[[16.50247,43.526812],[16.502281,43.526805],[16.502203,43.526862],[16.502199,43.526931],[16.502273,43.526992],[16.502459,43.526998],[16.50254,43.52694],[16.502545,43.526858],[16.50247,43.526812]]]}},{"type":"Feature","properties":{"broj":"20","ulica":"Dračevac","sruseno":"NE"},"geometry":{"type":"Polygon","coordinates":[[[16.503068,43.526486],[16.503007,43.526375],[16.502859,43.526418],[16.50292,43.526529],[16.503068,43.526486]]]}},{"type":"Feature","properties":{"broj":"56","ulica":"Dračevac","sruseno":"NE"},"geometry":{"type":"Polygon","coordinates":[[[16.504734,43.525339],[16.504692,43.525274],[16.504542,43.525327],[16.504584,43.525391],[16.504734,43.525339]]]}},{"type":"Feature","properties":{"broj":"78","ulica":"Dračevac","sruseno":"NE"},"geometry":{"type":"Polygon","coordinates":[[[16.505778,43.524438],[16.505642,43.52443],[16.50563,43.524537],[16.505793,43.524547],[16.5058,43.524484],[16.505772,43.524482],[16.505778,43.524438]]]}},{"type":"Feature","properties":{"broj":"90","ulica":"Dračevac","sruseno":"NE"},"geometry":{"type":"Polygon","coordinates":[[[16.503852,43.524074],[16.50385,43.524033],[16.503797,43.524035],[16.503793,43.523973],[16.50368,43.523976],[16.503685,43.524079],[16.503852,43.524074]]]}},{"type":"Feature","properties":{"broj":"19A","ulica":"Dračevac","sruseno":"NE"},"geometry":{"type":"Polygon","coordinates":[[[16.50383,43.526758],[16.503796,43.52667],[16.503682,43.526698],[16.50367,43.5267],[16.503703,43.526784],[16.50383,43.526758]]]}},{"type":"Feature","properties":{"broj":"13","ulica":"Dračevac","sruseno":"NE"},"geometry":{"type":"Polygon","coordinates":[[[16.502899,43.526724],[16.502709,43.526718],[16.50264,43.526772],[16.502628,43.526946],[16.502698,43.526992],[16.502889,43.526999],[16.502943,43.526944],[16.502954,43.526772],[16.502899,43.526724]]]}},{"type":"Feature","properties":{"broj":"16A","ulica":"Dračevac","sruseno":"NE"},"geometry":{"type":"Polygon","coordinates":[[[16.502303,43.526629],[16.502205,43.526489],[16.502068,43.52654],[16.502166,43.52668],[16.502303,43.526629]]]}},{"type":"Feature","properties":{"broj":"26","ulica":"Dračevac","sruseno":"NE"},"geometry":{"type":"Polygon","coordinates":[[[16.502886,43.526028],[16.502859,43.525953],[16.502737,43.525976],[16.502777,43.52609],[16.502863,43.526074],[16.502886,43.526028]]]}},{"type":"Feature","properties":{"broj":"42A","ulica":"Dračevac","sruseno":"NE"},"geometry":{"type":"Polygon","coordinates":[[[16.503928,43.525493],[16.503862,43.525414],[16.503755,43.525461],[16.503822,43.52554],[16.503928,43.525493]]]}},{"type":"Feature","properties":{"broj":"80","ulica":"Dračevac","sruseno":"NE"},"geometry":{"type":"Polygon","coordinates":[[[16.505869,43.524365],[16.505788,43.524355],[16.505782,43.524409],[16.505856,43.524419],[16.505869,43.524365]]]}},{"type":"Feature","properties":{"broj":"23","ulica":"Dračevac","sruseno":"NE"},"geometry":{"type":"Polygon","coordinates":[[[16.503699,43.526254],[16.503677,43.526189],[16.503651,43.526194],[16.503629,43.526131],[16.503482,43.526157],[16.503526,43.526285],[16.503699,43.526254]]]}},{"type":"Feature","properties":{"broj":"27","ulica":"Dračevac","sruseno":"NE"},"geometry":{"type":"Polygon","coordinates":[[[16.503813,43.525988],[16.503753,43.525911],[16.503639,43.525957],[16.503697,43.526035],[16.503813,43.525988]]]}},{"type":"Feature","properties":{"broj":"17","ulica":"Dračevac","sruseno":"NE"},"geometry":{"type":"Polygon","coordinates":[[[16.503227,43.526634],[16.503083,43.526631],[16.50302,43.526671],[16.503013,43.526828],[16.503278,43.526831],[16.503285,43.526685],[16.503227,43.526634]]]}},{"type":"Feature","properties":{"broj":"18C","ulica":"Dračevac","sruseno":"NE"},"geometry":{"type":"Polygon","coordinates":[[[16.502845,43.526201],[16.502834,43.526172],[16.502744,43.526191],[16.502801,43.526339],[16.50291,43.526317],[16.502845,43.526201]]]}},{"type":"Feature","properties":{"broj":"21B","ulica":"Dračevac","sruseno":"NE"},"geometry":{"type":"Polygon","coordinates":[[[16.504153,43.526377],[16.504102,43.526282],[16.503977,43.526321],[16.504052,43.52645],[16.504134,43.526426],[16.504113,43.526389],[16.504153,43.526377]]]}},{"type":"Feature","properties":{"broj":"46","ulica":"Bilice II","sruseno":"NE"},"geometry":{"type":"Polygon","coordinates":[[[16.4961,43.524731],[16.496004,43.52457],[16.49556,43.524701],[16.49567,43.524855],[16.4961,43.524731]]]}},{"type":"Feature","properties":{"broj":"10A","ulica":"Dračevac","sruseno":"NE"},"geometry":{"type":"Polygon","coordinates":[[[16.501151,43.526691],[16.50108,43.526607],[16.500956,43.526662],[16.501026,43.526746],[16.501151,43.526691]]]}},{"type":"Feature","properties":{"broj":"10B","ulica":"Dračevac","sruseno":"NE"},"geometry":{"type":"Polygon","coordinates":[[[16.50098,43.526483],[16.500901,43.526399],[16.500784,43.526457],[16.500863,43.526541],[16.50098,43.526483]]]}},{"type":"Feature","properties":{"broj":"8E","ulica":"Dračevac","sruseno":"NE"},"geometry":{"type":"Polygon","coordinates":[[[16.50255,43.525522],[16.502424,43.525513],[16.502407,43.525641],[16.502533,43.52565],[16.50255,43.525522]]]}},{"type":"Feature","properties":{"broj":"48","ulica":"Dračevac","sruseno":"NE"},"geometry":{"type":"Polygon","coordinates":[[[16.504103,43.525255],[16.504047,43.525182],[16.504026,43.525191],[16.503921,43.525244],[16.503972,43.525309],[16.504103,43.525255]]]}},{"type":"Feature","properties":{"broj":"29","ulica":"Dračevac","sruseno":"NE"},"geometry":{"type":"Polygon","coordinates":[[[16.504397,43.525788],[16.504351,43.52567],[16.504189,43.525704],[16.504236,43.525821],[16.504397,43.525788]]]}},{"type":"Feature","properties":{"broj":"21C","ulica":"Dračevac","sruseno":"NE"},"geometry":{"type":"Polygon","coordinates":[[[16.503881,43.526459],[16.50386,43.5264],[16.503775,43.526422],[16.503798,43.52648],[16.503881,43.526459]]]}},{"type":"Feature","properties":{"broj":"1B","ulica":"Dračevac","sruseno":"NE"},"geometry":{"type":"Polygon","coordinates":[[[16.499592,43.528114],[16.499464,43.5281],[16.499449,43.528177],[16.499577,43.528188],[16.499592,43.528114]]]}},{"type":"Feature","properties":{"broj":"54B","ulica":"Dračevac","sruseno":"NE"},"geometry":{"type":"Polygon","coordinates":[[[16.504584,43.52513],[16.504542,43.525055],[16.504415,43.525094],[16.504471,43.525193],[16.504572,43.525162],[16.504558,43.525138],[16.504584,43.52513]]]}},{"type":"Feature","properties":{"broj":"21D","ulica":"Dračevac","sruseno":"NE"},"geometry":{"type":"Polygon","coordinates":[[[16.503641,43.526471],[16.503622,43.526363],[16.503505,43.526374],[16.503525,43.526482],[16.503641,43.526471]]]}},{"type":"Feature","properties":{"broj":"47","ulica":"Dračevac","sruseno":"NE"},"geometry":{"type":"Polygon","coordinates":[[[16.505352,43.52534],[16.505328,43.525258],[16.505216,43.525273],[16.505243,43.525357],[16.505352,43.52534]]]}},{"type":"Feature","properties":{"broj":"26B","ulica":"Dračevac","sruseno":"NE"},"geometry":{"type":"Polygon","coordinates":[[[16.502793,43.525744],[16.502744,43.525605],[16.502605,43.525631],[16.502654,43.52577],[16.502793,43.525744]]]}},{"type":"Feature","properties":{"broj":"14R","ulica":"Dračevac","sruseno":"NE"},"geometry":{"type":"Polygon","coordinates":[[[16.502459,43.52472],[16.502404,43.524598],[16.50226,43.524634],[16.502315,43.524759],[16.502459,43.52472]]]}},{"type":"Feature","properties":{"broj":"14O","ulica":"Dračevac","sruseno":"NE"},"geometry":{"type":"Polygon","coordinates":[[[16.502584,43.524477],[16.502577,43.524369],[16.502454,43.524374],[16.502461,43.524481],[16.502584,43.524477]]]}},{"type":"Feature","properties":{"broj":"10E","ulica":"Dračevac","sruseno":"NE"},"geometry":{"type":"Polygon","coordinates":[[[16.501619,43.526293],[16.501668,43.526273],[16.50168,43.526288],[16.501761,43.526254],[16.501666,43.526131],[16.501535,43.526185],[16.501619,43.526293]]]}},{"type":"Feature","properties":{"broj":"40","ulica":"Dračevac","sruseno":"NE"},"geometry":{"type":"Polygon","coordinates":[[[16.503848,43.525707],[16.503797,43.525616],[16.50368,43.525651],[16.503701,43.525689],[16.503694,43.525691],[16.503724,43.525744],[16.503848,43.525707]]]}},{"type":"Feature","properties":{"broj":"42C","ulica":"Dračevac","sruseno":"NE"},"geometry":{"type":"Polygon","coordinates":[[[16.503845,43.525332],[16.503783,43.525241],[16.503656,43.525287],[16.503718,43.525378],[16.503845,43.525332]]]}},{"type":"Feature","properties":{"broj":"94","ulica":"Dračevac","sruseno":"NE"},"geometry":{"type":"Polygon","coordinates":[[[16.505151,43.524065],[16.505132,43.523958],[16.505017,43.523969],[16.505029,43.52404],[16.505043,43.524039],[16.505049,43.524074],[16.505151,43.524065]]]}},{"type":"Feature","properties":{"broj":"59","ulica":"Dračevac","sruseno":"NE"},"geometry":{"type":"Polygon","coordinates":[[[16.506042,43.525093],[16.506042,43.525084],[16.506054,43.525084],[16.50606,43.524985],[16.505936,43.524981],[16.505932,43.52509],[16.506042,43.525093]]]}},{"type":"Feature","properties":{"broj":"66D","ulica":"Dračevac","sruseno":"NE"},"geometry":{"type":"Polygon","coordinates":[[[16.503261,43.525357],[16.503216,43.525258],[16.503092,43.525288],[16.503138,43.525387],[16.503261,43.525357]]]}},{"type":"Feature","properties":{"broj":"14G","ulica":"Dračevac","sruseno":"NE"},"geometry":{"type":"Polygon","coordinates":[[[16.5019,43.525015],[16.501773,43.525001],[16.501747,43.52512],[16.501874,43.525134],[16.5019,43.525015]]]}},{"type":"Feature","properties":{"broj":"14I","ulica":"Dračevac","sruseno":"NE"},"geometry":{"type":"Polygon","coordinates":[[[16.501159,43.524877],[16.501172,43.524804],[16.501097,43.524796],[16.501105,43.524742],[16.501022,43.524738],[16.501012,43.524805],[16.500991,43.524804],[16.50099,43.524858],[16.501159,43.524877]]]}},{"type":"Feature","properties":{"broj":"82","ulica":"Dračevac","sruseno":"NE"},"geometry":{"type":"Polygon","coordinates":[[[16.505558,43.524219],[16.505403,43.524208],[16.505389,43.524314],[16.505544,43.524324],[16.505558,43.524219]]]}},{"type":"Feature","properties":{"broj":"19C","ulica":"Dračevac","sruseno":"NE"},"geometry":{"type":"Polygon","coordinates":[[[16.50407,43.526662],[16.504002,43.526557],[16.503865,43.526604],[16.503933,43.526709],[16.50407,43.526662]]]}},{"type":"Feature","properties":{"broj":"80B","ulica":"Dračevac","sruseno":"NE"},"geometry":{"type":"Polygon","coordinates":[[[16.505758,43.524114],[16.505653,43.524114],[16.505654,43.524227],[16.505758,43.524227],[16.505758,43.524114]]]}},{"type":"Feature","properties":{"broj":"16B","ulica":"Dračevac","sruseno":"NE"},"geometry":{"type":"Polygon","coordinates":[[[16.502549,43.526603],[16.502526,43.526528],[16.502451,43.526544],[16.50247,43.526615],[16.502549,43.526603]]]}},{"type":"Feature","properties":{"broj":"86","ulica":"Dračevac","sruseno":"NE"},"geometry":{"type":"Polygon","coordinates":[[[16.502981,43.524157],[16.502975,43.524039],[16.502805,43.524044],[16.502812,43.524162],[16.502981,43.524157]]]}},{"type":"Feature","properties":{"broj":"100","ulica":"Dračevac","sruseno":"NE"},"geometry":{"type":"Polygon","coordinates":[[[16.505763,43.5234],[16.505759,43.523269],[16.505635,43.523273],[16.505641,43.523409],[16.505763,43.5234]]]}},{"type":"Feature","properties":{"broj":"72","ulica":"Dračevac","sruseno":"NE"},"geometry":{"type":"Polygon","coordinates":[[[16.504779,43.524883],[16.504768,43.524759],[16.50466,43.524764],[16.504672,43.524888],[16.504779,43.524883]]]}},{"type":"Feature","properties":{"broj":"76","ulica":"Dračevac","sruseno":"NE"},"geometry":{"type":"Polygon","coordinates":[[[16.505727,43.524708],[16.505651,43.524696],[16.505625,43.524788],[16.505701,43.524799],[16.505727,43.524708]]]}},{"type":"Feature","properties":{"broj":"19B","ulica":"Dračevac","sruseno":"NE"},"geometry":{"type":"Polygon","coordinates":[[[16.503809,43.526667],[16.503767,43.526557],[16.503638,43.526584],[16.503682,43.526698],[16.503796,43.52667],[16.503809,43.526667]]]}},{"type":"Feature","properties":{"broj":"21A","ulica":"Dračevac","sruseno":"NE"},"geometry":{"type":"Polygon","coordinates":[[[16.504269,43.526342],[16.504215,43.526248],[16.504102,43.526282],[16.504153,43.526377],[16.504269,43.526342]]]}},{"type":"Feature","properties":{"broj":"1","ulica":"Dračevac","sruseno":"NE"},"geometry":{"type":"Polygon","coordinates":[[[16.499526,43.528393],[16.499408,43.528378],[16.499373,43.528525],[16.499492,43.52854],[16.499526,43.528393]]]}},{"type":"Feature","properties":{"broj":"73","ulica":"Dračevac","sruseno":"NE"},"geometry":{"type":"Polygon","coordinates":[[[16.506801,43.523627],[16.506745,43.523534],[16.50668,43.523555],[16.506697,43.523583],[16.506624,43.523607],[16.506674,43.52369],[16.506775,43.523658],[16.506764,43.523639],[16.506801,43.523627]]]}},{"type":"Feature","properties":{"broj":"18D","ulica":"Dračevac","sruseno":"NE"},"geometry":{"type":"Polygon","coordinates":[[[16.503017,43.526295],[16.502971,43.526175],[16.502845,43.526201],[16.50291,43.526317],[16.503017,43.526295]]]}},{"type":"Feature","properties":{"broj":"44","ulica":"Dračevac","sruseno":"NE"},"geometry":{"type":"Polygon","coordinates":[[[16.504243,43.52557],[16.504177,43.525473],[16.504072,43.52551],[16.504139,43.525608],[16.504243,43.52557]]]}},{"type":"Feature","properties":{"broj":"8C","ulica":"Dračevac","sruseno":"NE"},"geometry":{"type":"Polygon","coordinates":[[[16.502102,43.526252],[16.502001,43.526187],[16.501931,43.526238],[16.501971,43.526267],[16.501953,43.526279],[16.50201,43.52632],[16.502102,43.526252]]]}},{"type":"Feature","properties":{"broj":"6B","ulica":"Dračevac","sruseno":"NE"},"geometry":{"type":"Polygon","coordinates":[[[16.502911,43.527791],[16.502905,43.527704],[16.502741,43.52772],[16.502747,43.527797],[16.502911,43.527791]]]}},{"type":"Feature","properties":{"broj":"7B","ulica":"Dračevac","sruseno":"NE"},"geometry":{"type":"Polygon","coordinates":[[[16.504126,43.527832],[16.504074,43.527706],[16.503894,43.527745],[16.503946,43.527872],[16.504126,43.527832]]]}},{"type":"Feature","properties":{"broj":"34","ulica":"Dračevac","sruseno":"NE"},"geometry":{"type":"Polygon","coordinates":[[[16.503372,43.525621],[16.503307,43.525525],[16.503199,43.525563],[16.503264,43.52566],[16.503372,43.525621]]]}},{"type":"Feature","properties":{"broj":"31","ulica":"Dračevac","sruseno":"NE"},"geometry":{"type":"Polygon","coordinates":[[[16.504533,43.526137],[16.504499,43.526057],[16.504371,43.526078],[16.504395,43.526159],[16.504533,43.526137]]]}},{"type":"Feature","properties":{"broj":"82A","ulica":"Dračevac","sruseno":"NE"},"geometry":{"type":"Polygon","coordinates":[[[16.505308,43.524344],[16.505304,43.52421],[16.505185,43.524213],[16.505193,43.524347],[16.505308,43.524344]]]}},{"type":"Feature","properties":{"broj":"68","ulica":"Bilice II","sruseno":"NE"},"geometry":{"type":"Polygon","coordinates":[[[16.495284,43.525806],[16.495155,43.525796],[16.495141,43.525868],[16.495269,43.52588],[16.495284,43.525806]]]}},{"type":"Feature","properties":{"broj":"8F","ulica":"Dračevac","sruseno":"NE"},"geometry":{"type":"Polygon","coordinates":[[[16.502511,43.52574],[16.502394,43.525732],[16.502377,43.525856],[16.502494,43.525864],[16.502511,43.52574]]]}},{"type":"Feature","properties":{"broj":"30","ulica":"Dračevac","sruseno":"NE"},"geometry":{"type":"Polygon","coordinates":[[[16.503263,43.526015],[16.503235,43.525926],[16.503033,43.525959],[16.503061,43.526049],[16.503263,43.526015]]]}},{"type":"Feature","properties":{"broj":"84","ulica":"Dračevac","sruseno":"NE"},"geometry":{"type":"Polygon","coordinates":[[[16.504769,43.524481],[16.504757,43.524341],[16.504611,43.524347],[16.504624,43.524488],[16.504769,43.524481]]]}},{"type":"Feature","properties":{"broj":"35","ulica":"Dračevac","sruseno":"NE"},"geometry":{"type":"Polygon","coordinates":[[[16.504541,43.526391],[16.504521,43.526274],[16.504392,43.526287],[16.504413,43.526403],[16.504541,43.526391]]]}},{"type":"Feature","properties":{"broj":"53","ulica":"Dračevac","sruseno":"NE"},"geometry":{"type":"Polygon","coordinates":[[[16.505475,43.525339],[16.505458,43.525249],[16.505365,43.52526],[16.505385,43.52535],[16.505475,43.525339]]]}},{"type":"Feature","properties":{"broj":"16A","ulica":"Bilice II","sruseno":"NE"},"geometry":{"type":"Polygon","coordinates":[[[16.492803,43.525837],[16.492741,43.525712],[16.492572,43.525754],[16.492637,43.525877],[16.492803,43.525837]]]}},{"type":"Feature","properties":{"broj":"58","ulica":"Dračevac","sruseno":"NE"},"geometry":{"type":"Polygon","coordinates":[[[16.504997,43.525253],[16.504938,43.525172],[16.504799,43.525224],[16.504857,43.525306],[16.504997,43.525253]]]}},{"type":"Feature","properties":{"broj":"23A","ulica":"Dračevac","sruseno":"NE"},"geometry":{"type":"Polygon","coordinates":[[[16.503907,43.526215],[16.503873,43.526121],[16.50375,43.526144],[16.503785,43.526239],[16.503907,43.526215]]]}},{"type":"Feature","properties":{"broj":"29A","ulica":"Dračevac","sruseno":"NE"},"geometry":{"type":"Polygon","coordinates":[[[16.504437,43.525984],[16.50441,43.525885],[16.504285,43.525904],[16.504313,43.526002],[16.504437,43.525984]]]}},{"type":"Feature","properties":{"broj":"67","ulica":"Dračevac","sruseno":"NE"},"geometry":{"type":"Polygon","coordinates":[[[16.506135,43.52432],[16.506049,43.524304],[16.506018,43.524389],[16.506103,43.524406],[16.506135,43.52432]]]}},{"type":"Feature","properties":{"broj":"63","ulica":"Dračevac","sruseno":"NE"},"geometry":{"type":"Polygon","coordinates":[[[16.506087,43.524521],[16.505938,43.524519],[16.505936,43.524601],[16.506085,43.524603],[16.506087,43.524521]]]}},{"type":"Feature","properties":{"broj":"25D","ulica":"Bilice II","sruseno":"NE"},"geometry":{"type":"Polygon","coordinates":[[[16.494505,43.527117],[16.494389,43.527102],[16.494373,43.527182],[16.49449,43.527197],[16.494505,43.527117]]]}},{"type":"Feature","properties":{"broj":"14K","ulica":"Dračevac","sruseno":"NE"},"geometry":{"type":"Polygon","coordinates":[[[16.501629,43.524766],[16.501478,43.524754],[16.501458,43.524872],[16.501608,43.524885],[16.501629,43.524766]]]}},{"type":"Feature","properties":{"broj":"8B","ulica":"Dračevac","sruseno":"NE"},"geometry":{"type":"Polygon","coordinates":[[[16.501641,43.526563],[16.501569,43.526509],[16.501457,43.526588],[16.50153,43.526643],[16.501641,43.526563]]]}},{"type":"Feature","properties":{"broj":"42B","ulica":"Dračevac","sruseno":"NE"},"geometry":{"type":"Polygon","coordinates":[[[16.503704,43.525415],[16.503646,43.525339],[16.503533,43.525384],[16.503591,43.525461],[16.503704,43.525415]]]}},{"type":"Feature","properties":{"broj":"19","ulica":"Dračevac","sruseno":"NE"},"geometry":{"type":"Polygon","coordinates":[[[16.503597,43.526794],[16.503548,43.526656],[16.503365,43.52669],[16.503413,43.526829],[16.503441,43.526823],[16.503557,43.526802],[16.503597,43.526794]]]}},{"type":"Feature","properties":{"broj":"21","ulica":"Dračevac","sruseno":"NE"},"geometry":{"type":"Polygon","coordinates":[[[16.504318,43.526546],[16.504294,43.526454],[16.504156,43.526472],[16.50418,43.526565],[16.504318,43.526546]]]}},{"type":"Feature","properties":{"broj":"23B","ulica":"Dračevac","sruseno":"NE"},"geometry":{"type":"Polygon","coordinates":[[[16.504266,43.52618],[16.504231,43.526091],[16.504101,43.526118],[16.504136,43.526207],[16.504266,43.52618]]]}},{"type":"Feature","properties":{"broj":"80A","ulica":"Dračevac","sruseno":"NE"},"geometry":{"type":"Polygon","coordinates":[[[16.505925,43.524267],[16.505923,43.524093],[16.505804,43.524096],[16.505812,43.52427],[16.505925,43.524267]]]}},{"type":"Feature","properties":{"broj":"1C","ulica":"Dračevac","sruseno":"NE"},"geometry":{"type":"Polygon","coordinates":[[[16.499855,43.52812],[16.499706,43.528101],[16.499675,43.528238],[16.499823,43.528256],[16.499855,43.52812]]]}},{"type":"Feature","properties":{"broj":"2D","ulica":"Dračevac","sruseno":"NE"},"geometry":{"type":"Polygon","coordinates":[[[16.496508,43.528844],[16.496508,43.528611],[16.496027,43.528645],[16.496046,43.528892],[16.496508,43.528844]]]}},{"type":"Feature","properties":{"broj":"82B","ulica":"Dračevac","sruseno":"NE"},"geometry":{"type":"Polygon","coordinates":[[[16.505346,43.524527],[16.505345,43.524425],[16.505183,43.524428],[16.505187,43.524528],[16.505346,43.524527]]]}},{"type":"Feature","properties":{"broj":"18","ulica":"Dračevac","sruseno":"NE"},"geometry":{"type":"Polygon","coordinates":[[[16.502787,43.526507],[16.50273,43.526387],[16.502559,43.52643],[16.502617,43.52655],[16.502787,43.526507]]]}},{"type":"Feature","properties":{"broj":"40A","ulica":"Dračevac","sruseno":"NE"},"geometry":{"type":"Polygon","coordinates":[[[16.503738,43.525571],[16.50368,43.525496],[16.503573,43.52554],[16.503632,43.525615],[16.503738,43.525571]]]}},{"type":"Feature","properties":{"broj":"42","ulica":"Dračevac","sruseno":"NE"},"geometry":{"type":"Polygon","coordinates":[[[16.504055,43.525595],[16.504027,43.525552],[16.503888,43.525599],[16.503939,43.52568],[16.504043,43.525645],[16.504019,43.525607],[16.504055,43.525595]]]}},{"type":"Feature","properties":{"broj":"43","ulica":"Dračevac","sruseno":"NE"},"geometry":{"type":"Polygon","coordinates":[[[16.505186,43.525586],[16.505152,43.525469],[16.50501,43.525491],[16.505044,43.525608],[16.505186,43.525586]]]}},{"type":"Feature","properties":{"broj":"25A","ulica":"Bilice II","sruseno":"NE"},"geometry":{"type":"Polygon","coordinates":[[[16.494548,43.527363],[16.494443,43.527342],[16.494404,43.52744],[16.494519,43.527457],[16.494548,43.527363]]]}},{"type":"Feature","properties":{"broj":"1D","ulica":"Dračevac","sruseno":"NE"},"geometry":{"type":"Polygon","coordinates":[[[16.499789,43.528321],[16.499654,43.528305],[16.49962,43.528455],[16.499755,43.528471],[16.499789,43.528321]]]}},{"type":"Feature","properties":{"broj":"16","ulica":"Dračevac","sruseno":"NE"},"geometry":{"type":"Polygon","coordinates":[[[16.502122,43.526672],[16.502035,43.52657],[16.5019,43.526631],[16.501987,43.526732],[16.502122,43.526672]]]}},{"type":"Feature","properties":{"broj":"28B","ulica":"Dračevac","sruseno":"NE"},"geometry":{"type":"Polygon","coordinates":[[[16.503088,43.525597],[16.503022,43.525498],[16.502901,43.525541],[16.502975,43.525638],[16.503088,43.525597]]]}},{"type":"Feature","properties":{"broj":"14M","ulica":"Dračevac","sruseno":"NE"},"geometry":{"type":"Polygon","coordinates":[[[16.502085,43.524822],[16.501935,43.52481],[16.501914,43.524928],[16.502065,43.52494],[16.502085,43.524822]]]}},{"type":"Feature","properties":{"broj":"8A","ulica":"Mostine","sruseno":"NE"},"geometry":{"type":"Polygon","coordinates":[[[16.489547,43.523919],[16.489505,43.523816],[16.489333,43.52385],[16.489376,43.523953],[16.489547,43.523919]]]}},{"type":"Feature","properties":{"broj":"7A","ulica":"Dračevac","sruseno":"NE"},"geometry":{"type":"Polygon","coordinates":[[[16.504028,43.527618],[16.503944,43.527445],[16.503765,43.527496],[16.503794,43.527547],[16.503725,43.527564],[16.503789,43.527686],[16.504028,43.527618]]]}},{"type":"Feature","properties":{"broj":"22","ulica":"Dračevac","sruseno":"NE"},"geometry":{"type":"Polygon","coordinates":[[[16.503273,43.52639],[16.503227,43.526299],[16.503043,43.526349],[16.503105,43.52647],[16.50324,43.526433],[16.503225,43.526403],[16.503273,43.52639]]]}},{"type":"Feature","properties":{"broj":"54","ulica":"Dračevac","sruseno":"NE"},"geometry":{"type":"Polygon","coordinates":[[[16.504519,43.525429],[16.504445,43.525341],[16.504306,43.525402],[16.50438,43.525491],[16.504519,43.525429]]]}},{"type":"Feature","properties":{"broj":"56A","ulica":"Dračevac","sruseno":"NE"},"geometry":{"type":"Polygon","coordinates":[[[16.504692,43.525274],[16.504652,43.525212],[16.504502,43.525264],[16.504542,43.525327],[16.504692,43.525274]]]}},{"type":"Feature","properties":{"broj":"66A","ulica":"Dračevac","sruseno":"NE"},"geometry":{"type":"Polygon","coordinates":[[[16.504794,43.525084],[16.504728,43.524998],[16.504618,43.525043],[16.504684,43.525128],[16.504794,43.525084]]]}},{"type":"Feature","properties":{"broj":"49","ulica":"Dračevac","sruseno":"NE"},"geometry":{"type":"Polygon","coordinates":[[[16.505372,43.525194],[16.50534,43.525084],[16.505209,43.525104],[16.50524,43.525214],[16.505372,43.525194]]]}},{"type":"Feature","properties":{"broj":"57","ulica":"Dračevac","sruseno":"NE"},"geometry":{"type":"Polygon","coordinates":[[[16.505713,43.525232],[16.50571,43.52513],[16.505587,43.525131],[16.505588,43.525236],[16.505713,43.525232]]]}},{"type":"Feature","properties":{"broj":"92","ulica":"Dračevac","sruseno":"NE"},"geometry":{"type":"Polygon","coordinates":[[[16.504594,43.524072],[16.504584,43.524009],[16.504449,43.52402],[16.504459,43.524083],[16.504594,43.524072]]]}},{"type":"Feature","properties":{"broj":"1A","ulica":"Dračevac","sruseno":"NE"},"geometry":{"type":"Polygon","coordinates":[[[16.499577,43.528188],[16.499449,43.528177],[16.499434,43.528248],[16.499562,43.528261],[16.499577,43.528188]]]}},{"type":"Feature","properties":{"broj":"2","ulica":"Bilice I","sruseno":"NE"},"geometry":{"type":"Polygon","coordinates":[[[16.489624,43.528184],[16.489481,43.528181],[16.489474,43.528334],[16.489616,43.528342],[16.489624,43.528184]]]}},{"type":"Feature","properties":{"broj":"8","ulica":"Bilice I","sruseno":"NE"},"geometry":{"type":"Polygon","coordinates":[[[16.489472,43.527636],[16.489398,43.527634],[16.489395,43.527701],[16.489469,43.527704],[16.489472,43.527636]]]}},{"type":"Feature","properties":{"broj":"44A","ulica":"Bilice II","sruseno":"NE"},"geometry":{"type":"Polygon","coordinates":[[[16.494765,43.525105],[16.494733,43.524982],[16.494596,43.525001],[16.494615,43.525073],[16.494661,43.525065],[16.494683,43.525118],[16.494765,43.525105]]]}},{"type":"Feature","properties":{"broj":"61","ulica":"Dračevac","sruseno":"NE"},"geometry":{"type":"Polygon","coordinates":[[[16.505961,43.524771],[16.505867,43.524756],[16.505834,43.524862],[16.505928,43.524877],[16.505961,43.524771]]]}},{"type":"Feature","properties":{"broj":"75","ulica":"Dračevac","sruseno":"NE"},"geometry":{"type":"Polygon","coordinates":[[[16.50611,43.523039],[16.506051,43.52299],[16.505982,43.523034],[16.506041,43.523083],[16.50611,43.523039]]]}},{"type":"Feature","properties":{"broj":"64A","ulica":"Dračevac","sruseno":"NE"},"geometry":{"type":"Polygon","coordinates":[[[16.506394,43.525385],[16.506365,43.525285],[16.506176,43.525313],[16.506205,43.525413],[16.506394,43.525385]]]}},{"type":"Feature","properties":{"broj":"14L","ulica":"Dračevac","sruseno":"NE"},"geometry":{"type":"Polygon","coordinates":[[[16.501872,43.524795],[16.501721,43.524783],[16.5017,43.524902],[16.501851,43.524914],[16.501872,43.524795]]]}},{"type":"Feature","properties":{"broj":"9","ulica":"Dračevac","sruseno":"NE"},"geometry":{"type":"Polygon","coordinates":[[[16.504435,43.527394],[16.504331,43.527366],[16.504256,43.527513],[16.504359,43.527541],[16.504435,43.527394]]]}},{"type":"Feature","properties":{"broj":"72C","ulica":"Dračevac","sruseno":"NE"},"geometry":{"type":"Polygon","coordinates":[[[16.505362,43.524956],[16.50536,43.524907],[16.505244,43.524912],[16.505248,43.524959],[16.505362,43.524956]]]}},{"type":"Feature","properties":{"broj":"12","ulica":"Karepovac","sruseno":"NE"},"geometry":{"type":"Polygon","coordinates":[[[16.500035,43.520557],[16.500159,43.520527],[16.500115,43.520433],[16.499959,43.520471],[16.499992,43.520541],[16.500024,43.520534],[16.500035,43.520557]]]}},{"type":"Feature","properties":{"broj":"42A","ulica":"Bilice II","sruseno":"NE"},"geometry":{"type":"Polygon","coordinates":[[[16.495185,43.525081],[16.495041,43.525078],[16.495037,43.525139],[16.49518,43.525144],[16.495185,43.525081]]]}},{"type":"Feature","properties":{"broj":"62","ulica":"Dračevac","sruseno":"NE"},"geometry":{"type":"Polygon","coordinates":[[[16.504849,43.525194],[16.504802,43.52513],[16.504677,43.525178],[16.504725,43.525242],[16.504849,43.525194]]]}},{"type":"Feature","properties":{"broj":"62","ulica":"Bilice II","sruseno":"NE"},"geometry":{"type":"Polygon","coordinates":[[[16.495275,43.526014],[16.495088,43.52599],[16.495033,43.526181],[16.495219,43.526213],[16.495275,43.526014]]]}},{"type":"Feature","properties":{"broj":"14C","ulica":"Dračevac","sruseno":"NE"},"geometry":{"type":"Polygon","coordinates":[[[16.501468,43.525179],[16.501333,43.52516],[16.501301,43.525279],[16.501432,43.525301],[16.501468,43.525179]]]}},{"type":"Feature","properties":{"broj":"25C","ulica":"Bilice II","sruseno":"NE"},"geometry":{"type":"Polygon","coordinates":[[[16.494647,43.527135],[16.494505,43.527117],[16.49449,43.527197],[16.494632,43.527215],[16.494647,43.527135]]]}},{"type":"Feature","properties":{"broj":"72B","ulica":"Dračevac","sruseno":"NE"},"geometry":{"type":"Polygon","coordinates":[[[16.505081,43.524943],[16.505078,43.524822],[16.504947,43.524823],[16.504951,43.524944],[16.505081,43.524943]]]}},{"type":"Feature","properties":{"broj":"14S","ulica":"Dračevac","sruseno":"NE"},"geometry":{"type":"Polygon","coordinates":[[[16.502696,43.524662],[16.502641,43.524539],[16.502496,43.524576],[16.502552,43.5247],[16.502696,43.524662]]]}},{"type":"Feature","properties":{"broj":"26A","ulica":"Dračevac","sruseno":"NE"},"geometry":{"type":"Polygon","coordinates":[[[16.50284,43.525905],[16.502801,43.525805],[16.502716,43.525822],[16.502707,43.525798],[16.502633,43.525813],[16.50268,43.525938],[16.50284,43.525905]]]}},{"type":"Feature","properties":{"broj":"90C","ulica":"Dračevac","sruseno":"NE"},"geometry":{"type":"Polygon","coordinates":[[[16.504365,43.524056],[16.504361,43.523923],[16.504227,43.523928],[16.504232,43.524056],[16.504365,43.524056]]]}},{"type":"Feature","properties":{"broj":"14N","ulica":"Dračevac","sruseno":"NE"},"geometry":{"type":"Polygon","coordinates":[[[16.50234,43.524491],[16.502311,43.5244],[16.502185,43.524421],[16.502214,43.524512],[16.50234,43.524491]]]}},{"type":"Feature","properties":{"broj":"14H","ulica":"Dračevac","sruseno":"NE"},"geometry":{"type":"Polygon","coordinates":[[[16.502145,43.525055],[16.501994,43.525043],[16.501974,43.525161],[16.502124,43.525174],[16.502145,43.525055]]]}},{"type":"Feature","properties":{"broj":"4/1","ulica":"Bilice I","sruseno":"NE"},"geometry":{"type":"Polygon","coordinates":[[[16.489606,43.527559],[16.489479,43.527554],[16.489472,43.527621],[16.489592,43.527675],[16.489606,43.527559]]]}},{"type":"Feature","properties":{"broj":"25F","ulica":"Bilice II","sruseno":"NE"},"geometry":{"type":"Polygon","coordinates":[[[16.494647,43.526867],[16.494468,43.526854],[16.494448,43.526971],[16.494629,43.526982],[16.494647,43.526867]]]}},{"type":"Feature","properties":{"broj":"72A","ulica":"Dračevac","sruseno":"NE"},"geometry":{"type":"Polygon","coordinates":[[[16.505032,43.524671],[16.50492,43.524677],[16.504924,43.524737],[16.505035,43.524733],[16.505032,43.524671]]]}},{"type":"Feature","properties":{"broj":"14L/1","ulica":"Dračevac","sruseno":"NE"},"geometry":{"type":"Polygon","coordinates":[[[16.502051,43.524488],[16.502047,43.524373],[16.501897,43.524376],[16.5019,43.524465],[16.501969,43.524463],[16.50197,43.524489],[16.502051,43.524488]]]}},{"type":"Feature","properties":{"broj":"94A","ulica":"Dračevac","sruseno":"NE"},"geometry":{"type":"Polygon","coordinates":[[[16.505003,43.523923],[16.504992,43.523805],[16.50488,43.523811],[16.50489,43.523928],[16.505003,43.523923]]]}},{"type":"Feature","properties":{"broj":"44","ulica":"Bilice II","sruseno":"NE"},"geometry":{"type":"Polygon","coordinates":[[[16.49519,43.525012],[16.495046,43.525008],[16.495041,43.525078],[16.495185,43.525081],[16.49519,43.525012]]]}},{"type":"Feature","properties":{"broj":"54","ulica":"Bilice II","sruseno":"NE"},"geometry":{"type":"Polygon","coordinates":[[[16.50288,43.52328],[16.502861,43.523194],[16.502553,43.523232],[16.502572,43.523317],[16.50288,43.52328]]]}},{"type":"Feature","properties":{"broj":"4","ulica":"Bilice I","sruseno":"NE"},"geometry":{"type":"Polygon","coordinates":[[[16.489615,43.52748],[16.489488,43.527475],[16.489479,43.527554],[16.489606,43.527559],[16.489615,43.52748]]]}},{"type":"Feature","properties":{"broj":"96","ulica":"Dračevac","sruseno":"NE"},"geometry":{"type":"Polygon","coordinates":[[[16.505388,43.524035],[16.505385,43.523906],[16.50525,43.52391],[16.505257,43.524038],[16.505341,43.524038],[16.505388,43.524035]]]}},{"type":"Feature","properties":{"broj":"1B","ulica":"Mostine","sruseno":"NE"},"geometry":{"type":"Polygon","coordinates":[[[16.490321,43.524144],[16.490225,43.524017],[16.490072,43.524047],[16.490174,43.524187],[16.490321,43.524144]]]}},{"type":"Feature","properties":{"broj":"66","ulica":"Bilice II","sruseno":"NE"},"geometry":{"type":"Polygon","coordinates":[[[16.495271,43.525907],[16.495113,43.525891],[16.495097,43.525963],[16.495255,43.525985],[16.495271,43.525907]]]}},{"type":"Feature","properties":{"broj":"14A","ulica":"Dračevac","sruseno":"NE"},"geometry":{"type":"Polygon","coordinates":[[[16.501919,43.525365],[16.501934,43.525229],[16.50181,43.525221],[16.501803,43.525278],[16.501793,43.525277],[16.501784,43.525357],[16.501919,43.525365]]]}},{"type":"Feature","properties":{"broj":"14E","ulica":"Dračevac","sruseno":"NE"},"geometry":{"type":"Polygon","coordinates":[[[16.501427,43.524982],[16.501265,43.52497],[16.501254,43.525063],[16.501411,43.525074],[16.501427,43.524982]]]}},{"type":"Feature","properties":{"broj":"110","ulica":"Dračevac","sruseno":"NE"},"geometry":{"type":"Polygon","coordinates":[[[16.504639,43.522545],[16.50462,43.522416],[16.504491,43.522426],[16.504503,43.52251],[16.504488,43.522511],[16.504494,43.522556],[16.504639,43.522545]]]}},{"type":"Feature","properties":{"broj":"95","ulica":"PUT SV.IŽIDORA","sruseno":"NE"},"geometry":{"type":"Polygon","coordinates":[[[16.50591,43.519869],[16.505867,43.519752],[16.505736,43.519777],[16.505779,43.519894],[16.50591,43.519869]]]}},{"type":"Feature","properties":{"broj":"90A","ulica":"Dračevac","sruseno":"NE"},"geometry":{"type":"Polygon","coordinates":[[[16.503914,43.524073],[16.503908,43.523971],[16.503793,43.523973],[16.503797,43.524035],[16.50385,43.524033],[16.503852,43.524074],[16.503914,43.524073]]]}},{"type":"Feature","properties":{"broj":"28","ulica":"Karepovac","sruseno":"NE"},"geometry":{"type":"Polygon","coordinates":[[[16.505142,43.519971],[16.505113,43.519901],[16.50495,43.519936],[16.504999,43.520054],[16.505129,43.520026],[16.50511,43.519978],[16.505142,43.519971]]]}},{"type":"Feature","properties":{"broj":"2A","ulica":"Mostine","sruseno":"NE"},"geometry":{"type":"Polygon","coordinates":[[[16.491194,43.525082],[16.491116,43.524997],[16.491014,43.52504],[16.491094,43.525124],[16.491194,43.525082]]]}},{"type":"Feature","properties":{"broj":"16B","ulica":"Bilice II","sruseno":"NE"},"geometry":{"type":"Polygon","coordinates":[[[16.493327,43.52602],[16.49332,43.525917],[16.49317,43.525921],[16.493018,43.525925],[16.49303,43.526038],[16.493179,43.526029],[16.493327,43.52602]]]}},{"type":"Feature","properties":{"broj":"24A","ulica":"Bilice II","sruseno":"NE"},"geometry":{"type":"Polygon","coordinates":[[[16.492512,43.526907],[16.492445,43.526833],[16.49233,43.526877],[16.492397,43.526949],[16.492512,43.526907]]]}},{"type":"Feature","properties":{"broj":"27B","ulica":"Bilice II","sruseno":"NE"},"geometry":{"type":"Polygon","coordinates":[[[16.495171,43.527009],[16.495036,43.527002],[16.495026,43.527108],[16.495161,43.527115],[16.495171,43.527041],[16.495171,43.527009]]]}},{"type":"Feature","properties":{"broj":"32D","ulica":"Bilice II","sruseno":"NE"},"geometry":{"type":"Polygon","coordinates":[[[16.493648,43.526019],[16.493539,43.525985],[16.493474,43.526085],[16.493592,43.526121],[16.493648,43.526019]]]}},{"type":"Feature","properties":{"broj":"1E","ulica":"Dračevac","sruseno":"NE"},"geometry":{"type":"Polygon","coordinates":[[[16.499356,43.528069],[16.499291,43.528066],[16.499281,43.528166],[16.499351,43.52817],[16.499356,43.528069]]]}},{"type":"Feature","properties":{"broj":"4D","ulica":"Dračevac","sruseno":"NE"},"geometry":{"type":"Polygon","coordinates":[[[16.50195,43.527509],[16.501384,43.527504],[16.501405,43.52771],[16.501165,43.52773],[16.501179,43.527854],[16.501964,43.527818],[16.50195,43.527509]]]}},{"type":"Feature","properties":{"broj":"9A","ulica":"Dračevac","sruseno":"NE"},"geometry":{"type":"Polygon","coordinates":[[[16.504156,43.526861],[16.504036,43.526789],[16.503951,43.52685],[16.504085,43.526928],[16.504156,43.526861]]]}},{"type":"Feature","properties":{"broj":"14F","ulica":"Dračevac","sruseno":"NE"},"geometry":{"type":"Polygon","coordinates":[[[16.501639,43.524979],[16.501513,43.524959],[16.501485,43.525051],[16.501611,43.525071],[16.501639,43.524979]]]}},{"type":"Feature","properties":{"broj":"18B","ulica":"Dračevac","sruseno":"NE"},"geometry":{"type":"Polygon","coordinates":[[[16.502752,43.526312],[16.502698,43.526172],[16.502586,43.526195],[16.502634,43.526336],[16.502752,43.526312]]]}},{"type":"Feature","properties":{"broj":"64B","ulica":"Dračevac","sruseno":"NE"},"geometry":{"type":"Polygon","coordinates":[[[16.50591,43.525128],[16.505906,43.52503],[16.50579,43.525033],[16.505794,43.525131],[16.50591,43.525128]]]}},{"type":"Feature","properties":{"broj":"68D","ulica":"Dračevac","sruseno":"NE"},"geometry":{"type":"Polygon","coordinates":[[[16.50394,43.524504],[16.503919,43.524391],[16.503763,43.524401],[16.503791,43.524509],[16.50394,43.524504]]]}},{"type":"Feature","properties":{"broj":"21B","ulica":"Bilice II","sruseno":"NE"},"geometry":{"type":"Polygon","coordinates":[[[16.493412,43.529106],[16.493254,43.529097],[16.493249,43.529208],[16.493407,43.529212],[16.493412,43.529106]]]}},{"type":"Feature","properties":{"broj":"28C","ulica":"Dračevac","sruseno":"NE"},"geometry":{"type":"Polygon","coordinates":[[[16.503284,43.525489],[16.503224,43.525414],[16.503121,43.525451],[16.503196,43.525527],[16.503284,43.525489]]]}},{"type":"Feature","properties":{"broj":"30","ulica":"PUT MOSTINA","sruseno":"NE"},"geometry":{"type":"Polygon","coordinates":[[[16.490851,43.523503],[16.490833,43.523442],[16.490659,43.523469],[16.490675,43.523526],[16.490851,43.523503]]]}},{"type":"Feature","properties":{"broj":"9","ulica":"Mostine","sruseno":"NE"},"geometry":{"type":"Polygon","coordinates":[[[16.491577,43.522897],[16.491553,43.522775],[16.491459,43.522784],[16.491487,43.522908],[16.491577,43.522897]]]}},{"type":"Feature","properties":{"broj":"64","ulica":"Bilice II","sruseno":"NE"},"geometry":{"type":"Polygon","coordinates":[[[16.49541,43.525903],[16.495298,43.525895],[16.495288,43.525971],[16.495349,43.525976],[16.495347,43.52599],[16.495398,43.525993],[16.49541,43.525903]]]}},{"type":"Feature","properties":{"broj":"21G","ulica":"Bilice II","sruseno":"NE"},"geometry":{"type":"Polygon","coordinates":[[[16.490949,43.528821],[16.490852,43.528819],[16.490853,43.528779],[16.490789,43.528778],[16.490747,43.528791],[16.490701,43.528823],[16.490678,43.528857],[16.490675,43.528911],[16.490686,43.528911],[16.490681,43.529162],[16.490942,43.529163],[16.490947,43.528914],[16.490949,43.528821]]]}},{"type":"Feature","properties":{"broj":"25E","ulica":"Bilice II","sruseno":"NE"},"geometry":{"type":"Polygon","coordinates":[[[16.494681,43.527495],[16.494559,43.52748],[16.494543,43.527561],[16.49466,43.527576],[16.494681,43.527495]]]}},{"type":"Feature","properties":{"broj":"23A","ulica":"Bilice II","sruseno":"NE"},"geometry":{"type":"Polygon","coordinates":[[[16.494255,43.527553],[16.494142,43.527485],[16.494043,43.527573],[16.494155,43.52764],[16.494255,43.527553]]]}},{"type":"Feature","properties":{"broj":"12A","ulica":"Bilice II","sruseno":"NE"},"geometry":{"type":"Polygon","coordinates":[[[16.490614,43.525503],[16.490617,43.525539],[16.490605,43.52554],[16.49061,43.525599],[16.490647,43.525597],[16.490647,43.525608],[16.49078,43.525603],[16.490775,43.525535],[16.490764,43.525535],[16.490761,43.525497],[16.490614,43.525503]]]}},{"type":"Feature","properties":{"broj":"3A","ulica":"Mostine","sruseno":"NE"},"geometry":{"type":"Polygon","coordinates":[[[16.493038,43.524987],[16.493037,43.52496],[16.492832,43.524962],[16.492834,43.52499],[16.493038,43.524987]]]}},{"type":"Feature","properties":{"broj":"21E","ulica":"Bilice II","sruseno":"NE"},"geometry":{"type":"Polygon","coordinates":[[[16.491429,43.529007],[16.491425,43.529182],[16.491763,43.529186],[16.491768,43.529011],[16.491429,43.529007]]]}},{"type":"Feature","properties":{"broj":"1A","ulica":"Mostine","sruseno":"NE"},"geometry":{"type":"Polygon","coordinates":[[[16.490237,43.524368],[16.490176,43.52429],[16.490074,43.524323],[16.49014,43.524407],[16.490237,43.524368]]]}},{"type":"Feature","properties":{"broj":"112","ulica":"Dračevac","sruseno":"NE"},"geometry":{"type":"Polygon","coordinates":[[[16.504164,43.522407],[16.504135,43.522334],[16.504031,43.522356],[16.504048,43.522399],[16.503949,43.52242],[16.50398,43.522496],[16.504129,43.522465],[16.504111,43.522418],[16.504164,43.522407]]]}},{"type":"Feature","properties":{"broj":"6C","ulica":"Dračevac","sruseno":"NE"},"geometry":{"type":"Polygon","coordinates":[[[16.503088,43.527967],[16.503088,43.527865],[16.502939,43.527865],[16.502939,43.527967],[16.503088,43.527967]]]}},{"type":"Feature","properties":{"broj":"48","ulica":"Bilice II","sruseno":"NE"},"geometry":{"type":"Polygon","coordinates":[[[16.500422,43.524187],[16.500425,43.52413],[16.500349,43.524131],[16.500348,43.52419],[16.500422,43.524187]]]}},{"type":"Feature","properties":{"broj":"114A","ulica":"Dračevac","sruseno":"NE"},"geometry":{"type":"Polygon","coordinates":[[[16.504006,43.522094],[16.503882,43.522094],[16.503882,43.522207],[16.504006,43.522207],[16.504006,43.522094]]]}},{"type":"Feature","properties":{"broj":"114","ulica":"Dračevac","sruseno":"NE"},"geometry":{"type":"Polygon","coordinates":[[[16.50463,43.522209],[16.504629,43.52215],[16.504553,43.52215],[16.504552,43.522211],[16.50463,43.522209]]]}},{"type":"Feature","properties":{"broj":"116","ulica":"Dračevac","sruseno":"NE"},"geometry":{"type":"Polygon","coordinates":[[[16.505645,43.522173],[16.505624,43.52208],[16.505423,43.522096],[16.505448,43.52219],[16.505645,43.522173]]]}},{"type":"Feature","properties":{"broj":"118","ulica":"Dračevac","sruseno":"NE"},"geometry":{"type":"Polygon","coordinates":[[[16.505358,43.521644],[16.505511,43.52162],[16.505494,43.521542],[16.505339,43.521564],[16.505358,43.521644]]]}},{"type":"Feature","properties":{"broj":"3A","ulica":"Dračevac","sruseno":"NE"},"geometry":{"type":"Polygon","coordinates":[[[16.499605,43.526155],[16.499488,43.526155],[16.499488,43.526454],[16.499605,43.526454],[16.499605,43.526155]]]}},{"type":"Feature","properties":{"broj":"14P","ulica":"Dračevac","sruseno":"NE"},"geometry":{"type":"Polygon","coordinates":[[[16.501692,43.524316],[16.501696,43.524275],[16.501616,43.524271],[16.501614,43.524309],[16.501692,43.524316]]]}},{"type":"Feature","properties":{"broj":"21D","ulica":"Bilice II","sruseno":"NE"},"geometry":{"type":"Polygon","coordinates":[[[16.492324,43.529113],[16.492192,43.529108],[16.492188,43.529208],[16.492319,43.529211],[16.492324,43.529113]]]}},{"type":"Feature","properties":{"broj":"72D","ulica":"Dračevac","sruseno":"NE"},"geometry":{"type":"Polygon","coordinates":[[[16.505032,43.524671],[16.50503,43.52461],[16.504917,43.524614],[16.50492,43.524677],[16.505032,43.524671]]]}},{"type":"Feature","properties":{"broj":"9B","ulica":"Dračevac","sruseno":"NE"},"geometry":{"type":"Polygon","coordinates":[[[16.504354,43.526778],[16.504255,43.526686],[16.504149,43.526763],[16.504276,43.52684],[16.504354,43.526778]]]}},{"type":"Feature","properties":{"broj":"14D","ulica":"Dračevac","sruseno":"NE"},"geometry":{"type":"Polygon","coordinates":[[[16.501248,43.525122],[16.501122,43.525102],[16.501118,43.525114],[16.501102,43.525112],[16.501082,43.525181],[16.501098,43.525183],[16.501095,43.525192],[16.501221,43.525211],[16.501248,43.525122]]]}},{"type":"Feature","properties":{"broj":"12C","ulica":"Bilice II","sruseno":"NE"},"geometry":{"type":"Polygon","coordinates":[[[16.490552,43.525742],[16.490476,43.525664],[16.49039,43.525696],[16.490463,43.525779],[16.490552,43.525742]]]}},{"type":"Feature","properties":{"broj":"12C","ulica":"Dračevac","sruseno":"NE"},"geometry":{"type":"Polygon","coordinates":[[[16.502391,43.523302],[16.502358,43.523197],[16.502213,43.523221],[16.502257,43.523359],[16.502334,43.523346],[16.502324,43.523313],[16.502391,43.523302]]]}},{"type":"Feature","properties":{"broj":"70","ulica":"Dračevac","sruseno":"NE"},"geometry":{"type":"Polygon","coordinates":[[[16.503844,43.524322],[16.503844,43.52423],[16.503697,43.52423],[16.503697,43.524322],[16.503844,43.524322]]]}},{"type":"Feature","properties":{"broj":"11A","ulica":"Mostine","sruseno":"NE"},"geometry":{"type":"Polygon","coordinates":[[[16.492894,43.522179],[16.492678,43.521742],[16.49174,43.521986],[16.491957,43.522424],[16.492894,43.522179]]]}},{"type":"Feature","properties":{"broj":"11B","ulica":"Mostine","sruseno":"NE"},"geometry":{"type":"Polygon","coordinates":[[[16.49319,43.522106],[16.492977,43.521669],[16.492814,43.521718],[16.493024,43.522149],[16.49319,43.522106]]]}},{"type":"Feature","properties":{"broj":"11F","ulica":"Mostine","sruseno":"NE"},"geometry":{"type":"Polygon","coordinates":[[[16.491618,43.522257],[16.491498,43.522292],[16.491612,43.522524],[16.491741,43.522488],[16.491618,43.522257]]]}},{"type":"Feature","properties":{"broj":"84A","ulica":"Dračevac","sruseno":"NE"},"geometry":{"type":"Polygon","coordinates":[[[16.505044,43.524527],[16.505044,43.524404],[16.504886,43.524404],[16.504886,43.524527],[16.505044,43.524527]]]}},{"type":"Feature","properties":{"broj":"25H","ulica":"Bilice II","sruseno":"NE"},"geometry":{"type":"Polygon","coordinates":[[[16.49492,43.527009],[16.494786,43.527002],[16.494775,43.527108],[16.494911,43.527115],[16.49492,43.527041],[16.49492,43.527009]]]}},{"type":"Feature","properties":{"broj":"17","ulica":"PUT MOSTINA","sruseno":"NE"},"geometry":{"type":"Polygon","coordinates":[[[16.491954,43.523936],[16.491917,43.523812],[16.491804,43.52383],[16.491845,43.523952],[16.491954,43.523936]]]}},{"type":"Feature","properties":{"broj":"46","ulica":"PUT MOSTINA","sruseno":"NE"},"geometry":{"type":"Polygon","coordinates":[[[16.492415,43.522569],[16.492415,43.522516],[16.492311,43.522516],[16.492311,43.522569],[16.492415,43.522569]]]}},{"type":"Feature","properties":{"broj":"32","ulica":"PUT MOSTINA","sruseno":"NE"},"geometry":{"type":"Polygon","coordinates":[[[16.491176,43.523228],[16.491139,43.52316],[16.491002,43.5232],[16.491039,43.523268],[16.491176,43.523228]]]}},{"type":"Feature","properties":{"broj":"24","ulica":"PUT MOSTINA","sruseno":"NE"},"geometry":{"type":"Polygon","coordinates":[[[16.490633,43.523527],[16.490617,43.523479],[16.490513,43.523498],[16.490529,43.523545],[16.490633,43.523527]]]}},{"type":"Feature","properties":{"broj":"26","ulica":"PUT MOSTINA","sruseno":"NE"},"geometry":{"type":"Polygon","coordinates":[[[16.490482,43.523388],[16.490607,43.523358],[16.490568,43.523295],[16.490456,43.523321],[16.490482,43.523388]]]}},{"type":"Feature","properties":{"broj":"49","ulica":"PUT MOSTINA","sruseno":"NE"},"geometry":{"type":"Polygon","coordinates":[[[16.500288,43.522351],[16.500288,43.522248],[16.500036,43.522248],[16.500036,43.522351],[16.500288,43.522351]]]}},{"type":"Feature","properties":{"broj":"46A","ulica":"Bilice II","sruseno":"NE"},"geometry":{"type":"Polygon","coordinates":[[[16.496205,43.524472],[16.49609,43.524512],[16.496118,43.524548],[16.496061,43.524571],[16.49611,43.524635],[16.496174,43.524611],[16.496163,43.524596],[16.496262,43.524558],[16.496205,43.524472]]]}},{"type":"Feature","properties":{"broj":"27C","ulica":"Bilice II","sruseno":"NE"},"geometry":{"type":"Polygon","coordinates":[[[16.495219,43.527013],[16.495316,43.527012],[16.495321,43.526963],[16.495222,43.52696],[16.495219,43.527013]]]}},{"type":"Feature","properties":{"broj":"9C","ulica":"Dračevac","sruseno":"NE"},"geometry":{"type":"Polygon","coordinates":[[[16.503659,43.526925],[16.503749,43.52699],[16.503827,43.526928],[16.503748,43.526864],[16.503659,43.526925]]]}},{"type":"Feature","properties":{"broj":"14A","ulica":"Bilice II","sruseno":"NE"},"geometry":{"type":"Polygon","coordinates":[[[16.491548,43.525388],[16.491816,43.525417],[16.491828,43.525353],[16.491697,43.525343],[16.491704,43.525301],[16.491567,43.525289],[16.491548,43.525388]]]}},{"type":"Feature","properties":{"broj":"25G","ulica":"Bilice II","sruseno":"NE"},"geometry":{"type":"Polygon","coordinates":[[[16.494681,43.527266],[16.49485,43.52729],[16.494876,43.527186],[16.494707,43.52716],[16.494681,43.527266]]]}},{"type":"Feature","properties":{"broj":"13B","ulica":"Bilice II","sruseno":"NE"},"geometry":{"type":"Polygon","coordinates":[[[16.49285,43.527978],[16.492971,43.527978],[16.492968,43.527879],[16.492846,43.527878],[16.49285,43.527978]]]}},{"type":"Feature","properties":{"broj":"7C","ulica":"Dračevac","sruseno":"NE"},"geometry":{"type":"Polygon","coordinates":[[[16.503381,43.528039],[16.503459,43.528041],[16.503453,43.52801],[16.503381,43.52801],[16.503381,43.528039]]]}},{"type":"Feature","properties":{"broj":"9D","ulica":"Dračevac","sruseno":"NE"},"geometry":{"type":"Polygon","coordinates":[[[16.50382,43.527013],[16.503892,43.527069],[16.503972,43.527016],[16.503903,43.526962],[16.50382,43.527013]]]}},{"type":"Feature","properties":{"broj":"25K","ulica":"Bilice II","sruseno":"NE"},"geometry":{"type":"Polygon","coordinates":[[[16.4949,43.526688],[16.494999,43.526703],[16.495014,43.526643],[16.494916,43.526629],[16.4949,43.526688]]]}},{"type":"Feature","properties":{"broj":"2","ulica":"Bilice II","sruseno":"NE"},"geometry":{"type":"Polygon","coordinates":[[[16.491026,43.526466],[16.491078,43.526441],[16.491042,43.526402],[16.490992,43.526427],[16.491026,43.526466]]]}},{"type":"Feature","properties":{"broj":"10H","ulica":"Dračevac","sruseno":"NE"},"geometry":{"type":"Polygon","coordinates":[[[16.501533,43.525563],[16.501604,43.525597],[16.501706,43.525467],[16.501631,43.525438],[16.501533,43.525563]]]}},{"type":"Feature","properties":{"broj":"16C","ulica":"Dračevac","sruseno":"NE"},"geometry":{"type":"Polygon","coordinates":[[[16.501731,43.526377],[16.501646,43.526429],[16.501821,43.526612],[16.502135,43.52645],[16.502001,43.526333],[16.50179,43.526435],[16.501731,43.526377]]]}},{"type":"Feature","properties":{"broj":"46C","ulica":"Bilice II","sruseno":"NE"},"geometry":{"type":"Polygon","coordinates":[[[16.496717,43.52445],[16.496904,43.524382],[16.496847,43.524282],[16.496651,43.524354],[16.496717,43.52445]]]}},{"type":"Feature","properties":{"broj":"19A","ulica":"Bilice II","sruseno":"NE"},"geometry":{"type":"Polygon","coordinates":[[[16.494219,43.52887],[16.49433,43.528841],[16.494294,43.528774],[16.494185,43.528802],[16.494219,43.52887]]]}},{"type":"Feature","properties":{"broj":"6D","ulica":"Dračevac","sruseno":"NE"},"geometry":{"type":"Polygon","coordinates":[[[16.502951,43.527737],[16.50303,43.52773],[16.503022,43.527666],[16.502942,43.527673],[16.502951,43.527737]]]}},{"type":"Feature","properties":{"broj":"8G","ulica":"Dračevac","sruseno":"NE"},"geometry":{"type":"Polygon","coordinates":[[[16.502523,43.526147],[16.502698,43.52615],[16.502694,43.526037],[16.502526,43.526036],[16.502523,43.526147]]]}},{"type":"Feature","properties":{"broj":"40","ulica":"PUT MOSTINA","sruseno":"NE"},"geometry":{"type":"Polygon","coordinates":[[[16.49193,43.522988],[16.491836,43.523022],[16.491856,43.523052],[16.491842,43.523057],[16.49185,43.523069],[16.491803,43.523085],[16.491807,43.523093],[16.491824,43.523087],[16.491843,43.523118],[16.491984,43.523064],[16.49193,43.522988]]]}}]}